<?xml version="1.0" encoding="UTF-8"?>
<kml xmlns="http://www.opengis.net/kml/2.2">
  <Document id="tambon_doc">
    <name>บางพลัด, บางพลัด, Bangkok</name>
    <description>ข้อมูลขอบเขตตำบลบางพลัด อำเภอบางพลัด จังหวัดBangkok</description>
    
    <!-- Schema สำหรับข้อมูลตำบล -->
    <Schema id="tambon.schema">
      <SimpleField name="ADM3_EN" type="string">
        <displayName>Subdistrict Name (English)</displayName>
      </SimpleField>
      <SimpleField name="ADM3_TH" type="string">
        <displayName>ชื่อตำบล</displayName>
      </SimpleField>
      <SimpleField name="ADM2_EN" type="string">
        <displayName>District Name (English)</displayName>
      </SimpleField>
      <SimpleField name="ADM2_TH" type="string">
        <displayName>ชื่ออำเภอ</displayName>
      </SimpleField>
      <SimpleField name="ADM1_EN" type="string">
        <displayName>Province Name (English)</displayName>
      </SimpleField>
      <SimpleField name="ADM1_TH" type="string">
        <displayName>ชื่อจังหวัด</displayName>
      </SimpleField>
      <SimpleField name="ADM0_EN" type="string">
        <displayName>Country Name (English)</displayName>
      </SimpleField>
      <SimpleField name="ADM0_TH" type="string">
        <displayName>ชื่อประเทศ</displayName>
      </SimpleField>
    </Schema>

    <!-- Style สำหรับตำบล -->
    <Style id="tambonStyle">
      <LineStyle>
        <color>ffff0000</color>
        <width>1.5</width>
      </LineStyle>
      <PolyStyle>
        <color>33ff0000</color>
        <fill>1</fill>
        <outline>1</outline>
      </PolyStyle>
    </Style>

    <Placemark id="Bangkok.99">
        
        <ExtendedData>
            
          <SchemaData schemaUrl="#tambon.schema">
                
            <SimpleData name="Shape_Leng">
                0.0970121511124</SimpleData>
                
            <SimpleData name="Shape_Area">
                0.000279694079149</SimpleData>
                
            <SimpleData name="ADM3_EN">
                Bang Phlat</SimpleData>
                
            <SimpleData name="ADM3_TH">
                บางพลัด</SimpleData>
                
            <SimpleData name="ADM3_PCODE">
                TH102501</SimpleData>
                
            <SimpleData name="ADM2_EN">
                Bang Phlat</SimpleData>
                
            <SimpleData name="ADM2_TH">
                บางพลัด</SimpleData>
                
            <SimpleData name="ADM2_PCODE">
                TH1025</SimpleData>
                
            <SimpleData name="ADM1_EN">
                Bangkok</SimpleData>
                
            <SimpleData name="ADM1_TH">
                กรุงเทพมหานคร</SimpleData>
                
            <SimpleData name="ADM1_PCODE">
                TH10</SimpleData>
                
            <SimpleData name="ADM0_EN">
                Thailand</SimpleData>
                
            <SimpleData name="ADM0_TH">
                ประเทศไทย</SimpleData>
                
            <SimpleData name="ADM0_PCODE">
                TH</SimpleData>
            
          </SchemaData>
        
        </ExtendedData>
        
        <Polygon>
            
          <outerBoundaryIs>
                
            <LinearRing>
                    
              <coordinates>
                    
                100.495912393,13.796919517,0
                100.496019565,13.796879808,0
                100.496021677,13.796881104,0
                100.496149237,13.7967925730001,0
                100.496342437,13.7965866770001,0
                100.496364706,13.7965664600001,0
                100.496453142,13.796512681,0
                100.496495081,13.7964997490001,0
                100.496534698,13.796487531,0
                100.496673875,13.7963618250001,0
                100.496712045,13.7963323820001,0
                100.496908795,13.7961421360001,0
                100.497011185,13.7960616500001,0
                100.497051421,13.7960426720001,0
                100.497181615,13.795998846,0
                100.497276701,13.7959328420001,0
                100.497453153,13.7957592240001,0
                100.49761355,13.7955995030001,0
                100.497678866,13.795558683,0
                100.497711044,13.795542706,0
                100.497752989,13.795533698,0
                100.497753105,13.7955337,0
                100.497753906,13.795533501,0
                100.497755353,13.795533139,0
                100.497868689,13.7955048970001,0
                100.497932866,13.795483803,0
                100.498040844,13.795433616,0
                100.498132781,13.7953908870001,0
                100.498311115,13.7952321130001,0
                100.498574165,13.7950387390001,0
                100.498729155,13.7949391230001,0
                100.498761462,13.794903436,0
                100.498899188,13.794668917,0
                100.498927686,13.794629554,0
                100.49900887,13.7945462330001,0
                100.49904765,13.7945084890001,0
                100.499088155,13.7944841670001,0
                100.499099232,13.7944783890001,0
                100.499153535,13.7944507010001,0
                100.499219058,13.7944297780001,0
                100.499221002,13.7944288320001,0
                100.49922149,13.794428838,0
                100.499299225,13.7943980490001,0
                100.499351248,13.79436815,0
                100.499543777,13.794249854,0
                100.499665246,13.7941840510001,0
                100.49971463,13.794162581,0
                100.499781669,13.794115581,0
                100.499817801,13.7940865210001,0
                100.500016405,13.7939070910001,0
                100.500045022,13.793885475,0
                100.500092591,13.793870391,0
                100.50032156,13.793825366,0
                100.500372051,13.7937932620001,0
                100.500434481,13.7937352020001,0
                100.50055135,13.793627889,0
                100.500789888,13.7934909890001,0
                100.500806667,13.7934866840001,0
                100.500912191,13.793423182,0
                100.501205635,13.793285328,0
                100.501504972,13.793133901,0
                100.502336266,13.792735646,0
                100.502967939,13.7924274380001,0
                100.503076235,13.7923369910001,0
                100.503229123,13.7921941020001,0
                100.503738099,13.79176883,0
                100.503905219,13.7914933010001,0
                100.504044214,13.791391665,0
                100.504209016,13.791280516,0
                100.504231556,13.79129017,0
                100.504371562,13.791205281,0
                100.504593256,13.7910948370001,0
                100.504669936,13.7910612370001,0
                100.504731003,13.791043895,0
                100.504789597,13.7910265690001,0
                100.504848227,13.7910165100001,0
                100.504932468,13.791002259,0
                100.505013476,13.7909993380001,0
                100.505070578,13.791007876,0
                100.505119416,13.7910164680001,0
                100.50520878,13.7910280410001,0
                100.505403175,13.791043818,0
                100.505478454,13.79105063,0
                100.50553141,13.791056768,0
                100.505569452,13.791058962,0
                100.505608314,13.791058724,0
                100.505645515,13.7910584970001,0
                100.505680998,13.7910477730001,0
                100.505732153,13.7910312990001,0
                100.505924377,13.7909670980001,0
                100.506123014,13.7908705290001,0
                100.50619938,13.7908283850001,0
                100.506206009,13.7908251850001,0
                100.506299233,13.790759554,0
                100.506348011,13.79072505,0
                100.506374132,13.7907065740001,0
                100.506521851,13.7905829480001,0
                100.506667723,13.7904744480001,0
                100.506687637,13.790456394,0
                100.50670061,13.790449989,0
                100.506753358,13.7904239590001,0
                100.506826185,13.790370786,0
                100.506878478,13.790323996,0
                100.507062391,13.7901712130001,0
                100.50734586,13.78989907,0
                100.508355844,13.7889967300001,0
                100.505613076,13.786370919,0
                100.505464069,13.786203153,0
                100.505257334,13.785970392,0
                100.504776859,13.78533112,0
                100.504342418,13.784652797,0
                100.503652722,13.7835754490001,0
                100.502306266,13.7811542200001,0
                100.499690143,13.782301358,0
                100.498776874,13.7827134680001,0
                100.497258327,13.783388831,0
                100.497150293,13.7834376800001,0
                100.496181653,13.7838466650001,0
                100.495245501,13.784242809,0
                100.4947663,13.784447775,0
                100.494438911,13.784577353,0
                100.494275853,13.7846418890001,0
                100.493592871,13.7848726660001,0
                100.492893231,13.7851199190001,0
                100.492084883,13.785406062,0
                100.490053057,13.7860935960001,0
                100.489041659,13.786431894,0
                100.486778662,13.7871800230001,0
                100.485163545,13.7877197350001,0
                100.483818905,13.7881628600001,0
                100.483743315,13.788187511,0
                100.48305831,13.788416033,0
                100.482175994,13.7887162390001,0
                100.481715676,13.78886254,0
                100.480973334,13.789114467,0
                100.478853944,13.789815344,0
                100.478686438,13.789864848,0
                100.478506013,13.7899168860001,0
                100.478426042,13.7899385970001,0
                100.478234635,13.789988894,0
                100.478086403,13.7900202480001,0
                100.47796477,13.790041925,0
                100.47779356,13.79006422,0
                100.477540961,13.7900809650001,0
                100.477375981,13.7900856320001,0
                100.476960644,13.790065172,0
                100.476875754,13.790060034,0
                100.476635482,13.790023026,0
                100.475321605,13.789662536,0
                100.473109909,13.7890114100001,0
                100.472145536,13.788708721,0
                100.47176112,13.7886006320001,0
                100.470468008,13.7882151790001,0
                100.46984866,13.788018193,0
                100.469251096,13.7878279880001,0
                100.46835173,13.7875232000001,0
                100.467916928,13.787582812,0
                100.467736928,13.787604732,0
                100.467511817,13.7876130280001,0
                100.467446319,13.7876147370001,0
                100.467393325,13.7876160490001,0
                100.467296093,13.7876073620001,0
                100.467223701,13.787592698,0
                100.467090154,13.787550061,0
                100.466926764,13.7874982750001,0
                100.466378529,13.787308437,0
                100.46593869,13.7871586090001,0
                100.465979274,13.787567289,0
                100.466174804,13.7889032470001,0
                100.46617687,13.788917403,0
                100.467372975,13.7891909000001,0
                100.46815001,13.7893791810001,0
                100.468893684,13.7895447340001,0
                100.469400535,13.789654399,0
                100.469887861,13.789766087,0
                100.470336004,13.7898627330001,0
                100.471105109,13.790031949,0
                100.471701811,13.790172824,0
                100.472104041,13.790270693,0
                100.4726047,13.790405219,0
                100.472977684,13.7905147230001,0
                100.473350743,13.7906356870001,0
                100.473672464,13.790751227,0
                100.474061753,13.790889281,0
                100.474623836,13.791089866,0
                100.475057935,13.791244126,0
                100.475311073,13.7913378860001,0
                100.475691957,13.7915077540001,0
                100.476010454,13.7916498010001,0
                100.476264682,13.7917542860001,0
                100.47657032,13.791875643,0
                100.476965543,13.792023688,0
                100.47735779,13.7921660160001,0
                100.477932172,13.792368848,0
                100.478400866,13.792546529,0
                100.479102131,13.7927931840001,0
                100.479478947,13.79292844,0
                100.479825965,13.793045605,0
                100.479940844,13.793079763,0
                100.482960906,13.7940801980001,0
                100.483368875,13.794215341,0
                100.484055221,13.794466421,0
                100.484631482,13.794674591,0
                100.485291473,13.7949112700001,0
                100.486025283,13.7951743630001,0
                100.48641313,13.795313842,0
                100.4866996,13.795416319,0
                100.486940906,13.795502959,0
                100.487478586,13.795694177,0
                100.487808034,13.7958125110001,0
                100.488419546,13.796032288,0
                100.488995786,13.796236148,0
                100.489504842,13.79642109,0
                100.490024927,13.7966102550001,0
                100.490913027,13.7969314800001,0
                100.491286575,13.79706996,0
                100.491927884,13.797305657,0
                100.492249646,13.7974251090001,0
                100.492571382,13.7975402610001,0
                100.492874403,13.797651236,0
                100.493104679,13.7977325700001,0
                100.493501342,13.7978751960001,0
                100.493972901,13.7980388620001,0
                100.49427238,13.798142494,0
                100.494305255,13.7981036630001,0
                100.494333825,13.798077053,0
                100.494375423,13.7980600540001,0
                100.494498359,13.7979984400001,0
                100.495057549,13.797547412,0
                100.495439701,13.797323568,0
                100.49556821,13.797225505,0
                100.495837434,13.79695672,0
                100.495912393,13.796919517,0
              </coordinates>
                
            </LinearRing>
            
          </outerBoundaryIs>
        
        </Polygon>
        
      <styleUrl>
        #tambonStyle</styleUrl>
    </Placemark>

  </Document>
</kml>