<?xml version="1.0" encoding="UTF-8"?>
<kml xmlns="http://www.opengis.net/kml/2.2">
  <Document id="tambon_doc">
    <name>ทุ่งกระพังโหม, กำแพงแสน, Nakhon Pathom</name>
    <description>ข้อมูลขอบเขตตำบลทุ่งกระพังโหม อำเภอกำแพงแสน จังหวัดNakhon Pathom</description>
    
    <!-- Schema สำหรับข้อมูลตำบล -->
    <Schema id="tambon.schema">
      <SimpleField name="ADM3_EN" type="string">
        <displayName>Subdistrict Name (English)</displayName>
      </SimpleField>
      <SimpleField name="ADM3_TH" type="string">
        <displayName>ชื่อตำบล</displayName>
      </SimpleField>
      <SimpleField name="ADM2_EN" type="string">
        <displayName>District Name (English)</displayName>
      </SimpleField>
      <SimpleField name="ADM2_TH" type="string">
        <displayName>ชื่ออำเภอ</displayName>
      </SimpleField>
      <SimpleField name="ADM1_EN" type="string">
        <displayName>Province Name (English)</displayName>
      </SimpleField>
      <SimpleField name="ADM1_TH" type="string">
        <displayName>ชื่อจังหวัด</displayName>
      </SimpleField>
      <SimpleField name="ADM0_EN" type="string">
        <displayName>Country Name (English)</displayName>
      </SimpleField>
      <SimpleField name="ADM0_TH" type="string">
        <displayName>ชื่อประเทศ</displayName>
      </SimpleField>
    </Schema>

    <!-- Style สำหรับตำบล -->
    <Style id="tambonStyle">
      <LineStyle>
        <color>ffff0000</color>
        <width>1.5</width>
      </LineStyle>
      <PolyStyle>
        <color>33ff0000</color>
        <fill>1</fill>
        <outline>1</outline>
      </PolyStyle>
    </Style>

    <Placemark id="Nakhon_Pathom.26">
        
        <ExtendedData>
            
          <SchemaData schemaUrl="#tambon.schema">
                
            <SimpleData name="Shape_Leng">
                0.220969910508</SimpleData>
                
            <SimpleData name="Shape_Area">
                0.00091280987414</SimpleData>
                
            <SimpleData name="ADM3_EN">
                Thung Kraphang Hom</SimpleData>
                
            <SimpleData name="ADM3_TH">
                ทุ่งกระพังโหม</SimpleData>
                
            <SimpleData name="ADM3_PCODE">
                TH730201</SimpleData>
                
            <SimpleData name="ADM2_EN">
                Kamphaeng Saen</SimpleData>
                
            <SimpleData name="ADM2_TH">
                กำแพงแสน</SimpleData>
                
            <SimpleData name="ADM2_PCODE">
                TH7302</SimpleData>
                
            <SimpleData name="ADM1_EN">
                Nakhon Pathom</SimpleData>
                
            <SimpleData name="ADM1_TH">
                นครปฐม</SimpleData>
                
            <SimpleData name="ADM1_PCODE">
                TH73</SimpleData>
                
            <SimpleData name="ADM0_EN">
                Thailand</SimpleData>
                
            <SimpleData name="ADM0_TH">
                ประเทศไทย</SimpleData>
                
            <SimpleData name="ADM0_PCODE">
                TH</SimpleData>
            
          </SchemaData>
        
        </ExtendedData>
        
        <Polygon>
            
          <outerBoundaryIs>
                
            <LinearRing>
                    
              <coordinates>
                    
                100.002432604,13.996144214,0
                100.002594387,13.9960313440001,0
                100.00266059,13.995996029,0
                100.002897542,13.9958979510001,0
                100.002942663,13.995875303,0
                100.002983925,13.9958508990001,0
                100.003003532,13.9958376540001,0
                100.003035303,13.995808772,0
                100.003041701,13.9957940190001,0
                100.003043329,13.9957774320001,0
                100.003041006,13.9957511960001,0
                100.002725333,13.994869124,0
                100.002716704,13.994849373,0
                100.002697932,13.9948221390001,0
                100.002688557,13.9948120930001,0
                100.002682983,13.9948066960001,0
                100.002671858,13.994800368,0
                100.002635961,13.994789048,0
                100.002415255,13.9947711410001,0
                100.002322928,13.9947481890001,0
                100.002237435,13.994718553,0
                100.002028838,13.994636132,0
                100.001882599,13.9945786120001,0
                100.00158442,13.9944613280001,0
                100.000719577,13.9941242580001,0
                100.000719004,13.9939918540001,0
                100.001451908,13.991383726,0
                100.001437661,13.991247576,0
                100.001363662,13.991088801,0
                100.000435384,13.98927909,0
                99.9996791680001,13.987699332,0
                99.999227051,13.986746699,0
                99.9987661050001,13.985995829,0
                99.9985792480001,13.9857471450001,0
                99.9983830030001,13.985572959,0
                99.9977548570001,13.9853528260001,0
                99.9976349250001,13.985273416,0
                99.9975996490001,13.985250061,0
                99.997564104,13.9851927610001,0
                99.9975421880001,13.985146892,0
                99.997735672,13.982791671,0
                99.9976621610001,13.982744247,0
                99.9951715010001,13.98267509,0
                99.9951172120001,13.9826711590001,0
                99.995085761,13.982652139,0
                99.9950905430001,13.9825652010001,0
                99.995131025,13.981829394,0
                99.9951451620001,13.9815367190001,0
                99.9951702330001,13.981017583,0
                99.995228174,13.9799757870001,0
                99.9952561440001,13.9794646170001,0
                99.9952935520001,13.978823929,0
                99.9953965130001,13.977206085,0
                99.9954185890001,13.9770378750001,0
                99.9954832330001,13.976740109,0
                99.9955588870001,13.976546607,0
                99.9956308280001,13.976425568,0
                99.9957046520001,13.976319443,0
                99.9958045700001,13.976181083,0
                99.9959049510001,13.9760493810001,0
                99.996316725,13.975498252,0
                99.9964950880001,13.975256227,0
                99.9970238330001,13.9745387410001,0
                99.9970902690001,13.9744509020001,0
                99.9971925030001,13.974315545,0
                99.9980558450001,13.973140588,0
                99.998566307,13.9724460460001,0
                99.998648039,13.9723353000001,0
                99.9988907410001,13.9720087790001,0
                99.998974483,13.97189902,0
                99.9992382220001,13.9715532390001,0
                99.999333526,13.97142875,0
                99.9996183790001,13.9710551480001,0
                99.999681674,13.970975933,0
                99.9997488270001,13.9708917950001,0
                100.00009105,13.9704416010001,0
                100.000339654,13.970121939,0
                100.00127693,13.968912065,0
                100.001813458,13.968218075,0
                100.001949774,13.968040934,0
                100.00208643,13.9678675280001,0
                100.00230242,13.9675867080001,0
                100.002388089,13.9674752880001,0
                100.002457984,13.9673859070001,0
                100.002605595,13.967186053,0
                100.002710344,13.967029901,0
                100.002772816,13.96692784,0
                100.002897209,13.9666549,0
                100.002925885,13.9665729230001,0
                100.002952321,13.966442473,0
                100.00297018,13.966329525,0
                100.003045451,13.965838164,0
                100.003115553,13.965325659,0
                100.003154071,13.9650439920001,0
                100.003193707,13.964754176,0
                100.003211165,13.9646254620001,0
                100.003226169,13.9645092660001,0
                100.003278418,13.9641288080001,0
                100.003304781,13.9639645610001,0
                100.003352297,13.963704368,0
                100.003385284,13.9635232640001,0
                100.00343982,13.9632219170001,0
                100.003471335,13.9630150450001,0
                100.003530705,13.9625955170001,0
                100.003569407,13.962323274,0
                100.003628208,13.9618566710001,0
                100.003662228,13.9616115900001,0
                100.003725592,13.961181261,0
                100.003780432,13.960786725,0
                100.003793134,13.960697371,0
                100.003866973,13.9601780720001,0
                100.003925713,13.9597727570001,0
                100.004005156,13.9592257690001,0
                100.004059281,13.9588413010001,0
                100.004074402,13.958739915,0
                100.004105038,13.9585836570001,0
                100.004132231,13.9583848340001,0
                100.004180632,13.9580524530001,0
                100.00422294,13.95778482,0
                100.00427194,13.957434807,0
                100.004315187,13.9571250610001,0
                100.004362306,13.9567898240001,0
                100.004403102,13.956499588,0
                100.004432736,13.956277974,0
                100.004462629,13.956069853,0
                100.00455083,13.955455719,0
                100.004594777,13.95514977,0
                100.004686957,13.9545090560001,0
                100.004704028,13.954400234,0
                100.004719338,13.954278486,0
                100.004733323,13.9541378750001,0
                100.004741042,13.953980325,0
                100.004744396,13.953795998,0
                100.004739906,13.9536739860001,0
                100.004731937,13.9534851820001,0
                100.004723924,13.9533596470001,0
                100.0047043,13.9531781690001,0
                100.004685674,13.9530328340001,0
                100.004674993,13.9529484600001,0
                100.004619566,13.952525942,0
                100.004536913,13.9519058490001,0
                100.004490438,13.9515402370001,0
                100.00438916,13.950801529,0
                100.004285634,13.9500554580001,0
                100.004261216,13.949878327,0
                100.004215444,13.9495418820001,0
                100.004169274,13.9492026190001,0
                100.004124871,13.9488762930001,0
                100.004079273,13.948525648,0
                100.004040371,13.948223651,0
                100.004016907,13.94800266,0
                100.003995878,13.94779879,0
                100.003928617,13.94729432,0
                100.00391464,13.9471907970001,0
                100.00389783,13.9470654350001,0
                100.003891461,13.947015832,0
                100.003839379,13.946610553,0
                100.003801503,13.946363655,0
                100.003704985,13.945709924,0
                100.003542135,13.944493967,0
                100.003493538,13.9441020580001,0
                100.003487,13.943724382,0
                100.003322298,13.9437312860001,0
                100.003146184,13.9437305390001,0
                100.00300278,13.9437289410001,0
                100.002736693,13.9437381870001,0
                100.002378362,13.943754025,0
                100.002036854,13.94376973,0
                100.001918853,13.943775101,0
                100.001701623,13.94378133,0
                100.001282602,13.943801496,0
                100.000992245,13.943810908,0
                100.000917954,13.9438152860001,0
                100.000735611,13.9438221840001,0
                100.000538671,13.943827067,0
                100.000155209,13.94383894,0
                100.000027399,13.9438476120001,0
                99.9998597890001,13.9438503800001,0
                99.9996124800001,13.943861606,0
                99.999409271,13.9438717090001,0
                99.999388341,13.9438727470001,0
                99.9990886690001,13.943884204,0
                99.9989608750001,13.9438888770001,0
                99.9988372050001,13.943889384,0
                99.9986884610001,13.943898136,0
                99.9985505160001,13.9439059750001,0
                99.9984433290001,13.9439120650001,0
                99.9983046730001,13.9439126340001,0
                99.998166671,13.9439146500001,0
                99.997946734,13.9439319200001,0
                99.9976157410001,13.9439613050001,0
                99.9974472710001,13.943982766,0
                99.9973171180001,13.9440041930001,0
                99.997182788,13.9440213680001,0
                99.9970677360001,13.944044795,0
                99.9969568860001,13.944074465,0
                99.99683323,13.9441040790001,0
                99.9967522650001,13.944127297,0
                99.9966414930001,13.9441591130001,0
                99.996528541,13.9441928370001,0
                99.9964326790001,13.9442245180001,0
                99.9963218990001,13.9442708180001,0
                99.9961237940001,13.9443591350001,0
                99.9960386430001,13.944405321,0
                99.9959258320001,13.944453703,0
                99.9957065450001,13.944562987,0
                99.9955830360001,13.944621818,0
                99.9953765530001,13.9447352030001,0
                99.995255183,13.9447962040001,0
                99.995018912,13.9449158580001,0
                99.9948741160001,13.9449956670001,0
                99.9946803170001,13.9450902890001,0
                99.9945937620001,13.945141994,0
                99.9945479460001,13.945259816,0
                99.9952637740001,13.948326525,0
                99.995449916,13.9500227930001,0
                99.9953740060001,13.9501978000001,0
                99.991900672,13.9506237630001,0
                99.9917605100001,13.950711681,0
                99.991594955,13.9508371380001,0
                99.9913523160001,13.9508630830001,0
                99.990292002,13.950892359,0
                99.9898196570001,13.9509816300001,0
                99.9886059230001,13.9509865650001,0
                99.9876476100001,13.9509654990001,0
                99.9869329940001,13.9511680470001,0
                99.9864162680001,13.951308843,0
                99.98537536,13.951423924,0
                99.985311745,13.951486577,0
                99.985280613,13.951719355,0
                99.9852671630001,13.9517319010001,0
                99.9852454040001,13.951839503,0
                99.9851710250001,13.9523215180001,0
                99.9850795850001,13.9528688460001,0
                99.9850109560001,13.9532532810001,0
                99.9849448320001,13.9536376770001,0
                99.9848763270001,13.9540780720001,0
                99.9848674710001,13.954145367,0
                99.9848530180001,13.9542551320001,0
                99.9848382160001,13.954308569,0
                99.9847490510001,13.9543713200001,0
                99.9837144800001,13.954450373,0
                99.983612587,13.954525658,0
                99.9834926870001,13.9566045230001,0
                99.9834976560001,13.956655585,0
                99.9834800130001,13.9568959650001,0
                99.98346266,13.9572092120001,0
                99.9834339640001,13.957783991,0
                99.9834349920001,13.9580263450001,0
                99.9833858000001,13.958776299,0
                99.983346198,13.959362583,0
                99.9833344900001,13.9595850490001,0
                99.983330003,13.959670353,0
                99.9833238200001,13.959709096,0
                99.983241466,13.9614412290001,0
                99.983215037,13.9619971070001,0
                99.9831944460001,13.962267124,0
                99.9831891760001,13.962290728,0
                99.9831893510001,13.96233204,0
                99.983196745,13.962363892,0
                99.9832135550001,13.9623920810001,0
                99.9832424830001,13.9624257,0
                99.983263164,13.962437763,0
                99.9832696380001,13.962439612,0
                99.983311959,13.962451715,0
                99.9833696970001,13.9624514810001,0
                99.9834671630001,13.9624245850001,0
                99.9835256360001,13.9623957430001,0
                99.9835809310001,13.9623502330001,0
                99.983631641,13.9622877900001,0
                99.9836769680001,13.9622493100001,0
                99.983700658,13.9622329810001,0
                99.9837812640001,13.962195185,0
                99.984157397,13.962077521,0
                99.9844780400001,13.961910575,0
                99.9845849910001,13.961879702,0
                99.984589558,13.9618799990001,0
                99.9847028390001,13.961837578,0
                99.9856536200001,13.961153498,0
                99.9858595430001,13.9609236590001,0
                99.986058029,13.9605658720001,0
                99.9863047000001,13.960187682,0
                99.9864970610001,13.960011782,0
                99.986613988,13.9599372180001,0
                99.9867793610001,13.9599028690001,0
                99.9872691620001,13.959934558,0
                99.9887804290001,13.9601439510001,0
                99.989022096,13.9602103230001,0
                99.989036233,13.9602910950001,0
                99.9889204570001,13.9606350720001,0
                99.9884790980001,13.9622601200001,0
                99.988418493,13.962603873,0
                99.988458225,13.9654528200001,0
                99.9874287220001,13.9654570050001,0
                99.986078852,13.9654624840001,0
                99.986347804,13.9670779050001,0
                99.9882721530001,13.967103766,0
                99.9881590140001,13.968067401,0
                99.9881778050001,13.9683199200001,0
                99.9881739,13.9683232840001,0
                99.988188784,13.9685791750001,0
                99.9881824320001,13.968707173,0
                99.9881001310001,13.9688152750001,0
                99.9880867620001,13.9689163640001,0
                99.9881719130001,13.9694750620001,0
                99.9881724300001,13.9695962980001,0
                99.9881382620001,13.9696705260001,0
                99.987932072,13.9698397500001,0
                99.987601972,13.970063365,0
                99.987422994,13.970144917,0
                99.987236808,13.970152408,0
                99.987133413,13.9701663000001,0
                99.9871128950001,13.9702067960001,0
                99.9873431500001,13.9724487710001,0
                99.9873573730001,13.97254975,0
                99.987398984,13.972603463,0
                99.987895967,13.9726957390001,0
                99.9887452140001,13.9729078180001,0
                99.990430345,13.973433055,0
                99.9904927050001,13.9735001600001,0
                99.990369006,13.975218206,0
                99.990341851,13.975319348,0
                99.99030865,13.975331974,0
                99.9884446880001,13.9753214740001,0
                99.9883982460001,13.975367207,0
                99.9883984940001,13.9754251750001,0
                99.988877189,13.976317613,0
                99.9889409080001,13.976346333,0
                99.98915715,13.976345452,0
                99.9897847060001,13.9763511780001,0
                99.990475207,13.9764068810001,0
                99.9910062650001,13.9764497150001,0
                99.9910317740001,13.9764661730001,0
                99.9912834520001,13.978800478,0
                99.9912626060001,13.978883372,0
                99.9912033520001,13.978908458,0
                99.9899978270001,13.9789319760001,0
                99.988434,13.978939202,0
                99.988786657,13.9795370000001,0
                99.9888359750001,13.979625029,0
                99.988584894,13.979695743,0
                99.988724833,13.9799470900001,0
                99.9888827730001,13.9802261460001,0
                99.989106662,13.9806052340001,0
                99.989314435,13.980921273,0
                99.9894591620001,13.9811414110001,0
                99.9896085770001,13.9813730970001,0
                99.989760344,13.981647074,0
                99.989893636,13.981939562,0
                99.9899747480001,13.9821991370001,0
                99.9900221360001,13.9824256420001,0
                99.9900627550001,13.982645018,0
                99.9900122170001,13.982660534,0
                99.9899360110001,13.982672941,0
                99.9897579020001,13.982701935,0
                99.9893759280001,13.982764113,0
                99.9873569380001,13.983028378,0
                99.9861898520001,13.983402588,0
                99.9856859160001,13.9835277880001,0
                99.985494025,13.983535573,0
                99.98544251,13.983531995,0
                99.984094219,13.983558203,0
                99.983892488,13.9835644410001,0
                99.983625304,13.9835784160001,0
                99.9832171130001,13.983602929,0
                99.983184441,13.9835963350001,0
                99.9831715320001,13.9835903480001,0
                99.9831462670001,13.9835740450001,0
                99.983124343,13.983550786,0
                99.9830360120001,13.9833963840001,0
                99.9829827060001,13.983303198,0
                99.9828058560001,13.9829749400001,0
                99.9827841430001,13.982928744,0
                99.9826967870001,13.982718021,0
                99.9826294950001,13.9824660730001,0
                99.9826214400001,13.982408412,0
                99.9826236550001,13.9822787890001,0
                99.9826403230001,13.982179209,0
                99.982671479,13.982026176,0
                99.9826835410001,13.981953665,0
                99.9826889450001,13.9818898730001,0
                99.982680783,13.9815818320001,0
                99.9826457030001,13.9812250730001,0
                99.9826076190001,13.981039497,0
                99.982553125,13.980897617,0
                99.9825224150001,13.980827472,0
                99.982314419,13.9804944040001,0
                99.9820962840001,13.9800619100001,0
                99.982000306,13.9798264450001,0
                99.9819618670001,13.9797062260001,0
                99.981941093,13.9796214360001,0
                99.9819338460001,13.979585075,0
                99.9818953100001,13.9793916940001,0
                99.9818641900001,13.979235531,0
                99.9817643440001,13.979222011,0
                99.9815659610001,13.9792443490001,0
                99.981312727,13.979331513,0
                99.9810488240001,13.979504865,0
                99.9809639790001,13.979555969,0
                99.9808363930001,13.9796815940001,0
                99.9807966340001,13.979839686,0
                99.9808770070001,13.980593104,0
                99.9808557320001,13.9807762450001,0
                99.9807017300001,13.980863007,0
                99.9800188720001,13.981048819,0
                99.9779259530001,13.981552573,0
                99.976923099,13.981685822,0
                99.9768460960001,13.9817292060001,0
                99.9771070200001,13.983461769,0
                99.9771752930001,13.9838274000001,0
                99.977400345,13.9850326860001,0
                99.9774009820001,13.9851834310001,0
                99.9765324730001,13.9858006910001,0
                99.975686878,13.986622444,0
                99.9749766030001,13.9873879350001,0
                99.974918357,13.987487061,0
                99.9749573110001,13.987569439,0
                99.975183126,13.987842765,0
                99.9755021550001,13.988125989,0
                99.97570962,13.988332063,0
                99.9758477810001,13.9884349610001,0
                99.9759432640001,13.9884656140001,0
                99.976393278,13.988406906,0
                99.9766051450001,13.9884008830001,0
                99.976690031,13.9884315740001,0
                99.9767326720001,13.988493476,0
                99.9767542740001,13.988591672,0
                99.9766232410001,13.988923256,0
                99.9765550990001,13.989094236,0
                99.9765872310001,13.989176871,0
                99.9766616320001,13.989233471,0
                99.9767677030001,13.9892640800001,0
                99.9769264910001,13.9892324050001,0
                99.9772486360001,13.988998333,0
                99.9773385120001,13.98895659,0
                99.9774603500001,13.9889560990001,0
                99.9776141200001,13.98899169,0
                99.9777046300001,13.98909995,0
                99.9777527860001,13.9892135580001,0
                99.977759065,13.989446312,0
                99.977729029,13.9898602540001,0
                99.9777203180001,13.9903051470001,0
                99.977758877,13.9910257230001,0
                99.977801071,13.9912386770001,0
                99.9778513410001,13.9916179190001,0
                99.9779376390001,13.992148937,0
                99.978005769,13.9925677090001,0
                99.978024416,13.9927922750001,0
                99.9779986760001,13.9929824590001,0
                99.9779558220001,13.9933109580001,0
                99.9778914350001,13.993777784,0
                99.9778447090001,13.994235894,0
                99.9778190580001,13.9944476800001,0
                99.9777845780001,13.9946638220001,0
                99.9777592190001,13.9949447280001,0
                99.9777606060001,13.995273045,0
                99.9777347020001,13.995424353,0
                99.9776559270001,13.995627714,0
                99.9775600940001,13.995982343,0
                99.9774642620001,13.9963369710001,0
                99.977390277,13.996626715,0
                99.977277713,13.9972103750001,0
                99.977200629,13.9976067530001,0
                99.977191114,13.997655686,0
                99.9771340190001,13.997755279,0
                99.977102894,13.9977917160001,0
                99.9770842120001,13.9978135850001,0
                99.9771220520001,13.997835115,0
                99.9772007700001,13.997879901,0
                99.9779627360001,13.998391538,0
                99.978072464,13.998473431,0
                99.9784838960001,13.998828771,0
                99.9786982990001,13.998999902,0
                99.9788198890001,13.999080511,0
                99.9791074760001,13.999283463,0
                99.979123202,13.9992945590001,0
                99.979449565,13.999507228,0
                99.979604689,13.9995906770001,0
                99.980192055,13.9998594520001,0
                99.980712334,14.0000784060001,0
                99.980986208,14.0002255270001,0
                99.9810958580001,14.0003126390001,0
                99.981219035,14.0004230810001,0
                99.9815285760001,14.0006811760001,0
                99.9819214170001,14.0009159090001,0
                99.9821654130001,14.001050122,0
                99.9824380210001,14.00114567,0
                99.982634497,14.001232691,0
                99.98287772,14.001365632,0
                99.9829561590001,14.001419358,0
                99.9830021170001,14.001458971,0
                99.983041982,14.0015070960001,0
                99.9832479510001,14.0017557520001,0
                99.9835274800001,14.0020457680001,0
                99.983666375,14.0021625580001,0
                99.983952672,14.002396978,0
                99.983994952,14.002427062,0
                99.9840977870001,14.0024899750001,0
                99.984158613,14.002521475,0
                99.984466668,14.002672896,0
                99.9845539400001,14.002691768,0
                99.9847753820001,14.0027115450001,0
                99.9849792800001,14.0027107170001,0
                99.9850642980001,14.0026985060001,0
                99.9851342470001,14.0026744260001,0
                99.9852118970001,14.0026263290001,0
                99.985377612,14.002497493,0
                99.9855910690001,14.0022559970001,0
                99.9857135340001,14.002085681,0
                99.985893321,14.0018576360001,0
                99.986073268,14.001646683,0
                99.986272382,14.00138251,0
                99.9865186260001,14.000997076,0
                99.98682382,14.0004704830001,0
                99.9870088870001,14.0001476370001,0
                99.9870902370001,14.000036274,0
                99.9871360230001,13.999979191,0
                99.9876076960001,13.9995479310001,0
                99.9881244860001,13.9990767630001,0
                99.988600789,13.998494452,0
                99.988652851,13.9984113260001,0
                99.9886838520001,13.9983276180001,0
                99.988716878,13.998224599,0
                99.988867273,13.9975352170001,0
                99.9889594780001,13.996752826,0
                99.988984384,13.9966737030001,0
                99.9890426890001,13.9965747000001,0
                99.989089128,13.996518113,0
                99.9891659520001,13.996454198,0
                99.9892355870001,13.996409794,0
                99.9893218080001,13.996365112,0
                99.989392937,13.996333007,0
                99.9896248000001,13.9962283570001,0
                99.989675445,13.9962142700001,0
                99.989767591,13.996192797,0
                99.9904109400001,13.9961055590001,0
                99.990531536,13.9961014130001,0
                99.9906066440001,13.9961048980001,0
                99.9910392890001,13.9961734980001,0
                99.9912604950001,13.996238853,0
                99.991460041,13.996308786,0
                99.9915798590001,13.996356497,0
                99.9916565440001,13.996397685,0
                99.9917189010001,13.9964472230001,0
                99.9917269330001,13.996456945,0
                99.9917501020001,13.9964915080001,0
                99.9917946480001,13.9965837010001,0
                99.9917955870001,13.996586915,0
                99.9918265110001,13.99673467,0
                99.991832527,13.996927321,0
                99.9918146260001,13.9970658500001,0
                99.991791348,13.997155902,0
                99.9917845200001,13.9971743680001,0
                99.9916927150001,13.997477792,0
                99.991669485,13.9975963700001,0
                99.991586629,13.997866512,0
                99.9914294330001,13.9982525830001,0
                99.991350454,13.9984003340001,0
                99.9912962010001,13.9984899950001,0
                99.9910169560001,13.998875141,0
                99.9907720480001,13.9992438530001,0
                99.9907392150001,13.99929882,0
                99.9907228910001,13.99935141,0
                99.990695868,13.999612585,0
                99.9907078100001,13.99979254,0
                99.990724448,13.99987788,0
                99.9907364800001,13.9999212000001,0
                99.9908398700001,14.000132051,0
                99.9908788660001,14.000187661,0
                99.9910539520001,14.0003180370001,0
                99.9912541250001,14.0004920750001,0
                99.9917150420001,14.0009856990001,0
                99.9921872730001,14.001466609,0
                99.9924147580001,14.0016636840001,0
                99.9925753970001,14.00184232,0
                99.992773706,14.0021132750001,0
                99.99325444,14.002811031,0
                99.9932650520001,14.0028230670001,0
                99.9933488340001,14.002908781,0
                99.993496786,14.0030140710001,0
                99.9935531410001,14.0030508990001,0
                99.9936488490001,14.003100239,0
                99.9937503780001,14.0031432690001,0
                99.9938904210001,14.003191202,0
                99.9941066640001,14.00322649,0
                99.9944242030001,14.0032542440001,0
                99.994862046,14.003276193,0
                99.9962969870001,14.0033019630001,0
                99.99652482,14.0032929340001,0
                99.996651511,14.003278075,0
                99.996722472,14.0032610760001,0
                99.9968124330001,14.003230289,0
                99.9969383420001,14.0031686240001,0
                99.9970168080001,14.0031222150001,0
                99.9971586300001,14.0030069040001,0
                99.997364931,14.0028147360001,0
                99.9975948960001,14.0025392790001,0
                99.9977264090001,14.0023963100001,0
                99.9981153950001,14.0020201040001,0
                99.998370294,14.0017807780001,0
                99.9984174400001,14.0017206790001,0
                99.998430113,14.001700655,0
                99.9984794360001,14.001592986,0
                99.9985087040001,14.001502859,0
                99.998536415,14.0013879800001,0
                99.9985422010001,14.001186465,0
                99.9985163280001,14.0010052860001,0
                99.998425146,14.0005386500001,0
                99.998399324,14.0001904800001,0
                99.9984143390001,13.999913382,0
                99.9984657700001,13.99969729,0
                99.9984900000001,13.9996395370001,0
                99.998533169,13.999569794,0
                99.9988655120001,13.999270374,0
                99.999126044,13.9990280750001,0
                99.999247429,13.9989474290001,0
                99.9995847320001,13.9987529110001,0
                100.000223882,13.9984653230001,0
                100.00071746,13.998257488,0
                100.001086508,13.9980552870001,0
                100.001212199,13.9979693240001,0
                100.00121627,13.997965736,0
                100.001298555,13.997872489,0
                100.001516909,13.9975497180001,0
                100.001821393,13.997103302,0
                100.001832569,13.997086914,0
                100.001941797,13.996970054,0
                100.002178073,13.9967316990001,0
                100.002424066,13.9964963780001,0
                100.002421597,13.996179102,0
                100.002425426,13.9961567280001,0
                100.002432604,13.996144214,0
              </coordinates>
                
            </LinearRing>
            
          </outerBoundaryIs>
        
        </Polygon>
        
      <styleUrl>
        #tambonStyle</styleUrl>
    </Placemark>

  </Document>
</kml>