<?xml version="1.0" encoding="UTF-8"?>
<kml xmlns="http://www.opengis.net/kml/2.2">
  <Document id="tambon_doc">
    <name>สี่ขีด, สิชล, Nakhon Si Thammarat</name>
    <description>ข้อมูลขอบเขตตำบลสี่ขีด อำเภอสิชล จังหวัดNakhon Si Thammarat</description>
    
    <!-- Schema สำหรับข้อมูลตำบล -->
    <Schema id="tambon.schema">
      <SimpleField name="ADM3_EN" type="string">
        <displayName>Subdistrict Name (English)</displayName>
      </SimpleField>
      <SimpleField name="ADM3_TH" type="string">
        <displayName>ชื่อตำบล</displayName>
      </SimpleField>
      <SimpleField name="ADM2_EN" type="string">
        <displayName>District Name (English)</displayName>
      </SimpleField>
      <SimpleField name="ADM2_TH" type="string">
        <displayName>ชื่ออำเภอ</displayName>
      </SimpleField>
      <SimpleField name="ADM1_EN" type="string">
        <displayName>Province Name (English)</displayName>
      </SimpleField>
      <SimpleField name="ADM1_TH" type="string">
        <displayName>ชื่อจังหวัด</displayName>
      </SimpleField>
      <SimpleField name="ADM0_EN" type="string">
        <displayName>Country Name (English)</displayName>
      </SimpleField>
      <SimpleField name="ADM0_TH" type="string">
        <displayName>ชื่อประเทศ</displayName>
      </SimpleField>
    </Schema>

    <!-- Style สำหรับตำบล -->
    <Style id="tambonStyle">
      <LineStyle>
        <color>ffff0000</color>
        <width>1.5</width>
      </LineStyle>
      <PolyStyle>
        <color>33ff0000</color>
        <fill>1</fill>
        <outline>1</outline>
      </PolyStyle>
    </Style>

    <Placemark id="Nakhon_Si_Thammarat.125">
        
        <ExtendedData>
            
          <SchemaData schemaUrl="#tambon.schema">
                
            <SimpleData name="Shape_Leng">
                0.559943890794</SimpleData>
                
            <SimpleData name="Shape_Area">
                0.0107799927002</SimpleData>
                
            <SimpleData name="ADM3_EN">
                Si Khit</SimpleData>
                
            <SimpleData name="ADM3_TH">
                สี่ขีด</SimpleData>
                
            <SimpleData name="ADM3_PCODE">
                TH801406</SimpleData>
                
            <SimpleData name="ADM2_EN">
                Sichon</SimpleData>
                
            <SimpleData name="ADM2_TH">
                สิชล</SimpleData>
                
            <SimpleData name="ADM2_PCODE">
                TH8014</SimpleData>
                
            <SimpleData name="ADM1_EN">
                Nakhon Si Thammarat</SimpleData>
                
            <SimpleData name="ADM1_TH">
                นครศรีธรรมราช</SimpleData>
                
            <SimpleData name="ADM1_PCODE">
                TH80</SimpleData>
                
            <SimpleData name="ADM0_EN">
                Thailand</SimpleData>
                
            <SimpleData name="ADM0_TH">
                ประเทศไทย</SimpleData>
                
            <SimpleData name="ADM0_PCODE">
                TH</SimpleData>
            
          </SchemaData>
        
        </ExtendedData>
        
        <Polygon>
            
          <outerBoundaryIs>
                
            <LinearRing>
                    
              <coordinates>
                    
                99.7803539020001,9.09551943600007,0
                99.7804496680001,9.09535008600005,0
                99.7804619250001,9.09531013800006,0
                99.7804618790001,9.09528895700004,0
                99.7804597590001,9.09525449000006,0
                99.780438195,9.09520715900004,0
                99.780421215,9.09519036100005,0
                99.7803585570001,9.09512105500005,0
                99.780325313,9.09505534400006,0
                99.7803252480001,9.09502519100005,0
                99.780326399,9.09501548300005,0
                99.7803486080001,9.09498288000003,0
                99.78039541,9.09494988700004,0
                99.7804450260001,9.09493470500007,0
                99.7805084060001,9.09491538700007,0
                99.7805800660001,9.09489055400007,0
                99.780590255,9.09488554200004,0
                99.7806778620001,9.09484238600004,0
                99.7807266920001,9.09480886100005,0
                99.780754959,9.09478876800006,0
                99.7807687260001,9.09477777000006,0
                99.7807814340001,9.09476171100005,0
                99.7807893280001,9.09473760000003,0
                99.7807893230001,9.09473524200007,0
                99.7807890030001,9.09470337700003,0
                99.78083215,9.09456086300003,0
                99.7808440370001,9.09451915700004,0
                99.7808715030001,9.09447740100006,0
                99.780894888,9.09445543000004,0
                99.7809114200001,9.09444442400007,0
                99.781006516,9.09442161100003,0
                99.7810543160001,9.09442150900003,0
                99.7810940730001,9.09442142300003,0
                99.7811469360001,9.09440827300006,0
                99.781158872,9.09440070400007,0
                99.7811994400001,9.09436454700005,0
                99.7812159410001,9.09434441000008,0
                99.7812268930001,9.09430966700006,0
                99.7812322870001,9.09423542000008,0
                99.7812523850001,9.09419265700006,0
                99.7812762180001,9.09415971400006,0
                99.7813074190001,9.09413588700005,0
                99.781310848,9.09413170300007,0
                99.78134221,9.09407094900007,0
                99.781369054,9.09401241300003,0
                99.781403272,9.09396604200003,0
                99.7814913730001,9.09389763200005,0
                99.7815427240001,9.09383905100003,0
                99.781603895,9.09376489800007,0
                99.781613195,9.09374593400003,0
                99.7816330080001,9.09364636800007,0
                99.7816378080001,9.09359763100002,0
                99.7816352390001,9.09354403400005,0
                99.781643026,9.09346327200006,0
                99.7816685760001,9.09337401200003,0
                99.781681382,9.09334657700003,0
                99.7817204080001,9.09325390500004,0
                99.7817765140001,9.09312708500005,0
                99.781815511,9.09302223300006,0
                99.781861899,9.09293685000006,0
                99.7818936520001,9.09288075000006,0
                99.7819376560001,9.09282704500004,0
                99.7819816350001,9.09276116800004,0
                99.7820182300001,9.09268067900007,0
                99.7820278980001,9.09261487600003,0
                99.7820228030001,9.09252717400005,0
                99.781986927,9.09237513100004,0
                99.781999377,9.09227748300003,0
                99.7820430500001,9.09219334000005,0
                99.78213958,9.09211474800003,0
                99.7822407230001,9.09203330900004,0
                99.7823124970001,9.09197143500006,0
                99.7824201340001,9.09186400000004,0
                99.7825276250001,9.09169808400003,0
                99.782599336,9.09160696700008,0
                99.782850382,9.09131729600006,0
                99.783014639,9.09105698400003,0
                99.7830294710001,9.09100016800005,0
                99.7830294020001,9.09096842500003,0
                99.782980029,9.09081222600003,0
                99.7829908150001,9.09075845800004,0
                99.7830678720001,9.09062161500003,0
                99.783126479,9.09052077300004,0
                99.7832178140001,9.09043611500005,0
                99.7834336130001,9.09027973700006,0
                99.783555461,9.09022588000005,0
                99.7837464090001,9.09018144000004,0
                99.783907615,9.09011319200005,0
                99.7840269180001,9.09001364300008,0
                99.7840669620001,9.08995324200004,0
                99.784131685,9.08983314300002,0
                99.784170954,9.08968222200002,0
                99.7842194180001,9.08959255800005,0
                99.7842584670001,9.08951125200002,0
                99.7842744330001,9.08933904100007,0
                99.7843185520001,9.08908995700006,0
                99.784358711,9.08901723400004,0
                99.784509895,9.08887542600007,0
                99.7845855460001,9.08884838600005,0
                99.7847081020001,9.08886054900006,0
                99.7847445800001,9.08886852500007,0
                99.7847770960001,9.08888891000004,0
                99.7847835420001,9.08889876500007,0
                99.7848391150001,9.08898371500004,0
                99.784904919,9.08907053800004,0
                99.7849368990001,9.08909046400004,0
                99.7850028920001,9.08910067500005,0
                99.785081043,9.08909112700007,0
                99.7851236690001,9.08907407600003,0
                99.7851718810001,9.08901525600004,0
                99.785171818,9.08898649800005,0
                99.785171629,9.08889958000003,0
                99.7851712280001,9.08871534800005,0
                99.7851839800001,9.08862963100006,0
                99.7852097250001,9.08857816200003,0
                99.785326201,9.08853929700007,0
                99.7853612580001,9.08852760000002,0
                99.7859681210001,9.08869472400005,0
                99.7869065550001,9.08893173600006,0
                99.7894342720001,9.09009753900006,0
                99.7943696610001,9.09250105000007,0
                99.79558016,9.09290653200003,0
                99.796637322,9.09326063100002,0
                99.7978103790001,9.09365355700004,0
                99.7980226600001,9.09372466900004,0
                99.7999942490001,9.09387887000003,0
                99.8003457950001,9.09379742600004,0
                99.8006153600001,9.09335313800005,0
                99.800749948,9.09304359200007,0
                99.800803079,9.09259977000005,0
                99.800817437,9.09229864800005,0
                99.8008440710001,9.09174025100003,0
                99.800828031,9.09165629300003,0
                99.8006638360001,9.09081405800003,0
                99.8004279140001,9.09016919500004,0
                99.8001765540001,9.08950172200002,0
                99.799912206,9.08879979400007,0
                99.7998861180001,9.08859593300002,0
                99.799935583,9.08830147300006,0
                99.8000613720001,9.08755259600002,0
                99.8002581410001,9.08681714500005,0
                99.8005100680001,9.08654768800005,0
                99.8010502010001,9.08611624000002,0
                99.8016767190001,9.08585116000006,0
                99.801915002,9.08568408800005,0
                99.8036805890001,9.08478383100004,0
                99.8049653370001,9.08411712600002,0
                99.8051612420001,9.08397914100004,0
                99.8059091090001,9.08322471300005,0
                99.806390375,9.08273190700004,0
                99.8068716110001,9.08222680700004,0
                99.8074892540001,9.08188122400003,0
                99.808294301,9.08177236800003,0
                99.8083430180001,9.08173867200003,0
                99.8084283890001,9.08168617800004,0
                99.8094103860001,9.08125030600007,0
                99.8102457140001,9.08099262000007,0
                99.8114360850001,9.08056359100004,0
                99.811519301,9.08050736700005,0
                99.811551024,9.08044394500007,0
                99.8115533660001,9.08039521100005,0
                99.8115457800001,9.08029046100006,0
                99.8115602680001,9.08019296500004,0
                99.8116115940001,9.08012706900007,0
                99.8116703310001,9.08008308000007,0
                99.811824017,9.08002578500003,0
                99.8118937740001,9.07997629300007,0
                99.8119708500001,9.07991581700003,0
                99.812007528,9.07987553100003,0
                99.8120293590001,9.07984340300004,0
                99.8120423430001,9.07982429000003,0
                99.8120569500001,9.07977674600005,0
                99.8120641940001,9.07972921500004,0
                99.8120640830001,9.07967987900003,0
                99.8120565310001,9.07959035400006,0
                99.8120005360001,9.07921769500007,0
                99.8119171440001,9.07892550100007,0
                99.811916941,9.07883507100007,0
                99.8119355570001,9.07878673000005,0
                99.8119687720001,9.07874449500002,0
                99.8119807840001,9.07873156400007,0
                99.812034172,9.07870569200003,0
                99.8120674800001,9.07869430300008,0
                99.8122011870001,9.07864418900004,0
                99.8122363560001,9.07862327000004,0
                99.8122858680001,9.07856468800003,0
                99.8123391680001,9.07849918500006,0
                99.8123817480001,9.07841991100003,0
                99.8124012600001,9.07837438300004,0
                99.812476196,9.07817868800004,0
                99.8125199980001,9.07803422800004,0
                99.8125619580001,9.07789160200002,0
                99.812589238,9.07775814500008,0
                99.812592706,9.07766493900004,0
                99.8125795980001,9.07756080500008,0
                99.8125315660001,9.07745675200005,0
                99.812444912,9.07734730800007,0
                99.812354697,9.07728902400004,0
                99.8122461500001,9.07725455200006,0
                99.8121523630001,9.07724379400003,0
                99.8120439260001,9.07725865800006,0
                99.8119319030001,9.07731372400002,0
                99.8118125660001,9.07738525500002,0
                99.8116839190001,9.07740564300008,0
                99.811618588,9.07739308800006,0
                99.811578093,9.07737199600007,0
                99.811514586,9.07731993100003,0
                99.8112732580001,9.07711213000005,0
                99.8112225880001,9.07706850700004,0
                99.811203225,9.07702641400004,0
                99.811206778,9.07697158500002,0
                99.8112396650001,9.07688014300004,0
                99.81127996,9.07681244100007,0
                99.8113165810001,9.07674657600006,0
                99.8113752520001,9.07667517900006,0
                99.8114616060001,9.07665123100003,0
                99.8115840830001,9.07664585900005,0
                99.811638277,9.07664889300003,0
                99.8117453130001,9.07671094300002,0
                99.8118088620001,9.07672980600006,0
                99.811866282,9.07672606800003,0
                99.8119677710001,9.07670339500004,0
                99.8119783210001,9.07670191000005,0
                99.8120275810001,9.07669498300004,0
                99.812045046,9.07669253000006,0
                99.8120849090001,9.07668091400006,0
                99.8121125010001,9.07668633100008,0
                99.812140007,9.07670225700002,0
                99.8121585820001,9.07674105100006,0
                99.812161008,9.07678551600003,0
                99.8121570200001,9.07686165900003,0
                99.8121511310001,9.07691366300003,0
                99.8121548600001,9.07696750700006,0
                99.8121680140001,9.07700545800003,0
                99.8122125630001,9.07703696700003,0
                99.812269981,9.07705279100003,0
                99.8123467650001,9.07703301400005,0
                99.8124103950001,9.07697453600002,0
                99.812457828,9.07689467200004,0
                99.8124963590001,9.07670320400007,0
                99.8124799890001,9.07649578100006,0
                99.812419692,9.07627947000003,0
                99.8121602040001,9.07564577100004,0
                99.8120972280001,9.07543886000008,0
                99.8120650530001,9.07525477900003,0
                99.8120725050001,9.07502772900006,0
                99.8120750130001,9.07500408200002,0
                99.8121024650001,9.07494720800003,0
                99.8121439270001,9.07489646400006,0
                99.8124428840001,9.07472894600005,0
                99.812600596,9.07463676500004,0
                99.8127374900001,9.07448987200007,0
                99.8127936540001,9.07439859200002,0
                99.812803912,9.07425735500004,0
                99.8127699450001,9.07409480500007,0
                99.812717095,9.07398477500004,0
                99.812663968,9.07368557300003,0
                99.812607626,9.07350394100007,0
                99.8125822320001,9.07345334300004,0
                99.812516138,9.07335474400003,0
                99.812300162,9.07310833700006,0
                99.8122694900001,9.07306284000003,0
                99.8122588460001,9.07300116300007,0
                99.8122576380001,9.07294156600005,0
                99.8122628730001,9.07292232500004,0
                99.8122999620001,9.07286698900003,0
                99.8124009360001,9.07276247300007,0
                99.812538294,9.07260126700004,0
                99.8126538600001,9.07244308900005,0
                99.8127582610001,9.07224322100006,0
                99.812795038,9.07211204100003,0
                99.8128262270001,9.07180064500005,0
                99.8128550000001,9.07170183100004,0
                99.8128694850001,9.07158406300005,0
                99.8128664020001,9.07147391600006,0
                99.8128545050001,9.07142360800003,0
                99.812768067,9.07119436600004,0
                99.812593167,9.07090481800003,0
                99.8124804290001,9.07078732700006,0
                99.8124314180001,9.07064310800007,0
                99.8124065550001,9.07046465700006,0
                99.8123894430001,9.07039368500006,0
                99.8123304380001,9.07022174600007,0
                99.8122001410001,9.07002463500004,0
                99.8119626480001,9.06973150100004,0
                99.81188676,9.06963782600008,0
                99.811794961,9.06948611400003,0
                99.8117255810001,9.06935228700007,0
                99.8116898850001,9.06923187300004,0
                99.811675349,9.06911402600002,0
                99.8116755660001,9.06896504900004,0
                99.811683842,9.06887564100003,0
                99.8117033090001,9.06883089900003,0
                99.8117538130001,9.06878613800006,0
                99.8118176580001,9.06872954300007,0
                99.8119600840001,9.06859058500004,0
                99.8120517450001,9.06850115000003,0
                99.8123297070001,9.06832082400007,0
                99.8123705130001,9.06825045700003,0
                99.8123789140001,9.06818579700007,0
                99.812359766,9.06808336800003,0
                99.8122198820001,9.06778390200003,0
                99.812188328,9.06773053000006,0
                99.812071486,9.06758629300003,0
                99.8119576560001,9.06750995500005,0
                99.8116258590001,9.06728762300003,0
                99.811585644,9.06723407400005,0
                99.8115505480001,9.06716562400004,0
                99.8114665450001,9.06694572700007,0
                99.8114434240001,9.06688521500007,0
                99.811189212,9.06665736400004,0
                99.8109413230001,9.06647993500007,0
                99.810914768,9.06641914600004,0
                99.8109134420001,9.06635061400004,0
                99.8109182850001,9.06629008200002,0
                99.810945991,9.06615388400007,0
                99.8109552480001,9.06603766400002,0
                99.810947033,9.06594439500003,0
                99.8109247260001,9.06583213600004,0
                99.8109179990001,9.06568018600007,0
                99.8109288780001,9.06552284800006,0
                99.810987213,9.06540096900005,0
                99.811058808,9.06533298700003,0
                99.8111199020001,9.06531492100004,0
                99.811181047,9.06531956500004,0
                99.811216077,9.06534112700007,0
                99.8112371730001,9.06535410700008,0
                99.811337366,9.06544867900004,0
                99.8114376020001,9.06556340200007,0
                99.8115141640001,9.06562376400007,0
                99.811609543,9.06564871900002,0
                99.811726461,9.06565372200004,0
                99.811796955,9.06564275700003,0
                99.8118885800001,9.06560694800004,0
                99.8119532050001,9.06552872800006,0
                99.811992978,9.06548058600004,0
                99.8120841020001,9.06527340900004,0
                99.812088712,9.06518594800002,0
                99.81208359,9.06516326500002,0
                99.8120043000001,9.06501531600003,0
                99.811998223,9.06492417700002,0
                99.812012833,9.06480260600006,0
                99.812090277,9.06461981300004,0
                99.8121018520001,9.06453274600005,0
                99.812074786,9.06446824000005,0
                99.812003153,9.06436584800002,0
                99.81198578,9.06427094000003,0
                99.8119959300001,9.06418797600003,0
                99.81201079,9.06413133400002,0
                99.812107198,9.06400480200006,0
                99.8121960170001,9.06395300900004,0
                99.8122547930001,9.06392912000007,0
                99.812363201,9.06390330100004,0
                99.8125837270001,9.06386626400007,0
                99.812716025,9.06383855700005,0
                99.8128232760001,9.06378799100003,0
                99.8129117180001,9.06367258600005,0
                99.812935667,9.06355479200005,0
                99.8129528630001,9.06341710400005,0
                99.812987686,9.06330780500002,0
                99.8131102280001,9.06307964300004,0
                99.8133760090001,9.06266827500002,0
                99.8135283840001,9.06247128100006,0
                99.8136626530001,9.06225644800003,0
                99.8137208850001,9.06212497200005,0
                99.813784361,9.06200588900003,0
                99.813820101,9.06191641800007,0
                99.813840945,9.06178667800003,0
                99.813799535,9.06149633600006,0
                99.8137940540001,9.06136524200002,0
                99.8138168670001,9.06117143800003,0
                99.8138401460001,9.06104334200006,0
                99.8139065290001,9.06079588600005,0
                99.8139582260001,9.06051270500006,0
                99.813996043,9.06038151700005,0
                99.814056609,9.06025623600004,0
                99.814125425,9.06014907700006,0
                99.8142066410001,9.06005308500005,0
                99.8143327490001,9.05995342100005,0
                99.8144323230001,9.05989049400006,0
                99.8145464710001,9.05984242900007,0
                99.814664871,9.05982010200006,0
                99.8148396730001,9.05974633600005,0
                99.8149167670001,9.05969491700006,0
                99.8149512800001,9.05965438300007,0
                99.8149580720001,9.05961275700002,0
                99.814958441,9.05957031100007,0
                99.8149399790001,9.05953563100007,0
                99.8148971960001,9.05948747700006,0
                99.8147478430001,9.05933801200007,0
                99.8146200310001,9.05925859800004,0
                99.8143863930001,9.05908462600007,0
                99.8143741280001,9.05907549500006,0
                99.814319368,9.05898247200003,0
                99.8143338470001,9.05865272800003,0
                99.814356859,9.05853799700003,0
                99.814437899,9.05843030400007,0
                99.8145311430001,9.05840174300005,0
                99.8145899520001,9.05839064400004,0
                99.814685474,9.05835936900007,0
                99.8147497560001,9.05833364600005,0
                99.8147993000001,9.05829150200003,0
                99.8148158010001,9.05827136500005,0
                99.814852434,9.05821097900002,0
                99.8149201690001,9.05808656700003,0
                99.8149843260001,9.05800236800007,0
                99.8149914590001,9.05799658500007,0
                99.8150522190001,9.05794739500004,0
                99.815109125,9.05790889000002,0
                99.8151844330001,9.05788313800002,0
                99.815368204,9.05785349600006,0
                99.8155207290001,9.05782574500006,0
                99.8155868540001,9.05780184100007,0
                99.8156549600001,9.05774668000004,0
                99.815753499,9.05757443800007,0
                99.8161683220001,9.05706760300006,0
                99.8163021880001,9.05697936300004,0
                99.8164102790001,9.05694857300006,0
                99.8167059020001,9.05694157000005,0
                99.8169510130001,9.05692134600002,0
                99.817087933,9.05688475700003,0
                99.817267954,9.05677602200007,0
                99.817404632,9.05663317200003,0
                99.8175486220001,9.05653567900004,0
                99.817678308,9.05648784600004,0
                99.8177648050001,9.05647547200005,0
                99.8178872840001,9.05643003900008,0
                99.8180098670001,9.05642997800004,0
                99.8180892220001,9.05644898600002,0
                99.8183129490001,9.05653459800004,0
                99.8184644520001,9.05656941300003,0
                99.818724015,9.05656076900004,0
                99.8188105,9.05654265500004,0
                99.8189545580001,9.05647496100005,0
                99.8190409540001,9.05641581100002,0
                99.8193004490001,9.05622201000006,0
                99.8194712100001,9.05613026000003,0
                99.819557466,9.05606610900003,0
                99.8196748770001,9.05595986100008,0
                99.8197538380001,9.05591947900007,0
                99.8198695680001,9.05588084400006,0
                99.819972454,9.05585137900005,0
                99.8201028990001,9.05582001900007,0
                99.8201984560001,9.05580153000005,0
                99.8202796780001,9.05575452600004,0
                99.8203425180001,9.05564328600008,0
                99.8203667080001,9.05557872100007,0
                99.8203764790001,9.05551419100004,0
                99.8204532130001,9.05528466200008,0
                99.8205087810001,9.05517702300006,0
                99.8205984800001,9.05506930900003,0
                99.8208544340001,9.05483220800005,0
                99.821142723,9.05448625000002,0
                99.82124285,9.05441152500003,0
                99.8214589670001,9.05432195900005,0
                99.821689619,9.05428349700003,0
                99.821833724,9.05423758500007,0
                99.821884143,9.05421306600005,0
                99.8220403590001,9.05408511600007,0
                99.822166817,9.05391109600004,0
                99.822203361,9.05383593100004,0
                99.822253162,9.05367593100004,0
                99.822348725,9.05352153900003,0
                99.8227700670001,9.05313228800003,0
                99.822809529,9.05306939200005,0
                99.8228860070001,9.05290361700003,0
                99.8230385530001,9.05265202500004,0
                99.8231329010001,9.05252047500005,0
                99.823278288,9.05228993100008,0
                99.823451477,9.05205150600005,0
                99.8235425560001,9.05191220000006,0
                99.8235904270001,9.05179423600003,0
                99.823636046,9.05152646600004,0
                99.823716109,9.05126480200005,0
                99.8238419100001,9.05113413700008,0
                99.824159728,9.05074915900008,0
                99.8242892010001,9.05065098000006,0
                99.824379396,9.05055903100003,0
                99.8244331400001,9.05045612600003,0
                99.8244603590001,9.05035327600007,0
                99.824460022,9.05029046400006,0
                99.8243962010001,9.05011930000006,0
                99.8243944320001,9.05001651300006,0
                99.8244151200001,9.04992510600005,0
                99.824474701,9.04982219000004,0
                99.8245082450001,9.04978860800003,0
                99.824792275,9.04963995600002,0
                99.8249110560001,9.04958006400005,0
                99.8250067820001,9.04950121400003,0
                99.8250351230001,9.04946117500003,0
                99.8250450830001,9.04942117900003,0
                99.8250378130001,9.04938122300007,0
                99.8250219500001,9.04935271000005,0
                99.824958618,9.04929003900003,0
                99.8249254840001,9.04924442700008,0
                99.8249076640001,9.04919879300007,0
                99.824903668,9.04912456000005,0
                99.8249295420001,9.04903884700008,0
                99.8250308,9.04891299200006,0
                99.8251210910001,9.04884711900007,0
                99.825176635,9.04878132600004,0
                99.8252021640001,9.04871274700002,0
                99.8252037460001,9.04867277000005,0
                99.8251412590001,9.04845592000004,0
                99.825137462,9.04836456200007,0
                99.8251468830001,9.04829601900008,0
                99.8251798540001,9.04821029200002,0
                99.8252318670001,9.04811880500006,0
                99.8253355690001,9.04790729000007,0
                99.8253759310001,9.04785581000004,0
                99.825397212,9.04783155400003,0
                99.8254643320001,9.04779028800004,0
                99.8255490380001,9.04775308500007,0
                99.825897495,9.04762256900005,0
                99.8261493320001,9.04753999400003,0
                99.8261823830001,9.04752347000004,0
                99.8262050820001,9.04749978100006,0
                99.8262225560001,9.04746559600005,0
                99.826354876,9.04701956500003,0
                99.8263766370001,9.04700497600004,0
                99.8264055720001,9.04699668200004,0
                99.8264383470001,9.04699976000006,0
                99.8264639000001,9.04700682600003,0
                99.8266435150001,9.04718404800008,0
                99.826697321,9.04720471000007,0
                99.8267547610001,9.04720458100007,0
                99.8268236490001,9.04718202500004,0
                99.826881067,9.04717179200003,0
                99.8271740150001,9.04716080500003,0
                99.8273521450001,9.04718324500004,0
                99.8274727770001,9.04718087100002,0
                99.8275818600001,9.04715646000005,0
                99.827691939,9.04709595500003,0
                99.8277331190001,9.04704533600005,0
                99.8278139190001,9.04689668500004,0
                99.827852776,9.04678810700005,0
                99.8278597440001,9.04674240400004,0
                99.827889617,9.04665097100008,0
                99.8279431450001,9.04657090800004,0
                99.8279917400001,9.04651821900006,0
                99.828044387,9.04648006800005,0
                99.828090853,9.04645118000008,0
                99.82813115,9.04643772600002,0
                99.8283543470001,9.04636938200002,0
                99.828439094,9.04634863100006,0
                99.828508297,9.04631558200003,0
                99.8285907950001,9.04624109900004,0
                99.8286227300001,9.04615251900003,0
                99.8286342270001,9.04607825900007,0
                99.8285945050001,9.04588991100007,0
                99.8286012770001,9.04579852800003,0
                99.8286528020001,9.04572132400006,0
                99.8287280690001,9.04565209500004,0
                99.82882929,9.04560252300007,0
                99.828939796,9.04554471200004,0
                99.8290234850001,9.04551369000006,0
                99.8291071950001,9.04549294100002,0
                99.8292425880001,9.04546385100002,0
                99.8293149250001,9.04544519000007,0
                99.829362443,9.04542348900003,0
                99.829400616,9.04538537800005,0
                99.8294428250001,9.04532267200005,0
                99.8294922220001,9.04509985700003,0
                99.8295306310001,9.04500269700003,0
                99.8295571420001,9.04496266200005,0
                99.8296596690001,9.04487106200003,0
                99.829696385,9.04479103800003,0
                99.8297121730001,9.04470534700005,0
                99.8297518260001,9.04464244500002,0
                99.8299488870001,9.04449924100004,0
                99.8299677940001,9.04446493900002,0
                99.829970587,9.04443066600004,0
                99.8299586670001,9.04436217200004,0
                99.8299252450001,9.04427088500006,0
                99.829878722,9.04418533000006,0
                99.8297967820001,9.04405989200006,0
                99.8297690300001,9.04400285000003,0
                99.82976017,9.04389437300006,0
                99.829772409,9.04380298400002,0
                99.8298816810001,9.04350580100004,0
                99.8299318000001,9.04343145300004,0
                99.829984354,9.04336218700007,0
                99.8300080860001,9.04333952100006,0
                99.8300380270001,9.04332300500005,0
                99.830070064,9.04331368000004,0
                99.8300907460001,9.04331363300003,0
                99.8301176570001,9.04332487900007,0
                99.8301476990001,9.04334845300002,0
                99.8301777410001,9.04337305400003,0
                99.8302429620001,9.04340579800004,0
                99.83028848,9.04341700000003,0
                99.8303329400001,9.04341381600005,0
                99.8303815180001,9.04340445800005,0
                99.8304238410001,9.04337455400002,0
                99.8304612080001,9.04332175700006,0
                99.8305103040001,9.04326453900006,0
                99.8305634490001,9.04318447800006,0
                99.8306951860001,9.04297860800006,0
                99.8307414490001,9.04289285000004,0
                99.8307381340001,9.04284146300006,0
                99.830544703,9.04242504900003,0
                99.8305177700001,9.04235087700005,0
                99.830549213,9.04220233500007,0
                99.8305754580001,9.04213946900006,0
                99.830740179,9.04187070600005,0
                99.8307803640001,9.04172214700003,0
                99.8308004680001,9.04167356600004,0
                99.830819036,9.04165398900005,0
                99.8308345340001,9.04164778900002,0
                99.8308696970001,9.04164976500005,0
                99.83090487,9.04165688300003,0
                99.8309348800001,9.04166708800005,0
                99.8309907510001,9.04168341000008,0
                99.8310673220001,9.04170379700003,0
                99.8311293660001,9.04170673800007,0
                99.831210002,9.04169833300006,0
                99.831296793,9.04166832700002,0
                99.8314527250001,9.04157751900004,0
                99.831524964,9.04151670800007,0
                99.8315579680001,9.04147963300005,0
                99.8315847420001,9.04143126000002,0
                99.831596012,9.04138600700003,0
                99.831593802,9.04132228000003,0
                99.8315802990001,9.04129558400007,0
                99.831542998,9.04126380800005,0
                99.831460162,9.04121568500005,0
                99.8313581850001,9.04115197900006,0
                99.831326028,9.04109696500007,0
                99.831337766,9.04102062800007,0
                99.8314679430001,9.04082477300005,0
                99.8314922770001,9.04078903500005,0
                99.8315222260001,9.04077252200005,0
                99.8315583850001,9.04076010300003,0
                99.831588368,9.04075797700006,0
                99.8316163210001,9.04077333400005,0
                99.8316922060001,9.04094790500005,0
                99.8317150650001,9.04099410900005,0
                99.831727506,9.04101052700003,0
                99.831740966,9.04101769400006,0
                99.8317564850001,9.04102074100007,0
                99.8317771370001,9.04100938800002,0
                99.831797765,9.04098672400005,0
                99.8318328010001,9.04093319700007,0
                99.8318699270001,9.04088891300006,0
                99.831894682,9.04086316000007,0
                99.8319235880001,9.04084459100005,0
                99.831940129,9.04084249600004,0
                99.831964951,9.04084244000006,0
                99.8320197670001,9.04084848300005,0
                99.8320756150001,9.04085144400005,0
                99.832111797,9.04084930400006,0
                99.8321541860001,9.04084715200003,0
                99.8321831100001,9.04083475100003,0
                99.8322151280001,9.04081720600004,0
                99.8322460900001,9.04079349300002,0
                99.832257408,9.04076879700006,0
                99.832256714,9.04073703100005,0
                99.8322060460001,9.04058494800006,0
                99.832158516,9.04039353800005,0
                99.8321606320001,9.04029251100008,0
                99.832182758,9.04023137900003,0
                99.832195116,9.04020873800005,0
                99.832218201,9.04019065200004,0
                99.8322477890001,9.04018189300007,0
                99.832274678,9.04018388400004,0
                99.8323108820001,9.04018791600004,0
                99.832350046,9.04020490600004,0
                99.8324404560001,9.04023583700007,0
                99.83246869,9.04023849200007,0
                99.8325420950001,9.04023832600006,0
                99.8326290940001,9.04021843500004,0
                99.8326603990001,9.04017351300007,0
                99.832691277,9.04004996200007,0
                99.832615719,9.03970215800007,0
                99.8326026830001,9.03957870600004,0
                99.8326797880001,9.03951314900007,0
                99.8327481840001,9.03945149200007,0
                99.8327672660001,9.03943838800006,0
                99.8327870090001,9.03943521500003,0
                99.832821713,9.03944949800007,0
                99.8328604170001,9.03949326300005,0
                99.8329009810001,9.03954616500005,0
                99.832947098,9.03961732700003,0
                99.832956444,9.03968309500004,0
                99.83294743,9.03976169300006,0
                99.832920103,9.03986774300006,0
                99.8329056540001,9.03997924500004,0
                99.8329132430001,9.04008338600005,0
                99.8329317480001,9.04013633800002,0
                99.8329466050001,9.04020025800003,0
                99.833012942,9.04027137800006,0
                99.8331454770001,9.04034782700006,0
                99.833276218,9.04044438200003,0
                99.833405123,9.04054276300008,0
                99.833476874,9.04056818700008,0
                99.8335412230001,9.04057351900008,0
                99.8336459920001,9.04056962900006,0
                99.8337488710001,9.04054198200004,0
                99.8338389420001,9.04053995000004,0
                99.833921746,9.04057448100002,0
                99.8339696530001,9.04062371500004,0
                99.8340341480001,9.04069300200007,0
                99.83415948,9.04083342900003,0
                99.8343345430001,9.04101942300002,0
                99.8343935520001,9.04109969200005,0
                99.8343918620001,9.04116365500005,0
                99.834333218,9.04124419000004,0
                99.834247012,9.04132662100005,0
                99.8342085740001,9.04139796800007,0
                99.8341922010001,9.04147293500006,0
                99.8341941960001,9.04154054100007,0
                99.8342090450001,9.04160263600005,0
                99.834238601,9.04166652800006,0
                99.834246125,9.04173960500003,0
                99.834220508,9.04179265900007,0
                99.8341783450001,9.04184209200002,0
                99.8341196380001,9.04189339000004,0
                99.8340848570001,9.04195742900004,0
                99.834075823,9.04202689000005,0
                99.8340870090001,9.04209264700006,0
                99.834112899,9.04215837800007,0
                99.834151637,9.04221676100008,0
                99.8342020050001,9.04227055600006,0
                99.8343963840001,9.04217064900007,0
                99.834402712,9.04216739900005,0
                99.8347854420001,9.04188843200006,0
                99.8348997310001,9.04178204300007,0
                99.8353958380001,9.04114501200007,0
                99.8360923760001,9.04040181600004,0
                99.8363641910001,9.04014225900005,0
                99.8365299380001,9.04002440100004,0
                99.8366947850001,9.03999572400005,0
                99.836829762,9.03995209700003,0
                99.83699519,9.03988674800007,0
                99.8370909640001,9.03984754400005,0
                99.8371648580001,9.03976941200006,0
                99.837377507,9.03939641400007,0
                99.8379205910001,9.03871078900005,0
                99.8381203500001,9.03841578600003,0
                99.838220359,9.03832459700004,0
                99.838498814,9.03814636800007,0
                99.838733721,9.03797690200003,0
                99.838877251,9.03786395300006,0
                99.8390076490001,9.03772505000006,0
                99.839129294,9.03756883200003,0
                99.839359576,9.03728675500003,0
                99.8396333380001,9.03696126300002,0
                99.840024596,9.03657053400002,0
                99.8404812040001,9.03617965200004,0
                99.8408639240001,9.03586690300006,0
                99.8413162260001,9.03549768700003,0
                99.842133544,9.03469880800003,0
                99.8426945180001,9.03421672400003,0
                99.8432249830001,9.03373037500006,0
                99.8434729430001,9.03355654400002,0
                99.8436949410001,9.03346074100006,0
                99.843856036,9.03340839400005,0
                99.8438653100001,9.03339758700002,0
                99.843971728,9.03335700700006,0
                99.844474586,9.03312629700002,0
                99.84469605,9.03303396700005,0
                99.8449083730001,9.03298298200002,0
                99.8451069020001,9.03295956500006,0
                99.8454301470001,9.03294504800004,0
                99.8461136510001,9.03294347400004,0
                99.8467047550001,9.03292834100006,0
                99.846977236,9.03292771200006,0
                99.8471896790001,9.03293180800006,0
                99.847348959,9.03290791900002,0
                99.8474666700001,9.03288354400007,0
                99.8475634920001,9.03281444900006,0
                99.84761524,9.03272480600003,0
                99.8476492950001,9.03247681700003,0
                99.8476971270001,9.03219435800003,0
                99.847741834,9.03205652800006,0
                99.8479004600001,9.03175660100004,0
                99.8479589030001,9.03156708800003,0
                99.8479688960001,9.03139834500007,0
                99.8479508710001,9.03109538100006,0
                99.8479422770001,9.03038264600002,0
                99.8478392280001,9.02926727500005,0
                99.8478278600001,9.02880930400005,0
                99.8480413600001,9.02868518700006,0
                99.8482697330001,9.02858824900005,0
                99.8483595220001,9.02847441500006,0
                99.8484164560001,9.02832729600004,0
                99.848456093,9.02829858900003,0
                99.848622301,9.02827754000003,0
                99.8486537080001,9.02826616900006,0
                99.8487849570001,9.02821863400004,0
                99.8488763540001,9.02814795600005,0
                99.8488816560001,9.02809674600007,0
                99.8488834330001,9.02806362000007,0
                99.848854444,9.02794143300002,0
                99.848893295,9.02788969500006,0
                99.8489270310001,9.02787412200007,0
                99.8489685800001,9.02786886000007,0
                99.8489952180001,9.02787396400004,0
                99.8490277970001,9.02787388900003,0
                99.8491028240001,9.02788275200004,0
                99.8492275350001,9.02788935300003,0
                99.8493279880001,9.02789256400007,0
                99.849400685,9.02787517700006,0
                99.8494352280001,9.02783377900005,0
                99.8494626900001,9.02773042200005,0
                99.8494865580001,9.02756853500006,0
                99.8495206650001,9.02731842700007,0
                99.8495176600001,9.02724516200004,0
                99.8495321820001,9.02716715900004,0
                99.8495614550001,9.02710618300006,0
                99.8496568580001,9.02703043100007,0
                99.8497449830001,9.02698393500003,0
                99.8498282480001,9.02695450200002,0
                99.8499212930001,9.02691774000004,0
                99.8500069870001,9.02687855700003,0
                99.8501440420001,9.02679540100007,0
                99.850207557,9.02670510500008,0
                99.8502050070001,9.02666368900003,0
                99.8502049100001,9.02662227400003,0
                99.8502047840001,9.02656866600006,0
                99.850229239,9.02654424600007,0
                99.8502487840001,9.02651983500004,0
                99.8502952170001,9.02646125200005,0
                99.85033193,9.02643923600004,0
                99.8504029260001,9.02640496100003,0
                99.8505695330001,9.02638021300004,0
                99.850841485,9.02633816500003,0
                99.8510204070001,9.02634018500004,0
                99.8511062690001,9.02637409800008,0
                99.8511774580001,9.02642266100003,0
                99.8512633110001,9.02645169700003,0
                99.8513343810001,9.02644910100003,0
                99.851393176,9.02643921600003,0
                99.851449502,9.02641959400006,0
                99.8514862070001,9.02639514500004,0
                99.851549871,9.02636819400004,0
                99.851613462,9.02631200800005,0
                99.85162309,9.02623645800003,0
                99.8516204480001,9.02615606000006,0
                99.851620197,9.02604885200003,0
                99.8516641640001,9.02598540800005,0
                99.8517448630001,9.02590724900006,0
                99.8518231240001,9.02583397300003,0
                99.8519038680001,9.02577774900004,0
                99.8520238450001,9.02572874100002,0
                99.852092412,9.02570421400003,0
                99.852202622,9.02566984900005,0
                99.8528216540001,9.02522254000007,0
                99.8532161240001,9.02499245800004,0
                99.853416296,9.02488370300006,0
                99.8536078760001,9.02482695000003,0
                99.8537777880001,9.02481789100005,0
                99.854265631,9.02475178100002,0
                99.85455742,9.02469046700003,0
                99.85467506,9.02469019300003,0
                99.8550934780001,9.02474552700005,0
                99.8555119490001,9.02482252100003,0
                99.8558126770001,9.02485647200007,0
                99.856165644,9.02487297500005,0
                99.8584053610001,9.02492839000007,0
                99.8605317490001,9.02496673100006,0
                99.8632334600001,9.02508167400003,0
                99.8638304510001,9.02510625700006,0
                99.8641528570001,9.02509683500006,0
                99.864379345,9.02506165900007,0
                99.8647364430001,9.02498284700005,0
                99.865650826,9.02472080400003,0
                99.8660688610001,9.02461586200008,0
                99.8662300300001,9.02459815600002,0
                99.8665305520001,9.02454547100007,0
                99.86678306,9.02445824700004,0
                99.8670659590001,9.02432763400003,0
                99.8672269560001,9.02423628900004,0
                99.8673575890001,9.02420132800006,0
                99.8674098720001,9.02420120500005,0
                99.8675133300001,9.02419645500004,0
                99.867446333,9.02391822500005,0
                99.8672832490001,9.02352305200003,0
                99.8672608470001,9.02339492800007,0
                99.8672419090001,9.02315685500002,0
                99.867230379,9.02297744100002,0
                99.8671931700001,9.02282738200006,0
                99.8670116800001,9.02241398500007,0
                99.8667449880001,9.02182494400006,0
                99.8666448020001,9.02150281700006,0
                99.8666001070001,9.02131247500006,0
                99.8665885890001,9.02113675600003,0
                99.8666067460001,9.02100117000003,0
                99.866734949,9.02069317800004,0
                99.8667678580001,9.02057225500005,0
                99.866774912,9.02045132900002,0
                99.8667487420001,9.02030494600007,0
                99.8665817400001,9.01978161200003,0
                99.866329222,9.01895811000003,0
                99.866276381,9.01869470000003,0
                99.8663508230001,9.01859395300005,0
                99.8664608770001,9.01842891500007,0
                99.8664792610001,9.01838853500004,0
                99.866482762,9.01833732500006,0
                99.866314704,9.01737089700003,0
                99.8662246740001,9.01669722800006,0
                99.8662281420001,9.01659104900006,0
                99.86623538,9.01653242100002,0
                99.866253591,9.01646644600004,0
                99.866297708,9.01641507100004,0
                99.8666397630001,9.01618725600002,0
                99.866948763,9.01602175400006,0
                99.866989247,9.01598131900005,0
                99.8669984900001,9.01593688500003,0
                99.8670037950001,9.01591175300007,0
                99.866992602,9.01585687800002,0
                99.8669554990001,9.01575438900005,0
                99.866892508,9.01558976400003,0
                99.866795687,9.01516508100002,0
                99.866736137,9.01490891300006,0
                99.8666911190001,9.01456844200004,0
                99.8666463280001,9.01428663700005,0
                99.8666127110001,9.01411089300007,0
                99.8665643690001,9.01391693200003,0
                99.866504944,9.01371926000007,0
                99.866300928,9.01312284000005,0
                99.866030063,9.01229223100006,0
                99.866007423,9.01218989500006,0
                99.867800575,9.01190705600004,0
                99.8689027300001,9.01172111800003,0
                99.869396877,9.01164967600005,0
                99.8692197840001,9.01101203800005,0
                99.869119068,9.01047016800004,0
                99.8680786520001,9.01053718400004,0
                99.867584906,9.01055567100008,0
                99.8671724180001,9.01054509200003,0
                99.8667075380001,9.01048843800004,0
                99.866236734,9.01038558800008,0
                99.8656554770001,9.01024834500004,0
                99.8652134820001,9.01004147400005,0
                99.8648413020001,9.00988064200004,0
                99.8640271940001,9.00954181000003,0
                99.8637111370001,9.00948610400008,0
                99.8632330300001,9.00940194600003,0
                99.863139807,9.00936318600003,0
                99.8630637560001,9.00933168600005,0
                99.8629434490001,9.00923938700004,0
                99.8627814160001,9.00912037700004,0
                99.862745599,9.00909981800004,0
                99.862051051,9.00910747100005,0
                99.8601039660001,9.00916896600006,0
                99.8596572630001,9.00914375400004,0
                99.8587361300001,9.00895369800003,0
                99.857400731,9.00862827300006,0
                99.8573276180001,9.00861045100004,0
                99.857286716,9.00859549700004,0
                99.8567316070001,9.00839255500006,0
                99.8557313620001,9.00802687300006,0
                99.8550117010001,9.00759161900004,0
                99.8545745530001,9.00716014500006,0
                99.8543093100001,9.00681199600007,0
                99.8538901040001,9.00648283700002,0
                99.8535087710001,9.00630459100006,0
                99.853183593,9.00627114500003,0
                99.8528052200001,9.00646235200003,0
                99.852286436,9.00670844700005,0
                99.851985949,9.00683487600003,0
                99.851735901,9.00692055200005,0
                99.8513624990001,9.00701910000004,0
                99.851041594,9.00708170900003,0
                99.850641732,9.00713030400004,0
                99.8504132260001,9.00714953700003,0
                99.8500815940001,9.00689837600004,0
                99.849808167,9.00669130000006,0
                99.848647499,9.00586642800005,0
                99.8458463760001,9.00471673500004,0
                99.8455706130001,9.00463535200004,0
                99.8445145210001,9.00432367700006,0
                99.844028403,9.00407769600002,0
                99.8438663270001,9.00400980300003,0
                99.843486865,9.00381736400004,0
                99.8430913820001,9.00342312400005,0
                99.841482473,9.00104930700007,0
                99.8400609700001,8.99903285900007,0
                99.838702255,8.99762862400007,0
                99.837419948,8.99628425900005,0
                99.8364993800001,8.99528939100003,0
                99.834487671,8.99200064400003,0
                99.8334017490001,8.98993789100007,0
                99.8323169180001,8.98799780200005,0
                99.832088721,8.98720250100007,0
                99.831283608,8.98608263300002,0
                99.830373556,8.98497408500003,0
                99.8296579340001,8.98433812200005,0
                99.828996423,8.98371206400003,0
                99.828640373,8.98346156200006,0
                99.8285391800001,8.98339036900006,0
                99.8281082020001,8.98325144400008,0
                99.8278510480001,8.98316012100003,0
                99.8274177360001,8.98300623700004,0
                99.8269962990001,8.98295853400003,0
                99.8266815210001,8.98296604300003,0
                99.825520929,8.98287874400006,0
                99.8244957670001,8.98270123900005,0
                99.823604441,8.98224558400005,0
                99.8235853100001,8.98223580500007,0
                99.8206049660001,8.98054196500004,0
                99.8192774930001,8.98221759200004,0
                99.8186162640001,8.98282530500006,0
                99.8181319870001,8.98339097800005,0
                99.81793616,8.98356611500003,0
                99.817791303,8.98362811100003,0
                99.81760832,8.98364831900005,0
                99.8173990010001,8.98359841100006,0
                99.8171917180001,8.98348584600006,0
                99.816880467,8.98333498100004,0
                99.8166955020001,8.98327091600004,0
                99.8165448940001,8.98327577100002,0
                99.816365418,8.98335420100005,0
                99.8162348000001,8.98347173800005,0
                99.8158390600001,8.98391780300005,0
                99.8156953340001,8.98398196100004,0
                99.8155156430001,8.98396490500005,0
                99.8151763020001,8.98376608900003,0
                99.8148076020001,8.98338477700003,0
                99.8146499160001,8.98327661300004,0
                99.8142181100001,8.98315485800003,0
                99.813847561,8.98295611100002,0
                99.813652151,8.98278138900002,0
                99.8135117310001,8.98249874000004,0
                99.8134574480001,8.98238947200002,0
                99.8133198890001,8.98199951300006,0
                99.8127622710001,8.98044373100004,0
                99.8124675820001,8.97984622200005,0
                99.8122313650001,8.97947202500006,0
                99.812003583,8.97927974500004,0
                99.811676977,8.97920531900007,0
                99.811386542,8.97920478200007,0
                99.8109704230001,8.97925153600005,0
                99.8105409090001,8.97941977100004,0
                99.810318098,8.97956526800004,0
                99.8101478570001,8.97982591200002,0
                99.8098554910001,8.98051345500005,0
                99.8095545310001,8.98121106000002,0
                99.80922079,8.98194574300004,0
                99.809060011,8.98229967000003,0
                99.8088029560001,8.98301187600003,0
                99.808564474,8.98317072400005,0
                99.8080276910001,8.98313229500008,0
                99.8072655080001,8.98276206400004,0
                99.8069262710001,8.98257172800004,0
                99.8066544760001,8.98252258800005,0
                99.8063935980001,8.98259269500005,0
                99.806296741,8.98272122200007,0
                99.8062647960001,8.98292645600003,0
                99.8065030670001,8.98399764200008,0
                99.8064393720001,8.98426299700003,0
                99.8062018240001,8.98453985200007,0
                99.8059635580001,8.98479762800002,0
                99.8059574090001,8.98480036300003,0
                99.805605733,8.98495664900003,0
                99.805307869,8.98495730000008,0
                99.804829807,8.98478030100006,0
                99.804391836,8.98444488100006,0
                99.804032782,8.98401099200004,0
                99.8023475740001,8.98117308800005,0
                99.8015640660001,8.98037552900007,0
                99.800801403,8.98001593500004,0
                99.800026615,8.97980557900007,0
                99.7988528490001,8.97944394000007,0
                99.798603776,8.97936720500007,0
                99.7971823350001,8.97885088500004,0
                99.7961540690001,8.97842059500005,0
                99.7952305590001,8.97780698300005,0
                99.7934475500001,8.97644178700006,0
                99.7926890350001,8.97591597700006,0
                99.7920828380001,8.97557872600004,0
                99.7904025830001,8.97520978000006,0
                99.7887497570001,8.97517144800003,0
                99.7872005880001,8.97521009100006,0
                99.7869641780001,8.97521598200007,0
                99.7841680060001,8.97521908500005,0
                99.7820224280001,8.97506950100006,0
                99.779147127,8.97483838600004,0
                99.7790967940001,8.97483434000003,0
                99.7779573070001,8.97468225500006,0
                99.7768005620001,8.97400385800006,0
                99.776330789,8.97364724200003,0
                99.775513818,8.97263355900003,0
                99.774248162,8.97093083800007,0
                99.7736096560001,8.97015461200004,0
                99.77313451,8.96955969700002,0
                99.773018978,8.96941892100006,0
                99.7727710650001,8.96911681900002,0
                99.772125186,8.96858971900002,0
                99.7712210670001,8.96770668600004,0
                99.7704877580001,8.96721438000003,0
                99.769993738,8.96685296500004,0
                99.769569145,8.96678023300007,0
                99.7689342730001,8.96667148500006,0
                99.7681433170001,8.96660213400003,0
                99.7678878500001,8.96657974300007,0
                99.7672799360001,8.96648978600007,0
                99.766632229,8.96639393800007,0
                99.7652103880001,8.96610081600005,0
                99.7636067860001,8.96564204600003,0
                99.762471534,8.96524356000003,0
                99.7607354780001,8.96451602000008,0
                99.760108125,8.96417932800006,0
                99.759623328,8.96391914500003,0
                99.758743989,8.96344721500003,0
                99.7571579330001,8.96235047200003,0
                99.7547857210001,8.96072528900004,0
                99.7532171840001,8.95951491700004,0
                99.7530949900001,8.95941120800006,0
                99.7518856600001,8.95885921300004,0
                99.7517228550001,8.95877868400004,0
                99.7515598150001,8.95858842000007,0
                99.7515013970001,8.95842682700004,0
                99.7513731990001,8.95822495000004,0
                99.7512565320001,8.95798839000003,0
                99.7511459090001,8.95786155200005,0
                99.750936375,8.95765405400005,0
                99.75058741,8.95743529500004,0
                99.7502501270001,8.95725116200003,0
                99.750000152,8.95714771100006,0
                99.7497976910001,8.95695364100004,0
                99.7496509050001,8.95650563100003,0
                99.7495244850001,8.95628997100005,0
                99.7493249610001,8.95599370400004,0
                99.7490458940001,8.95570748200004,0
                99.748585576,8.95544641700008,0
                99.7481803900001,8.95521660400004,0
                99.747140905,8.95471747500005,0
                99.7468254980001,8.95463452000007,0
                99.746805335,8.95462665700006,0
                99.746469598,8.95448006400005,0
                99.746033432,8.95422537600007,0
                99.745719281,8.95398776300004,0
                99.745418111,8.95370248300003,0
                99.7452261280001,8.95355558900008,0
                99.7449992690001,8.95339578200003,0
                99.744285845,8.95278000000008,0
                99.7438579180001,8.95265230500007,0
                99.7435695190001,8.95266277500002,0
                99.7433310600001,8.95278191800003,0
                99.7427116430001,8.95314914000005,0
                99.7426421320001,8.95324457300006,0
                99.7424380740001,8.95383196600005,0
                99.742309687,8.95427723500006,0
                99.7422011780001,8.95472246500003,0
                99.7419236300001,8.95517791700007,0
                99.7419231250001,8.95517900300007,0
                99.7418830000001,8.95526652500007,0
                99.741705778,8.95565303300003,0
                99.7413754890001,8.95592407300006,0
                99.7411796700001,8.95603276000003,0
                99.7410535640001,8.95614996100005,0
                99.7408753560001,8.95634957000004,0
                99.7400788770001,8.95705079500004,0
                99.7397123370001,8.95763986400004,0
                99.7395751050001,8.95786040000007,0
                99.7390954460001,8.95853295700005,0
                99.7386343810001,8.95934779600003,0
                99.7381974670001,8.96035148100003,0
                99.738089411,8.96088819500005,0
                99.737968111,8.96132763800006,0
                99.7377631570001,8.96175421900006,0
                99.7375366370001,8.96194410900006,0
                99.7372975100001,8.96201348700004,0
                99.736763673,8.96204738100005,0
                99.7359313910001,8.96208186000007,0
                99.7352107510001,8.96216919600005,0
                99.7349693630001,8.96231209800004,0
                99.7348083420001,8.96250801300005,0
                99.734498252,8.96298914700003,0
                99.7342629220001,8.96353397400003,0
                99.7342286800001,8.96377430100006,0
                99.7342916300001,8.96397085600006,0
                99.7344351020001,8.96407681700003,0
                99.7346592530001,8.96416507600003,0
                99.7348732010001,8.96421610800007,0
                99.7350427600001,8.96421388000005,0
                99.7351738980001,8.96421216300007,0
                99.7353491040001,8.96424400900003,0
                99.7354413040001,8.96432358100003,0
                99.7354393790001,8.96448409000004,0
                99.735395076,8.96479614700007,0
                99.7350740400001,8.96628699900003,0
                99.734893513,8.96685705800007,0
                99.734857004,8.96697234900006,0
                99.7347627380001,8.96727002900008,0
                99.734674607,8.96754832100004,0
                99.734651404,8.96787055600004,0
                99.734705144,8.96803601100004,0
                99.73485508,8.96822047000006,0
                99.7349102680001,8.96828835400004,0
                99.7350246560001,8.96832203300005,0
                99.7350985580001,8.96829701500008,0
                99.7351694210001,8.96821694900007,0
                99.735197799,8.96818487400003,0
                99.7354909630001,8.96808989100003,0
                99.735729167,8.96808091100007,0
                99.7359504630001,8.96816131400004,0
                99.7360098340001,8.96825677100003,0
                99.7360396550001,8.96838837600006,0
                99.7360252290001,8.96856482200008,0
                99.7359511870001,8.96878596600004,0
                99.735776119,8.96964382700003,0
                99.7357378360001,8.97026386800007,0
                99.735759563,8.97079210900006,0
                99.73575959,8.97079687900003,0
                99.7357767250001,8.97389192600002,0
                99.736090247,8.97574194500004,0
                99.7365411760001,8.97747477100006,0
                99.736565527,8.97798073900003,0
                99.7363472440001,8.97853738600003,0
                99.736001915,8.97873140700005,0
                99.735637662,8.97880673200007,0
                99.735055345,8.97876321700005,0
                99.7336354440001,8.97808025800003,0
                99.7330064860001,8.97774358700002,0
                99.7319427720001,8.97745281500005,0
                99.730337836,8.97751992200006,0
                99.7293637400001,8.97770269800003,0
                99.728119286,8.97772495800007,0
                99.7271175830001,8.97749236000004,0
                99.7252937590001,8.97699001600006,0
                99.7239901870001,8.97700785400002,0
                99.7229726360001,8.97718603600003,0
                99.7224416600001,8.97734798600004,0
                99.7235205370001,8.97877611800004,0
                99.7245007340001,8.97974683200005,0
                99.7245162310001,8.97976217800004,0
                99.7246061960001,8.97992353600006,0
                99.7248418830001,8.98034628000005,0
                99.7250867220001,8.98109185700002,0
                99.7250681720001,8.98195892000007,0
                99.7248461870001,8.98288879300003,0
                99.7247579510001,8.98325839100005,0
                99.7247262430001,8.98339121400005,0
                99.7246883240001,8.98472207900005,0
                99.7247282500001,8.98546104500002,0
                99.7247312650001,8.98551705300002,0
                99.7247334240001,8.98555685700006,0
                99.724751493,8.98589144800007,0
                99.725267279,8.98715794800006,0
                99.7253832820001,8.98744279600004,0
                99.725485372,8.98786535900007,0
                99.7255877750001,8.98828926500005,0
                99.7263794950001,8.98848278700007,0
                99.72686401,8.98859855400002,0
                99.7275539620001,8.98871391300003,0
                99.7278186380001,8.98897601400006,0
                99.727876666,8.98912652800004,0
                99.727936658,8.98928217800005,0
                99.728172913,8.99001121700007,0
                99.72848264,8.99078389100004,0
                99.7289096980001,8.99152714300004,0
                99.7300717890001,8.99289631500005,0
                99.730955167,8.99432440800007,0
                99.7312060310001,8.99500965000004,0
                99.7313247490001,8.99566597300003,0
                99.7315042750001,8.99737266300002,0
                99.7315495940001,8.99801454000004,0
                99.7313746,8.99856931700003,0
                99.7310675840001,8.99915353500006,0
                99.7307751660001,8.99969395200003,0
                99.7306001410001,9.00023413600007,0
                99.73061628,9.00096360800006,0
                99.730676041,9.00148873600006,0
                99.7308824030001,9.00194062500003,0
                99.7315007080001,9.00290235000006,0
                99.7316040900001,9.00322312300005,0
                99.7316047640001,9.00355870000004,0
                99.7316053210001,9.00383591200006,0
                99.7315225980001,9.00399789500005,0
                99.7312851240001,9.00446291600002,0
                99.7312398610001,9.00455155900005,0
                99.7308013260001,9.00541324600005,0
                99.7307873220001,9.00574884300005,0
                99.7309345500001,9.00598200000007,0
                99.731110975,9.00614214400002,0
                99.7314047850001,9.00628746300004,0
                99.7317279480001,9.00643271400003,0
                99.7335044800001,9.00680853100005,0
                99.7340188370001,9.00715766400003,0
                99.7341515960001,9.00749297000004,0
                99.7342254420001,9.00772627100002,0
                99.7342113540001,9.00801810500008,0
                99.7340799290001,9.00833934400003,0
                99.7339112990001,9.00859189900007,0
                99.7331434910001,9.00974187000003,0
                99.7328925040001,9.01026077000006,0
                99.7327196520001,9.01061812100005,0
                99.732705572,9.01090995400006,0
                99.7327297400001,9.01106993900004,0
                99.732778174,9.01139052000002,0
                99.7328245570001,9.01169758400005,0
                99.733193316,9.01261602800002,0
                99.733443896,9.01315536600003,0
                99.7334978820001,9.01321950400006,0
                99.7338116770001,9.01359233800002,0
                99.734912825,9.01380898900004,0
                99.7351007570001,9.01383125000007,0
                99.7363661140001,9.01398116900003,0
                99.7367920950001,9.01416998100007,0
                99.7369831840001,9.01431550100006,0
                99.7374250080001,9.01507330700002,0
                99.7383527710001,9.01663258800005,0
                99.7386950370001,9.01715270200003,0
                99.7392121500001,9.01793850600006,0
                99.7397711190001,9.01916477300006,0
                99.7402467510001,9.02042379900007,0
                99.7403518420001,9.02097922500008,0
                99.740523781,9.02188786200003,0
                99.7406191490001,9.02292502300003,0
                99.7408246790001,9.02331804800002,0
                99.7418992820001,9.02382488900002,0
                99.7434451330001,9.02453710900005,0
                99.7439079790001,9.02481830400006,0
                99.7442281770001,9.02515394800002,0
                99.7444758720001,9.02558251300007,0
                99.7445000170001,9.02623532700005,0
                99.744329039,9.02689306700006,0
                99.744003547,9.02733969900004,0
                99.7434860120001,9.02783030800003,0
                99.7428117410001,9.02839069900006,0
                99.7424539900001,9.02866277900006,0
                99.7423479760001,9.02879586900002,0
                99.7422844860001,9.02892274900006,0
                99.742199537,9.02914317400007,0
                99.742180476,9.02924596900004,0
                99.742093335,9.02971593100006,0
                99.7424325420001,9.03059496500003,0
                99.7427399840001,9.03174125500004,0
                99.7428454500001,9.03217626600002,0
                99.742843184,9.03271836500005,0
                99.7426969970001,9.03324557400003,0
                99.7421883000001,9.03442579500006,0
                99.7415876430001,9.03551567000005,0
                99.7408067140001,9.03632260000006,0
                99.7402232860001,9.03669001100008,0
                99.7400034,9.03681081400003,0
                99.7399156290001,9.03695322700003,0
                99.7399159870001,9.03712829300002,0
                99.7399384060001,9.03732520000005,0
                99.740004829,9.03751107600004,0
                99.740181384,9.03772955200003,0
                99.7406228580001,9.03831951100005,0
                99.7411017420001,9.03893250800007,0
                99.7412629310001,9.03913883200005,0
                99.7417374130001,9.03971778100004,0
                99.7425754070001,9.04043823700005,0
                99.7433916200001,9.04126814300002,0
                99.7437665990001,9.04162845900004,0
                99.7438881240001,9.04184704400006,0
                99.7439767610001,9.04213134400004,0
                99.7440106160001,9.04253611600006,0
                99.7441330870001,9.04321424700004,0
                99.7441778310001,9.04356428800003,0
                99.744178371,9.04382689200003,0
                99.7441459510001,9.04412237300005,0
                99.74405835,9.04434139000006,0
                99.7438828670001,9.04464810500002,0
                99.743663402,9.04497680500003,0
                99.7436418790001,9.04521755600007,0
                99.74365327,9.04540354200003,0
                99.7437416810001,9.04557843100002,0
                99.743841043,9.04572047400006,0
                99.744083661,9.04594975600003,0
                99.7443924460001,9.04623361100005,0
                99.7446461050001,9.04647380300003,0
                99.7447896200001,9.04668140700005,0
                99.7448891530001,9.04691097800003,0
                99.7449447370001,9.04717346000007,0
                99.7449674430001,9.04751260300003,0
                99.7450012140001,9.04787361100006,0
                99.7449799600001,9.04824567300005,0
                99.744903605,9.04858501700005,0
                99.7446294210001,9.04906700000004,0
                99.7443552550001,9.04955993400006,0
                99.7440701290001,9.05007476900005,0
                99.7437850890001,9.05063336800004,0
                99.7435218790001,9.05110439300006,0
                99.743137462,9.05151001300004,0
                99.7426647560001,9.05180639600007,0
                99.742378929,9.05198203300006,0
                99.7422471630001,9.05213548800003,0
                99.7421924770001,9.05231066600004,0
                99.74219315,9.05263891100003,0
                99.742337057,9.05303251500004,0
                99.742525012,9.05343697400002,0
                99.7428344670001,9.05404907400003,0
                99.7429450330001,9.05428956600002,0
                99.742945482,9.05450840600002,0
                99.7429237640001,9.05465068600006,0
                99.742803134,9.05486976100002,0
                99.742396603,9.05523166100005,0
                99.7417039730001,9.05563790500003,0
                99.7410885520001,9.05612057600007,0
                99.7408470170001,9.05642743300007,0
                99.740819812,9.05648519000005,0
                99.740671659,9.05679980700006,0
                99.7406173850001,9.05717192600002,0
                99.7405852090001,9.05758777600005,0
                99.7405968900001,9.05791599800006,0
                99.7406855830001,9.05822218700007,0
                99.7407740850001,9.05844083800002,0
                99.7409176340001,9.05865937900006,0
                99.741171023,9.05876828200007,0
                99.7415896890001,9.05895344300006,0
                99.741744516,9.05899555800005,0
                99.7419090800001,9.05904033300004,0
                99.7421295710001,9.05920400900004,0
                99.7423170500001,9.05937869400003,0
                99.7425269600001,9.05975028000006,0
                99.742714709,9.06005626500007,0
                99.742858395,9.06034045600006,0
                99.7429913190001,9.06074502500007,0
                99.7431568790001,9.06096352000003,0
                99.743465712,9.06126926000007,0
                99.7437416480001,9.06162976700006,0
                99.744028428,9.06191366500008,0
                99.7441937870001,9.06203369600007,0
                99.7473351180001,9.06728206500003,0
                99.7479558900001,9.06787733900006,0
                99.7482410380001,9.06811569700005,0
                99.748627491,9.06839156200004,0
                99.7491149300001,9.06856034000003,0
                99.749259694,9.06861924800006,0
                99.749371491,9.06866473400004,0
                99.7496971880001,9.06869833500002,0
                99.7501133680001,9.06874084800006,0
                99.750822627,9.06872337300007,0
                99.751225639,9.06872254500007,0
                99.7515885540001,9.06881793800005,0
                99.752145118,9.06901708500004,0
                99.7525888860001,9.06923249300007,0
                99.7527260370001,9.06929629900003,0
                99.7528872080001,9.06927994500006,0
                99.753168885,9.06907106100005,0
                99.7534588980001,9.06899835700005,0
                99.75378104,9.06886950900002,0
                99.754127694,9.06890084000003,0
                99.754329404,9.06899656300004,0
                99.75452298,9.06906025900003,0
                99.7547245650001,9.06909989900004,0
                99.755248485,9.06909881700005,0
                99.755651502,9.06910600500004,0
                99.7559496090001,9.06906738300006,0
                99.7559797160001,9.06906392800005,0
                99.7561237510001,9.06902915100005,0
                99.756187712,9.06898656900006,0
                99.7562082570001,9.06897001900006,0
                99.7563395700001,9.06886423600002,0
                99.7564700460001,9.06872337300007,0
                99.756576641,9.06865153100006,0
                99.756659303,9.06861687000003,0
                99.7568461440001,9.06862975000007,0
                99.756985027,9.06868516800006,0
                99.757115932,9.06874855900003,0
                99.757329531,9.06880117400004,0
                99.7575698310001,9.06885373100005,0
                99.7575712450001,9.06885436500005,0
                99.7575854340001,9.06885363000004,0
                99.7578194070001,9.06896531400002,0
                99.7579572430001,9.06900767100007,0
                99.7584298930001,9.06920209800006,0
                99.758614122,9.06924946300006,0
                99.758720903,9.06926250700008,0
                99.7588811850001,9.06933909500003,0
                99.7590201400001,9.06942369500007,0
                99.7592018710001,9.06955064400006,0
                99.7593728740001,9.06964578400004,0
                99.7594957050001,9.06967737000002,0
                99.759586455,9.06968513000004,0
                99.7597518580001,9.06965826300006,0
                99.7600132920001,9.06960997100003,0
                99.7602723790001,9.06956279900004,0
                99.760562168,9.06957395300003,0
                99.760605717,9.06959548200007,0
                99.7606485310001,9.06965109100003,0
                99.7606887620001,9.06974650900003,0
                99.7606968160001,9.06978984300002,0
                99.7607172090001,9.06989958600008,0
                99.7607860360001,9.07014389600005,0
                99.7608833130001,9.07040808000005,0
                99.7610165600001,9.07052797400007,0
                99.7611557180001,9.07058176500004,0
                99.7612644170001,9.07058153800006,0
                99.7613149570001,9.07055957300003,0
                99.7613370720001,9.07054164100003,0
                99.76135758,9.07052500300006,0
                99.7613814920001,9.07047454900004,0
                99.7613866980001,9.07041087300007,0
                99.761381095,9.07028620800003,0
                99.7613968480001,9.07015885600003,0
                99.7614207010001,9.07008452800005,0
                99.761503341,9.07003925900005,0
                99.7616100830001,9.07003373600003,0
                99.7616848540001,9.07004555600003,0
                99.7616928360001,9.07004682000007,0
                99.7617462970001,9.07008649900007,0
                99.7617814880001,9.07013049900007,0
                99.7617972070001,9.07018555400003,0
                99.7617973900001,9.07027208400007,0
                99.7618030420001,9.07042327200003,0
                99.7618079100001,9.07051158700006,0
                99.7618316210001,9.07054676900003,0
                99.7618451610001,9.07056686800007,0
                99.761919999,9.07062330100007,0
                99.762009,9.07064434000006,0
                99.762094415,9.07065123700005,0
                99.762169144,9.07065108100005,0
                99.7622543960001,9.07058016600007,0
                99.7623245760001,9.07047971800006,0
                99.762407303,9.07041688100003,0
                99.762474517,9.07040102000008,0
                99.7624817380001,9.07039930900004,0
                99.7625005770001,9.07039995800005,0
                99.762534594,9.07040114100005,0
                99.7625778270001,9.07040264100004,0
                99.762631232,9.07042022000007,0
                99.7626918830001,9.07049436600005,0
                99.7627205470001,9.07058626700007,0
                99.7627172960001,9.07073482600003,0
                99.7627070510001,9.07093644500003,0
                99.7626931300001,9.07108502400007,0
                99.7627148020001,9.07123706300007,0
                99.7627645860001,9.07137797500008,0
                99.762768501,9.07138904200002,0
                99.762879211,9.07158334400003,0
                99.7629324810001,9.07162998100006,0
                99.7629671120001,9.07166030200005,0
                99.7629719010001,9.07166449400006,0
                99.7629968680001,9.07167579200006,0
                99.763034766,9.07169292700007,0
                99.7632452350001,9.07172734800002,0
                99.763423425,9.07172025600005,0
                99.763755603,9.07165710900006,0
                99.7638356640001,9.07165694200006,0
                99.7638864100001,9.07167806100006,0
                99.763894512,9.07172314000007,0
                99.763852006,9.07181341500007,0
                99.7637496770001,9.07193502200005,0
                99.7637402010001,9.07194628300005,0
                99.7637299690001,9.07197288200007,0
                99.7637223680001,9.07199267300007,0
                99.7637136650001,9.07201531200008,0
                99.7636871060001,9.07207903100004,0
                99.763687179,9.07211351300003,0
                99.7636979690001,9.07216919500007,0
                99.763767412,9.07219558100007,0
                99.7638830990001,9.07223861800003,0
                99.764157363,9.07234065900008,0
                99.764232167,9.07238029100006,0
                99.7642483320001,9.07245188000007,0
                99.7642551160001,9.07249233500005,0
                99.764267004,9.07250410900002,0
                99.764315815,9.07271431400005,0
                99.7643284170001,9.07295464100002,0
                99.764383841,9.07343523200007,0
                99.764476099,9.07418013400007,0
                99.7644345150001,9.07452973200003,0
                99.764596807,9.07504214400007,0
                99.7648088990001,9.07541276200004,0
                99.7648467670001,9.07547382200005,0
                99.764876717,9.07552212200005,0
                99.7650536800001,9.07569435400006,0
                99.7650648370001,9.07570133400003,0
                99.7651656660001,9.07576433600008,0
                99.7652270080001,9.07579057200007,0
                99.7652981320001,9.07582099100006,0
                99.765355357,9.07587083700002,0
                99.765457703,9.07602948000005,0
                99.765566999,9.07625571100004,0
                99.7656458650001,9.07656311400007,0
                99.765735013,9.07676667000004,0
                99.765768112,9.07680824500005,0
                99.7658607750001,9.07688377000005,0
                99.7659072760001,9.07690943600005,0
                99.766021724,9.07696196100005,0
                99.7661396670001,9.07706702100006,0
                99.7661692570001,9.07714302300008,0
                99.7661723210001,9.07719567500004,0
                99.7661636490001,9.07727175700006,0
                99.7661536190001,9.07732725200003,0
                99.7661520120001,9.07733614100005,0
                99.766172731,9.07738875600006,0
                99.7662080970001,9.07741501100003,0
                99.7663023260001,9.07743236400006,0
                99.7663456050001,9.07745096200006,0
                99.7663700730001,9.07746147500006,0
                99.7664761440001,9.07751683400005,0
                99.766505694,9.07757235300005,0
                99.7665058190001,9.07763086600005,0
                99.766482409,9.07769234600005,0
                99.766420747,9.07776268300006,0
                99.7663032390001,9.07786239800004,0
                99.766292423,9.07786977900003,0
                99.7662473930001,9.07790054700007,0
                99.7662327940001,9.07795615900005,0
                99.766277115,9.07803797700006,0
                99.76632728,9.07809930000008,0
                99.7664216480001,9.07818686900004,0
                99.7664613540001,9.07825979400008,0
                99.7664630140001,9.07826283700007,0
                99.7664690280001,9.07832426200002,0
                99.766438673,9.07840016100005,0
                99.7659991880001,9.07882549000004,0
                99.7658319760001,9.07908620900002,0
                99.7656738090001,9.07944343700007,0
                99.7656622330001,9.07953707500008,0
                99.7656652920001,9.07959265100004,0
                99.7657243570001,9.07968906400004,0
                99.7658544120001,9.07978150500003,0
                99.7659336450001,9.07983783000003,0
                99.7659454980001,9.07987583500005,0
                99.7659280460001,9.07997533200006,0
                99.765857715,9.08011882900007,0
                99.7658578460001,9.08018025600006,0
                99.765875577,9.08021240500005,0
                99.7659458780001,9.08027984200004,0
                99.766037027,9.08034954100003,0
                99.7661778250001,9.08046642500005,0
                99.766259624,9.08055187200006,0
                99.76629603,9.08061940000005,0
                99.7663462340001,9.08077251700007,0
                99.7664380250001,9.08129508800005,0
                99.766501738,9.08140762200003,0
                99.7666507220001,9.08153400900005,0
                99.766794024,9.08167903300006,0
                99.7668442660001,9.08177546500002,0
                99.7668473700001,9.08185152300007,0
                99.766829912,9.08194517300007,0
                99.7668065500001,9.08203298000006,0
                99.7667702190001,9.08210558700006,0
                99.7666938310001,9.08219136600007,0
                99.7663089700001,9.08244004500006,0
                99.766028351,9.08267046700007,0
                99.7659063290001,9.08285999900005,0
                99.7658704570001,9.08304935100006,0
                99.7658619680001,9.08331976900007,0
                99.7658534990001,9.08360370100007,0
                99.7658722840001,9.08391010700007,0
                99.7659179090001,9.08404071100006,0
                99.7659453670001,9.08416232800005,0
                99.7659364950001,9.08425248100002,0
                99.765782636,9.08439250400005,0
                99.7657012480001,9.08450083400004,0
                99.7656470570001,9.08460459700007,0
                99.7656110620001,9.08473537200007,0
                99.7656113210001,9.08473579700006,0
                99.765423077,9.08503703600007,0
                99.765264712,9.08530650500006,0
                99.765244319,9.08540308600004,0
                99.7652797690001,9.08546737300003,0
                99.7654036500001,9.08559290300008,0
                99.765492081,9.08572922000008,0
                99.7655159620001,9.08581500200006,0
                99.765519198,9.08594956400003,0
                99.765422356,9.08608726000006,0
                99.7651981010001,9.08621020000004,0
                99.7651812970001,9.08621941100006,0
                99.765028509,9.08634552100006,0
                99.76496547,9.08642859700007,0
                99.7649680860001,9.08648057100004,0
                99.7649699460001,9.08648606900005,0
                99.7650113560001,9.08658251900005,0
                99.765011987,9.08659909400006,0
                99.7650144720001,9.08666442200007,0
                99.7650024380001,9.08669693300004,0
                99.7649852100001,9.08674347100003,0
                99.7649117490001,9.08679920600002,0
                99.764841291,9.08688711300005,0
                99.7648060690001,9.08693459800003,0
                99.7647825970001,9.08696622400004,0
                99.764741659,9.08709210600006,0
                99.764718228,9.08714773800006,0
                99.7646300970001,9.08722398600003,0
                99.7644794490001,9.08732008800007,0
                99.7643975160001,9.08742790800005,0
                99.7643293260001,9.08754213800006,0
                99.76429869,9.08766507600006,0
                99.764318744,9.08775279100007,0
                99.7644249000001,9.08784910600002,0
                99.7644832930001,9.08788343000003,0
                99.7647250670001,9.08802556600006,0
                99.7647308190001,9.08802674600003,0
                99.7647976850001,9.08805117700007,0
                99.7649873450001,9.08807283300007,0
                99.765148035,9.08807756700003,0
                99.7652093090001,9.08810785700007,0
                99.7652580060001,9.08822183300003,0
                99.7653732420001,9.08843960000007,0
                99.7653913520001,9.08856123300006,0
                99.7653994410001,9.08876655100005,0
                99.765417799,9.08900480800003,0
                99.7654513670001,9.08919992300002,0
                99.7655408640001,9.08931127800003,0
                99.7658499070001,9.08951849700003,0
                99.766184308,9.08965468000002,0
                99.766621145,9.08998838100007,0
                99.766813809,9.09005993300002,0
                99.7670737910001,9.09007140800003,0
                99.767466557,9.08998045600003,0
                99.767768624,9.08988367300003,0
                99.7679450140001,9.08986204200005,0
                99.767979385,9.08987787700005,0
                99.7680044700001,9.08991922900003,0
                99.767992883,9.09015359300003,0
                99.7679933570001,9.09037591800006,0
                99.7680254730001,9.09048452300004,0
                99.7680655060001,9.09052264800005,0
                99.768169007,9.09053178300007,0
                99.7683926500001,9.09051328500004,0
                99.768592104,9.09048883200006,0
                99.768900574,9.09056028900005,0
                99.7692032180001,9.09073390400005,0
                99.769350821,9.09092168500007,0
                99.76937466,9.09098301100005,0
                99.7693855730001,9.09119619900002,0
                99.7694043640001,9.09150260400003,0
                99.769425218,9.09163039900005,0
                99.7694444420001,9.09166879700007,0
                99.769466127,9.09171212500007,0
                99.769507457,9.09177054400004,0
                99.7695803350001,9.09180868700003,0
                99.7697799170001,9.09184431900007,0
                99.770064157,9.09189178500003,0
                99.770160999,9.09194566000002,0
                99.7702397830001,9.09203562800008,0
                99.770233927,9.09211975900007,0
                99.7702098810001,9.09218591000007,0
                99.7701252520001,9.09219209500003,0
                99.7698956290001,9.09224065200004,0
                99.76977485,9.09230099500007,0
                99.769768953,9.09237311300006,0
                99.7697873980001,9.09251728900006,0
                99.7698604970001,9.09277551400004,0
                99.7698668820001,9.09293172600007,0
                99.7697644250001,9.09308216100004,0
                99.7696923000001,9.09328060700005,0
                99.7697108620001,9.09347885400007,0
                99.7697294330001,9.09368311400004,0
                99.769729806,9.09385737400004,0
                99.7697667100001,9.09415172100006,0
                99.7698097460001,9.09448813100005,0
                99.7698332240001,9.09485446200006,0
                99.7699319390001,9.09513509500005,0
                99.7701992450001,9.09534516400004,0
                99.770328878,9.09540339300003,0
                99.7704146730001,9.09540642700006,0
                99.770536888,9.09541075200002,0
                99.770815461,9.09538286500003,0
                99.7709411340001,9.09542550400005,0
                99.771027766,9.09556183400002,0
                99.7712717240001,9.09586166900004,0
                99.7713153860001,9.09609560500007,0
                99.7714216910001,9.09625529800007,0
                99.7717650180001,9.09643017400003,0
                99.7718827050001,9.09628805200003,0
                99.7719592160001,9.09619565500003,0
                99.772151331,9.09611333800007,0
                99.7723905280001,9.09602312100003,0
                99.7725747970001,9.09594082100006,0
                99.7726295470001,9.09585098600007,0
                99.772683488,9.09538281400006,0
                99.7727177990001,9.09491077000007,0
                99.772754336,9.09473497500005,0
                99.7727385000001,9.09449885000004,0
                99.77272057,9.09437602300005,0
                99.7727248090001,9.09429263700002,0
                99.7727862040001,9.09409724300002,0
                99.7728566100001,9.09398957900004,0
                99.7730108700001,9.09386638600006,0
                99.77308057,9.09385647000005,0
                99.773203311,9.09392030600003,0
                99.77322057,9.09394142300005,0
                99.773223724,9.09396598800004,0
                99.7732309730001,9.09402267400003,0
                99.7732002210001,9.09409513800006,0
                99.7731028310001,9.09421298100006,0
                99.773082543,9.09423753400006,0
                99.7730557520001,9.09436227600003,0
                99.7730640680001,9.09448229700007,0
                99.7730908670001,9.09453853000002,0
                99.7731661510001,9.09460127300002,0
                99.773307629,9.09469458700005,0
                99.773381111,9.09479844000003,0
                99.7734781660001,9.09490188100006,0
                99.7735022510001,9.09492754900003,0
                99.7735354770001,9.09498960600007,0
                99.773553345,9.09508830300007,0
                99.7735535400001,9.09509149100006,0
                99.773557925,9.09516508200005,0
                99.7735868570001,9.09527472600007,0
                99.773657707,9.09537331100006,0
                99.7736836830001,9.09539531100006,0
                99.7737353530001,9.09543909000007,0
                99.7740486480001,9.09555351700004,0
                99.774104089,9.09557377600004,0
                99.774253113,9.09561913800007,0
                99.7744719840001,9.09565705200004,0
                99.7746872220001,9.09567812700004,0
                99.7748262630001,9.09570041400002,0
                99.7749041500001,9.09570364100006,0
                99.7750052000001,9.09570197900007,0
                99.775284598,9.09564070700003,0
                99.775486744,9.09559458600006,0
                99.775699945,9.09555758600004,0
                99.7758377690001,9.09552623000008,0
                99.7759884380001,9.09548570400005,0
                99.7760654480001,9.09544894900006,0
                99.776111502,9.09542697200004,0
                99.7762493480001,9.09540657700006,0
                99.77638355,9.09540262600007,0
                99.7764865280001,9.09540790100004,0
                99.776563766,9.09541504100002,0
                99.7767068540001,9.09543989900004,0
                99.7772777590001,9.09562237500006,0
                99.777411294,9.09567474900007,0
                99.7774886180001,9.09572210300007,0
                99.7775880390001,9.09578401500005,0
                99.777634064,9.09581499000006,0
                99.7776635390001,9.09584234300007,0
                99.777689373,9.09588431200007,0
                99.7777152300001,9.09594090700006,0
                99.777741059,9.09598105500004,0
                99.777774191,9.09599925900005,0
                99.7778330530001,9.09601009500005,0
                99.7779103140001,9.09602820400005,0
                99.777985727,9.09604631600007,0
                99.7780878880001,9.09607672900006,0
                99.7780943020001,9.09607989500006,0
                99.7781310970001,9.09609900000004,0
                99.7781900950001,9.09617745500003,0
                99.7782318000001,9.09624016200007,0
                99.778236205,9.09624679600006,0
                99.778273099,9.09630335900005,0
                99.7783320680001,9.09636536800002,0
                99.7784058000001,9.09644743900003,0
                99.778481318,9.09651489900006,0
                99.7785373790001,9.09655848100005,0
                99.778576554,9.09658045900005,0
                99.778630422,9.09659680800007,0
                99.7787223880001,9.09661305700007,0
                99.7788272070001,9.09662380300006,0
                99.7789007550001,9.09662547300007,0
                99.7789724510001,9.09662166400005,0
                99.7790239130001,9.09661424900003,0
                99.7790900570001,9.09659034900005,0
                99.7791488220001,9.09656098000005,0
                99.779198374,9.09651702200006,0
                99.7792460750001,9.09647123100007,0
                99.779269883,9.09642731800005,0
                99.7792899710001,9.09636332200006,0
                99.7793082600001,9.09633176000006,0
                99.7793284580001,9.09631024500004,0
                99.7794093090001,9.09628632200003,0
                99.7794864620001,9.09625508600004,0
                99.7795397100001,9.09622208100006,0
                99.779605808,9.09618173600006,0
                99.7796755780001,9.09613773300003,0
                99.7797544920001,9.09606994500007,0
                99.7798279130001,9.09601314800005,0
                99.779871944,9.09596736300006,0
                99.7799214560001,9.09590877900007,0
                99.7799727680001,9.09583191700006,0
                99.780045692,9.09575881500007,0
                99.780166781,9.09571171000005,0
                99.7802123640001,9.09568952400002,0
                99.780255191,9.09565396000005,0
                99.7803539020001,9.09551943600007,0
              </coordinates>
                
            </LinearRing>
            
          </outerBoundaryIs>
        
        </Polygon>
        
      <styleUrl>
        #tambonStyle</styleUrl>
    </Placemark>

  </Document>
</kml>