<?xml version="1.0" encoding="UTF-8"?>
<kml xmlns="http://www.opengis.net/kml/2.2">
  <Document id="tambon_doc">
    <name>ถนนใหญ่, เมืองลพบุรี, Lop Buri</name>
    <description>ข้อมูลขอบเขตตำบลถนนใหญ่ อำเภอเมืองลพบุรี จังหวัดLop Buri</description>
    
    <!-- Schema สำหรับข้อมูลตำบล -->
    <Schema id="tambon.schema">
      <SimpleField name="ADM3_EN" type="string">
        <displayName>Subdistrict Name (English)</displayName>
      </SimpleField>
      <SimpleField name="ADM3_TH" type="string">
        <displayName>ชื่อตำบล</displayName>
      </SimpleField>
      <SimpleField name="ADM2_EN" type="string">
        <displayName>District Name (English)</displayName>
      </SimpleField>
      <SimpleField name="ADM2_TH" type="string">
        <displayName>ชื่ออำเภอ</displayName>
      </SimpleField>
      <SimpleField name="ADM1_EN" type="string">
        <displayName>Province Name (English)</displayName>
      </SimpleField>
      <SimpleField name="ADM1_TH" type="string">
        <displayName>ชื่อจังหวัด</displayName>
      </SimpleField>
      <SimpleField name="ADM0_EN" type="string">
        <displayName>Country Name (English)</displayName>
      </SimpleField>
      <SimpleField name="ADM0_TH" type="string">
        <displayName>ชื่อประเทศ</displayName>
      </SimpleField>
    </Schema>

    <!-- Style สำหรับตำบล -->
    <Style id="tambonStyle">
      <LineStyle>
        <color>ffff0000</color>
        <width>1.5</width>
      </LineStyle>
      <PolyStyle>
        <color>33ff0000</color>
        <fill>1</fill>
        <outline>1</outline>
      </PolyStyle>
    </Style>

    <Placemark id="Lop_Buri.24">
        
        <ExtendedData>
            
          <SchemaData schemaUrl="#tambon.schema">
                
            <SimpleData name="Shape_Leng">
                0.138112501068</SimpleData>
                
            <SimpleData name="Shape_Area">
                0.000873994364109</SimpleData>
                
            <SimpleData name="ADM3_EN">
                Thanon Yai</SimpleData>
                
            <SimpleData name="ADM3_TH">
                ถนนใหญ่</SimpleData>
                
            <SimpleData name="ADM3_PCODE">
                TH160125</SimpleData>
                
            <SimpleData name="ADM2_EN">
                Mueang Lop Buri</SimpleData>
                
            <SimpleData name="ADM2_TH">
                เมืองลพบุรี</SimpleData>
                
            <SimpleData name="ADM2_PCODE">
                TH1601</SimpleData>
                
            <SimpleData name="ADM1_EN">
                Lop Buri</SimpleData>
                
            <SimpleData name="ADM1_TH">
                ลพบุรี</SimpleData>
                
            <SimpleData name="ADM1_PCODE">
                TH16</SimpleData>
                
            <SimpleData name="ADM0_EN">
                Thailand</SimpleData>
                
            <SimpleData name="ADM0_TH">
                ประเทศไทย</SimpleData>
                
            <SimpleData name="ADM0_PCODE">
                TH</SimpleData>
            
          </SchemaData>
        
        </ExtendedData>
        
        <Polygon>
            
          <outerBoundaryIs>
                
            <LinearRing>
                    
              <coordinates>
                    
                100.642948077,14.845786908,0
                100.644474786,14.8387955910001,0
                100.64464001,14.837996521,0
                100.644971741,14.8364629770001,0
                100.645269848,14.8350994900001,0
                100.645691593,14.833157742,0
                100.64606542,14.831420118,0
                100.646326974,14.830226704,0
                100.64652095,14.829330956,0
                100.646692252,14.8285146150001,0
                100.646996094,14.8271425950001,0
                100.647260232,14.82590671,0
                100.647423508,14.825183822,0
                100.647636926,14.824166231,0
                100.647695071,14.8239069690001,0
                100.646733163,14.8237092530001,0
                100.646722019,14.8237041090001,0
                100.646213826,14.823605339,0
                100.646300202,14.82322219,0
                100.6463569,14.82297069,0
                100.646050576,14.822905114,0
                100.645722141,14.8228348050001,0
                100.645730741,14.822498856,0
                100.645741169,14.822091443,0
                100.645386014,14.822060977,0
                100.64527369,14.8220513430001,0
                100.645261933,14.822020321,0
                100.64494012,14.8211711770001,0
                100.644871261,14.820989486,0
                100.644818846,14.8207388390001,0
                100.644734151,14.820293147,0
                100.644650394,14.819833245,0
                100.6446117,14.819536167,0
                100.644610302,14.81953249,0
                100.644604739,14.8195211190001,0
                100.644597662,14.819515842,0
                100.644588244,14.819511345,0
                100.644574938,14.8195091580001,0
                100.644560606,14.8195084650001,0
                100.644412487,14.81952942,0
                100.644309172,14.819535138,0
                100.644240135,14.8195352380001,0
                100.644133049,14.8195287140001,0
                100.643542001,14.8195004740001,0
                100.643358359,14.819494342,0
                100.643305974,14.819489451,0
                100.643283636,14.819482764,0
                100.643268309,14.8194726020001,0
                100.643255874,14.819456716,0
                100.643250425,14.819433933,0
                100.643247886,14.8194082740001,0
                100.64324729,14.819390293,0
                100.643268052,14.819022234,0
                100.643268504,14.8188561150001,0
                100.643266372,14.8188240860001,0
                100.643262917,14.818806454,0
                100.643259675,14.8187910400001,0
                100.643254353,14.818777101,0
                100.643244227,14.818764904,0
                100.643231232,14.818752922,0
                100.643215329,14.8187440020001,0
                100.64320611,14.818739914,0
                100.643132987,14.818721167,0
                100.643000354,14.818692695,0
                100.642829187,14.818669577,0
                100.642697752,14.818661381,0
                100.642593459,14.8186580720001,0
                100.64236606,14.8186705630001,0
                100.642243361,14.818670105,0
                100.642205682,14.8186699670001,0
                100.642101356,14.8186615830001,0
                100.642042896,14.8186518540001,0
                100.641977096,14.8186371080001,0
                100.641930066,14.818622228,0
                100.641842237,14.818589386,0
                100.64179722,14.8185653630001,0
                100.641744768,14.8185231360001,0
                100.641702728,14.818478805,0
                100.641663685,14.8184172090001,0
                100.641634577,14.818349938,0
                100.641589445,14.818263706,0
                100.641546364,14.818204506,0
                100.641506412,14.8181775410001,0
                100.641466285,14.8181545850001,0
                100.641354856,14.81812653,0
                100.641000456,14.8180785650001,0
                100.640578702,14.818049445,0
                100.640275591,14.8180638970001,0
                100.64021791,14.817296125,0
                100.640148634,14.8162999210001,0
                100.640139592,14.816249005,0
                100.640119677,14.816202565,0
                100.64008983,14.8161771270001,0
                100.640059229,14.8161612170001,0
                100.64002371,14.816148748,0
                100.639975647,14.8161383720001,0
                100.639937269,14.81613658,0
                100.63812266,14.8161914520001,0
                100.638092965,14.816184934,0
                100.638033485,14.8161629160001,0
                100.637990432,14.816134372,0
                100.637947307,14.816096208,0
                100.63791518,14.8160424340001,0
                100.637805887,14.815358238,0
                100.637773779,14.815157245,0
                100.637686415,14.814244865,0
                100.636360988,14.81428327,0
                100.636339468,14.8135222510001,0
                100.63589576,14.8133716310001,0
                100.636021516,14.813044518,0
                100.635742925,14.812983649,0
                100.635513321,14.8129524620001,0
                100.63530827,14.812951293,0
                100.634863359,14.812943633,0
                100.634348017,14.812936472,0
                100.633841954,14.8129310470001,0
                100.633799337,14.8129289140001,0
                100.633684345,14.8129231500001,0
                100.633615708,14.812916424,0
                100.63349294,14.8128964210001,0
                100.63336831,14.8128617190001,0
                100.633290885,14.8136014510001,0
                100.633173145,14.81489443,0
                100.633143101,14.8151678300001,0
                100.633142161,14.8151840260001,0
                100.632808354,14.815158512,0
                100.632771392,14.8151507960001,0
                100.632657268,14.815090535,0
                100.632633485,14.8150779760001,0
                100.632497707,14.815043706,0
                100.632339696,14.8149962900001,0
                100.632107739,14.814958044,0
                100.632043369,14.8149311880001,0
                100.631961876,14.8148767860001,0
                100.631955361,14.814869371,0
                100.631883146,14.814808052,0
                100.631827465,14.814764568,0
                100.631753304,14.814717225,0
                100.631640624,14.8146650580001,0
                100.631580359,14.8146501800001,0
                100.631484147,14.814639352,0
                100.631444609,14.814640873,0
                100.631377997,14.8146369950001,0
                100.631206282,14.814604011,0
                100.631099511,14.8145713930001,0
                100.63105091,14.814552668,0
                100.630592624,14.814406325,0
                100.630373301,14.814965584,0
                100.626794904,14.8238524500001,0
                100.62657457,14.823762044,0
                100.626249673,14.8236318,0
                100.625817068,14.8234593660001,0
                100.625439536,14.8233088810001,0
                100.62486229,14.823083044,0
                100.624687874,14.822997721,0
                100.624503584,14.822893532,0
                100.624351384,14.822803994,0
                100.624222777,14.822709553,0
                100.624075501,14.8225969870001,0
                100.623803239,14.8223789140001,0
                100.62344567,14.8220717790001,0
                100.62240069,14.821139852,0
                100.621283174,14.820202023,0
                100.619985999,14.819127931,0
                100.62000804,14.819525082,0
                100.620011608,14.820004904,0
                100.619982968,14.8208436260001,0
                100.619935409,14.8218181980001,0
                100.619930518,14.823170524,0
                100.619948205,14.82353877,0
                100.619541465,14.8235737000001,0
                100.618552704,14.8236586150001,0
                100.617834441,14.8236316380001,0
                100.617156264,14.823606167,0
                100.615859558,14.823557457,0
                100.613158347,14.823496617,0
                100.610015741,14.823570417,0
                100.608976452,14.828363193,0
                100.608686002,14.8296960280001,0
                100.60633956,14.840449069,0
                100.606576949,14.8404683210001,0
                100.606601519,14.8404671770001,0
                100.606729525,14.8404513900001,0
                100.606927775,14.8404186970001,0
                100.607055666,14.840388476,0
                100.607104638,14.840379913,0
                100.607172266,14.840377792,0
                100.607251763,14.840380527,0
                100.607724099,14.840454537,0
                100.608226872,14.84052833,0
                100.609420331,14.8407042040001,0
                100.610170268,14.8408157420001,0
                100.610916877,14.840933879,0
                100.612117246,14.8411294270001,0
                100.61276549,14.8412087730001,0
                100.613535705,14.8413185100001,0
                100.614532772,14.8414611960001,0
                100.61547908,14.841600941,0
                100.616405137,14.841745761,0
                100.617525806,14.841910592,0
                100.618423083,14.842050672,0
                100.619288172,14.842182748,0
                100.620476588,14.8423618890001,0
                100.621617656,14.842539717,0
                100.62281288,14.842723732,0
                100.623832,14.842876083,0
                100.624790205,14.84302229,0
                100.625519107,14.8431312700001,0
                100.626433072,14.8432705970001,0
                100.628002795,14.843508539,0
                100.628440175,14.843574833,0
                100.628817431,14.843631983,0
                100.629721418,14.8437689250001,0
                100.631197264,14.843990526,0
                100.632078319,14.844131939,0
                100.632530339,14.844201103,0
                100.632759924,14.844231854,0
                100.633543633,14.844357041,0
                100.634397657,14.844485553,0
                100.63585528,14.844705468,0
                100.636818563,14.8448515800001,0
                100.637778323,14.845001616,0
                100.638961828,14.8451751490001,0
                100.639916662,14.845321315,0
                100.6410289,14.845486083,0
                100.64205031,14.8456426280001,0
                100.642630458,14.845731245,0
                100.642948077,14.845786908,0
              </coordinates>
                
            </LinearRing>
            
          </outerBoundaryIs>
        
        </Polygon>
        
      <styleUrl>
        #tambonStyle</styleUrl>
    </Placemark>

  </Document>
</kml>