<?xml version="1.0" encoding="UTF-8"?>
<kml xmlns="http://www.opengis.net/kml/2.2">
  <Document id="tambon_doc">
    <name>บึง, เขวาสินรินทร์, Surin</name>
    <description>ข้อมูลขอบเขตตำบลบึง อำเภอเขวาสินรินทร์ จังหวัดSurin</description>
    
    <!-- Schema สำหรับข้อมูลตำบล -->
    <Schema id="tambon.schema">
      <SimpleField name="ADM3_EN" type="string">
        <displayName>Subdistrict Name (English)</displayName>
      </SimpleField>
      <SimpleField name="ADM3_TH" type="string">
        <displayName>ชื่อตำบล</displayName>
      </SimpleField>
      <SimpleField name="ADM2_EN" type="string">
        <displayName>District Name (English)</displayName>
      </SimpleField>
      <SimpleField name="ADM2_TH" type="string">
        <displayName>ชื่ออำเภอ</displayName>
      </SimpleField>
      <SimpleField name="ADM1_EN" type="string">
        <displayName>Province Name (English)</displayName>
      </SimpleField>
      <SimpleField name="ADM1_TH" type="string">
        <displayName>ชื่อจังหวัด</displayName>
      </SimpleField>
      <SimpleField name="ADM0_EN" type="string">
        <displayName>Country Name (English)</displayName>
      </SimpleField>
      <SimpleField name="ADM0_TH" type="string">
        <displayName>ชื่อประเทศ</displayName>
      </SimpleField>
    </Schema>

    <!-- Style สำหรับตำบล -->
    <Style id="tambonStyle">
      <LineStyle>
        <color>ffff0000</color>
        <width>1.5</width>
      </LineStyle>
      <PolyStyle>
        <color>33ff0000</color>
        <fill>1</fill>
        <outline>1</outline>
      </PolyStyle>
    </Style>

    <Placemark id="Surin.151">
        
        <ExtendedData>
            
          <SchemaData schemaUrl="#tambon.schema">
                
            <SimpleData name="Shape_Leng">
                0.250165682386</SimpleData>
                
            <SimpleData name="Shape_Area">
                0.00272557672948</SimpleData>
                
            <SimpleData name="ADM3_EN">
                Bueng</SimpleData>
                
            <SimpleData name="ADM3_TH">
                บึง</SimpleData>
                
            <SimpleData name="ADM3_PCODE">
                TH321602</SimpleData>
                
            <SimpleData name="ADM2_EN">
                Khwao Sin Rin</SimpleData>
                
            <SimpleData name="ADM2_TH">
                เขวาสินรินทร์</SimpleData>
                
            <SimpleData name="ADM2_PCODE">
                TH3216</SimpleData>
                
            <SimpleData name="ADM1_EN">
                Surin</SimpleData>
                
            <SimpleData name="ADM1_TH">
                สุรินทร์</SimpleData>
                
            <SimpleData name="ADM1_PCODE">
                TH32</SimpleData>
                
            <SimpleData name="ADM0_EN">
                Thailand</SimpleData>
                
            <SimpleData name="ADM0_TH">
                ประเทศไทย</SimpleData>
                
            <SimpleData name="ADM0_PCODE">
                TH</SimpleData>
            
          </SchemaData>
        
        </ExtendedData>
        
        <Polygon>
            
          <outerBoundaryIs>
                
            <LinearRing>
                    
              <coordinates>
                    
                103.628534602,15.07122101,0
                103.631568933,15.0699001890001,0
                103.633919161,15.0687602680001,0
                103.636241686,15.067521641,0
                103.637851627,15.0663968480001,0
                103.640062298,15.06471384,0
                103.642175146,15.063231332,0
                103.64507922,15.061732582,0
                103.647097985,15.0606241730001,0
                103.648078328,15.059909277,0
                103.648986409,15.0593943650001,0
                103.650149719,15.0588742100001,0
                103.651283728,15.0581809600001,0
                103.652461756,15.0571642300001,0
                103.652964133,15.0567817080001,0
                103.654435415,15.056154528,0
                103.650082306,15.053273878,0
                103.647800114,15.0516045740001,0
                103.646375954,15.0505518690001,0
                103.645444039,15.05006733,0
                103.644359031,15.0496045730001,0
                103.642583291,15.049155968,0
                103.636793585,15.0477262480001,0
                103.635410638,15.043056719,0
                103.633868053,15.0434465480001,0
                103.630452228,15.044641728,0
                103.628681972,15.045165813,0
                103.626514898,15.045690119,0
                103.625898485,15.0445222380001,0
                103.625519268,15.0438374400001,0
                103.625382382,15.043124087,0
                103.623895593,15.0436502160001,0
                103.62247587,15.0439074010001,0
                103.622026638,15.041854675,0
                103.621665269,15.0419958300001,0
                103.619257896,15.0426430110001,0
                103.614129935,15.0437140220001,0
                103.6127176,15.038424261,0
                103.611792079,15.0361448510001,0
                103.609965289,15.0319548630001,0
                103.609495391,15.030481762,0
                103.611464013,15.0299527870001,0
                103.612988964,15.029566996,0
                103.612610958,15.028869146,0
                103.611890944,15.027428903,0
                103.611802427,15.027346396,0
                103.611682889,15.02731992,0
                103.61154942,15.027337086,0
                103.61125452,15.0274538830001,0
                103.610954198,15.0275491080001,0
                103.610766017,15.0275577510001,0
                103.610613912,15.0275150740001,0
                103.610448281,15.027419681,0
                103.610216635,15.027250963,0
                103.609651438,15.0266698940001,0
                103.609360837,15.026295211,0
                103.609164443,15.026152267,0
                103.608823593,15.026091744,0
                103.608304319,15.026032442,0
                103.607531373,15.0259325170001,0
                103.607194958,15.0258478170001,0
                103.60695356,15.0256865110001,0
                103.606146042,15.024785164,0
                103.605977221,15.0246005490001,0
                103.605852586,15.024725814,0
                103.605676961,15.024912219,0
                103.605591103,15.0249835590001,0
                103.605449829,15.025100697,0
                103.605375265,15.025162521,0
                103.605279781,15.0252375910001,0
                103.605215405,15.025291983,0
                103.605149593,15.025335784,0
                103.605101647,15.0253638890001,0
                103.605066795,15.0253799270001,0
                103.605013869,15.025402238,0
                103.604907718,15.025432703,0
                103.604849811,15.025449214,0
                103.604766605,15.0254744910001,0
                103.604676276,15.025506996,0
                103.604672053,15.0255085960001,0
                103.604189892,15.025691449,0
                103.603970035,15.025799207,0
                103.603855987,15.025855108,0
                103.603571031,15.025991343,0
                103.603464333,15.0260423550001,0
                103.603365378,15.0260978490001,0
                103.603331211,15.0261170110001,0
                103.603300025,15.0261341610001,0
                103.603273689,15.0261512070001,0
                103.60325223,15.0261693370001,0
                103.603239237,15.0261861170001,0
                103.60323004,15.026209894,0
                103.603227008,15.026238268,0
                103.603226734,15.026245997,0
                103.603225491,15.026280765,0
                103.603249453,15.0264325860001,0
                103.603274666,15.026592362,0
                103.603273556,15.0266464970001,0
                103.603273481,15.0266501880001,0
                103.603266989,15.026686887,0
                103.603256779,15.0267201230001,0
                103.603239211,15.02674997,0
                103.603215556,15.0267787610001,0
                103.603173073,15.026835061,0
                103.603029439,15.0270420480001,0
                103.602892531,15.0272229450001,0
                103.602851156,15.0272745080001,0
                103.602817768,15.0273023180001,0
                103.602515388,15.0275774030001,0
                103.602240908,15.027851921,0
                103.602209924,15.027878502,0
                103.602186036,15.027896679,0
                103.602154723,15.02790793,0
                103.602111121,15.0279123550001,0
                103.602072288,15.027913696,0
                103.602028646,15.027915208,0
                103.601966774,15.0279164630001,0
                103.601940183,15.027921717,0
                103.601928673,15.027927881,0
                103.601914985,15.027935208,0
                103.601880307,15.027959502,0
                103.601737455,15.0280897970001,0
                103.601609035,15.0282139020001,0
                103.601468735,15.028350044,0
                103.601422508,15.028401705,0
                103.601399006,15.0284375680001,0
                103.601376789,15.028476948,0
                103.60134325,15.0285542980001,0
                103.601291846,15.0286473520001,0
                103.601232528,15.028767696,0
                103.601210233,15.0288035350001,0
                103.601190092,15.028826356,0
                103.601156729,15.028855343,0
                103.601110069,15.0288869610001,0
                103.60105146,15.028927077,0
                103.600994059,15.02896717,0
                103.600879536,15.0290484080001,0
                103.600843421,15.0290740300001,0
                103.600720532,15.0291732490001,0
                103.600669401,15.0292226500001,0
                103.600631594,15.0292706000001,0
                103.600604496,15.0293089,0
                103.600588223,15.029342259,0
                103.600580054,15.029366452,0
                103.600573386,15.029386206,0
                103.600570303,15.029412216,0
                103.600587166,15.029519221,0
                103.600586685,15.0295534370001,0
                103.600571449,15.0295785220001,0
                103.600569439,15.0295801840001,0
                103.600545213,15.0296002860001,0
                103.600498501,15.0296295420001,0
                103.600439664,15.0296590460001,0
                103.600397782,15.029687027,0
                103.600359565,15.0297161130001,0
                103.600337071,15.0297425210001,0
                103.600316016,15.0297795160001,0
                103.600237162,15.0298943550001,0
                103.600175797,15.029975817,0
                103.600101284,15.030066977,0
                103.599962131,15.0302230230001,0
                103.599903054,15.030289274,0
                103.599822754,15.0303793200001,0
                103.599815612,15.0303900110001,0
                103.599802764,15.030409218,0
                103.599797229,15.030434101,0
                103.599811027,15.030534677,0
                103.599814498,15.030559972,0
                103.599826884,15.0306281380001,0
                103.599823778,15.030652972,0
                103.599808485,15.030675694,0
                103.599773856,15.0307023510001,0
                103.599716533,15.030745977,0
                103.599678396,15.030778598,0
                103.599661864,15.0308001700001,0
                103.599651384,15.030823675,0
                103.599649124,15.0308287390001,0
                103.599643564,15.030852442,0
                103.599631986,15.030941405,0
                103.599622187,15.0310166790001,0
                103.599618948,15.0310415340001,0
                103.599580645,15.0312077470001,0
                103.599550223,15.0313596500001,0
                103.599509171,15.031609969,0
                103.599508856,15.031611533,0
                103.59950502,15.031630707,0
                103.599502595,15.031642838,0
                103.599486803,15.0316705830001,0
                103.599467276,15.0316939840001,0
                103.599437858,15.03172289,0
                103.599390521,15.031765432,0
                103.599357406,15.0317917570001,0
                103.599322307,15.0318226410001,0
                103.599306992,15.031836114,0
                103.599237257,15.0319046380001,0
                103.59920562,15.031938833,0
                103.599172507,15.032004511,0
                103.599114636,15.0321231200001,0
                103.599054786,15.03225016,0
                103.599047704,15.032261889,0
                103.599004775,15.0323329610001,0
                103.598939621,15.0324139740001,0
                103.598874736,15.032507562,0
                103.598800553,15.0325698780001,0
                103.598734765,15.0326215430001,0
                103.598675186,15.032660499,0
                103.598600459,15.032697663,0
                103.598521237,15.0327265340001,0
                103.598431009,15.0327451380001,0
                103.598408866,15.0327464690001,0
                103.598325411,15.0327514750001,0
                103.59822835,15.032753443,0
                103.598114393,15.032772532,0
                103.598041917,15.0328138420001,0
                103.597954829,15.0328785200001,0
                103.597867882,15.032949489,0
                103.59776822,15.033031196,0
                103.597647838,15.0331531730001,0
                103.597519057,15.033285801,0
                103.597404699,15.033386686,0
                103.597386231,15.033403869,0
                103.597275648,15.033506738,0
                103.597159223,15.0336118550001,0
                103.597091958,15.033695003,0
                103.597016555,15.0338013900001,0
                103.596947224,15.033888775,0
                103.596892311,15.033944411,0
                103.596832955,15.0339938490001,0
                103.596739354,15.034056563,0
                103.59661358,15.034128314,0
                103.596479227,15.034202339,0
                103.596336195,15.0342744430001,0
                103.59620997,15.0343252320001,0
                103.596127423,15.034351406,0
                103.595306144,15.034509482,0
                103.594126537,15.0347623660001,0
                103.592802609,15.035072047,0
                103.591650983,15.0353378250001,0
                103.591326855,15.0354117380001,0
                103.591010085,15.0355057040001,0
                103.59011548,15.0357999450001,0
                103.589282062,15.0360390660001,0
                103.58901277,15.0360849250001,0
                103.588787353,15.035914378,0
                103.588137367,15.0353348580001,0
                103.587687543,15.035040887,0
                103.587534139,15.034996845,0
                103.587403245,15.035033168,0
                103.586914441,15.035507765,0
                103.585943912,15.036727265,0
                103.585184146,15.037655639,0
                103.58468456,15.03835523,0
                103.584265613,15.0390322430001,0
                103.583727365,15.0400157220001,0
                103.583401777,15.040531904,0
                103.583300982,15.040824705,0
                103.582808255,15.041923507,0
                103.581798946,15.0416487360001,0
                103.581362853,15.041546854,0
                103.581200204,15.0415501410001,0
                103.580978937,15.0416020540001,0
                103.580660753,15.041687547,0
                103.580315012,15.041752515,0
                103.579649734,15.041839754,0
                103.579000834,15.0419319280001,0
                103.578356339,15.041976569,0
                103.577218256,15.0420206370001,0
                103.575700315,15.0420565520001,0
                103.574018933,15.042058861,0
                103.571702535,15.0420423370001,0
                103.570579468,15.0420280860001,0
                103.570026529,15.041990055,0
                103.569186435,15.042071983,0
                103.568327085,15.042215808,0
                103.567598191,15.042372818,0
                103.56688393,15.0425417060001,0
                103.56755187,15.0440752370001,0
                103.568130113,15.045401837,0
                103.568775548,15.046894916,0
                103.569406517,15.048348533,0
                103.570534203,15.050927207,0
                103.571242328,15.0525868390001,0
                103.571978098,15.0542635730001,0
                103.572657575,15.0558575220001,0
                103.573168612,15.0570132010001,0
                103.573852934,15.0586202960001,0
                103.574330585,15.0597015600001,0
                103.575028463,15.061303954,0
                103.575985114,15.0635282760001,0
                103.576660886,15.0649456080001,0
                103.577428196,15.0663919990001,0
                103.578243507,15.067956661,0
                103.578925656,15.069245767,0
                103.57955557,15.070429925,0
                103.579949801,15.0712213530001,0
                103.580522935,15.072300657,0
                103.581404272,15.0739743780001,0
                103.582134462,15.075381738,0
                103.582740563,15.0765133620001,0
                103.58340394,15.0777719000001,0
                103.583933852,15.078741646,0
                103.584730915,15.080297799,0
                103.585550519,15.081844657,0
                103.585783399,15.0823169240001,0
                103.586178444,15.083143648,0
                103.586751664,15.0844349130001,0
                103.58718023,15.085340447,0
                103.587557968,15.0862072670001,0
                103.588049505,15.0872926000001,0
                103.588441612,15.088104835,0
                103.590359267,15.088110495,0
                103.592036739,15.087729011,0
                103.593228079,15.0873077700001,0
                103.594850203,15.086728872,0
                103.59685098,15.085943749,0
                103.598834756,15.0855559980001,0
                103.600228687,15.0850561570001,0
                103.601770968,15.08432996,0
                103.603715276,15.083297789,0
                103.607661831,15.081554824,0
                103.609754419,15.080296263,0
                103.611698637,15.079264047,0
                103.614447379,15.0776446720001,0
                103.615453463,15.0769293440001,0
                103.617455635,15.0762184930001,0
                103.62175444,15.0742448240001,0
                103.626552927,15.0717645990001,0
                103.628534602,15.07122101,0
              </coordinates>
                
            </LinearRing>
            
          </outerBoundaryIs>
        
        </Polygon>
        
      <styleUrl>
        #tambonStyle</styleUrl>
    </Placemark>

  </Document>
</kml>