<?xml version="1.0" encoding="UTF-8"?>
<kml xmlns="http://www.opengis.net/kml/2.2">
  <Document id="tambon_doc">
    <name>ทุ่งใหญ่, ทุ่งใหญ่, Nakhon Si Thammarat</name>
    <description>ข้อมูลขอบเขตตำบลทุ่งใหญ่ อำเภอทุ่งใหญ่ จังหวัดNakhon Si Thammarat</description>
    
    <!-- Schema สำหรับข้อมูลตำบล -->
    <Schema id="tambon.schema">
      <SimpleField name="ADM3_EN" type="string">
        <displayName>Subdistrict Name (English)</displayName>
      </SimpleField>
      <SimpleField name="ADM3_TH" type="string">
        <displayName>ชื่อตำบล</displayName>
      </SimpleField>
      <SimpleField name="ADM2_EN" type="string">
        <displayName>District Name (English)</displayName>
      </SimpleField>
      <SimpleField name="ADM2_TH" type="string">
        <displayName>ชื่ออำเภอ</displayName>
      </SimpleField>
      <SimpleField name="ADM1_EN" type="string">
        <displayName>Province Name (English)</displayName>
      </SimpleField>
      <SimpleField name="ADM1_TH" type="string">
        <displayName>ชื่อจังหวัด</displayName>
      </SimpleField>
      <SimpleField name="ADM0_EN" type="string">
        <displayName>Country Name (English)</displayName>
      </SimpleField>
      <SimpleField name="ADM0_TH" type="string">
        <displayName>ชื่อประเทศ</displayName>
      </SimpleField>
    </Schema>

    <!-- Style สำหรับตำบล -->
    <Style id="tambonStyle">
      <LineStyle>
        <color>ffff0000</color>
        <width>1.5</width>
      </LineStyle>
      <PolyStyle>
        <color>33ff0000</color>
        <fill>1</fill>
        <outline>1</outline>
      </PolyStyle>
    </Style>

    <Placemark id="Nakhon_Si_Thammarat.91">
        
        <ExtendedData>
            
          <SchemaData schemaUrl="#tambon.schema">
                
            <SimpleData name="Shape_Leng">
                0.451725169312</SimpleData>
                
            <SimpleData name="Shape_Area">
                0.00676245088075</SimpleData>
                
            <SimpleData name="ADM3_EN">
                Thung Yai</SimpleData>
                
            <SimpleData name="ADM3_TH">
                ทุ่งใหญ่</SimpleData>
                
            <SimpleData name="ADM3_PCODE">
                TH801103</SimpleData>
                
            <SimpleData name="ADM2_EN">
                Thung Yai</SimpleData>
                
            <SimpleData name="ADM2_TH">
                ทุ่งใหญ่</SimpleData>
                
            <SimpleData name="ADM2_PCODE">
                TH8011</SimpleData>
                
            <SimpleData name="ADM1_EN">
                Nakhon Si Thammarat</SimpleData>
                
            <SimpleData name="ADM1_TH">
                นครศรีธรรมราช</SimpleData>
                
            <SimpleData name="ADM1_PCODE">
                TH80</SimpleData>
                
            <SimpleData name="ADM0_EN">
                Thailand</SimpleData>
                
            <SimpleData name="ADM0_TH">
                ประเทศไทย</SimpleData>
                
            <SimpleData name="ADM0_PCODE">
                TH</SimpleData>
            
          </SchemaData>
        
        </ExtendedData>
        
        <Polygon>
            
          <outerBoundaryIs>
                
            <LinearRing>
                    
              <coordinates>
                    
                99.420410131,8.41207846300006,0
                99.4206633490001,8.41182960000003,0
                99.4210469550001,8.41139320000002,0
                99.4211148090001,8.41129801900007,0
                99.4213307400001,8.41099514900003,0
                99.421553079,8.41060480900006,0
                99.421756169,8.41016860200006,0
                99.422303582,8.40910775800006,0
                99.4224275170001,8.40885510300006,0
                99.4226249230001,8.40813303500005,0
                99.42270195,8.40785128200002,0
                99.4228967350001,8.40725843100006,0
                99.4229653230001,8.40708886600004,0
                99.423193858,8.40672886800007,0
                99.42341996,8.40646178300005,0
                99.4237427320001,8.40615678200004,0
                99.4239772020001,8.40604660000002,0
                99.424104184,8.40601347100005,0
                99.4242296890001,8.40602126400006,0
                99.424374244,8.40605431800003,0
                99.4246481490001,8.40617397800003,0
                99.4251781230001,8.40651635200004,0
                99.4254010270001,8.40664997000005,0
                99.425608546,8.40676065700006,0
                99.4258659750001,8.40685216400004,0
                99.4261233350001,8.40688248500004,0
                99.4263576150001,8.40688223200004,0
                99.426614923,8.40686282700005,0
                99.426860682,8.40682049200007,0
                99.4270641730001,8.40676290300007,0
                99.4273021670001,8.40664408500004,0
                99.42764379,8.40646014300006,0
                99.4284344050001,8.40594297300004,0
                99.4288680530001,8.40562507200002,0
                99.4294858640001,8.40513486200007,0
                99.4298657590001,8.40483231300004,0
                99.43021494,8.40454127100003,0
                99.4304259180001,8.40430774400005,0
                99.430625288,8.40399391700004,0
                99.4307594380001,8.40374900500007,0
                99.4308552050001,8.40351942900003,0
                99.4309071590001,8.40336291900007,0
                99.4311269880001,8.40270069400003,0
                99.431253315,8.40232575500005,0
                99.4313375720001,8.40211149300006,0
                99.4314180960001,8.40199666800004,0
                99.4315063390001,8.40191243300006,0
                99.4315984570001,8.40185878900007,0
                99.4317290180001,8.40183952400002,0
                99.431886482,8.40183935200002,0
                99.432005588,8.40188129100005,0
                99.4321016680001,8.40193855000007,0
                99.432170919,8.40204556200007,0
                99.432217156,8.40217936700003,0
                99.4322364940001,8.40230173100002,0
                99.432252008,8.40243557300005,0
                99.432248423,8.40266886800003,0
                99.432214183,8.40296339300005,0
                99.4321606920001,8.40321586500005,0
                99.4321085380001,8.40338221200005,0
                99.4320803250001,8.40347219600005,0
                99.4320114330001,8.40369026400003,0
                99.431927193,8.40391982600005,0
                99.4319004580001,8.40405753700003,0
                99.4318967400001,8.40416845200002,0
                99.431916082,8.40429081600007,0
                99.4319700070001,8.40443226300005,0
                99.4321392430001,8.40465772100004,0
                99.4322215000001,8.40473711600004,0
                99.432273814,8.40478760600007,0
                99.432416033,8.40489070900003,0
                99.43258896,8.40497848400003,0
                99.432788771,8.40506622700008,0
                99.4330115600001,8.40509275600004,0
                99.4332842490001,8.40509245600003,0
                99.4335607120001,8.40503478300008,0
                99.4339561290001,8.40487754100008,0
                99.4345357710001,8.40460536300003,0
                99.4348736050001,8.40447878400005,0
                99.435169273,8.40442109100007,0
                99.4354880120001,8.40438631900003,0
                99.4357876080001,8.40440893400006,0
                99.4360449910001,8.40446219200004,0
                99.4362601280001,8.40451167000003,0
                99.4364829950001,8.40461086100004,0
                99.436775078,8.40478263700004,0
                99.4371171490001,8.40500790300007,0
                99.437466972,8.40529434700005,0
                99.4378822250001,8.40570311000005,0
                99.438374422,8.40622651300004,0
                99.439235905,8.40726581400003,0
                99.4398128080001,8.40797652300006,0
                99.4403090200001,8.40864907800005,0
                99.4405553160001,8.40908479100005,0
                99.4407015950001,8.40937528700005,0
                99.4407940240001,8.40960083200002,0
                99.4408479830001,8.40976904600006,0
                99.4408904300001,8.40994492700003,0
                99.440909844,8.41012848000003,0
                99.440910052,8.41031193300006,0
                99.4409100860001,8.41034265000008,0
                99.4409064160001,8.41049563400003,0
                99.4409142790001,8.41065625200002,0
                99.4409413170001,8.41079007700006,0
                99.440999042,8.41088944800003,0
                99.4410951620001,8.41098113100003,0
                99.4412373750001,8.41107658400006,0
                99.4414641070001,8.41118723900007,0
                99.4416408590001,8.41125970500002,0
                99.4418098980001,8.41129775700006,0
                99.442021147,8.41130899600006,0
                99.4422515670001,8.41128578800004,0
                99.4425126850001,8.41123960400006,0
                99.4427430640001,8.41118197600002,0
                99.4429925860001,8.41107078400006,0
                99.443280439,8.41089453700005,0
                99.4435989900001,8.41069147800005,0
                99.4440403280001,8.41038884600005,0
                99.4448001060001,8.40978754600008,0
                99.445292512,8.40936714700007,0
                99.4454370440001,8.40924374900004,0
                99.4463195850001,8.40852374400004,0
                99.446722492,8.40820203100003,0
                99.44697963,8.40803728900005,0
                99.447205066,8.40792046100006,0
                99.447282865,8.40788014000003,0
                99.4474940040001,8.40779193600002,0
                99.4476897960001,8.40772287500005,0
                99.4479317050001,8.40767288000006,0
                99.448880181,8.40751881800003,0
                99.449206588,8.40747255500003,0
                99.449460017,8.40742637100004,0
                99.449628966,8.40738793100007,0
                99.4497812860001,8.40735274700006,0
                99.4498286260001,8.40734181300007,0
                99.4499937240001,8.40729572800007,0
                99.4501281230001,8.40727262800004,0
                99.45028175,8.40727245200003,0
                99.450423888,8.40730288400005,0
                99.4505468570001,8.40736011100006,0
                99.4506544930001,8.40744412600003,0
                99.4507352640001,8.40754347100005,0
                99.4508045050001,8.40763517700003,0
                99.4508776090001,8.40774983100005,0
                99.4510241460001,8.40826214000003,0
                99.4511206170001,8.40865595300005,0
                99.4511361580001,8.40880891500007,0
                99.4511478330001,8.40893893400005,0
                99.4511556940001,8.40909572500004,0
                99.451144404,8.40929843500004,0
                99.4511139680001,8.40954706100007,0
                99.4511064910001,8.40972299800006,0
                99.4511143170001,8.40984919400006,0
                99.4511452090001,8.40999449100002,0
                99.4511952760001,8.41010916600004,0
                99.451264515,8.41020470200004,0
                99.451333715,8.41026198600002,0
                99.4514413090001,8.41030775700006,0
                99.4515642440001,8.41033439100005,0
                99.451710211,8.41034951800003,0
                99.4518561340001,8.41033022900007,0
                99.4519828240001,8.41028418900004,0
                99.45212867,8.41019605900004,0
                99.4521876410001,8.41013816500003,0
                99.4523626860001,8.40996631900003,0
                99.4525697510001,8.40967924700004,0
                99.4526809210001,8.40949554400004,0
                99.452746,8.40931189500003,0
                99.452776493,8.40911298900005,0
                99.4527829510001,8.40898667200003,0
                99.4527952710001,8.40874581400004,0
                99.4527987800001,8.40845897600008,0
                99.452813715,8.40809181000003,0
                99.4528667020001,8.40741481700007,0
                99.4529161730001,8.40702083800005,0
                99.4529963750001,8.40663064800003,0
                99.4531571410001,8.40616387600005,0
                99.4533869520001,8.40562436200003,0
                99.4535670170001,8.40523788300004,0
                99.4537471900001,8.40494701500006,0
                99.4539159240001,8.40472882600005,0
                99.4540655220001,8.40456419900005,0
                99.4541625720001,8.40448145900007,0
                99.45424969,8.40440718500003,0
                99.4544953130001,8.40425392200007,0
                99.4548100320001,8.40406998400005,0
                99.4549750340001,8.40394358200007,0
                99.4551131320001,8.40380191700007,0
                99.455216641,8.40364117400003,0
                99.4552663790001,8.40347666400004,0
                99.455285345,8.40327394000008,0
                99.455262083,8.40308657100007,0
                99.4552119240001,8.40288775500005,0
                99.4551001730001,8.40257045100003,0
                99.45490756,8.40206966900007,0
                99.4548645290001,8.40193063600003,0
                99.45478805,8.40168353600006,0
                99.454718583,8.40139677900004,0
                99.4546799440001,8.40119412700005,0
                99.454660452,8.40094938500005,0
                99.4546755710001,8.40073901900007,0
                99.454713752,8.40054392600007,0
                99.4547596360001,8.40037177200003,0
                99.454851595,8.40018426500006,0
                99.4549895930001,8.39995846500005,0
                99.4551852060001,8.39973641800003,0
                99.4553613950001,8.39957814300004,0
                99.455377034,8.39956409500007,0
                99.4555382090001,8.39944917200006,0
                99.455795391,8.39933032000005,0
                99.456044933,8.39924588900004,0
                99.4562676040001,8.39917679400003,0
                99.4565594100001,8.39910761300007,0
                99.4569242190001,8.39906512200002,0
                99.4573735450001,8.39904547900005,0
                99.4584680940001,8.39902508100005,0
                99.4592937780001,8.39898587600004,0
                99.4598774770001,8.39892400500003,0
                99.4602269230001,8.39888152400005,0
                99.4605725040001,8.39881993000006,0
                99.4608335570001,8.39872783900006,0
                99.461117604,8.39859364900008,0
                99.4615244170001,8.39834840800006,0
                99.4621000800001,8.39798440500005,0
                99.4628752510001,8.39745571800006,0
                99.4631860960001,8.39725265600003,0
                99.4634509300001,8.39711083900005,0
                99.4636735730001,8.39701878900007,0
                99.4638732110001,8.39695736300007,0
                99.4641381550001,8.39691115600004,0
                99.4647256630001,8.39682250100003,0
                99.466288481,8.39657588800003,0
                99.4671985320001,8.39643330500007,0
                99.4678569610001,8.39634085600005,0
                99.4682698720001,8.39628288000006,0
                99.4685233100001,8.39625198400006,0
                99.468688473,8.39626708300005,0
                99.4688306260001,8.39630898700005,0
                99.46893828,8.39640829100006,0
                99.4690383290001,8.39656880400003,0
                99.4691192210001,8.39676757600006,0
                99.469242605,8.39717282700008,0
                99.4693110310001,8.39733845500007,0
                99.469400529,8.39755508200005,0
                99.4695660520001,8.39787231800005,0
                99.4698200610001,8.39831182800003,0
                99.4701355430001,8.39877039000004,0
                99.4702816980001,8.39894613800004,0
                99.4704008720001,8.39904161100003,0
                99.4705276920001,8.39911029800004,0
                99.4707428470001,8.39917888200006,0
                99.470973336,8.39922067400005,0
                99.4711730670001,8.39923573600004,0
                99.4713842880001,8.39922783000003,0
                99.4716108320001,8.39918549100003,0
                99.4718526890001,8.39910106400004,0
                99.4720522640001,8.39898991400003,0
                99.472228752,8.39884055000005,0
                99.4723706410001,8.39866445300004,0
                99.4724894540001,8.39846161400004,0
                99.4725697910001,8.39820145300007,0
                99.47260794,8.39798723800004,0
                99.472623012,8.39774627900005,0
                99.4726035410001,8.39752448400003,0
                99.472545552,8.39721094700008,0
                99.472464545,8.39692038500004,0
                99.4723527950001,8.39661073400003,0
                99.4722295510001,8.39632404900004,0
                99.4721256130001,8.39612529900006,0
                99.4719678580001,8.39588072500004,0
                99.4718485650001,8.39568582000004,0
                99.4717946310001,8.39554820400002,0
                99.4717906650001,8.39544494500007,0
                99.4718173850001,8.39530723300004,0
                99.4719168880001,8.39501645500007,0
                99.4722615850001,8.39422820100003,0
                99.472476096,8.39376518500006,0
                99.472629435,8.39353170600003,0
                99.4726706900001,8.39348169600004,0
                99.4727905030001,8.39333646500006,0
                99.472959276,8.39316416200006,0
                99.473147274,8.39300713600005,0
                99.4733928580001,8.39283473900002,0
                99.473619296,8.39270825700004,0
                99.4738688,8.39260087100007,0
                99.4741452040001,8.39250492900004,0
                99.4743794,8.39244345600002,0
                99.4746328300001,8.39240490400005,0
                99.474878587,8.39237401400004,0
                99.4751205160001,8.39235460100002,0
                99.4753048580001,8.39235055400007,0
                99.4755506440001,8.39234643500004,0
                99.475984671,8.39238415300002,0
                99.4764186790001,8.39240657700003,0
                99.4770016830001,8.39241354600006,0
                99.4769145660001,8.39216208600004,0
                99.476486541,8.39092663400004,0
                99.4762494130001,8.39010392200004,0
                99.4761566070001,8.38977176300006,0
                99.4761239530001,8.38958500400003,0
                99.4759786930001,8.38903285600003,0
                99.4758763340001,8.38860169700007,0
                99.4758482540001,8.38848567100007,0
                99.4758078070001,8.38795487500005,0
                99.4762467050001,8.38788028800008,0
                99.477483539,8.38765898300005,0
                99.4782379060001,8.38748426900003,0
                99.478447981,8.38743683900003,0
                99.4791257110001,8.38728382900007,0
                99.4797876600001,8.38709388700005,0
                99.48070612,8.38678095000006,0
                99.481480875,8.38648863000003,0
                99.4816717190001,8.38639894300007,0
                99.4817332590001,8.38635388500006,0
                99.4817660580001,8.38630886000004,0
                99.4817865200001,8.38625158400004,0
                99.4817946430001,8.38617796100004,0
                99.4816953800001,8.38560556000004,0
                99.4815138390001,8.38491057900006,0
                99.4815014270001,8.38483698300007,0
                99.481509568,8.38477971900005,0
                99.481546484,8.38474286900004,0
                99.4815957340001,8.38471827400002,0
                99.4834800120001,8.38421705700006,0
                99.4834656020001,8.38409208900003,0
                99.4834454720001,8.38390839100003,0
                99.4834254460001,8.38371909800003,0
                99.4834024390001,8.38349590800004,0
                99.4833824360001,8.38338285900005,0
                99.4833737260001,8.38326139100008,0
                99.483359405,8.38314556300003,0
                99.483333579,8.38289684600005,0
                99.4833073920001,8.38263117600007,0
                99.4833019820001,8.38258601000007,0
                99.4832762770001,8.38243914500003,0
                99.4832647150001,8.38229507500006,0
                99.4832376580001,8.38208563800004,0
                99.4832323380001,8.38204443100005,0
                99.483214607,8.38190719500005,0
                99.483170176,8.38156326000006,0
                99.4831154920001,8.38096980200004,0
                99.4830804460001,8.38009101600005,0
                99.483086509,8.37990642700004,0
                99.483098108,8.37955314300007,0
                99.483105041,8.37934205500005,0
                99.4831531520001,8.37925725700006,0
                99.4832295360001,8.37908196400002,0
                99.4833116200001,8.37893767200006,0
                99.4834135720001,8.37874534100007,0
                99.4835495340001,8.37851913600002,0
                99.4836004490001,8.37841730400004,0
                99.4836569860001,8.37822791700006,0
                99.4837106420001,8.37804987000004,0
                99.483775586,8.37777281300004,0
                99.4838264830001,8.37756924200005,0
                99.4838716400001,8.37737986400003,0
                99.483891289,8.37723576000008,0
                99.4839053250001,8.37705765500004,0
                99.4839079820001,8.37692205200005,0
                99.4839105650001,8.37675247700003,0
                99.4839189940001,8.37650235300003,0
                99.4839383300001,8.37628478000005,0
                99.4839479110001,8.37608933700005,0
                99.4839453260001,8.37598178500002,0
                99.48392318,8.37591342600007,0
                99.4838959900001,8.37582787100007,0
                99.483824741,8.37573263200005,0
                99.483771243,8.37563160900004,0
                99.483751017,8.37559341800005,0
                99.483717696,8.37553218800002,0
                99.4837041820001,8.37547129500007,0
                99.4836966170001,8.37531003000004,0
                99.483674244,8.37505835200005,0
                99.4836543630001,8.37483848600004,0
                99.48362725,8.37475294300003,0
                99.4835902620001,8.37465765500002,0
                99.4835165740001,8.37454041600006,0
                99.4834525830001,8.37445257600007,0
                99.4834059230001,8.37438417100003,0
                99.4833567760001,8.37429142400003,0
                99.4832681830001,8.37413270200005,0
                99.4831501150001,8.37390066700004,0
                99.4830393920001,8.37368324500005,0
                99.4829090980001,8.37342680600005,0
                99.482840169,8.37328514000006,0
                99.4827712100001,8.37311665600004,0
                99.4826728950001,8.37294327800004,0
                99.482628516,8.37282844600003,0
                99.482535162,8.37269659300006,0
                99.48249085,8.37262475500006,0
                99.4824613540001,8.37257694300007,0
                99.482407326,8.37250609600005,0
                99.4823384970001,8.37244268400002,0
                99.4822303930001,8.37235489700004,0
                99.482144481,8.37228164700002,0
                99.482075659,8.37222800700005,0
                99.4820093320001,8.37214494600005,0
                99.4819134740001,8.37203021300007,0
                99.4818471580001,8.37194960800002,0
                99.481724291,8.37181045400007,0
                99.4816333210001,8.37170801100007,0
                99.4815621170001,8.37162251800004,0
                99.4814883370001,8.37152483500006,0
                99.4813876270001,8.37140040400004,0
                99.481291738,8.37126366300004,0
                99.4811934470001,8.37116845200006,0
                99.4811098310001,8.37106344500006,0
                99.4810410310001,8.37095598200005,0
                99.4809992290001,8.37084603700004,0
                99.4809450050001,8.37071172400005,0
                99.480917897,8.37059931400006,0
                99.4808858480001,8.37046250100008,0
                99.480858675,8.37030125600006,0
                99.4808461840001,8.37018404300005,0
                99.480823952,8.37004477500005,0
                99.480818948,8.36997142600006,0
                99.480821281,8.36986631000002,0
                99.4808604550001,8.36975148500005,0
                99.4809166850001,8.36961204400006,0
                99.4810121520001,8.36946773600005,0
                99.4811829400001,8.36927983400005,0
                99.4813750180001,8.36903919100007,0
                99.4814201200001,8.36893014300006,0
                99.4813934680001,8.36876864300007,0
                99.4813178380001,8.36855462800003,0
                99.481193068,8.36834438300002,0
                99.481060723,8.36811536500005,0
                99.4809890070001,8.36800282300004,0
                99.4808982740001,8.36785640300008,0
                99.480777227,8.36758983800007,0
                99.480648564,8.36724066400006,0
                99.480535,8.36691769700008,0
                99.4805083530001,8.36672615200007,0
                99.480485458,8.36649700400005,0
                99.4804472820001,8.36619276000005,0
                99.4803600770001,8.36579471000005,0
                99.4803069160001,8.36548667200003,0
                99.4802611900001,8.36514862800004,0
                99.480215587,8.36485191800006,0
                99.4801941750001,8.36471075900005,0
                99.480076544,8.36469241800006,0
                99.4798978220001,8.36466677000004,0
                99.479820288,8.36463640100004,0
                99.479752965,8.36456633200004,0
                99.479745194,8.36453578800007,0
                99.479706578,8.36432654000004,0
                99.479684347,8.36420607400004,0
                99.479472479,8.36317888700006,0
                99.479402496,8.36308619600004,0
                99.4793225700001,8.36302664900006,0
                99.4792160540001,8.36298701600003,0
                99.47898315,8.36293164800003,0
                99.4788832140001,8.36288138900005,0
                99.478792872,8.36282272200003,0
                99.4786700720001,8.36271597100006,0
                99.4783787270001,8.36249984800003,0
                99.478299157,8.36238129500003,0
                99.4782791870001,8.36228904100005,0
                99.4782856210001,8.36213742400003,0
                99.4783588450001,8.36112140500006,0
                99.478388549,8.36105710400005,0
                99.4784381370001,8.36101255000005,0
                99.478621714,8.36093817300002,0
                99.4788152720001,8.36090333300007,0
                99.479145428,8.36088544400008,0
                99.4792818620001,8.36087804800007,0
                99.4793960090001,8.36085813600005,0
                99.479455531,8.36081851500006,0
                99.4794951640001,8.36075419600007,0
                99.4795297580001,8.36062561900007,0
                99.4795243890001,8.36029439900005,0
                99.4796760730001,8.35953721800007,0
                99.4799685450001,8.35824990100002,0
                99.480228685,8.35734582300006,0
                99.480220896,8.35726314700003,0
                99.4801356360001,8.35682029400004,0
                99.4799796790001,8.35630018600006,0
                99.479781265,8.35569575900007,0
                99.47932137,8.35487368300005,0
                99.478911123,8.35424138400003,0
                99.47857866,8.35370743100003,0
                99.4780696130001,8.35310337600004,0
                99.4778857330001,8.35283642000007,0
                99.477737033,8.35247098200006,0
                99.4774535560001,8.35157838000003,0
                99.4773331550001,8.35126213200004,0
                99.4776646020001,8.35096642700006,0
                99.4781512930001,8.35060725700004,0
                99.4783290340001,8.35046853100005,0
                99.478639479,8.35031628500008,0
                99.4790233400001,8.35015832700003,0
                99.4792660720001,8.35005678700003,0
                99.4794410250001,8.34994970300005,0
                99.479621562,8.34979198700006,0
                99.4799205620001,8.34951601100005,0
                99.480101098,8.34935829400007,0
                99.4802986620001,8.34926806100003,0
                99.4805076100001,8.34925092900005,0
                99.4807956960001,8.34928995300004,0
                99.4811064350001,8.34937957500006,0
                99.4813776110001,8.34944111900006,0
                99.4815244220001,8.34941844100007,0
                99.4818801550001,8.34935051400004,0
                99.482738457,8.34921447000005,0
                99.4835176890001,8.34907852200007,0
                99.4839468650001,8.34903300300005,0
                99.4842734470001,8.34901087400004,0
                99.485103511,8.34896058400005,0
                99.4851722940001,8.34894812700003,0
                99.4853399990001,8.34889317200003,0
                99.4853873430001,8.34886460900003,0
                99.485618882,8.34872405800007,0
                99.4858689150001,8.34850098000004,0
                99.4859377700001,8.34840514000007,0
                99.4865554900001,8.34750999000005,0
                99.484319176,8.34642508500002,0
                99.4834491110001,8.34606621300003,0
                99.4831666840001,8.34599907100005,0
                99.4824891380001,8.34606738300005,0
                99.4807388610001,8.34628322100002,0
                99.479496655,8.34644029700007,0
                99.4789307380001,8.34645674700005,0
                99.4780559710001,8.34634350200002,0
                99.476695856,8.34614259200004,0
                99.476301832,8.34612204100006,0
                99.4756826650001,8.34610176300004,0
                99.4753357420001,8.34609578400006,0
                99.4752706660001,8.34608836400002,0
                99.4751479190001,8.34607437900007,0
                99.4749438160001,8.34601856500007,0
                99.474500344,8.34583691200004,0
                99.4739723900001,8.34560630600004,0
                99.473726082,8.34555755200006,0
                99.473550161,8.34553674100005,0
                99.4732194750001,8.34553013100003,0
                99.4721430810001,8.34558746700003,0
                99.4713558280001,8.34565600300004,0
                99.4703493280001,8.34579648900007,0
                99.4701204780001,8.34582096100007,0
                99.469618268,8.34590625900006,0
                99.469117876,8.34596944900005,0
                99.4690652020001,8.34597609600007,0
                99.468710301,8.34597177100005,0
                99.4683673760001,8.34590906700004,0
                99.4681595920001,8.34587107600004,0
                99.4674668640001,8.34561549500006,0
                99.467187445,8.34548015900003,0
                99.4663743290001,8.34508631000006,0
                99.4662330470001,8.34502986700005,0
                99.4652809630001,8.34464949900007,0
                99.4648021950001,8.34436317300003,0
                99.4642691430001,8.34401015100002,0
                99.46152134,8.34289615600005,0
                99.4606271910001,8.34245897000005,0
                99.4588135760001,8.34055896900003,0
                99.457946129,8.33958604600002,0
                99.457329632,8.33872460000003,0
                99.45690754,8.33817537200002,0
                99.45659156,8.33735214700005,0
                99.456268885,8.33641127300007,0
                99.4561177640001,8.33626110800003,0
                99.4553207980001,8.33561493900004,0
                99.4543260950001,8.33523117600004,0
                99.453992999,8.33507552500004,0
                99.453758323,8.33493873300006,0
                99.453444194,8.33466266300007,0
                99.4531742560001,8.33433514100005,0
                99.452596381,8.33308378600003,0
                99.4524942290001,8.33280694000007,0
                99.4517460860001,8.33080039700008,0
                99.451196881,8.32945685400006,0
                99.450822787,8.32880653700005,0
                99.450555969,8.32823997100007,0
                99.450514588,8.32817227100003,0
                99.4502200270001,8.32823747200007,0
                99.449885405,8.32825573700006,0
                99.447858045,8.32832765800003,0
                99.4465305090001,8.32812945500007,0
                99.446483572,8.32808894800007,0
                99.4463394590001,8.32763950400005,0
                99.4455492280001,8.32724217000003,0
                99.4454333080001,8.32716790800004,0
                99.4453805040001,8.32709692100002,0
                99.4451257860001,8.32674197300003,0
                99.4447624630001,8.32633772700007,0
                99.4445908710001,8.32620240000006,0
                99.4445669020001,8.32618349600006,0
                99.4445490840001,8.32616695500008,0
                99.4443775170001,8.32600763600004,0
                99.4440979820001,8.32564962800006,0
                99.4438472040001,8.32543333600006,0
                99.4434927950001,8.32522117600007,0
                99.443365467,8.32513149900007,0
                99.4433139490001,8.32508165000007,0
                99.4431994340001,8.32495500900006,0
                99.4431556500001,8.32492520600005,0
                99.4430818710001,8.32490080300005,0
                99.443017846,8.32489712500006,0
                99.4429264060001,8.32490189400005,0
                99.4428628200001,8.32493745300008,0
                99.442560271,8.32522751100004,0
                99.4425010460001,8.32528429500007,0
                99.4424258320001,8.32535374100007,0
                99.442323995,8.32544108200005,0
                99.4422174140001,8.32549373400008,0
                99.4421662770001,8.32551899700007,0
                99.4418332530001,8.32562997000002,0
                99.4416450720001,8.32566392700005,0
                99.4415679130001,8.32567526100007,0
                99.441539699,8.32568841100004,0
                99.4415322030001,8.32571841400005,0
                99.4415307740001,8.32586575700003,0
                99.441524916,8.32593400900004,0
                99.4414948530001,8.32598090600004,0
                99.441442189,8.32601658300007,0
                99.441366116,8.32604434200005,0
                99.4412598630001,8.32605241900006,0
                99.4409114170001,8.32602279900004,0
                99.4408603750001,8.32601823400006,0
                99.4408439910001,8.32602183700004,0
                99.440821096,8.32604164400004,0
                99.440817408,8.32605417200006,0
                99.4408117180001,8.32607352100007,0
                99.4408198530001,8.32616105500006,0
                99.4408373150001,8.32623172500007,0
                99.4408518430001,8.32627066100002,0
                99.4408726840001,8.32629779600006,0
                99.4408735790001,8.32629826100003,0
                99.4408958590001,8.32630985600002,0
                99.4409262450001,8.32631154800004,0
                99.440946189,8.32630490200006,0
                99.4410086020001,8.32628410500007,0
                99.4410301300001,8.32628859500005,0
                99.4410341240001,8.32629415400004,0
                99.4410413950001,8.32630426700007,0
                99.441041473,8.32630437900002,0
                99.441051701,8.32633031400007,0
                99.4410532140001,8.32636776400005,0
                99.4410431950001,8.32639447100007,0
                99.4409492520001,8.32650529800003,0
                99.4409438260001,8.32651091100007,0
                99.4409295760001,8.32652563500005,0
                99.4408990100001,8.32654033600005,0
                99.440870702,8.32653870700005,0
                99.4408559670001,8.32653456400004,0
                99.4408332830001,8.32651671500003,0
                99.4407760290001,8.32646047300005,0
                99.4407121720001,8.32639563000004,0
                99.4406878090001,8.32637455500003,0
                99.4406717860001,8.32636644600007,0
                99.4406428,8.32636123100002,0
                99.4406224140001,8.32636689400005,0
                99.4406142650001,8.32637232100006,0
                99.440599891,8.32638768100003,0
                99.440589629,8.32642221400005,0
                99.4406019890001,8.32657770900005,0
                99.440600019,8.32659820900005,0
                99.4405875780001,8.32661514500006,0
                99.4405660680001,8.32662645300007,0
                99.44055375,8.32663167300007,0
                99.440540018,8.32663212200003,0
                99.4405167040001,8.32663060000004,0
                99.4405060320001,8.32662990200004,0
                99.44047557,8.32661588100007,0
                99.440439472,8.32659927200007,0
                99.4404014180001,8.32657865100003,0
                99.440346493,8.32653876900002,0
                99.4403362500001,8.32653133200006,0
                99.4402992990001,8.32652079800005,0
                99.4402723600001,8.32651854400007,0
                99.4402714220001,8.32651846900006,0
                99.4402711540001,8.32651851800006,0
                99.4402616890001,8.32652027400007,0
                99.4402408450001,8.32652414200004,0
                99.4402378810001,8.32652602700006,0
                99.440235192,8.32652773500007,0
                99.4402159420001,8.32653996800008,0
                99.4402076790001,8.32656028200006,0
                99.4402057770001,8.32656496900006,0
                99.4402012580001,8.32657608600005,0
                99.440196767,8.32661332200007,0
                99.4402069980001,8.32664603000006,0
                99.4402436060001,8.32670751100005,0
                99.4403443080001,8.32686249600005,0
                99.4403511260001,8.32688392500006,0
                99.4403488890001,8.32690987900003,0
                99.4403400750001,8.32692572600007,0
                99.440326831,8.32693487200004,0
                99.4403115440001,8.32694151000004,0
                99.440311244,8.32694157100002,0
                99.4402514870001,8.32695340400005,0
                99.440207796,8.32695693600004,0
                99.4401110590001,8.32695753000007,0
                99.4400725410001,8.32695531600007,0
                99.440043657,8.32695490900005,0
                99.4399691680001,8.32697505000004,0
                99.4399309360001,8.32700517600006,0
                99.4399007860001,8.32705334800005,0
                99.4398767310001,8.32715366300005,0
                99.439868769,8.32723791400002,0
                99.439863775,8.32735948700002,0
                99.4398759480001,8.32746853900005,0
                99.439874278,8.32750162000002,0
                99.439867571,8.32753410300006,0
                99.439813524,8.32762543200005,0
                99.439744751,8.32768917800007,0
                99.4397104290001,8.32770631500006,0
                99.4396880580001,8.32771748800008,0
                99.4396488100001,8.32772317200005,0
                99.4396203370001,8.32772139500003,0
                99.4395884680001,8.32771191400008,0
                99.4395859320001,8.32771012500007,0
                99.4392426510001,8.32740307900002,0
                99.4392204810001,8.32738906000003,0
                99.4391936700001,8.32739190400002,0
                99.4391730630001,8.32740506900006,0
                99.4391560830001,8.32742724300005,0
                99.4391038100001,8.32750552400006,0
                99.4390696560001,8.32757977200004,0
                99.4390717140001,8.32761788100004,0
                99.4390726240001,8.32761909900006,0
                99.4390990000001,8.32765431700005,0
                99.4391704960001,8.32771204100004,0
                99.4392495610001,8.32777357000003,0
                99.4392813690001,8.32781421200002,0
                99.4393499760001,8.32793648800003,0
                99.4393802660001,8.32800866200006,0
                99.439390405,8.32807283500006,0
                99.4393904520001,8.32811495500005,0
                99.4393865040001,8.32818516400005,0
                99.4393664180001,8.32823332300006,0
                99.4392759240001,8.32838756200005,0
                99.4392331590001,8.32844577800006,0
                99.439226315,8.32846025400005,0
                99.439203605,8.32850829000006,0
                99.4392001210001,8.32853542500004,0
                99.439196645,8.32856250500004,0
                99.4391956200001,8.32857047600004,0
                99.439195849,8.32857739400004,0
                99.4392239740001,8.32871485900006,0
                99.4392482090001,8.32877701000007,0
                99.4393227880001,8.32883509600003,0
                99.4393651020001,8.32885711000006,0
                99.4393687580001,8.32885802800007,0
                99.4394629930001,8.32888164100007,0
                99.4395544430001,8.32889100100004,0
                99.4395746070001,8.32889380600005,0
                99.4395846500001,8.32889297200006,0
                99.4396853570001,8.32890489400006,0
                99.4397186030001,8.32892061700005,0
                99.4397311060001,8.32894191100007,0
                99.439731721,8.32894495700003,0
                99.4397317570001,8.32897704900006,0
                99.4397281480001,8.32901337000004,0
                99.4397250530001,8.32901881900005,0
                99.4397157120001,8.32903523600004,0
                99.43967143,8.32905935500003,0
                99.4396150540001,8.32906743700005,0
                99.439546572,8.32905949300005,0
                99.4393907850001,8.32899924000003,0
                99.4392201900001,8.32893348900006,0
                99.4391004980001,8.32887224600006,0
                99.4390583300001,8.32886179400003,0
                99.4390288000001,8.32886550500007,0
                99.439008663,8.32886753600008,0
                99.438986523,8.32887959400006,0
                99.4389764620001,8.32888562000005,0
                99.438968436,8.32891170600004,0
                99.438968463,8.32893577200002,0
                99.4389696480001,8.32893995800003,0
                99.4389810090001,8.32898001500007,0
                99.4390007760001,8.32901797400007,0
                99.439051184,8.32907608300007,0
                99.4390554120001,8.32907984000008,0
                99.43906028,8.32908417300007,0
                99.4390955710001,8.32911260300006,0
                99.4391882100001,8.32915014700006,0
                99.439276018,8.32918425800005,0
                99.4392950000001,8.32920217900005,0
                99.4393037880001,8.32922432500004,0
                99.4392995090001,8.32927568300005,0
                99.4392970650001,8.32928244300007,0
                99.4392789990001,8.32930047500003,0
                99.4392467860001,8.32930452300008,0
                99.439217247,8.32929930500006,0
                99.4391148750001,8.32922714800003,0
                99.4390432100001,8.32914829900005,0
                99.4390028880001,8.32910822800005,0
                99.4389666200001,8.32909222200004,0
                99.4389122580001,8.32910030600004,0
                99.4388641720001,8.32920687900003,0
                99.4388196520001,8.32929127900007,0
                99.4387945220001,8.32933892600005,0
                99.4387197390001,8.32940804400005,0
                99.4386477150001,8.32946335400004,0
                99.4385709040001,8.32950171300007,0
                99.43855016,8.32950867800002,0
                99.43806005,8.32956617200006,0
                99.437694095,8.32958590500004,0
                99.4372837870001,8.32961673600005,0
                99.437099532,8.32967660400004,0
                99.4369115310001,8.32980109200003,0
                99.4367854490001,8.32985432000004,0
                99.436727713,8.32987143000003,0
                99.4367184750001,8.32987416700007,0
                99.4367007020001,8.32987713600005,0
                99.436419626,8.32992411300006,0
                99.436013367,8.32996485000007,0
                99.435827062,8.32995502500006,0
                99.435560454,8.32994096600004,0
                99.4348862360001,8.32983429500007,0
                99.4338115680001,8.32969801500008,0
                99.4317622250001,8.32938510200006,0
                99.4315297900001,8.32941742000003,0
                99.4313432850001,8.32947167600003,0
                99.430936343,8.32959006200002,0
                99.4306453360001,8.32968702500006,0
                99.4306450240001,8.32968713000002,0
                99.430511929,8.32970518800005,0
                99.430382394,8.32969457900003,0
                99.4302672530001,8.32968395400007,0
                99.4301988760001,8.32966611300003,0
                99.430129267,8.32962209900006,0
                99.4299942470001,8.32949096200002,0
                99.429819088,8.32920677200002,0
                99.4295467330001,8.32880323200004,0
                99.4293772780001,8.32847375000006,0
                99.4293450170001,8.32838742600006,0
                99.4293123730001,8.32834123800006,0
                99.4292439970001,8.32832339700008,0
                99.4290247210001,8.32837416500007,0
                99.428873503,8.32839546200006,0
                99.428787162,8.32840272300007,0
                99.428711595,8.32837886300007,0
                99.4286891980001,8.32835688900008,0
                99.428118182,8.32772356100003,0
                99.4280811940001,8.32766173200002,0
                99.428081031,8.32751123400004,0
                99.428080922,8.32741090100006,0
                99.4280736300001,8.32732490800004,0
                99.4280484020001,8.32728193500003,0
                99.4279440230001,8.32724621500006,0
                99.4263012100001,8.32674058700007,0
                99.425719826,8.32652835600004,0
                99.425629815,8.32647111900008,0
                99.4254750100001,8.32637453300003,0
                99.4254138380001,8.32636743100005,0
                99.424165471,8.32642251700003,0
                99.4241331150001,8.32644405100007,0
                99.4240935870001,8.32648709400007,0
                99.4240862820001,8.32665123600003,0
                99.4240255590001,8.32672050400004,0
                99.4235975270001,8.32689254000007,0
                99.4234536590001,8.32692852600007,0
                99.4231945110001,8.32683205500007,0
                99.422593432,8.32659619000003,0
                99.4221183400001,8.32642111400003,0
                99.4218688070001,8.32635599400004,0
                99.4209309830001,8.32633637400005,0
                99.4208306690001,8.32632125700007,0
                99.4207959390001,8.32630238900003,0
                99.42077262,8.32627921000005,0
                99.4206821240001,8.32604740900007,0
                99.4206615590001,8.32603906400004,0
                99.4206464470001,8.32604284200005,0
                99.420446724,8.32612044400003,0
                99.4201842670001,8.32622989800007,0
                99.420078522,8.32616751500007,0
                99.4200228050001,8.32614572200004,0
                99.4199662440001,8.32613970900007,0
                99.4199344670001,8.32613632700003,0
                99.4199186860001,8.32613884900007,0
                99.4198559160001,8.32614886000005,0
                99.419777378,8.32617917800007,0
                99.4197267430001,8.32621372900007,0
                99.4197051070001,8.32621734200006,0
                99.4196792000001,8.32621129600005,0
                99.419505288,8.32609770600004,0
                99.419484111,8.32607713200002,0
                99.4194772050001,8.32607042800004,0
                99.419469098,8.32605029800004,0
                99.4194665090001,8.32602477900002,0
                99.419470817,8.32599884700005,0
                99.4194812800001,8.32599028300007,0
                99.419488728,8.32598630400003,0
                99.4196182470001,8.32598371100005,0
                99.419655795,8.32597250100002,0
                99.4196789280001,8.32595519100005,0
                99.419691377,8.32593326700004,0
                99.4196913500001,8.32590809700002,0
                99.4196872790001,8.32588393900005,0
                99.419678392,8.32587069100003,0
                99.4196713210001,8.32586445800007,0
                99.419645233,8.32585511000002,0
                99.4196280350001,8.32585446800005,0
                99.4195300520001,8.32586998400006,0
                99.4195148090001,8.32587000000007,0
                99.419484175,8.32586396000005,0
                99.419474962,8.32586100300006,0
                99.4194456330001,8.32584794500002,0
                99.4194199400001,8.32582879600005,0
                99.41940514,8.32580706700003,0
                99.4194024720001,8.32580315800004,0
                99.4193993050001,8.32578132700007,0
                99.41940105,8.32575693300004,0
                99.4194029350001,8.32575308500003,0
                99.419418454,8.32572141300005,0
                99.419425635,8.32570676600005,0
                99.4194524500001,8.32567812500002,0
                99.419486621,8.32564162200003,0
                99.419509071,8.32560426000003,0
                99.4195218900001,8.32557010500005,0
                99.419517559,8.32552850300004,0
                99.4194939490001,8.32548158600002,0
                99.419478773,8.32546905400005,0
                99.419451913,8.32546013100006,0
                99.419428549,8.32546090600005,0
                99.4194202020001,8.32546118700003,0
                99.4194172410001,8.32546128400003,0
                99.4193454140001,8.32550212200005,0
                99.419266238,8.32554307100003,0
                99.4192361240001,8.32554391400004,0
                99.4192069840001,8.32552976500006,0
                99.4191987730001,8.32551562400005,0
                99.4191958210001,8.32551053400005,0
                99.419180108,8.32546264800004,0
                99.419169921,8.32535013700004,0
                99.4191671580001,8.32525657200006,0
                99.419174071,8.32516126400003,0
                99.4191889700001,8.32509269100007,0
                99.419195142,8.32507380300007,0
                99.419206865,8.32503791700003,0
                99.41923467,8.32501710200006,0
                99.4192478580001,8.32501380400004,0
                99.4192633750001,8.32501224100002,0
                99.4192882080001,8.32501530500002,0
                99.419319267,8.32503536400003,0
                99.4194264670001,8.32514963200003,0
                99.4194606250001,8.32516659800007,0
                99.4194987550001,8.32517274700007,0
                99.419556834,8.32516340200004,0
                99.419623361,8.32512273200007,0
                99.4196712360001,8.32506830600005,0
                99.4196757340001,8.32505009900007,0
                99.4196760410001,8.32500649200006,0
                99.419666008,8.32497882400003,0
                99.4196605990001,8.32496390500006,0
                99.4196093260001,8.32490677200008,0
                99.419511593,8.32479506700003,0
                99.4194932610001,8.32477141900006,0
                99.41948146,8.32474738500002,0
                99.4194798360001,8.32473950000002,0
                99.419481336,8.32470426300006,0
                99.419482857,8.32468588200004,0
                99.4194866170001,8.32467367200007,0
                99.4194889890001,8.32466595800003,0
                99.4195104990001,8.32464449300005,0
                99.4195595960001,8.32462580300006,0
                99.4197364920001,8.32455846900007,0
                99.4197736020001,8.32452687600005,0
                99.4197810310001,8.32449715000007,0
                99.419782517,8.32445119000005,0
                99.419780684,8.32443444900002,0
                99.4197352240001,8.32433548500006,0
                99.4195030650001,8.32400010000003,0
                99.4193207270001,8.32364696100007,0
                99.419354974,8.32361913400007,0
                99.4193740590001,8.32359642200004,0
                99.419414836,8.32351633600007,0
                99.419433762,8.32349956300004,0
                99.419462906,8.32349283400004,0
                99.4195010330001,8.32349428100002,0
                99.4195461140001,8.32350740100003,0
                99.4195805410001,8.32351914800006,0
                99.419643121,8.32354401600003,0
                99.4196550840001,8.32354698500006,0
                99.4196805000001,8.32354323500005,0
                99.4197073880001,8.32352459200007,0
                99.4197230670001,8.32350298300003,0
                99.4197267710001,8.32347096000007,0
                99.4197192190001,8.32339725900005,0
                99.41971562,8.32338224400007,0
                99.4197049510001,8.32333771200007,0
                99.4196967060001,8.32331761300003,0
                99.4196700370001,8.32329561300003,0
                99.4196451010001,8.32329607600008,0
                99.4196114690001,8.32330281500003,0
                99.4195113380001,8.32334238000004,0
                99.4194829340001,8.32334613300003,0
                99.4194649950001,8.32334764500007,0
                99.4194537750001,8.32334020800005,0
                99.4194388050001,8.32332384200004,0
                99.4194328080001,8.32330747300006,0
                99.419433494,8.32324790400003,0
                99.4194475670001,8.32312578000005,0
                99.419464443,8.32300410700003,0
                99.419469393,8.32293554400007,0
                99.4194618120001,8.32286083100007,0
                99.4194627350001,8.32284961900007,0
                99.4194687170001,8.32282493600007,0
                99.419476327,8.32281177700003,0
                99.4195273390001,8.32275335000003,0
                99.4195495270001,8.32273029300006,0
                99.419575089,8.32268137700004,0
                99.4195928680001,8.32264399700006,0
                99.4196078030001,8.32257579900005,0
                99.4196227790001,8.32254962900004,0
                99.4196405820001,8.32253653200007,0
                99.4196799600001,8.32252808700002,0
                99.419713728,8.32253645500003,0
                99.4197540810001,8.32256163400007,0
                99.4197953970001,8.32261202600006,0
                99.4198167770001,8.32264337700008,0
                99.4198451680001,8.32267922300002,0
                99.4198667430001,8.32268574200003,0
                99.419919264,8.32268755300004,0
                99.420010145,8.32269698100004,0
                99.420018295,8.32269877800007,0
                99.4200702810001,8.32271821500007,0
                99.4201021750001,8.32273126000007,0
                99.4201181240001,8.32273684800003,0
                99.4201443840001,8.32273682000005,0
                99.420277496,8.32268623900006,0
                99.4203028150001,8.32268528100008,0
                99.420356283,8.32269829900002,0
                99.4203825370001,8.32269733400005,0
                99.4204003460001,8.32268517800003,0
                99.42040502,8.32267396100002,0
                99.4203983460001,8.32257216100004,0
                99.420402987,8.32252545400007,0
                99.4204057650001,8.32249089400005,0
                99.4204019840001,8.32246661100004,0
                99.4203963310001,8.32244139600004,0
                99.420341137,8.32229971300006,0
                99.4203031700001,8.32214073800003,0
                99.4203012340001,8.32208469900007,0
                99.420311471,8.32200903100005,0
                99.420328307,8.32196978500002,0
                99.420397586,8.32185949600006,0
                99.4204088440001,8.32184457600005,0
                99.4204649960001,8.32175574800004,0
                99.420505394,8.32169100600004,0
                99.420506457,8.32167771700006,0
                99.4204910480001,8.32164988300002,0
                99.4204186580001,8.32161203300006,0
                99.4202793190001,8.32153683800004,0
                99.4202685880001,8.32151445500006,0
                99.420269927,8.32148904000007,0
                99.4202706560001,8.32147520200004,0
                99.420282661,8.32144779100003,0
                99.4203101210001,8.32140323500005,0
                99.42035602,8.32134116100002,0
                99.4203598980001,8.32132721700003,0
                99.420359858,8.32129016900006,0
                99.4203288470001,8.32122855400007,0
                99.420241821,8.32111545900005,0
                99.4202393210001,8.32111220700006,0
                99.4201481010001,8.32101812400003,0
                99.4199630990001,8.32087496300005,0
                99.4198332450001,8.32079927000007,0
                99.4195202340001,8.32070199400005,0
                99.4194753410001,8.32066159100003,0
                99.419457503,8.32061603900007,0
                99.4194586040001,8.32056250100004,0
                99.4194683050001,8.32051613700003,0
                99.4195304410001,8.32040634500004,0
                99.4195875330001,8.32032824700002,0
                99.4196276770001,8.32024594800004,0
                99.4196652830001,8.32019267000004,0
                99.4196911280001,8.32017206000006,0
                99.419771557,8.32013190000004,0
                99.4198266550001,8.32010723100007,0
                99.419835403,8.32009393300007,0
                99.4198413710001,8.32006855100008,0
                99.4197903850001,8.31991674500006,0
                99.41977547,8.31982817700003,0
                99.4197707020001,8.31969129600003,0
                99.4197648850001,8.31965726600004,0
                99.419749847,8.31963205100004,0
                99.4197032420001,8.31961311700007,0
                99.419516376,8.31962363200006,0
                99.4194757930001,8.31962233100006,0
                99.4193697150001,8.31961179700005,0
                99.419277568,8.31958403900006,0
                99.419226435,8.31955810100004,0
                99.419200962,8.31954518100002,0
                99.41918796,8.31953509100003,0
                99.4191613280001,8.31951314300005,0
                99.4191274560001,8.31949862100004,0
                99.418997694,8.31949950500007,0
                99.4189759110001,8.31949044100003,0
                99.4189610400001,8.31947919900006,0
                99.4189380180001,8.31944800000002,0
                99.4189304700001,8.31943862400004,0
                99.4188686370001,8.31936312100004,0
                99.4188485560001,8.31935364500004,0
                99.4188358950001,8.31934767600006,0
                99.4188120650001,8.31934695800004,0
                99.4188107790001,8.31934691900005,0
                99.4187983610001,8.31934654300005,0
                99.4187739800001,8.31935682600005,0
                99.418757154,8.31936392600005,0
                99.418699265,8.31941516500007,0
                99.4186631060001,8.31943508300003,0
                99.4186623880001,8.31943547700007,0
                99.4186610940001,8.31943581300004,0
                99.4185972270001,8.31945226700003,0
                99.4185849900001,8.31945542300002,0
                99.418570909,8.31945447900006,0
                99.418535073,8.31945208400003,0
                99.418533375,8.31945197200002,0
                99.4185216430001,8.31944896800007,0
                99.4184606270001,8.31943335700004,0
                99.4184519940001,8.31942824200007,0
                99.418405464,8.31940069900003,0
                99.4183883360001,8.31938423600008,0
                99.4183445150001,8.31934210800006,0
                99.4183338380001,8.31933184500002,0
                99.4183292370001,8.31932532400003,0
                99.4182786260001,8.31925362600003,0
                99.4182428890001,8.31923459200004,0
                99.4181987330001,8.31922890500005,0
                99.418160341,8.31923277000004,0
                99.418129643,8.31924809400005,0
                99.4181104900001,8.31928635700007,0
                99.418078951,8.31944976400007,0
                99.418066545,8.31947466000003,0
                99.4180622820001,8.31947828800003,0
                99.4180431230001,8.31949458000003,0
                99.417976265,8.31951214300005,0
                99.417942264,8.31952502800004,0
                99.4179270400001,8.31954724100007,0
                99.4179025010001,8.31963722500006,0
                99.417886105,8.31966294900008,0
                99.417859149,8.31968166900003,0
                99.417839208,8.31968402500007,0
                99.417821603,8.31967469900007,0
                99.4178039880001,8.31965485300003,0
                99.4177945600001,8.31961163700004,0
                99.4177936400001,8.31955333300004,0
                99.4177922010001,8.31949909100007,0
                99.4177768110001,8.31946561800004,0
                99.4177451190001,8.31944695900006,0
                99.417695844,8.31943999900005,0
                99.4176694490001,8.31943939500007,0
                99.4176278020001,8.31943189500004,0
                99.4176078510001,8.31942023400006,0
                99.4175785830001,8.31939494700003,0
                99.4175509300001,8.31938577200003,0
                99.417496133,8.31939225200006,0
                99.417473048,8.31939925900002,0
                99.4174058930001,8.31941964100002,0
                99.4173752710001,8.31941967300003,0
                99.417317224,8.31940528400003,0
                99.4173118450001,8.31940295600003,0
                99.416939518,8.31924188000005,0
                99.4165948290001,8.31899809400005,0
                99.416501844,8.31893378600006,0
                99.416388693,8.31885725500007,0
                99.4163874550001,8.31885697200005,0
                99.4162697140001,8.31884945200005,0
                99.4161185400001,8.31888776300002,0
                99.416069796,8.31893261000005,0
                99.4160354250001,8.31899032300004,0
                99.4159863550001,8.31916312900006,0
                99.4159555960001,8.31934554200006,0
                99.4158830490001,8.31955581100004,0
                99.4158269910001,8.31966933600006,0
                99.415814169,8.31973870400003,0
                99.415821984,8.31980386300006,0
                99.4158557280001,8.32002122300003,0
                99.415860938,8.32007002100005,0
                99.4158249170001,8.32014711900007,0
                99.4157728440001,8.32019493200005,0
                99.4157312450001,8.32020806400004,0
                99.4156954270001,8.32021026300004,0
                99.4156618630001,8.32020342500005,0
                99.4156108830001,8.32017303100002,0
                99.4154843840001,8.32005243400005,0
                99.41548407,8.32005227800005,0
                99.415461555,8.32004296500003,0
                99.4154125790001,8.32004649600003,0
                99.415351673,8.32007578600007,0
                99.4151449570001,8.32021571300004,0
                99.4150853140001,8.32023954700003,0
                99.4150259730001,8.32025054100006,0
                99.4150082640001,8.32025169300005,0
                99.4149830740001,8.32025171900005,0
                99.4149507590001,8.32024531800005,0
                99.4149263260001,8.32022442600004,0
                99.414893035,8.32017297100003,0
                99.4148696120001,8.32014074100005,0
                99.414837215,8.32012643700006,0
                99.414799427,8.32012110000005,0
                99.4147949600001,8.32012298200004,0
                99.4147780950001,8.32013007200004,0
                99.414765259,8.32013547300005,0
                99.4147059370001,8.32018570800005,0
                99.4146630420001,8.32020367900003,0
                99.4146223930001,8.32020284100003,0
                99.4145944050001,8.32019657900003,0
                99.4145674910001,8.32018142000004,0
                99.4145508060001,8.32016256100007,0
                99.4145223780001,8.32007847000006,0
                99.4145111330001,8.32006356600004,0
                99.414504069,8.32005971900003,0
                99.414498902,8.32005690400007,0
                99.4144918650001,8.32005729900004,0
                99.4144834750001,8.32005777400008,0
                99.4144629230001,8.32006052700007,0
                99.4143999930001,8.32009643000004,0
                99.4143404330001,8.32013210700006,0
                99.414260745,8.32016805400002,0
                99.4141857380001,8.32018363100002,0
                99.4141490310001,8.32017945000007,0
                99.4141051380001,8.32016380700003,0
                99.4140713660001,8.32015984400005,0
                99.4140389040001,8.32016550400004,0
                99.4139824710001,8.32019930600006,0
                99.413850139,8.32033673200004,0
                99.4138045760001,8.32037033300003,0
                99.4137864420001,8.32038370600003,0
                99.4137604730001,8.32039691800003,0
                99.413689715,8.32040618600007,0
                99.4136057590001,8.32039514200005,0
                99.41360023,8.32039354600005,0
                99.4135908750001,8.32039084700006,0
                99.4134808900001,8.32033986100004,0
                99.4134311710001,8.32032785600006,0
                99.4133471220001,8.32033815100004,0
                99.4132016020001,8.32037830000007,0
                99.413168334,8.32040150000006,0
                99.4131243150001,8.32044542600005,0
                99.4131146810001,8.32047690000007,0
                99.413106553,8.32067835500004,0
                99.4130790130001,8.32074337300003,0
                99.413016364,8.32083092300007,0
                99.412860869,8.32093357100007,0
                99.412710373,8.32101371900006,0
                99.412477084,8.32111894400003,0
                99.4121760260001,8.32121674500007,0
                99.4119577120001,8.32125142000007,0
                99.411863575,8.32125079400004,0
                99.4114427790001,8.32120652800006,0
                99.4113779460001,8.32121507100004,0
                99.411320221,8.32121513000004,0
                99.4112449580001,8.32123770400005,0
                99.4111571770001,8.32129528500008,0
                99.4110228490001,8.32152774600007,0
                99.4109066890001,8.32175548000004,0
                99.4107889140001,8.32192808000002,0
                99.410716187,8.32197814800003,0
                99.4106359,8.32200322600005,0
                99.4105480860001,8.32202581100006,0
                99.410357359,8.32203600800005,0
                99.4101766790001,8.32205119200006,0
                99.4100712870001,8.32206380100007,0
                99.409965873,8.32205890800003,0
                99.4098679640001,8.32202651300003,0
                99.4097800470001,8.32195411700008,0
                99.4097248,8.32191917800003,0
                99.40963443,8.32190177400003,0
                99.4094863600001,8.32190192600007,0
                99.4087275370001,8.32186730500007,0
                99.4086380720001,8.32188780200005,0
                99.4085828870001,8.32191285400006,0
                99.4085152040001,8.32198791300004,0
                99.4082954720001,8.32276843600005,0
                99.4082214420001,8.32306408300008,0
                99.4082151710001,8.32323090000006,0
                99.4082346420001,8.32337203000003,0
                99.4082798520001,8.32348746900004,0
                99.4083057130001,8.32357726000004,0
                99.4083251540001,8.32369272500006,0
                99.4083252140001,8.32375046800007,0
                99.408299549,8.32384673100006,0
                99.4080871370001,8.32400092600005,0
                99.4079197470001,8.32409092000006,0
                99.4078333580001,8.32420014000007,0
                99.4076695990001,8.32513053200006,0
                99.4075550000001,8.32607176200003,0
                99.407445291,8.32624069300005,0
                99.4073166000001,8.32637555700006,0
                99.4072537120001,8.32641315600006,0
                99.406993442,8.32656876000004,0
                99.406069954,8.32697313400007,0
                99.4053926860001,8.32730534900003,0
                99.4044896230001,8.32770883500007,0
                99.4035390770001,8.32818340800003,0
                99.4026717450001,8.32865789500005,0
                99.4019469040001,8.32894734000007,0
                99.4014252420001,8.32905693800006,0
                99.4011743130001,8.32909749700002,0
                99.4007360080001,8.32908329700007,0
                99.4002591430001,8.32901847900007,0
                99.4001267360001,8.32897638400004,0
                99.3989031090001,8.32849593600002,0
                99.398686829,8.32836679000008,0
                99.3986094270001,8.32826421400006,0
                99.3985835670001,8.32817442000004,0
                99.3985676300001,8.32798233900007,0
                99.3985184240001,8.32788723300007,0
                99.3985095820001,8.32788126900004,0
                99.398385933,8.32779788300007,0
                99.3983727550001,8.32778899000004,0
                99.3981855070001,8.32770632800003,0
                99.3975500910001,8.32749169400006,0
                99.3973016130001,8.32743333900004,0
                99.3969883820001,8.32740625400004,0
                99.39678086,8.32741397800004,0
                99.39654699,8.32747809800003,0
                99.3962491180001,8.32769260300006,0
                99.396082553,8.32778052100002,0
                99.395975493,8.32780136400004,0
                99.39578886,8.32780193000002,0
                99.3957137450001,8.32781051300003,0
                99.3955863900001,8.32787041900002,0
                99.395543106,8.32788398900004,0
                99.3954838100001,8.32788584900004,0
                99.395426559,8.32788212400004,0
                99.3953696840001,8.32785680000006,0
                99.395303255,8.32780203400006,0
                99.3952339300001,8.32769410200007,0
                99.3952129350001,8.32766905500006,0
                99.395166272,8.32764515500003,0
                99.3951216390001,8.32763038700006,0
                99.3950619410001,8.32763351900007,0
                99.395042097,8.32763455500003,0
                99.3950086390001,8.32766012700006,0
                99.3949892250001,8.32768537000004,0
                99.3949522010001,8.32773720800003,0
                99.39491365,8.32785574800005,0
                99.3948839870001,8.32793576800003,0
                99.394864053,8.32797054100007,0
                99.3948275420001,8.32800396300007,0
                99.394774017,8.32802179300006,0
                99.3946966770001,8.32802187000004,0
                99.394673852,8.32801430500007,0
                99.3946484430001,8.32798832800006,0
                99.3946311780001,8.32795971900003,0
                99.394595542,8.32786989000004,0
                99.3945770930001,8.32784260500006,0
                99.3945581020001,8.32781855900004,0
                99.3945334210001,8.32780323400004,0
                99.3944424150001,8.32778743600005,0
                99.3943963290001,8.32778924600007,0
                99.3943732650001,8.32779836300006,0
                99.3943533610001,8.32782873000002,0
                99.394364389,8.32796310800006,0
                99.3943531830001,8.32801350200003,0
                99.3943435750001,8.32802822200006,0
                99.394301839,8.32806296100006,0
                99.3942568780001,8.32809610700002,0
                99.3942333580001,8.32810754100007,0
                99.3941842090001,8.32812242700004,0
                99.3941357690001,8.32812822000005,0
                99.3938892260001,8.32810343100005,0
                99.3934825150001,8.32808751400006,0
                99.3932843800001,8.32808919300004,0
                99.3930788380001,8.32812797400004,0
                99.392727284,8.32822686600002,0
                99.3927049370001,8.32822939200003,0
                99.3922604620001,8.32827972900003,0
                99.39156496,8.32833574600005,0
                99.3901587110001,8.32847862300002,0
                99.3901604790001,8.32874010500007,0
                99.3901578940001,8.32878993200006,0
                99.3901294380001,8.32882069600004,0
                99.3901264730001,8.32882390200007,0
                99.3901263320001,8.32882405500004,0
                99.390034191,8.32883987900004,0
                99.3900204080001,8.32885501200008,0
                99.3900087710001,8.32887912900003,0
                99.3900473670001,8.32929674000007,0
                99.390076895,8.32941939100004,0
                99.39010663,8.32948518400002,0
                99.390179727,8.32956614400007,0
                99.3902350800001,8.32962640300008,0
                99.3902509200001,8.32966834800004,0
                99.390251032,8.32966960100003,0
                99.3902626160001,8.32979999500003,0
                99.39026956,8.32987812400006,0
                99.390272264,8.32995416900008,0
                99.3902538870001,8.33000925900006,0
                99.3902092010001,8.33008272700005,0
                99.3901908140001,8.33013270700008,0
                99.3901576120001,8.33070934800003,0
                99.390131184,8.33106358500004,0
                99.390131738,8.33162299300005,0
                99.3901144550001,8.33163671400007,0
                99.3889759620001,8.33173867600004,0
                99.3887864220001,8.33177557700003,0
                99.3887669760001,8.33178398900003,0
                99.3886614450001,8.33185222600002,0
                99.3885440510001,8.33194053000005,0
                99.3883890710001,8.33200936100008,0
                99.38828908,8.33207501900006,0
                99.3882035270001,8.33214505300003,0
                99.388115504,8.33219791800008,0
                99.3877148130001,8.33225068100006,0
                99.3867462300001,8.33238770300005,0
                99.3864700500001,8.33243141100007,0
                99.386271976,8.33246275100004,0
                99.3859225570001,8.33255426700003,0
                99.3854317940001,8.33277023000005,0
                99.385298757,8.33288639200003,0
                99.38476689,8.33361626700002,0
                99.3840942960001,8.33510877600003,0
                99.383979712,8.33535840700006,0
                99.383778808,8.33586329600007,0
                99.3837208470001,8.33616172200004,0
                99.3837211050001,8.33642693900003,0
                99.3839595410001,8.33776311800005,0
                99.384132585,8.33878783700004,0
                99.3845828240001,8.34037853400002,0
                99.3846007590001,8.34044190100008,0
                99.384870328,8.34118243200004,0
                99.3852397570001,8.34216221300005,0
                99.385077745,8.34251208900002,0
                99.3849435980001,8.34279782600004,0
                99.384648219,8.34315512200004,0
                99.383233407,8.34429892000003,0
                99.3827590340001,8.34490629300007,0
                99.3826561330001,8.34505941000003,0
                99.3825204020001,8.34526136700003,0
                99.382266857,8.34563863800003,0
                99.3822340680001,8.34570665700005,0
                99.3819251180001,8.34634753800003,0
                99.3817335160001,8.34707553100003,0
                99.3816216500001,8.34854239900005,0
                99.381638481,8.34931128200003,0
                99.381654955,8.34971173700006,0
                99.381768138,8.35032033800007,0
                99.3825259860001,8.35225787800005,0
                99.382977441,8.35337875100004,0
                99.3830421810001,8.35379518000008,0
                99.3830423300001,8.35394769400006,0
                99.3829248010001,8.35435353100007,0
                99.3827530770001,8.35505611700006,0
                99.382742583,8.35561657100004,0
                99.3828604610001,8.35702663900003,0
                99.3830500080001,8.35840986600004,0
                99.3830772780001,8.35880254600005,0
                99.383033131,8.35925941100004,0
                99.3826797930001,8.36026968200002,0
                99.382586179,8.36070683500003,0
                99.38274375,8.36219667800003,0
                99.3827760140001,8.36250171700004,0
                99.3828383650001,8.36334424800003,0
                99.3828360560001,8.36336967700004,0
                99.382821988,8.36352423300002,0
                99.3825112500001,8.36423459800005,0
                99.3820548680001,8.36497619900007,0
                99.3817226140001,8.36559626000007,0
                99.381641846,8.36579553700005,0
                99.381596728,8.36613157800002,0
                99.3815967450001,8.36614918400005,0
                99.381597093,8.36650629300004,0
                99.3815971800001,8.36659568600004,0
                99.3816341980001,8.36702864100005,0
                99.3821819220001,8.36885214200004,0
                99.3828009910001,8.37158758200007,0
                99.3828365910001,8.37197340400007,0
                99.3827137040001,8.37237691000007,0
                99.3820108360001,8.37400869700002,0
                99.3810320430001,8.37745927000003,0
                99.3808788960001,8.37791516000004,0
                99.3808319570001,8.37799636700004,0
                99.3807849610001,8.37801826200007,0
                99.380706612,8.37803082600004,0
                99.3799008010001,8.37778499700005,0
                99.3798286970001,8.37777570500003,0
                99.3797534730001,8.37777577700007,0
                99.379675149,8.37781643300002,0
                99.379640716,8.37786641000002,0
                99.3795281390001,8.37813809100004,0
                99.379321878,8.37877820100005,0
                99.3792377290001,8.37927460000003,0
                99.3791161450001,8.37995833000002,0
                99.3790053500001,8.38207170600003,0
                99.3789771680001,8.38210294700002,0
                99.3782187640001,8.38209763300006,0
                99.378192707,8.38211311200007,0
                99.378190821,8.38214928900004,0
                99.3784764590001,8.38312358600007,0
                99.378527052,8.38340505000002,0
                99.378523972,8.38346124200007,0
                99.3784863910001,8.38349873900006,0
                99.378316763,8.38358444600004,0
                99.3781090470001,8.38367266400007,0
                99.3776009040001,8.38387420300006,0
                99.3762895140001,8.38437693400004,0
                99.3754426030001,8.38468551200003,0
                99.3754257250001,8.38469457900004,0
                99.3754139740001,8.38471598700005,0
                99.3754130060001,8.38474326300008,0
                99.3754319230001,8.38482111500002,0
                99.3754060360001,8.38486848600007,0
                99.3749760920001,8.38501955300006,0
                99.3749566760001,8.38505615900004,0
                99.3749480970001,8.38512719100004,0
                99.374964161,8.38525593300005,0
                99.3750332110001,8.38554097200006,0
                99.3750284920001,8.38557478700005,0
                99.374997475,8.38559933000005,0
                99.374792224,8.38572082400003,0
                99.374779146,8.38573760400004,0
                99.3747731780001,8.38575928900002,0
                99.3747790470001,8.38691909100004,0
                99.374764584,8.38703819900007,0
                99.374735521,8.38726828200004,0
                99.3747225380001,8.38730393500003,0
                99.374413905,8.38756528700003,0
                99.374407659,8.38763444400007,0
                99.374488775,8.38796124200007,0
                99.374509054,8.38804294600004,0
                99.3744775740001,8.38813098100007,0
                99.3744226370001,8.38817507400006,0
                99.373847379,8.38848148800002,0
                99.373799617,8.38850692700004,0
                99.373757374,8.38856529200007,0
                99.3737411580001,8.38862039200006,0
                99.3738723430001,8.38893618500003,0
                99.373895415,8.38934103000003,0
                99.375468776,8.38822656000002,0
                99.376113321,8.38782606200004,0
                99.37650855,8.38757121200007,0
                99.3768977350001,8.38735272000002,0
                99.3770617420001,8.38729009200006,0
                99.377134475,8.38727745500006,0
                99.3772687810001,8.38725542400005,0
                99.3773965990001,8.38730983000005,0
                99.3774755140001,8.38742976600003,0
                99.3774848020001,8.38752806100007,0
                99.3774451850001,8.38766359100003,0
                99.3768381820001,8.38869178700003,0
                99.3764859070001,8.38932830300007,0
                99.3763767830001,8.38973435100007,0
                99.3763953110001,8.39002516200003,0
                99.3764747210001,8.39034620500007,0
                99.3765966010001,8.39055208900004,0
                99.376748859,8.39070947400006,0
                99.376926375,8.39086943600006,0
                99.3770611240001,8.39092130400007,0
                99.3771896900001,8.39092610600005,0
                99.3772175600001,8.39092714700007,0
                99.3773392450001,8.39092703100005,0
                99.3776190140001,8.39081164400005,0
                99.377783574,8.39064827000004,0
                99.378506062,8.38951419600005,0
                99.378700499,8.38924136100007,0
                99.3788032720001,8.38914008300003,0
                99.3789604780001,8.38898516400008,0
                99.379399709,8.38874992100006,0
                99.3796542870001,8.38865910100003,0
                99.3801236680001,8.38867651800007,0
                99.380470593,8.38880341600003,0
                99.381201215,8.38932983400002,0
                99.3817065380001,8.38966258200003,0
                99.382278699,8.38991044200003,0
                99.3829298960001,8.39009157700002,0
                99.383563747,8.39020200400006,0
                99.3840312400001,8.39018138700004,0
                99.3844083960001,8.39011437400006,0
                99.3848644920001,8.38988368900004,0
                99.3854480240001,8.38951559500003,0
                99.3855371690001,8.38944537300006,0
                99.385788586,8.38916178000005,0
                99.3858722530001,8.38900728400006,0
                99.385996166,8.38877846400004,0
                99.3861225090001,8.38844045000008,0
                99.3861930130001,8.38835055600003,0
                99.386261586,8.38829447000006,0
                99.3864812900001,8.38824621800006,0
                99.386815965,8.38828830000006,0
                99.387032903,8.38835930800008,0
                99.3872298570001,8.38845148300004,0
                99.3873394860001,8.38856649500002,0
                99.3873645520001,8.38863168100005,0
                99.3873875130001,8.38869138400003,0
                99.387376524,8.38910569500007,0
                99.387176411,8.39013371400006,0
                99.387195321,8.39044488200005,0
                99.3872030680001,8.39046334500006,0
                99.3873112040001,8.39072107100003,0
                99.3875670450001,8.39103222700004,0
                99.3876023660001,8.39105263900007,0
                99.387798407,8.39118953000008,0
                99.3879559520001,8.39125697000003,0
                99.3882365870001,8.39130421700003,0
                99.3885412610001,8.39128299000004,0
                99.38871134,8.39120280500003,0
                99.3888205100001,8.39113399500008,0
                99.388930261,8.39099549100007,0
                99.38905135,8.39077023600004,0
                99.3891179660001,8.39045511000006,0
                99.3892468760001,8.38865607200006,0
                99.389322742,8.38835854200005,0
                99.3894708340001,8.38814610000003,0
                99.3895171610001,8.38807964200004,0
                99.3895224380001,8.38807559300005,0
                99.389754264,8.38789764000006,0
                99.3898685330001,8.38783739500008,0
                99.3901620980001,8.38768261700005,0
                99.3906922670001,8.38750444900006,0
                99.3910875170001,8.38731818700006,0
                99.3912259900001,8.38723576600006,0
                99.3915538890001,8.38708181500004,0
                99.3917551310001,8.38704741900006,0
                99.3919224750001,8.38707754400002,0
                99.391927358,8.38707842700006,0
                99.3920228850001,8.38709562100007,0
                99.392333416,8.38733160800007,0
                99.3924041000001,8.38740824200005,0
                99.3925278180001,8.38754238000007,0
                99.3929853180001,8.38821555500004,0
                99.3937776940001,8.38963253700007,0
                99.3943383650001,8.39054080400007,0
                99.3945069000001,8.39072273300008,0
                99.3948174220001,8.39099787500004,0
                99.395525692,8.39142421000003,0
                99.3959641260001,8.39178730000003,0
                99.3967555460001,8.39254942400004,0
                99.3977270190001,8.39396935500002,0
                99.3986402770001,8.39491883100004,0
                99.399299758,8.39529041700007,0
                99.3999104690001,8.39569503000007,0
                99.4000729310001,8.39595164000002,0
                99.4004807860001,8.39676186000003,0
                99.4006435620001,8.39704875200005,0
                99.4009166720001,8.39753012000006,0
                99.4009973400001,8.39758700600004,0
                99.401337975,8.39776729000005,0
                99.4020402040001,8.39821382200006,0
                99.4023069310001,8.39826945700003,0
                99.402699822,8.39817121900006,0
                99.403043241,8.39807204500005,0
                99.4037102400001,8.39804439800002,0
                99.4042015200001,8.39808582400008,0
                99.4047490840001,8.39826695600004,0
                99.4049636980001,8.39838400100007,0
                99.4055916450001,8.39868538300004,0
                99.4058415600001,8.39872287500003,0
                99.406010306,8.39869616200002,0
                99.4061700840001,8.39858985300003,0
                99.4063385330001,8.39828009000007,0
                99.406533031,8.39739534600005,0
                99.40688636,8.39549321900006,0
                99.4071343520001,8.39480302000004,0
                99.4073294510001,8.39449322500008,0
                99.4075336020001,8.39435149000008,0
                99.40777332,8.39424509700007,0
                99.4081286260001,8.39424472900004,0
                99.4085462460001,8.39437697500006,0
                99.4087609590001,8.39454930300008,0
                99.4087808770001,8.39457460700004,0
                99.4088487070001,8.39481008700005,0
                99.4090275460001,8.39594211600007,0
                99.4091255870001,8.39626044700003,0
                99.4093125510001,8.39666714700007,0
                99.4095349250001,8.39695881200004,0
                99.4098993270001,8.39716187700003,0
                99.410245789,8.39719690000004,0
                99.410618824,8.39716112700006,0
                99.4108232610001,8.39708232900006,0
                99.411089372,8.39693950400004,0
                99.411180286,8.39686987600004,0
                99.412615959,8.39577031100004,0
                99.4130864110001,8.39546023000003,0
                99.4136724100001,8.39522079100004,0
                99.4143207010001,8.39508742700002,0
                99.4146227450001,8.39512248900007,0
                99.4149603990001,8.39522827900004,0
                99.415378182,8.39551089300005,0
                99.415636261,8.39596173900003,0
                99.415713451,8.39636028900003,0
                99.4156905550001,8.39689929300005,0
                99.4156198320001,8.39721780000002,0
                99.4154959320001,8.39765135800008,0
                99.4153363,8.39789035300004,0
                99.415071346,8.39815664300005,0
                99.413720868,8.39904195900004,0
                99.41306425,8.39970605100007,0
                99.4130177980001,8.39977080400007,0
                99.412363584,8.40068267000004,0
                99.4117605860001,8.40169763300003,0
                99.411530139,8.40217552600006,0
                99.4114246450001,8.40246739700007,0
                99.411414101,8.40250391300003,0
                99.411362308,8.40306909000003,0
                99.411341941,8.40373995900006,0
                99.411398848,8.40402435700003,0
                99.411559046,8.40431608800003,0
                99.4126530450001,8.40565060000006,0
                99.413416054,8.40655907500008,0
                99.4135806780001,8.40666054700006,0
                99.4137772990001,8.40672629400007,0
                99.414910541,8.40682466500004,0
                99.4154791500001,8.40692136400003,0
                99.4158524870001,8.40715979300006,0
                99.41669082,8.40804487900004,0
                99.4168040790001,8.40821139100007,0
                99.41686658,8.40851206800005,0
                99.4170368420001,8.40990061800005,0
                99.4171352150001,8.41051969200004,0
                99.4171888070001,8.41079384200003,0
                99.4173312120001,8.41105020700007,0
                99.417473574,8.41127119100003,0
                99.417758125,8.41154509700004,0
                99.4179715060001,8.41172177900006,0
                99.4183870860001,8.41198685200004,0
                99.4188603540001,8.41223386600007,0
                99.419314994,8.41239078900003,0
                99.4195622730001,8.41238348800005,0
                99.419935292,8.41232117000004,0
                99.4202815410001,8.41214389700002,0
                99.420410131,8.41207846300006,0
              </coordinates>
                
            </LinearRing>
            
          </outerBoundaryIs>
        
        </Polygon>
        
      <styleUrl>
        #tambonStyle</styleUrl>
    </Placemark>

  </Document>
</kml>