<?xml version="1.0" encoding="UTF-8"?>
<kml xmlns="http://www.opengis.net/kml/2.2">
  <Document id="tambon_doc">
    <name>ห้วยสำราญ, ขุขันธ์, Si Sa Ket</name>
    <description>ข้อมูลขอบเขตตำบลห้วยสำราญ อำเภอขุขันธ์ จังหวัดSi Sa Ket</description>
    
    <!-- Schema สำหรับข้อมูลตำบล -->
    <Schema id="tambon.schema">
      <SimpleField name="ADM3_EN" type="string">
        <displayName>Subdistrict Name (English)</displayName>
      </SimpleField>
      <SimpleField name="ADM3_TH" type="string">
        <displayName>ชื่อตำบล</displayName>
      </SimpleField>
      <SimpleField name="ADM2_EN" type="string">
        <displayName>District Name (English)</displayName>
      </SimpleField>
      <SimpleField name="ADM2_TH" type="string">
        <displayName>ชื่ออำเภอ</displayName>
      </SimpleField>
      <SimpleField name="ADM1_EN" type="string">
        <displayName>Province Name (English)</displayName>
      </SimpleField>
      <SimpleField name="ADM1_TH" type="string">
        <displayName>ชื่อจังหวัด</displayName>
      </SimpleField>
      <SimpleField name="ADM0_EN" type="string">
        <displayName>Country Name (English)</displayName>
      </SimpleField>
      <SimpleField name="ADM0_TH" type="string">
        <displayName>ชื่อประเทศ</displayName>
      </SimpleField>
    </Schema>

    <!-- Style สำหรับตำบล -->
    <Style id="tambonStyle">
      <LineStyle>
        <color>ffff0000</color>
        <width>1.5</width>
      </LineStyle>
      <PolyStyle>
        <color>33ff0000</color>
        <fill>1</fill>
        <outline>1</outline>
      </PolyStyle>
    </Style>

    <Placemark id="Si_Sa_Ket.78">
        
        <ExtendedData>
            
          <SchemaData schemaUrl="#tambon.schema">
                
            <SimpleData name="Shape_Leng">
                0.303152933941</SimpleData>
                
            <SimpleData name="Shape_Area">
                0.00363187023072</SimpleData>
                
            <SimpleData name="ADM3_EN">
                Huai Samran</SimpleData>
                
            <SimpleData name="ADM3_TH">
                ห้วยสำราญ</SimpleData>
                
            <SimpleData name="ADM3_PCODE">
                TH330522</SimpleData>
                
            <SimpleData name="ADM2_EN">
                Khukhan</SimpleData>
                
            <SimpleData name="ADM2_TH">
                ขุขันธ์</SimpleData>
                
            <SimpleData name="ADM2_PCODE">
                TH3305</SimpleData>
                
            <SimpleData name="ADM1_EN">
                Si Sa Ket</SimpleData>
                
            <SimpleData name="ADM1_TH">
                ศรีสะเกษ</SimpleData>
                
            <SimpleData name="ADM1_PCODE">
                TH33</SimpleData>
                
            <SimpleData name="ADM0_EN">
                Thailand</SimpleData>
                
            <SimpleData name="ADM0_TH">
                ประเทศไทย</SimpleData>
                
            <SimpleData name="ADM0_PCODE">
                TH</SimpleData>
            
          </SchemaData>
        
        </ExtendedData>
        
        <Polygon>
            
          <outerBoundaryIs>
                
            <LinearRing>
                    
              <coordinates>
                    
                104.182365895,14.699270412,0
                104.182026911,14.699052937,0
                104.181823092,14.6989363480001,0
                104.18133223,14.6986926160001,0
                104.181219928,14.6986671710001,0
                104.181046209,14.698608931,0
                104.180833487,14.6985205,0
                104.180740173,14.6984884190001,0
                104.180595535,14.6984450630001,0
                104.180434504,14.698383434,0
                104.180335547,14.6983574920001,0
                104.180216133,14.698326192,0
                104.18006823,14.6982798010001,0
                104.179984564,14.698250611,0
                104.179884212,14.6981907270001,0
                104.17967996,14.6980555100001,0
                104.179244974,14.697745277,0
                104.178962403,14.6975372580001,0
                104.178705465,14.697321935,0
                104.178354655,14.6970054240001,0
                104.177537605,14.6961882210001,0
                104.176007003,14.6946596070001,0
                104.174977475,14.693802326,0
                104.174581555,14.6933886950001,0
                104.174311311,14.693161752,0
                104.174162313,14.69306878,0
                104.174010641,14.6929976160001,0
                104.173743474,14.692901073,0
                104.173518071,14.6928160250001,0
                104.173294756,14.6926843300001,0
                104.173187284,14.692629885,0
                104.173165557,14.6926188750001,0
                104.173117689,14.6925855700001,0
                104.173061729,14.69254664,0
                104.173032637,14.6925322180001,0
                104.172935791,14.69248422,0
                104.172864884,14.6924547360001,0
                104.172777883,14.6924194050001,0
                104.172712334,14.6923463150001,0
                104.172672626,14.69231072,0
                104.172621043,14.6922644800001,0
                104.172566011,14.692231538,0
                104.172535252,14.6922186350001,0
                104.172488653,14.692199095,0
                104.172404697,14.69215748,0
                104.172352491,14.6921089430001,0
                104.172326751,14.6920765260001,0
                104.172306443,14.692050948,0
                104.172245252,14.692027464,0
                104.172164284,14.692004804,0
                104.172091045,14.6919843100001,0
                104.171953668,14.6919780600001,0
                104.171867546,14.691979985,0
                104.171803096,14.6919534690001,0
                104.171751104,14.691914243,0
                104.171737725,14.691899893,0
                104.171708541,14.691868598,0
                104.171629645,14.691770954,0
                104.171561491,14.691722773,0
                104.171464409,14.6916659190001,0
                104.171364354,14.6916184460001,0
                104.171260601,14.6915493170001,0
                104.171121906,14.69148718,0
                104.171027304,14.691438964,0
                104.170970085,14.6914098,0
                104.170930431,14.6913764560001,0
                104.170833338,14.6912948080001,0
                104.170680272,14.691164648,0
                104.170499381,14.691072385,0
                104.170357423,14.691007217,0
                104.170128172,14.6908942900001,0
                104.16992924,14.690849025,0
                104.169774447,14.690781035,0
                104.169626257,14.6907222130001,0
                104.169525769,14.690656114,0
                104.169385466,14.690525667,0
                104.169148003,14.6903352590001,0
                104.16892477,14.6902066640001,0
                104.168698857,14.6900998730001,0
                104.168643675,14.690085654,0
                104.168576844,14.690068426,0
                104.168383925,14.6900074970001,0
                104.168194559,14.689962022,0
                104.168108534,14.6899386220001,0
                104.167972936,14.689901734,0
                104.1678797,14.689872752,0
                104.167814738,14.689824494,0
                104.167714026,14.689749082,0
                104.167526593,14.689600236,0
                104.165077678,14.6880920090001,0
                104.164073807,14.687485323,0
                104.162516391,14.686527277,0
                104.161788497,14.6860618640001,0
                104.161071622,14.6856355190001,0
                104.159168603,14.6845570780001,0
                104.158285953,14.683909095,0
                104.157300288,14.6831320900001,0
                104.154995522,14.681315178,0
                104.149526784,14.6836687910001,0
                104.148039362,14.6843100580001,0
                104.146435361,14.685055274,0
                104.144125132,14.686134752,0
                104.143140145,14.686634505,0
                104.142442606,14.686953793,0
                104.140656498,14.6878574720001,0
                104.136177042,14.6899054900001,0
                104.133406717,14.691442051,0
                104.13100011,14.6925334520001,0
                104.130653883,14.6926340900001,0
                104.129373852,14.6930061520001,0
                104.128687369,14.693205682,0
                104.127491737,14.693730701,0
                104.127362718,14.693797804,0
                104.125404401,14.6948610210001,0
                104.124256941,14.6953963500001,0
                104.123271385,14.6956549230001,0
                104.121225895,14.6961919120001,0
                104.120869638,14.6962870300001,0
                104.117879044,14.6970854840001,0
                104.114402519,14.698036514,0
                104.111119322,14.699256405,0
                104.109873609,14.699593523,0
                104.106340026,14.700509289,0
                104.102353759,14.701271089,0
                104.101121349,14.7015199210001,0
                104.100283896,14.701571707,0
                104.099143989,14.7016332600001,0
                104.097484688,14.7018883760001,0
                104.096403837,14.7020761000001,0
                104.095767578,14.7020719080001,0
                104.094398169,14.7019199490001,0
                104.092860874,14.7017898880001,0
                104.091051089,14.702011849,0
                104.090711022,14.702083026,0
                104.090380559,14.7021521940001,0
                104.090175936,14.7021950220001,0
                104.08978744,14.702385694,0
                104.089460786,14.702575482,0
                104.089443928,14.702597369,0
                104.089393861,14.702673621,0
                104.08932593,14.7027406020001,0
                104.089247731,14.702792775,0
                104.089136038,14.702827439,0
                104.088991272,14.7028628310001,0
                104.088866029,14.7028838370001,0
                104.088792343,14.7028929730001,0
                104.088755964,14.702893773,0
                104.088717233,14.702888183,0
                104.088639467,14.702864129,0
                104.088358924,14.7027435540001,0
                104.088304507,14.7028378260001,0
                104.088248296,14.70294391,0
                104.088226786,14.7029843170001,0
                104.088210566,14.7030193310001,0
                104.088172093,14.7031354640001,0
                104.088170933,14.7031399360001,0
                104.088148915,14.703197748,0
                104.088133508,14.7032342540001,0
                104.088111283,14.7032938990001,0
                104.088029787,14.703512635,0
                104.088014111,14.70355713,0
                104.087998191,14.703598464,0
                104.087980022,14.7036424190001,0
                104.087935538,14.703731346,0
                104.087904519,14.7037853730001,0
                104.08788051,14.703827204,0
                104.087788262,14.7040025090001,0
                104.087746664,14.7040863460001,0
                104.087738982,14.7041095220001,0
                104.08773602,14.7041248730001,0
                104.08773514,14.7041463910001,0
                104.087731786,14.7042353730001,0
                104.087726736,14.7042513060001,0
                104.087719784,14.7042656410001,0
                104.087708533,14.7042806380001,0
                104.087700516,14.7042888020001,0
                104.087683157,14.70430802,0
                104.087665064,14.7043287590001,0
                104.087658395,14.7043417130001,0
                104.087655334,14.7043671760001,0
                104.08765478,14.704428449,0
                104.087654606,14.7044474690001,0
                104.087654405,14.704469886,0
                104.0876526,14.7044872480001,0
                104.087648437,14.7045272410001,0
                104.087643015,14.704579386,0
                104.087639428,14.7045915200001,0
                104.087629698,14.704606052,0
                104.087616826,14.7046183900001,0
                104.087600894,14.7046323010001,0
                104.087595987,14.704637658,0
                104.087590326,14.704643837,0
                104.08758369,14.7046530700001,0
                104.087581437,14.7046590570001,0
                104.087579349,14.7046711990001,0
                104.087579698,14.7046862610001,0
                104.08758165,14.704703549,0
                104.087589067,14.704722975,0
                104.087594779,14.704735729,0
                104.087610311,14.7047632150001,0
                104.087619792,14.704776446,0
                104.0876285,14.7047876570001,0
                104.087639768,14.7047985180001,0
                104.087661008,14.7048144720001,0
                104.087678097,14.7048234850001,0
                104.087713123,14.704831756,0
                104.087748852,14.7048369980001,0
                104.08778372,14.7048384880001,0
                104.087816987,14.7048377560001,0
                104.087845526,14.704833362,0
                104.087864728,14.704826912,0
                104.087878598,14.704820678,0
                104.087888651,14.704814276,0
                104.087985062,14.7047421410001,0
                104.087987387,14.7047404,0
                104.088038194,14.704702345,0
                104.088101599,14.704654858,0
                104.088116689,14.7046435570001,0
                104.088154023,14.704617872,0
                104.0881724,14.7046091820001,0
                104.088188542,14.704604304,0
                104.088211681,14.7046007810001,0
                104.088237195,14.704599467,0
                104.088272749,14.704597176,0
                104.088363208,14.7045951860001,0
                104.08837333,14.704594963,0
                104.088420451,14.7045909170001,0
                104.088443612,14.704588146,0
                104.088469039,14.704583063,0
                104.088487464,14.7045766300001,0
                104.08850739,14.7045679070001,0
                104.088518749,14.704561336,0
                104.088537177,14.704550673,0
                104.088559281,14.704535874,0
                104.088579788,14.7045188480001,0
                104.088605463,14.7044911580001,0
                104.088681605,14.704367565,0
                104.088746583,14.704262108,0
                104.088750433,14.704255861,0
                104.08883137,14.7041137190001,0
                104.088855923,14.704076624,0
                104.088874598,14.7040558680001,0
                104.088891678,14.704041364,0
                104.08890595,14.704030882,0
                104.088918543,14.7040232570001,0
                104.08893635,14.704014955,0
                104.088950708,14.7040084220001,0
                104.088955603,14.7040071160001,0
                104.08896225,14.7040053430001,0
                104.088968453,14.704005207,0
                104.088969328,14.7040051870001,0
                104.088985934,14.7040081420001,0
                104.089000759,14.704013537,0
                104.089012519,14.7040200590001,0
                104.089024992,14.7040322190001,0
                104.089035727,14.704044412,0
                104.089043004,14.704057812,0
                104.089049729,14.7040723600001,0
                104.089055398,14.7040914450001,0
                104.089061933,14.7041229450001,0
                104.089067142,14.7041471310001,0
                104.089070895,14.7041837780001,0
                104.08907789,14.7042350460001,0
                104.089082832,14.704247934,0
                104.089090613,14.704257936,0
                104.089102482,14.7042689730001,0
                104.089121879,14.7042792870001,0
                104.08914291,14.704285036,0
                104.089161558,14.7042880180001,0
                104.089181906,14.7042892650001,0
                104.089212621,14.7042868950001,0
                104.089243901,14.704283945,0
                104.08926247,14.704283536,0
                104.089282213,14.7042836700001,0
                104.089306058,14.704285402,0
                104.089327554,14.7042860600001,0
                104.089351328,14.704284973,0
                104.089475371,14.7042765940001,0
                104.089496854,14.704276685,0
                104.089514871,14.7042774190001,0
                104.089538159,14.704280295,0
                104.08955451,14.7042844580001,0
                104.089577903,14.7042918540001,0
                104.0896224,14.7043127200001,0
                104.089689437,14.7043495250001,0
                104.089736097,14.704379804,0
                104.089760171,14.704397407,0
                104.089776132,14.704407674,0
                104.089789303,14.704413588,0
                104.089801023,14.704417209,0
                104.089841511,14.704421715,0
                104.089873573,14.7044231400001,0
                104.089940876,14.7044229520001,0
                104.090208003,14.7044161810001,0
                104.090252037,14.7044196900001,0
                104.090294063,14.7044250590001,0
                104.090348586,14.704435797,0
                104.090374457,14.704443283,0
                104.090391797,14.704449357,0
                104.090403151,14.7044539500001,0
                104.09041704,14.7044604920001,0
                104.090445119,14.7044763270001,0
                104.090470906,14.7044965370001,0
                104.090500869,14.704525958,0
                104.090528654,14.704553242,0
                104.090588537,14.704612049,0
                104.090659365,14.704673733,0
                104.090684753,14.704698051,0
                104.090747255,14.7047528090001,0
                104.090753212,14.70475743,0
                104.090838545,14.7048354230001,0
                104.090862555,14.7048622130001,0
                104.090869828,14.7048748340001,0
                104.090875957,14.704888827,0
                104.090876634,14.7048948450001,0
                104.090875552,14.7049054600001,0
                104.090871312,14.7049137930001,0
                104.09086229,14.7049252950001,0
                104.090849776,14.704936306,0
                104.090833791,14.7049479610001,0
                104.090817741,14.7049567890001,0
                104.090801626,14.704962793,0
                104.090774481,14.7049690440001,0
                104.090741527,14.704974856,0
                104.090703346,14.704980778,0
                104.090669809,14.7049866020001,0
                104.090649054,14.704992713,0
                104.090635334,14.7050020570001,0
                104.090628608,14.705012373,0
                104.090625431,14.70502544,0
                104.090629369,14.7050451310001,0
                104.090636804,14.705065312,0
                104.090647183,14.7050871220001,0
                104.090659788,14.7051049240001,0
                104.090723174,14.705159473,0
                104.090759795,14.705186355,0
                104.090783414,14.7052050770001,0
                104.090792958,14.705214444,0
                104.090821594,14.7052477190001,0
                104.090850301,14.7052838170001,0
                104.09094309,14.705404399,0
                104.090967433,14.705427596,0
                104.090983982,14.705440229,0
                104.090999869,14.705449484,0
                104.091013346,14.705454837,0
                104.091029107,14.705458445,0
                104.09104885,14.705458578,0
                104.091068563,14.7054575770001,0
                104.091087632,14.705453769,0
                104.091106004,14.7054448860001,0
                104.091114358,14.705439084,0
                104.091123424,14.705430483,0
                104.091134336,14.70541488,0
                104.091143766,14.7053960260001,0
                104.091153621,14.7053703780001,0
                104.091183293,14.7052730990001,0
                104.09118817,14.7052582960001,0
                104.091194822,14.7052445900001,0
                104.0912083,14.7052250790001,0
                104.091237817,14.7051892800001,0
                104.091249835,14.70517145,0
                104.091287486,14.705115614,0
                104.091325339,14.705059481,0
                104.091338663,14.705045677,0
                104.091355739,14.705033214,0
                104.091367133,14.7050269850001,0
                104.091382147,14.705020194,0
                104.091406719,14.7050114040001,0
                104.091425009,14.7050071410001,0
                104.091451031,14.7050047660001,0
                104.091483418,14.7050066520001,0
                104.091505649,14.705010461,0
                104.09159042,14.705030192,0
                104.09168868,14.7050613660001,0
                104.091711543,14.7050710350001,0
                104.091730905,14.7050796510001,0
                104.091753268,14.705092719,0
                104.091764881,14.7051005000001,0
                104.091779198,14.705112313,0
                104.091792059,14.705126991,0
                104.091824751,14.7051658620001,0
                104.091884945,14.705241997,0
                104.091912836,14.705282604,0
                104.091929459,14.705309174,0
                104.091940152,14.705330352,0
                104.091943576,14.705338867,0
                104.091960244,14.7053918990001,0
                104.091977897,14.705448049,0
                104.092005671,14.7055364,0
                104.092016203,14.7055649870001,0
                104.092024181,14.705583458,0
                104.092033873,14.705600765,0
                104.092050566,14.7056196070001,0
                104.092089583,14.705649828,0
                104.092113243,14.705671094,0
                104.092124569,14.705681269,0
                104.092141236,14.7056989860001,0
                104.092153271,14.705717367,0
                104.092161342,14.705739792,0
                104.092167089,14.7057622670001,0
                104.092169867,14.7057819830001,0
                104.09216913,14.705800083,0
                104.092166592,14.705815961,0
                104.09215959,14.705839285,0
                104.092136756,14.7058810360001,0
                104.092120325,14.70589835,0
                104.092109493,14.7059070670001,0
                104.092091165,14.7059176440001,0
                104.092067004,14.7059272130001,0
                104.092047797,14.7059336180001,0
                104.092042675,14.7059356950001,0
                104.092009188,14.7059468350001,0
                104.091749418,14.7059995650001,0
                104.091713338,14.7060068870001,0
                104.091630694,14.7060257320001,0
                104.09158963,14.7060350960001,0
                104.091558881,14.706047325,0
                104.091532721,14.706061893,0
                104.091514627,14.7060749730001,0
                104.091490269,14.7060971700001,0
                104.091472546,14.7061230460001,0
                104.09146261,14.7061462,0
                104.091458118,14.706178154,0
                104.091459065,14.706218909,0
                104.091472111,14.7062734080001,0
                104.091504631,14.7063771790001,0
                104.09151328,14.706411389,0
                104.091512864,14.7064496240001,0
                104.09150599,14.706491826,0
                104.091493879,14.7065341430001,0
                104.091477639,14.706567627,0
                104.091398005,14.706717192,0
                104.091376039,14.706758447,0
                104.09133733,14.706820766,0
                104.091317945,14.7068519810001,0
                104.091237231,14.706981937,0
                104.091214478,14.7070168430001,0
                104.091034367,14.707209387,0
                104.091008553,14.7072252460001,0
                104.090978815,14.707241191,0
                104.090889423,14.707281385,0
                104.090840086,14.7072990360001,0
                104.090806302,14.707309975,0
                104.090771095,14.707315845,0
                104.09072408,14.707320705,0
                104.090667817,14.7073219440001,0
                104.090614049,14.707318032,0
                104.090610701,14.7073175740001,0
                104.090523358,14.707310658,0
                104.090502978,14.707312625,0
                104.090441427,14.707322963,0
                104.090395439,14.7073337420001,0
                104.090326788,14.707349837,0
                104.090293033,14.70736205,0
                104.090273676,14.7073739410001,0
                104.09025577,14.7073921750001,0
                104.090245923,14.707419148,0
                104.090245294,14.7074484720001,0
                104.090251567,14.7074929300001,0
                104.090264435,14.707539792,0
                104.090299248,14.7076294930001,0
                104.090319912,14.7076736340001,0
                104.090329866,14.7077078200001,0
                104.090336287,14.7077586450001,0
                104.090339611,14.707789153,0
                104.090337767,14.7078223240001,0
                104.090328245,14.7078633090001,0
                104.090309834,14.707915955,0
                104.090268429,14.707993318,0
                104.090240592,14.708034707,0
                104.090216441,14.7080658190001,0
                104.090181516,14.708097605,0
                104.090153574,14.708116714,0
                104.090110951,14.708145868,0
                104.090061825,14.70817243,0
                104.090032112,14.7081896490001,0
                104.090015432,14.708204032,0
                104.089998806,14.708220963,0
                104.089974774,14.7082571720001,0
                104.089934796,14.7083395990001,0
                104.089923851,14.708375516,0
                104.089909511,14.708434448,0
                104.089903912,14.708475347,0
                104.089901336,14.708544773,0
                104.089903787,14.7085656140001,0
                104.089912539,14.708605205,0
                104.08991895,14.7086249320001,0
                104.089936666,14.7086561140001,0
                104.089943681,14.7086656000001,0
                104.089957148,14.708681869,0
                104.089971338,14.7086929720001,0
                104.089995871,14.708707358,0
                104.090016859,14.7087162300001,0
                104.090044265,14.7087254300001,0
                104.090061357,14.7087283380001,0
                104.090085222,14.7087287410001,0
                104.090105545,14.708728293,0
                104.090125829,14.708725175,0
                104.090151718,14.708717086,0
                104.090185413,14.708702325,0
                104.090257617,14.708654864,0
                104.090527984,14.7084590580001,0
                104.09057836,14.708429918,0
                104.090621127,14.708411137,0
                104.090687292,14.7083854700001,0
                104.090747187,14.708371411,0
                104.090768641,14.708367852,0
                104.090791525,14.7083640600001,0
                104.090828134,14.708361983,0
                104.090885762,14.7083632600001,0
                104.090940982,14.7083735140001,0
                104.091117705,14.708429509,0
                104.09116796,14.708451338,0
                104.091191283,14.7084628490001,0
                104.091197129,14.7084672610001,0
                104.091210601,14.70848353,0
                104.091217498,14.7084986680001,0
                104.091219281,14.708519014,0
                104.091216064,14.7085496660001,0
                104.091162277,14.708770014,0
                104.091147879,14.7088263970001,0
                104.091126014,14.708899505,0
                104.091103675,14.7089522380001,0
                104.091084875,14.708988332,0
                104.09102081,14.709098978,0
                104.090949816,14.7092040950001,0
                104.090933723,14.70924395,0
                104.090929138,14.709272082,0
                104.090921159,14.709460904,0
                104.09091746,14.7095016980001,0
                104.090907938,14.709542678,0
                104.090887095,14.709594644,0
                104.090880634,14.709606991,0
                104.090869405,14.7096219330001,0
                104.090851423,14.709645859,0
                104.090806635,14.709690171,0
                104.090774456,14.709713815,0
                104.090743468,14.709732333,0
                104.09070454,14.70974721,0
                104.090666714,14.7097531380001,0
                104.090497923,14.709756854,0
                104.090410197,14.709756236,0
                104.090341893,14.7097462740001,0
                104.090268145,14.7097275080001,0
                104.090203527,14.70970727,0
                104.090125868,14.709673169,0
                104.090033937,14.709639012,0
                104.089998849,14.709631288,0
                104.089969094,14.7096331550001,0
                104.089948585,14.709637967,0
                104.089931123,14.7096463710001,0
                104.089922592,14.709650762,0
                104.089890979,14.709672488,0
                104.089875835,14.7096854490001,0
                104.089873779,14.7096872060001,0
                104.089849526,14.709716095,0
                104.089828699,14.7097454670001,0
                104.089811675,14.709775747,0
                104.089798005,14.709806944,0
                104.08973668,14.7099921380001,0
                104.089716409,14.71009622,0
                104.089708829,14.710145654,0
                104.089704662,14.7101916170001,0
                104.089703995,14.7102874060001,0
                104.089723928,14.710471554,0
                104.089733206,14.710545563,0
                104.089747932,14.710605017,0
                104.08976599,14.7106449130001,0
                104.089781109,14.7106689070001,0
                104.089856147,14.7107716570001,0
                104.089905377,14.7108302020001,0
                104.090187599,14.71110235,0
                104.090245085,14.71116247,0
                104.090436277,14.711353543,0
                104.090635221,14.71155236,0
                104.090685096,14.7115954340001,0
                104.090734817,14.711631718,0
                104.090819741,14.711680814,0
                104.090831849,14.7116881480001,0
                104.090946972,14.711757843,0
                104.091007851,14.7117894840001,0
                104.091193047,14.711879084,0
                104.091250797,14.7119033070001,0
                104.09133342,14.7119312790001,0
                104.091937044,14.712079875,0
                104.092041905,14.7121005990001,0
                104.092068115,14.712106455,0
                104.092153682,14.712130448,0
                104.09218899,14.71214524,0
                104.09222923,14.712167473,0
                104.092240334,14.712174829,0
                104.092247658,14.7121806860001,0
                104.092264745,14.712194348,0
                104.092293568,14.712232785,0
                104.092312683,14.71226677,0
                104.092324963,14.712303207,0
                104.092334553,14.7123440140001,0
                104.092347755,14.712417116,0
                104.092352585,14.712443851,0
                104.092363563,14.7125367830001,0
                104.092364043,14.712545269,0
                104.092368638,14.712587033,0
                104.092368665,14.7125925560001,0
                104.092362107,14.712695696,0
                104.092346257,14.712778655,0
                104.092327551,14.7128452370001,0
                104.092313625,14.712886928,0
                104.092291817,14.7129383380001,0
                104.092268421,14.712982427,0
                104.092233869,14.713039569,0
                104.092195977,14.713094014,0
                104.092079514,14.7132364720001,0
                104.091909062,14.713445956,0
                104.091897621,14.713457556,0
                104.091813989,14.7135277410001,0
                104.09170621,14.7136218570001,0
                104.091661481,14.713650026,0
                104.091613101,14.713671477,0
                104.09156108,14.7136862150001,0
                104.091411514,14.713709895,0
                104.091366469,14.7137244790001,0
                104.091338914,14.713740376,0
                104.091323686,14.713761101,0
                104.091313809,14.7137868,0
                104.091305755,14.713815859,0
                104.091303017,14.7138481980001,0
                104.091309158,14.7138871400001,0
                104.091329379,14.713930867,0
                104.091365336,14.7139759460001,0
                104.091424292,14.7140341100001,0
                104.091467029,14.714070543,0
                104.091500773,14.714095285,0
                104.091580034,14.714196782,0
                104.091657291,14.714295711,0
                104.09170931,14.7143557260001,0
                104.091775282,14.714415434,0
                104.091854574,14.7144792720001,0
                104.092017013,14.714602088,0
                104.092075574,14.714643267,0
                104.092118286,14.714668879,0
                104.092221907,14.714723744,0
                104.0922547,14.714741798,0
                104.092384356,14.7148101720001,0
                104.092479478,14.7148513070001,0
                104.092558264,14.7148798310001,0
                104.092628958,14.7149073,0
                104.092693603,14.7149262570001,0
                104.092763912,14.7149371730001,0
                104.092851596,14.7149428860001,0
                104.092950875,14.7149444020001,0
                104.093084917,14.714935091,0
                104.093195407,14.714916929,0
                104.093236045,14.714907709,0
                104.093336468,14.7148716620001,0
                104.093410969,14.714836543,0
                104.093457401,14.714808174,0
                104.093495762,14.7147788610001,0
                104.093582094,14.714706779,0
                104.093973666,14.7143522810001,0
                104.094100065,14.714209023,0
                104.094136908,14.714178131,0
                104.09421082,14.7141280810001,0
                104.09429764,14.714075404,0
                104.094388323,14.714016858,0
                104.094487131,14.7139478300001,0
                104.094631798,14.713855251,0
                104.094712744,14.7138127010001,0
                104.09480061,14.7137735430001,0
                104.094868373,14.7137512680001,0
                104.094915897,14.7137391970001,0
                104.094960121,14.7137323160001,0
                104.09505126,14.713732411,0
                104.095083786,14.71373541,0
                104.095123058,14.7137436850001,0
                104.095151431,14.71375321,0
                104.095195443,14.713769228,0
                104.095230808,14.7137888340001,0
                104.095259276,14.713811993,0
                104.095291509,14.713846959,0
                104.095387324,14.713950905,0
                104.095436443,14.714011978,0
                104.095481354,14.714070802,0
                104.095518596,14.714137034,0
                104.095537607,14.7141886310001,0
                104.095558143,14.7142595830001,0
                104.095574421,14.714315808,0
                104.095612709,14.714448093,0
                104.095629399,14.7144901940001,0
                104.095652946,14.714527054,0
                104.095681691,14.7145620960001,0
                104.095712022,14.7145903090001,0
                104.095754605,14.714619951,0
                104.095828785,14.714657392,0
                104.096148603,14.714829093,0
                104.096163303,14.7148429640001,0
                104.09617627,14.7148599600001,0
                104.096194795,14.714897993,0
                104.096207281,14.7149341090001,0
                104.096254688,14.7150983820001,0
                104.096276215,14.715151067,0
                104.09631158,14.715203451,0
                104.096358081,14.7152524410001,0
                104.09641972,14.7153010970001,0
                104.096450721,14.715333647,0
                104.096472285,14.715360044,0
                104.096491408,14.7153885810001,0
                104.096520347,14.715448662,0
                104.096528484,14.715471891,0
                104.096532764,14.715492741,0
                104.096534438,14.7155020160001,0
                104.096535362,14.715541708,0
                104.09652672,14.7155782770001,0
                104.096516191,14.715598385,0
                104.09651241,14.7156056040001,0
                104.096490365,14.715633274,0
                104.096450829,14.7156596310001,0
                104.096404238,14.7156827420001,0
                104.096352257,14.7156991790001,0
                104.096277553,14.7157144180001,0
                104.096202533,14.7157160720001,0
                104.096137824,14.715710705,0
                104.096081757,14.715701746,0
                104.096057178,14.715693161,0
                104.096045383,14.715692308,0
                104.095969733,14.7156692890001,0
                104.095831896,14.7156149740001,0
                104.095694406,14.715575428,0
                104.095624251,14.715561365,0
                104.095581257,14.715555055,0
                104.09554209,14.715551922,0
                104.095470421,14.7155533810001,0
                104.095427745,14.7155607550001,0
                104.095405857,14.7155663510001,0
                104.09536084,14.7155864810001,0
                104.095340657,14.715598733,0
                104.095328087,14.71560916,0
                104.095326764,14.7156105820001,0
                104.095301755,14.7156373930001,0
                104.095278197,14.715675291,0
                104.095259956,14.715716468,0
                104.095247697,14.7157897930001,0
                104.095246949,14.7158469340001,0
                104.095246604,14.7158733000001,0
                104.095246009,14.7159187240001,0
                104.095243904,14.7159547750001,0
                104.095230039,14.7160913280001,0
                104.095217938,14.7161580440001,0
                104.095217133,14.716161657,0
                104.095193737,14.7162462920001,0
                104.095152531,14.7163508350001,0
                104.095114537,14.716443413,0
                104.095084595,14.7165069330001,0
                104.095012697,14.7166427330001,0
                104.094981051,14.7167079880001,0
                104.094964712,14.7167559170001,0
                104.094956584,14.7167815820001,0
                104.094952058,14.7168122620001,0
                104.094952848,14.7168462220001,0
                104.094958955,14.7168834660001,0
                104.094970384,14.7169169110001,0
                104.094976911,14.7169408070001,0
                104.095011759,14.717033816,0
                104.095018336,14.7170628370001,0
                104.095022315,14.7170961590001,0
                104.095023683,14.7171147880001,0
                104.095026252,14.7172251640001,0
                104.095032556,14.7172708960001,0
                104.095051385,14.717329943,0
                104.095075091,14.717373593,0
                104.095120131,14.7174337610001,0
                104.095128377,14.7174434040001,0
                104.09514054,14.7174610440001,0
                104.095186777,14.717522334,0
                104.095298028,14.717652398,0
                104.095364263,14.717726284,0
                104.095365195,14.717727165,0
                104.095520135,14.71789554,0
                104.095652523,14.7180336340001,0
                104.095702835,14.718095384,0
                104.09576646,14.718182604,0
                104.095814805,14.7182662020001,0
                104.095829615,14.718295352,0
                104.095866613,14.7183822860001,0
                104.095892039,14.718450283,0
                104.095898407,14.718473326,0
                104.095927524,14.718606844,0
                104.095955177,14.718756807,0
                104.095955879,14.718767671,0
                104.095958879,14.71882177,0
                104.095950713,14.7188849390001,0
                104.095946714,14.718898691,0
                104.095921887,14.7189570030001,0
                104.095895617,14.7190052460001,0
                104.09587195,14.7190380330001,0
                104.095712467,14.719258928,0
                104.095663217,14.7193177780001,0
                104.095649795,14.7193323600001,0
                104.095622873,14.7193527580001,0
                104.095604886,14.719361538,0
                104.095546041,14.719383222,0
                104.095510777,14.7193978610001,0
                104.095476885,14.71941193,0
                104.095445876,14.719429603,0
                104.09541844,14.719450598,0
                104.095392901,14.719478344,0
                104.095369462,14.7195213300001,0
                104.095310009,14.719741804,0
                104.095299139,14.7197998080001,0
                104.095300167,14.719843957,0
                104.095306392,14.719886294,0
                104.095321576,14.7199386230001,0
                104.09536003,14.7200159240001,0
                104.095376367,14.720046811,0
                104.095392897,14.7200780630001,0
                104.095425526,14.7201300080001,0
                104.095472232,14.7201867420001,0
                104.095513429,14.7202317040001,0
                104.095531745,14.7202686740001,0
                104.095536142,14.7203076540001,0
                104.095535149,14.720339955,0
                104.095522022,14.7203759240001,0
                104.095498464,14.7204138180001,0
                104.095467692,14.72044168,0
                104.0954349,14.7204576930001,0
                104.095403654,14.7204651760001,0
                104.095363288,14.7204558760001,0
                104.09532796,14.7204379630001,0
                104.095296043,14.720416583,0
                104.095251358,14.7203716980001,0
                104.095049514,14.720099223,0
                104.0948916,14.7199161450001,0
                104.094868319,14.719889155,0
                104.094823397,14.7198340800001,0
                104.094802656,14.7197981190001,0
                104.094777926,14.719755235,0
                104.09477033,14.719738094,0
                104.094645271,14.719455753,0
                104.094623388,14.7194154600001,0
                104.094592859,14.7193787590001,0
                104.094564271,14.7193505070001,0
                104.094534098,14.719329084,0
                104.094498771,14.7193111760001,0
                104.094453133,14.719300289,0
                104.094443872,14.7193001590001,0
                104.094435686,14.719300047,0
                104.094405987,14.71929963,0
                104.094362646,14.7193124790001,0
                104.09432807,14.719326833,0
                104.09428679,14.719353228,0
                104.09423203,14.7194003060001,0
                104.09416398,14.719476559,0
                104.094094783,14.7195783180001,0
                104.094072801,14.7196236460001,0
                104.094024437,14.7197233690001,0
                104.093856594,14.7200694640001,0
                104.093771175,14.7202242490001,0
                104.093747934,14.7202757270001,0
                104.093736629,14.720315053,0
                104.093732305,14.720354221,0
                104.093732023,14.7204170910001,0
                104.093741252,14.7205137240001,0
                104.093741563,14.7206020620001,0
                104.093718564,14.7207194490001,0
                104.0937088,14.720769279,0
                104.093689165,14.7208257770001,0
                104.09366906,14.720861896,0
                104.09364356,14.72089134,0
                104.093610926,14.7209141480001,0
                104.093564215,14.7209321670001,0
                104.093519129,14.720945054,0
                104.093404496,14.720969665,0
                104.093288752,14.720985114,0
                104.093227088,14.720993344,0
                104.092876959,14.7210288630001,0
                104.092769184,14.721048227,0
                104.092701459,14.7210633120001,0
                104.092644397,14.721086658,0
                104.092582379,14.7211220020001,0
                104.092534319,14.721157039,0
                104.092452112,14.7212251120001,0
                104.092409368,14.721263428,0
                104.09236654,14.7212983490001,0
                104.092074764,14.7215120500001,0
                104.092045617,14.7215347810001,0
                104.092020117,14.7215642250001,0
                104.091788395,14.721958387,0
                104.091756748,14.7220236430001,0
                104.091733549,14.7220768180001,0
                104.0917226,14.722131427,0
                104.091723271,14.722160294,0
                104.091725687,14.722189123,0
                104.091740514,14.722226171,0
                104.091767595,14.722264651,0
                104.091812196,14.722306142,0
                104.091883132,14.722353846,0
                104.091944908,14.722383065,0
                104.091997097,14.722396921,0
                104.092037285,14.722397937,0
                104.092062156,14.722395771,0
                104.092123063,14.7223876350001,0
                104.092182107,14.7223744400001,0
                104.092237623,14.722359625,0
                104.092295964,14.7223351600001,0
                104.092363052,14.722300019,0
                104.092413604,14.7222707980001,0
                104.092443655,14.722254548,0
                104.092509359,14.722219023,0
                104.092544622,14.7221999550001,0
                104.092676989,14.7221120890001,0
                104.09276974,14.7220471850001,0
                104.092866329,14.721979133,0
                104.093153591,14.7217767490001,0
                104.093169394,14.721765615,0
                104.093250827,14.7217152100001,0
                104.0932871,14.721696219,0
                104.093318037,14.7216800210001,0
                104.093347473,14.721669934,0
                104.09340809,14.721649154,0
                104.093481131,14.7216373530001,0
                104.093540407,14.7216343440001,0
                104.093596476,14.7216433020001,0
                104.093642154,14.7216558870001,0
                104.093687991,14.7216752620001,0
                104.093726846,14.7216947950001,0
                104.093758843,14.7217195710001,0
                104.093787589,14.721754617,0
                104.093825613,14.7218132410001,0
                104.093838494,14.721841839,0
                104.093855224,14.7218856430001,0
                104.093856964,14.7219009400001,0
                104.09385783,14.7219154810001,0
                104.093855417,14.721968883,0
                104.093845709,14.7220251000001,0
                104.093841572,14.722049041,0
                104.093839367,14.722054509,0
                104.09381771,14.722108255,0
                104.093811867,14.722122746,0
                104.093780581,14.7221746180001,0
                104.093754762,14.722217417,0
                104.093680073,14.722321492,0
                104.093631454,14.7223818590001,0
                104.093628571,14.722385671,0
                104.093558922,14.722483561,0
                104.093450282,14.7226467560001,0
                104.093420142,14.7226920300001,0
                104.093329644,14.722853721,0
                104.093294627,14.722924151,0
                104.093264962,14.722999558,0
                104.093247506,14.723074695,0
                104.093233266,14.723137869,0
                104.093222475,14.723199267,0
                104.093217079,14.7232673450001,0
                104.093220404,14.7233352270001,0
                104.093230908,14.7234114460001,0
                104.093244501,14.7234706090001,0
                104.093272135,14.723532864,0
                104.093308293,14.723586429,0
                104.093345804,14.7236229810001,0
                104.093402739,14.723669295,0
                104.093472845,14.723709759,0
                104.093533747,14.723747953,0
                104.093607106,14.7237895390001,0
                104.093963598,14.7239916140001,0
                104.094053923,14.7240473860001,0
                104.094140918,14.7241100260001,0
                104.094163927,14.7241282590001,0
                104.094309864,14.724243916,0
                104.094361611,14.724292043,0
                104.094395866,14.724338856,0
                104.09443032,14.7243941620001,0
                104.094457717,14.724446222,0
                104.094526947,14.7246106440001,0
                104.094561192,14.724691985,0
                104.094684732,14.7249746790001,0
                104.094724458,14.725031566,0
                104.094758397,14.725064795,0
                104.09481843,14.725094051,0
                104.094892105,14.7251094150001,0
                104.095019744,14.725118493,0
                104.095085367,14.72512583,0
                104.095222763,14.7251411980001,0
                104.095382326,14.725171656,0
                104.095456233,14.725197209,0
                104.095529113,14.7252533650001,0
                104.095582836,14.7253116420001,0
                104.095631684,14.7253853170001,0
                104.095683244,14.725472546,0
                104.095686203,14.7254775540001,0
                104.095757883,14.7256322710001,0
                104.095836308,14.7257766490001,0
                104.095872269,14.725821726,0
                104.095916876,14.7258632160001,0
                104.095975442,14.7259043980001,0
                104.096217956,14.7260410100001,0
                104.096274373,14.7260727880001,0
                104.09630312,14.7261078330001,0
                104.096314341,14.7261398640001,0
                104.09632409,14.7261838210001,0
                104.096326892,14.7261993560001,0
                104.096338124,14.726261661,0
                104.096362644,14.72671473,0
                104.09637144,14.7267926850001,0
                104.096386901,14.726856906,0
                104.096401809,14.726897348,0
                104.096422107,14.7269444730001,0
                104.096451369,14.7270015870001,0
                104.096500533,14.7270888460001,0
                104.096553295,14.7272331500001,0
                104.096588204,14.7273640130001,0
                104.096644167,14.7275738000001,0
                104.096690438,14.7277472320001,0
                104.09672386,14.72783314,0
                104.096751373,14.727890297,0
                104.096776593,14.7279237180001,0
                104.096824729,14.727966827,0
                104.096906093,14.728012601,0
                104.097073822,14.728093846,0
                104.097132231,14.728128237,0
                104.097171522,14.728166442,0
                104.097209149,14.7282080850001,0
                104.097232783,14.7282483390001,0
                104.097253002,14.7282920650001,0
                104.097262638,14.728330924,0
                104.097263548,14.7283699810001,0
                104.097259261,14.728410851,0
                104.097248199,14.728460362,0
                104.097211739,14.728571726,0
                104.097118661,14.728772561,0
                104.097095478,14.7288225830001,0
                104.097089844,14.7288563060001,0
                104.097086988,14.7288835530001,0
                104.09709321,14.728925889,0
                104.097103,14.728971544,0
                104.097112064,14.7289922200001,0
                104.097118563,14.7290009650001,0
                104.097137262,14.729018356,0
                104.097163825,14.7290347580001,0
                104.097192249,14.7290436010001,0
                104.097251809,14.729048715,0
                104.097272355,14.7290476530001,0
                104.0973247,14.7290464980001,0
                104.097381996,14.7290333400001,0
                104.097412351,14.7290207400001,0
                104.097442508,14.7290082220001,0
                104.097513963,14.7289759610001,0
                104.097680574,14.7288818980001,0
                104.097763428,14.728846533,0
                104.097846505,14.728815818,0
                104.097889847,14.728802972,0
                104.097933426,14.728800307,0
                104.097966615,14.7288012770001,0
                104.098005195,14.728808918,0
                104.0980299,14.728820265,0
                104.098056622,14.728843462,0
                104.098078353,14.72887696,0
                104.098094729,14.72890548,0
                104.098109518,14.7289408290001,0
                104.098126095,14.728996857,0
                104.098159472,14.7291367990001,0
                104.098172671,14.7291789820001,0
                104.098189131,14.729210897,0
                104.098219737,14.7292509960001,0
                104.098279016,14.729322741,0
                104.098304276,14.7293578590001,0
                104.098315414,14.729386495,0
                104.098323306,14.729425398,0
                104.098333174,14.729474447,0
                104.098340055,14.7296238760001,0
                104.098341998,14.729927861,0
                104.098342431,14.7300212910001,0
                104.098352305,14.7300703440001,0
                104.098361506,14.7300943290001,0
                104.098383773,14.730127945,0
                104.098399449,14.730145754,0
                104.098443742,14.7301736580001,0
                104.098507186,14.73019944,0
                104.098598704,14.7302313970001,0
                104.098665001,14.7302512910001,0
                104.098741097,14.7302741230001,0
                104.098788679,14.7302934580001,0
                104.098825951,14.7303198180001,0
                104.098858029,14.7303479920001,0
                104.098897405,14.7303895960001,0
                104.098926188,14.7304263340001,0
                104.098967626,14.7304814840001,0
                104.098978381,14.7305024340001,0
                104.099013343,14.730570517,0
                104.099075555,14.730693162,0
                104.099095657,14.7307317950001,0
                104.099120956,14.73076861,0
                104.099170957,14.7308167780001,0
                104.099224564,14.730869956,0
                104.099275643,14.7309151630001,0
                104.099335074,14.7309677530001,0
                104.099374411,14.7310076590001,0
                104.099406806,14.7310494170001,0
                104.099432418,14.731099817,0
                104.099537214,14.731339473,0
                104.099603472,14.7314731970001,0
                104.099616597,14.7315119840001,0
                104.099626229,14.731550843,0
                104.099632297,14.731586389,0
                104.099638362,14.7316219300001,0
                104.099642998,14.731671095,0
                104.0996426,14.7317288670001,0
                104.099638476,14.731776527,0
                104.099628124,14.731821095,0
                104.099617095,14.7318580900001,0
                104.099564787,14.731999424,0
                104.099469852,14.732255948,0
                104.09945843,14.732290177,0
                104.099452126,14.732319198,0
                104.099454464,14.732344631,0
                104.099465568,14.7323715700001,0
                104.099477279,14.732386069,0
                104.099481746,14.732391598,0
                104.099515489,14.7324163370001,0
                104.099554307,14.7324341670001,0
                104.099617752,14.732459949,0
                104.099811255,14.7325354540001,0
                104.101413386,14.733252071,0
                104.101979585,14.7335053150001,0
                104.102140285,14.7336149830001,0
                104.102220856,14.73369546,0
                104.102282219,14.733775838,0
                104.102294361,14.733795081,0
                104.102339867,14.733867188,0
                104.102443071,14.7340340430001,0
                104.102565164,14.734301155,0
                104.102630767,14.734452731,0
                104.102701921,14.734664593,0
                104.10308209,14.736092979,0
                104.105063263,14.7358474910001,0
                104.10561009,14.735799478,0
                104.106972724,14.7356514300001,0
                104.107348304,14.7356213210001,0
                104.107661178,14.7356067750001,0
                104.108107104,14.7355892900001,0
                104.108608347,14.735593438,0
                104.108843134,14.7355882420001,0
                104.109125776,14.7356200890001,0
                104.109526877,14.735695035,0
                104.110027581,14.7356763330001,0
                104.110777663,14.7356063840001,0
                104.111230698,14.7355582500001,0
                104.111786188,14.735538327,0
                104.112168609,14.7354841370001,0
                104.112613284,14.735413323,0
                104.112986985,14.735321217,0
                104.11353126,14.7351567540001,0
                104.114020573,14.7349858800001,0
                104.114230813,14.734935502,0
                104.114675842,14.7348799170001,0
                104.115308343,14.734804941,0
                104.115752831,14.734726503,0
                104.116485646,14.7345883360001,0
                104.117133261,14.7344901540001,0
                104.117570815,14.734449974,0
                104.11800712,14.734356473,0
                104.118342039,14.734280465,0
                104.118629826,14.734197879,0
                104.118964031,14.7340914050001,0
                104.119640269,14.7338782740001,0
                104.120465739,14.733684698,0
                104.120910042,14.733598638,0
                104.12135417,14.733504958,0
                104.121845608,14.7334254730001,0
                104.122305744,14.733346682,0
                104.122695618,14.733277066,0
                104.123427703,14.733108411,0
                104.124254975,14.7328830910001,0
                104.125654484,14.7324926470001,0
                104.125828167,14.7324252770001,0
                104.126037194,14.732372889,0
                104.126365466,14.7323246780001,0
                104.126932535,14.732298445,0
                104.127352346,14.7322686570001,0
                104.127939153,14.732187416,0
                104.128364365,14.7320893020001,0
                104.129174684,14.731975812,0
                104.130033397,14.731833958,0
                104.130984603,14.7317514330001,0
                104.132027353,14.731687336,0
                104.133420978,14.731642714,0
                104.133939489,14.731638005,0
                104.134318544,14.731663677,0
                104.13469808,14.731709804,0
                104.13489533,14.7317531640001,0
                104.135099108,14.731775913,0
                104.135568423,14.731765474,0
                104.136356571,14.7317840160001,0
                104.136760505,14.731793522,0
                104.137558882,14.731768937,0
                104.138014507,14.7317724390001,0
                104.138371747,14.7317644880001,0
                104.138686637,14.73174384,0
                104.139119806,14.7316864520001,0
                104.139392345,14.731653104,0
                104.139826154,14.731622982,0
                104.140624046,14.7315779370001,0
                104.141848735,14.73150292,0
                104.143199827,14.731438726,0
                104.144571612,14.7313604180001,0
                104.145831633,14.731298237,0
                104.147644057,14.7311828090001,0
                104.149246171,14.731065233,0
                104.150225682,14.7309956450001,0
                104.150792569,14.7309625390001,0
                104.151289084,14.7309173570001,0
                104.151696852,14.730870942,0
                104.152324467,14.730839689,0
                104.153045129,14.7307895050001,0
                104.153555172,14.730723556,0
                104.153820215,14.7306698950001,0
                104.154195886,14.730552383,0
                104.154565838,14.730489558,0
                104.154768165,14.7304509410001,0
                104.155305258,14.730343459,0
                104.157080729,14.7299285570001,0
                104.158687624,14.7295198100001,0
                104.159903981,14.7291925320001,0
                104.161399644,14.7288226250001,0
                104.162560811,14.7285329480001,0
                104.163610336,14.7282639430001,0
                104.164934107,14.727895667,0
                104.165775169,14.7277426430001,0
                104.166511444,14.7276625120001,0
                104.167452535,14.7275505210001,0
                104.168290332,14.727522854,0
                104.169900789,14.727710099,0
                104.171320476,14.7279277220001,0
                104.17212802,14.728106812,0
                104.175288334,14.729152469,0
                104.183228296,14.7318027110001,0
                104.186081156,14.732780657,0
                104.193044191,14.735196275,0
                104.193054165,14.7348447470001,0
                104.193064962,14.7345557420001,0
                104.193072185,14.734332937,0
                104.193074066,14.73427495,0
                104.193073441,14.7342620850001,0
                104.193064661,14.7340808480001,0
                104.193055648,14.734037524,0
                104.193040468,14.7340036630001,0
                104.193017303,14.733969986,0
                104.192963183,14.733910574,0
                104.192945757,14.733886786,0
                104.192933958,14.7338682230001,0
                104.192917573,14.733835862,0
                104.192913256,14.733826198,0
                104.192787,14.733556397,0
                104.192778638,14.733538531,0
                104.192725228,14.733441796,0
                104.192695459,14.733398939,0
                104.192672405,14.7333699220001,0
                104.19258465,14.733272271,0
                104.192498497,14.7331764030001,0
                104.192468912,14.733141317,0
                104.192447343,14.7331076040001,0
                104.192425706,14.73307078,0
                104.192337285,14.7329197620001,0
                104.192306999,14.732868038,0
                104.192167911,14.7325982900001,0
                104.192161497,14.732583119,0
                104.192108247,14.732482534,0
                104.192072136,14.732421324,0
                104.192042501,14.73237691,0
                104.192035235,14.732367583,0
                104.192024534,14.732351598,0
                104.191995377,14.732314651,0
                104.191866549,14.732168621,0
                104.1918367,14.7321442250001,0
                104.191751105,14.732089187,0
                104.191706543,14.732060919,0
                104.191676327,14.73203863,0
                104.191640234,14.7320050860001,0
                104.191605163,14.7319580240001,0
                104.191583047,14.731914084,0
                104.191575272,14.7318823590001,0
                104.191579142,14.7318480920001,0
                104.191592425,14.731815892,0
                104.191607176,14.7317961910001,0
                104.191630281,14.731783136,0
                104.191658198,14.7317756750001,0
                104.191675668,14.7317718630001,0
                104.191718422,14.731768447,0
                104.191747516,14.73176763,0
                104.192095617,14.7317578600001,0
                104.192149386,14.7317543720001,0
                104.192178505,14.731748023,0
                104.192209879,14.731738201,0
                104.192235217,14.7317205410001,0
                104.192260441,14.731698325,0
                104.192276281,14.7316751810001,0
                104.192279251,14.7316523310001,0
                104.19227863,14.731626138,0
                104.192265822,14.7315797140001,0
                104.192247271,14.731537974,0
                104.192229017,14.7315087590001,0
                104.192223103,14.731501221,0
                104.192212985,14.7314883220001,0
                104.192167774,14.731444056,0
                104.191965569,14.7312606090001,0
                104.191918668,14.7312081150001,0
                104.191894455,14.7311744790001,0
                104.191880747,14.731139468,0
                104.19187539,14.7311111070001,0
                104.191881628,14.7310779220001,0
                104.191894884,14.7310445840001,0
                104.191912875,14.731013418,0
                104.191933396,14.7309901680001,0
                104.19196088,14.730964483,0
                104.192000068,14.730938539,0
                104.192041759,14.7309193720001,0
                104.192121842,14.7308933640001,0
                104.192226475,14.730859389,0
                104.192248081,14.730851264,0
                104.192342509,14.7308157620001,0
                104.192372604,14.730801414,0
                104.192377515,14.7307988850001,0
                104.192402678,14.7307859270001,0
                104.192426813,14.730767155,0
                104.192439227,14.730747507,0
                104.192445704,14.730724573,0
                104.192444812,14.7306869940001,0
                104.192432248,14.7306508180001,0
                104.192416335,14.73062155,0
                104.192338726,14.730522341,0
                104.192191949,14.7303347070001,0
                104.192120873,14.7302651790001,0
                104.191958837,14.7301278510001,0
                104.191867362,14.730029598,0
                104.191846398,14.7299677190001,0
                104.191844726,14.729897271,0
                104.191867547,14.7296853,0
                104.191914526,14.729434831,0
                104.191939089,14.7292960190001,0
                104.191995492,14.729207999,0
                104.192058765,14.729148288,0
                104.192225101,14.729062616,0
                104.192337109,14.7289829810001,0
                104.192385001,14.7289144320001,0
                104.192391355,14.728764885,0
                104.192418308,14.7286486090001,0
                104.192374594,14.728476089,0
                104.19228013,14.7282516920001,0
                104.192166097,14.728037376,0
                104.192091775,14.727826985,0
                104.192032183,14.7276114490001,0
                104.191997688,14.7274098030001,0
                104.191935054,14.7271569430001,0
                104.191868866,14.727008986,0
                104.191702677,14.7266086170001,0
                104.191642391,14.7264647980001,0
                104.191616513,14.7263960920001,0
                104.191604048,14.726376138,0
                104.191587544,14.7263547210001,0
                104.191571119,14.726336415,0
                104.191551624,14.726319597,0
                104.191533297,14.7263042340001,0
                104.191517984,14.7262926230001,0
                104.191502697,14.726283476,0
                104.191468258,14.726263971,0
                104.191416048,14.726234397,0
                104.191238739,14.7261402120001,0
                104.191211846,14.726125096,0
                104.191147918,14.7260914570001,0
                104.19113084,14.726079386,0
                104.191117722,14.7260656760001,0
                104.191106126,14.7260488150001,0
                104.191087109,14.7259885450001,0
                104.191083048,14.7259738710001,0
                104.191076124,14.7259563010001,0
                104.191023012,14.7257513930001,0
                104.191000984,14.7256723030001,0
                104.190992681,14.725642481,0
                104.190986446,14.7256106300001,0
                104.190978736,14.725549809,0
                104.190956157,14.7253246240001,0
                104.190947177,14.7250669090001,0
                104.190940563,14.7250029090001,0
                104.190912612,14.724810174,0
                104.190880277,14.724569956,0
                104.190876693,14.724550762,0
                104.190872728,14.724535788,0
                104.190869786,14.724524963,0
                104.190862324,14.7245085220001,0
                104.190860004,14.7245049480001,0
                104.190854231,14.724495925,0
                104.190842775,14.7244818090001,0
                104.190825648,14.724465149,0
                104.190806915,14.72444961,0
                104.190712675,14.7243739580001,0
                104.190594295,14.724271399,0
                104.190498492,14.724195777,0
                104.190476227,14.724177309,0
                104.190442398,14.7241530650001,0
                104.190388735,14.724126573,0
                104.190292984,14.7240820270001,0
                104.190282939,14.724076676,0
                104.190258674,14.724062293,0
                104.190251309,14.7240579320001,0
                104.190245054,14.724051392,0
                104.190244873,14.7240512070001,0
                104.190237446,14.7240465680001,0
                104.190217117,14.724032241,0
                104.190201561,14.724017028,0
                104.190187477,14.723996331,0
                104.190179009,14.723976287,0
                104.190164951,14.723931544,0
                104.19009598,14.72371201,0
                104.190062923,14.7236016590001,0
                104.190036932,14.723514892,0
                104.190019585,14.723457696,0
                104.19001158,14.723423633,0
                104.189951865,14.723097355,0
                104.18994834,14.7230665970001,0
                104.189947116,14.723040359,0
                104.189946998,14.7230100100001,0
                104.18994824,14.72298664,0
                104.189950739,14.72296557,0
                104.189955579,14.722942115,0
                104.189964046,14.7229197450001,0
                104.189974446,14.7229031690001,0
                104.190104732,14.722732733,0
                104.190115105,14.722714991,0
                104.190123067,14.722696722,0
                104.190128564,14.722675586,0
                104.190137295,14.7226392050001,0
                104.190142916,14.7226233170001,0
                104.190157933,14.7225990520001,0
                104.190254974,14.722436567,0
                104.190273923,14.722407344,0
                104.190279484,14.7223891240001,0
                104.190282641,14.7223703780001,0
                104.190283513,14.72233125,0
                104.19027818,14.7222833880001,0
                104.19027441,14.722249532,0
                104.190271318,14.7222218000001,0
                104.190268969,14.722198506,0
                104.190266167,14.7221816410001,0
                104.190262829,14.722167126,0
                104.190226826,14.7220650890001,0
                104.190192749,14.721968508,0
                104.190141294,14.7218550210001,0
                104.190105424,14.7217759170001,0
                104.190102894,14.721770334,0
                104.190080899,14.7217025410001,0
                104.190074392,14.721681092,0
                104.190070452,14.721666591,0
                104.190069477,14.721650851,0
                104.190070247,14.721632744,0
                104.19009502,14.7214635080001,0
                104.190150261,14.72113776,0
                104.190154375,14.721109069,0
                104.190154271,14.721079306,0
                104.190151344,14.7210571910001,0
                104.19014548,14.721037476,0
                104.190133609,14.721008586,0
                104.190067286,14.7208866030001,0
                104.189910332,14.720610892,0
                104.189691251,14.7201820550001,0
                104.189510295,14.719833689,0
                104.189401572,14.719594848,0
                104.189379317,14.719532655,0
                104.189359217,14.719462768,0
                104.189328779,14.7193443630001,0
                104.189278585,14.7191069190001,0
                104.189236278,14.718935104,0
                104.189234942,14.718930675,0
                104.18922913,14.7189113910001,0
                104.189219585,14.718888259,0
                104.189206542,14.71886929,0
                104.189195381,14.7188537800001,0
                104.189181078,14.71884098,0
                104.189176824,14.7188378500001,0
                104.189158785,14.7188277550001,0
                104.189131212,14.718815104,0
                104.189111494,14.7188060560001,0
                104.188897806,14.718723567,0
                104.188841109,14.718707651,0
                104.188793511,14.7186982160001,0
                104.188770036,14.7186946570001,0
                104.188765575,14.7186940730001,0
                104.188664724,14.7186808600001,0
                104.188663564,14.718680706,0
                104.188610573,14.718671392,0
                104.188590614,14.7186642500001,0
                104.188571783,14.7186541680001,0
                104.188558962,14.718644533,0
                104.188547219,14.7186296250001,0
                104.188534579,14.718602477,0
                104.188517008,14.7185563040001,0
                104.188434717,14.7183400530001,0
                104.188428677,14.718319928,0
                104.188425049,14.718307856,0
                104.188419662,14.718282878,0
                104.188414706,14.71825089,0
                104.188414131,14.718226615,0
                104.188414015,14.7182217210001,0
                104.188415007,14.7182130190001,0
                104.188417492,14.718191297,0
                104.188418397,14.71818656,0
                104.188456868,14.7179857150001,0
                104.188461592,14.717961046,0
                104.188463951,14.717929768,0
                104.188465804,14.7178527310001,0
                104.188458775,14.717757299,0
                104.188451338,14.717719808,0
                104.188451285,14.7177195260001,0
                104.188444723,14.7176957450001,0
                104.188439866,14.717682589,0
                104.18843362,14.7176713150001,0
                104.188430247,14.7176668860001,0
                104.188416228,14.7176572820001,0
                104.188403517,14.7176523150001,0
                104.188387221,14.7176480100001,0
                104.18837142,14.717645851,0
                104.188326029,14.7176373250001,0
                104.188316764,14.7176355830001,0
                104.188200793,14.71760025,0
                104.188151786,14.7175820890001,0
                104.188121461,14.7175675940001,0
                104.18809048,14.7175507810001,0
                104.18806369,14.717533873,0
                104.188041086,14.717516286,0
                104.188017535,14.7174948960001,0
                104.188008596,14.7174850380001,0
                104.18791902,14.717375518,0
                104.187902875,14.717356674,0
                104.187772721,14.7172144250001,0
                104.187728535,14.7171721920001,0
                104.187604803,14.7170632630001,0
                104.187496492,14.7169810460001,0
                104.187409273,14.7169120130001,0
                104.187388935,14.7168959150001,0
                104.187330427,14.7168498680001,0
                104.187301217,14.7168245870001,0
                104.187275238,14.7168003240001,0
                104.187111601,14.7166424660001,0
                104.18694324,14.71647274,0
                104.186839249,14.716356822,0
                104.186807971,14.7163188800001,0
                104.186769024,14.716269561,0
                104.18676347,14.7162609690001,0
                104.186736654,14.7162195080001,0
                104.186704247,14.716167709,0
                104.18668244,14.716133176,0
                104.186661023,14.7160898820001,0
                104.186645198,14.7160546330001,0
                104.186634931,14.716026265,0
                104.186618971,14.7159648030001,0
                104.186615793,14.715952572,0
                104.186565348,14.7157219260001,0
                104.186558632,14.715691211,0
                104.186542691,14.7156005200001,0
                104.186539199,14.7155908280001,0
                104.186534344,14.7155773600001,0
                104.186527546,14.715568756,0
                104.186518484,14.715566041,0
                104.186506458,14.715564563,0
                104.186495097,14.715565984,0
                104.186468208,14.715570088,0
                104.186450271,14.715573652,0
                104.186431799,14.715577324,0
                104.186406071,14.7155796530001,0
                104.186386292,14.715580097,0
                104.186374612,14.715579941,0
                104.186366601,14.715578427,0
                104.186356772,14.715574341,0
                104.186349191,14.715568079,0
                104.186342745,14.7155560210001,0
                104.186333878,14.7155289,0
                104.186295458,14.715411379,0
                104.18586593,14.7136235670001,0
                104.185233494,14.710575654,0
                104.184420862,14.707196197,0
                104.183991538,14.705444061,0
                104.183069799,14.7020041170001,0
                104.182365895,14.699270412,0
              </coordinates>
                
            </LinearRing>
            
          </outerBoundaryIs>
        
        </Polygon>
        
      <styleUrl>
        #tambonStyle</styleUrl>
    </Placemark>

  </Document>
</kml>