<?xml version="1.0" encoding="UTF-8"?>
<kml xmlns="http://www.opengis.net/kml/2.2">
  <Document id="tambon_doc">
    <name>กระทุ่มราย, หนองจอก, Bangkok</name>
    <description>ข้อมูลขอบเขตตำบลกระทุ่มราย อำเภอหนองจอก จังหวัดBangkok</description>
    
    <!-- Schema สำหรับข้อมูลตำบล -->
    <Schema id="tambon.schema">
      <SimpleField name="ADM3_EN" type="string">
        <displayName>Subdistrict Name (English)</displayName>
      </SimpleField>
      <SimpleField name="ADM3_TH" type="string">
        <displayName>ชื่อตำบล</displayName>
      </SimpleField>
      <SimpleField name="ADM2_EN" type="string">
        <displayName>District Name (English)</displayName>
      </SimpleField>
      <SimpleField name="ADM2_TH" type="string">
        <displayName>ชื่ออำเภอ</displayName>
      </SimpleField>
      <SimpleField name="ADM1_EN" type="string">
        <displayName>Province Name (English)</displayName>
      </SimpleField>
      <SimpleField name="ADM1_TH" type="string">
        <displayName>ชื่อจังหวัด</displayName>
      </SimpleField>
      <SimpleField name="ADM0_EN" type="string">
        <displayName>Country Name (English)</displayName>
      </SimpleField>
      <SimpleField name="ADM0_TH" type="string">
        <displayName>ชื่อประเทศ</displayName>
      </SimpleField>
    </Schema>

    <!-- Style สำหรับตำบล -->
    <Style id="tambonStyle">
      <LineStyle>
        <color>ffff0000</color>
        <width>1.5</width>
      </LineStyle>
      <PolyStyle>
        <color>33ff0000</color>
        <fill>1</fill>
        <outline>1</outline>
      </PolyStyle>
    </Style>

    <Placemark id="Bangkok.18">
        
        <ExtendedData>
            
          <SchemaData schemaUrl="#tambon.schema">
                
            <SimpleData name="Shape_Leng">
                0.260617260973</SimpleData>
                
            <SimpleData name="Shape_Area">
                0.00333501863047</SimpleData>
                
            <SimpleData name="ADM3_EN">
                Krathum Rai</SimpleData>
                
            <SimpleData name="ADM3_TH">
                กระทุ่มราย</SimpleData>
                
            <SimpleData name="ADM3_PCODE">
                TH100301</SimpleData>
                
            <SimpleData name="ADM2_EN">
                Nong Chok</SimpleData>
                
            <SimpleData name="ADM2_TH">
                หนองจอก</SimpleData>
                
            <SimpleData name="ADM2_PCODE">
                TH1003</SimpleData>
                
            <SimpleData name="ADM1_EN">
                Bangkok</SimpleData>
                
            <SimpleData name="ADM1_TH">
                กรุงเทพมหานคร</SimpleData>
                
            <SimpleData name="ADM1_PCODE">
                TH10</SimpleData>
                
            <SimpleData name="ADM0_EN">
                Thailand</SimpleData>
                
            <SimpleData name="ADM0_TH">
                ประเทศไทย</SimpleData>
                
            <SimpleData name="ADM0_PCODE">
                TH</SimpleData>
            
          </SchemaData>
        
        </ExtendedData>
        
        <Polygon>
            
          <outerBoundaryIs>
                
            <LinearRing>
                    
              <coordinates>
                    
                100.92896553,13.821634525,0
                100.929382708,13.821246672,0
                100.929387851,13.8212591810001,0
                100.929471565,13.821176055,0
                100.930200826,13.820672115,0
                100.930485503,13.8204863350001,0
                100.931513412,13.819677954,0
                100.932609578,13.818843922,0
                100.933682875,13.818054293,0
                100.933854082,13.8179163840001,0
                100.934289775,13.817607041,0
                100.934644697,13.8172633770001,0
                100.93514206,13.816839917,0
                100.935276946,13.8167278080001,0
                100.935577316,13.816478133,0
                100.936493204,13.815832879,0
                100.93736415,13.8151617390001,0
                100.938288389,13.814446479,0
                100.938441914,13.81431372,0
                100.938501111,13.8142675080001,0
                100.938516257,13.8142556770001,0
                100.93851322,13.814252056,0
                100.936944285,13.8123863660001,0
                100.934660856,13.8094141920001,0
                100.93325969,13.8075889740001,0
                100.933080719,13.807358274,0
                100.932426897,13.806515462,0
                100.93152661,13.8053549430001,0
                100.931462351,13.805264402,0
                100.931326376,13.8050728060001,0
                100.93085189,13.8044042440001,0
                100.930782626,13.80445401,0
                100.930664,13.8042822300001,0
                100.930342853,13.8038329930001,0
                100.930185171,13.8036219630001,0
                100.92992043,13.8032593730001,0
                100.929510496,13.80284894,0
                100.929267444,13.8024154190001,0
                100.929142738,13.802149695,0
                100.928911591,13.8018086120001,0
                100.928468607,13.80144198,0
                100.928272351,13.8012802280001,0
                100.927231708,13.800700571,0
                100.926465462,13.800303808,0
                100.925747902,13.7999167040001,0
                100.925592779,13.7998316750001,0
                100.924669544,13.7993055060001,0
                100.923751376,13.798719428,0
                100.922652564,13.798081417,0
                100.922430144,13.797974988,0
                100.922330529,13.7979069960001,0
                100.922010812,13.797677132,0
                100.921361398,13.797263109,0
                100.920767978,13.79688674,0
                100.920180577,13.796564758,0
                100.919609667,13.796215435,0
                100.919097553,13.7959075310001,0
                100.918574369,13.795603031,0
                100.917936582,13.7952487740001,0
                100.917281786,13.794856553,0
                100.916789199,13.7945501510001,0
                100.916123316,13.794163457,0
                100.915417843,13.793820301,0
                100.91539669,13.7938089310001,0
                100.915228619,13.7937186720001,0
                100.914915261,13.7935360540001,0
                100.914305383,13.793187013,0
                100.913868977,13.7929400400001,0
                100.913214105,13.7925369170001,0
                100.912816904,13.792316848,0
                100.912296397,13.791999769,0
                100.911847297,13.791754842,0
                100.911541379,13.7916083100001,0
                100.911278318,13.7914470690001,0
                100.910691252,13.791163152,0
                100.910405784,13.7909857560001,0
                100.909794635,13.790478869,0
                100.909636716,13.790235163,0
                100.909263829,13.789579465,0
                100.909156389,13.7893789180001,0
                100.908986586,13.789042771,0
                100.908552666,13.788414764,0
                100.908106547,13.7876562120001,0
                100.907733625,13.7869950740001,0
                100.9076599,13.786832358,0
                100.90746743,13.7864834210001,0
                100.907445127,13.786442987,0
                100.907119874,13.78674318,0
                100.906964961,13.7868879660001,0
                100.906770767,13.7870694600001,0
                100.90657071,13.7872626380001,0
                100.906492884,13.787342826,0
                100.906482145,13.78735461,0
                100.906428818,13.787414396,0
                100.906391296,13.7874564590001,0
                100.906306175,13.7875440010001,0
                100.906259212,13.787589262,0
                100.906130863,13.7877260170001,0
                100.905981088,13.7878619950001,0
                100.90589973,13.7879291960001,0
                100.905636419,13.7881467460001,0
                100.905089457,13.788638518,0
                100.905089385,13.7886385740001,0
                100.904946876,13.788758994,0
                100.904744799,13.7889307740001,0
                100.904446887,13.7891917700001,0
                100.903961593,13.789630333,0
                100.903549001,13.789996705,0
                100.903259684,13.790255947,0
                100.903088446,13.7904030510001,0
                100.902808608,13.790661378,0
                100.90256295,13.7908815230001,0
                100.902258226,13.7911543700001,0
                100.90203484,13.791356647,0
                100.9015915,13.791760326,0
                100.901254924,13.792089602,0
                100.901122404,13.792208981,0
                100.901001184,13.792326094,0
                100.900754718,13.7925538260001,0
                100.900478283,13.79280707,0
                100.900238577,13.793017901,0
                100.900065188,13.793166037,0
                100.89963206,13.793560831,0
                100.89901619,13.794122193,0
                100.898792343,13.794322591,0
                100.898613066,13.794483084,0
                100.898591373,13.794503155,0
                100.898091839,13.7949647240001,0
                100.898061118,13.795000757,0
                100.897941468,13.795118652,0
                100.897541182,13.7955161,0
                100.897258553,13.7957508550001,0
                100.896874172,13.796090034,0
                100.8965113,13.796423992,0
                100.89626153,13.7966702840001,0
                100.896033784,13.796897808,0
                100.895775693,13.797151813,0
                100.895755682,13.79717084,0
                100.895559238,13.7973576430001,0
                100.895433391,13.7974712860001,0
                100.895074551,13.7977715060001,0
                100.894807943,13.7979987890001,0
                100.894371752,13.798379842,0
                100.894296888,13.7984438030001,0
                100.894265435,13.798469138,0
                100.894074469,13.798616065,0
                100.893922463,13.7987310080001,0
                100.893751204,13.7988566060001,0
                100.893737656,13.7988667660001,0
                100.893702586,13.798894078,0
                100.893665193,13.7989238370001,0
                100.893488007,13.79907114,0
                100.893468393,13.799087915,0
                100.893433649,13.799118245,0
                100.893383376,13.7991629480001,0
                100.893296503,13.7992438270001,0
                100.893102306,13.79943239,0
                100.893029233,13.7995057380001,0
                100.892942588,13.799587198,0
                100.892289531,13.80018362,0
                100.890303529,13.801970291,0
                100.890162686,13.8021009120001,0
                100.889980599,13.802265902,0
                100.889670199,13.8025397870001,0
                100.889556545,13.8026400740001,0
                100.889339654,13.8028367260001,0
                100.889181462,13.802976287,0
                100.889048713,13.803098558,0
                100.888998194,13.8031502530001,0
                100.888834107,13.803318151,0
                100.888776844,13.803376744,0
                100.888728187,13.803420852,0
                100.888622142,13.8035113710001,0
                100.888323595,13.8037593710001,0
                100.888206629,13.803851584,0
                100.887837752,13.8041350940001,0
                100.887754164,13.8041973150001,0
                100.887712783,13.804227547,0
                100.887651032,13.80427266,0
                100.887559519,13.804334378,0
                100.887527157,13.804358243,0
                100.8874185,13.8044467300001,0
                100.887398392,13.8044651270001,0
                100.887343137,13.804518678,0
                100.887084118,13.804793858,0
                100.886972986,13.804917592,0
                100.886841772,13.8050454570001,0
                100.88673951,13.805135879,0
                100.886601653,13.805257774,0
                100.886488169,13.8053521310001,0
                100.886406919,13.8054196900001,0
                100.886144481,13.805643149,0
                100.886084125,13.8056919690001,0
                100.886046605,13.805720907,0
                100.88600555,13.8057510990001,0
                100.885943079,13.8057948430001,0
                100.88574534,13.805938354,0
                100.885691411,13.805979289,0
                100.885610018,13.8060447830001,0
                100.885591173,13.806059948,0
                100.885381526,13.806245201,0
                100.885213227,13.806403495,0
                100.884973555,13.8066195530001,0
                100.884713366,13.806838015,0
                100.884658928,13.806883726,0
                100.884124775,13.807355724,0
                100.883866709,13.8075812910001,0
                100.883759444,13.807671541,0
                100.883656785,13.807755238,0
                100.88347701,13.807901804,0
                100.883387334,13.807977469,0
                100.883346059,13.8080134160001,0
                100.883281988,13.808073727,0
                100.882987048,13.8083367520001,0
                100.882871156,13.808440101,0
                100.882658449,13.808637388,0
                100.882516705,13.808761281,0
                100.882344869,13.8089042890001,0
                100.88227862,13.8089565180001,0
                100.882207351,13.809018516,0
                100.882092236,13.809128544,0
                100.882041211,13.8091815080001,0
                100.881905034,13.80932284,0
                100.881847515,13.8093780840001,0
                100.881670409,13.8095341330001,0
                100.881548951,13.8096369260001,0
                100.881432765,13.8097316500001,0
                100.881290747,13.8098474330001,0
                100.881204018,13.80991814,0
                100.881164519,13.8099490880001,0
                100.881018474,13.8100684820001,0
                100.880900108,13.8101618430001,0
                100.880712198,13.8103041160001,0
                100.880697257,13.810315195,0
                100.880697221,13.810315223,0
                100.880529965,13.810446272,0
                100.880369341,13.810572125,0
                100.880280146,13.8106474040001,0
                100.880157506,13.8107573250001,0
                100.879298471,13.811478992,0
                100.87916051,13.811599895,0
                100.878834247,13.8118858120001,0
                100.878639774,13.812056232,0
                100.878528229,13.8121428200001,0
                100.878166397,13.812423697,0
                100.877160515,13.8132045450001,0
                100.877040133,13.8133180950001,0
                100.876956404,13.8134008970001,0
                100.876577477,13.8137576980001,0
                100.876147375,13.8141327010001,0
                100.875932981,13.814303754,0
                100.875775854,13.8143993310001,0
                100.875511433,13.814495729,0
                100.875105991,13.814639786,0
                100.875105964,13.8146397950001,0
                100.875024829,13.8146686220001,0
                100.874783664,13.8147461290001,0
                100.87451146,13.8148187900001,0
                100.874511333,13.814818824,0
                100.874511234,13.814818851,0
                100.87431187,13.814877602,0
                100.874227485,13.814900535,0
                100.874084292,13.8149380180001,0
                100.874082427,13.8149384540001,0
                100.874082381,13.814938464,0
                100.873855378,13.814991354,0
                100.873823592,13.814999319,0
                100.873737241,13.815024469,0
                100.873703508,13.8150367380001,0
                100.873623111,13.815074193,0
                100.873584398,13.815094071,0
                100.873560435,13.8151083400001,0
                100.873369084,13.815228301,0
                100.873344031,13.815244008,0
                100.873278515,13.8152789820001,0
                100.873218893,13.815306575,0
                100.873058239,13.8153732650001,0
                100.872853849,13.815449351,0
                100.87281404,13.8154641670001,0
                100.872783706,13.815482543,0
                100.872758765,13.815492353,0
                100.872476939,13.8156180940001,0
                100.872074553,13.8157627260001,0
                100.871744679,13.81589124,0
                100.871477412,13.81599536,0
                100.871142864,13.816140601,0
                100.871110191,13.816150066,0
                100.870872156,13.816219061,0
                100.87084212,13.816229344,0
                100.870602379,13.8163114110001,0
                100.870593542,13.8163144420001,0
                100.870318506,13.8164266420001,0
                100.870032024,13.816544546,0
                100.869634404,13.816711614,0
                100.869271094,13.8168591370001,0
                100.869271065,13.8168591530001,0
                100.869169131,13.816900542,0
                100.868771382,13.8170507520001,0
                100.86831522,13.8172294990001,0
                100.868162752,13.817288579,0
                100.868059592,13.817328559,0
                100.86714546,13.8177359970001,0
                100.866154821,13.8180886390001,0
                100.865927647,13.8181965520001,0
                100.865734769,13.8182787050001,0
                100.865680624,13.8183002110001,0
                100.865519503,13.81836421,0
                100.865317962,13.8184402840001,0
                100.865261784,13.8184628660001,0
                100.865184088,13.81849615,0
                100.865084041,13.8185455920001,0
                100.865063628,13.8185556770001,0
                100.865002949,13.818588452,0
                100.864905284,13.818643201,0
                100.86475257,13.818728806,0
                100.864536455,13.818847278,0
                100.864372334,13.8189332920001,0
                100.864250248,13.818989523,0
                100.864168869,13.8190239900001,0
                100.864118615,13.8190429410001,0
                100.863990794,13.819087865,0
                100.863742194,13.8191695420001,0
                100.86355709,13.8192243350001,0
                100.863169645,13.8193321480001,0
                100.863055631,13.8193685840001,0
                100.86290858,13.8194216140001,0
                100.862813854,13.819457357,0
                100.862778241,13.8194721880001,0
                100.862610824,13.819541907,0
                100.862242561,13.8196895020001,0
                100.862177934,13.8197118190001,0
                100.861936786,13.8198060130001,0
                100.861842421,13.819845732,0
                100.861740003,13.819891274,0
                100.861584655,13.819958462,0
                100.861472551,13.8200037610001,0
                100.861392985,13.8200311630001,0
                100.861364909,13.82003961,0
                100.861338332,13.8200435270001,0
                100.861324154,13.820043072,0
                100.861309783,13.8200412360001,0
                100.861269105,13.820031484,0
                100.861256346,13.820027361,0
                100.861237249,13.820019953,0
                100.86122313,13.82001397,0
                100.861210589,13.8200090770001,0
                100.861183392,13.8199957780001,0
                100.861160024,13.8199809440001,0
                100.861137317,13.819962354,0
                100.861134091,13.819958845,0
                100.861131771,13.8199558380001,0
                100.861082615,13.8198641170001,0
                100.861066462,13.819811223,0
                100.861029853,13.81967468,0
                100.861027504,13.819665447,0
                100.861012339,13.8195990400001,0
                100.860980964,13.819459394,0
                100.860907458,13.8191550010001,0
                100.860900246,13.819125984,0
                100.860890299,13.8190939250001,0
                100.860842015,13.8189775820001,0
                100.860712145,13.8188027190001,0
                100.860545591,13.818855726,0
                100.859759693,13.818984104,0
                100.859539762,13.8190028110001,0
                100.859095259,13.81904158,0
                100.85888964,13.819079866,0
                100.858768913,13.819106338,0
                100.858662953,13.819140679,0
                100.858584763,13.8191732080001,0
                100.85848713,13.819226654,0
                100.858400962,13.819283205,0
                100.857493457,13.820000899,0
                100.857245788,13.820212597,0
                100.857050774,13.8203792890001,0
                100.857042662,13.8203862230001,0
                100.85703523,13.820393881,0
                100.856788472,13.8206481830001,0
                100.856670477,13.820769781,0
                100.856428654,13.8209718840001,0
                100.856283686,13.8210633310001,0
                100.856191074,13.821103104,0
                100.856054185,13.821151995,0
                100.855908612,13.8211887630001,0
                100.855741,13.8212120370001,0
                100.855700313,13.8212176910001,0
                100.855153884,13.8212012920001,0
                100.854316544,13.821121966,0
                100.854270738,13.8211176250001,0
                100.853861212,13.8211428560001,0
                100.853881295,13.8211889460001,0
                100.853962668,13.8213757080001,0
                100.854318178,13.8219857190001,0
                100.854327303,13.822002261,0
                100.854504962,13.8223948610001,0
                100.854780901,13.823127862,0
                100.855022729,13.8237514620001,0
                100.855078324,13.8238805610001,0
                100.855086285,13.8239053130001,0
                100.855113666,13.8242137610001,0
                100.855111787,13.8250260230001,0
                100.855088744,13.8257897120001,0
                100.855148517,13.8267473510001,0
                100.855162446,13.8276490820001,0
                100.855232025,13.828722795,0
                100.855277707,13.829074538,0
                100.855302928,13.829268761,0
                100.855312763,13.8293083350001,0
                100.855311463,13.8295083260001,0
                100.855384111,13.8299269090001,0
                100.855426939,13.8303649310001,0
                100.855568391,13.831253631,0
                100.855590563,13.831392899,0
                100.855622252,13.831887495,0
                100.855632891,13.8325030830001,0
                100.855624191,13.8329392360001,0
                100.854661919,13.8334145040001,0
                100.853448761,13.834182481,0
                100.852914886,13.8345694980001,0
                100.852879975,13.8346025330001,0
                100.852656472,13.8348140200001,0
                100.852297284,13.835281235,0
                100.852259038,13.8353309840001,0
                100.851844338,13.8359819880001,0
                100.851818834,13.836081316,0
                100.851756838,13.836579848,0
                100.851757072,13.8372851440001,0
                100.851718399,13.838223952,0
                100.851698893,13.8401067840001,0
                100.851705683,13.840293736,0
                100.851714485,13.840336117,0
                100.851723153,13.840351781,0
                100.851732925,13.8403694360001,0
                100.851876597,13.8405710800001,0
                100.851900817,13.840628946,0
                100.851909555,13.8406973040001,0
                100.851933384,13.8409301080001,0
                100.8520029,13.841777645,0
                100.85173424,13.844826691,0
                100.851503591,13.847649548,0
                100.851326477,13.84971582,0
                100.851231166,13.850836261,0
                100.851232064,13.852828484,0
                100.851316534,13.8557259040001,0
                100.851187674,13.857737448,0
                100.854585751,13.8577922270001,0
                100.858723266,13.8579196470001,0
                100.859860185,13.857815724,0
                100.862425034,13.8574150860001,0
                100.863269397,13.8573133740001,0
                100.864462302,13.8570978490001,0
                100.866385224,13.8567099950001,0
                100.868210877,13.856354633,0
                100.872760661,13.855200289,0
                100.877074423,13.854007977,0
                100.880528372,13.853020703,0
                100.881898662,13.852636987,0
                100.883294013,13.852340403,0
                100.885055745,13.8521283420001,0
                100.886743945,13.851869192,0
                100.889243249,13.8513634180001,0
                100.891416682,13.8508723780001,0
                100.897184865,13.849684371,0
                100.899992965,13.8492417740001,0
                100.902491882,13.848753905,0
                100.904204648,13.848422871,0
                100.90429739,13.848405584,0
                100.90671393,13.847955137,0
                100.908157042,13.847692114,0
                100.909958007,13.8473496670001,0
                100.912127758,13.8468948610001,0
                100.912684787,13.846797639,0
                100.912659781,13.84671766,0
                100.912540481,13.846511327,0
                100.912412752,13.8463070350001,0
                100.912284687,13.846116878,0
                100.912086353,13.845798084,0
                100.911943217,13.845567471,0
                100.911839261,13.845387266,0
                100.911755012,13.8452068980001,0
                100.911698671,13.845064827,0
                100.911602466,13.844869159,0
                100.911474644,13.844662167,0
                100.911321257,13.8444668660001,0
                100.911032795,13.8441341160001,0
                100.910769961,13.843804934,0
                100.910523258,13.843521846,0
                100.910348295,13.843334488,0
                100.91012112,13.843028141,0
                100.90999771,13.842878897,0
                100.909786296,13.842572419,0
                100.909642708,13.842365558,0
                100.909518891,13.842166247,0
                100.909406771,13.8419514440001,0
                100.909334725,13.8418172,0
                100.909226794,13.8416331670001,0
                100.909098945,13.8414223250001,0
                100.908910898,13.841081005,0
                100.908802631,13.8408546100001,0
                100.908677715,13.840520511,0
                100.908528652,13.8401249680001,0
                100.908480315,13.8399982450001,0
                100.908427602,13.839817629,0
                100.908371287,13.8396794130001,0
                100.90831939,13.8395989380001,0
                100.908271346,13.83950687,0
                100.908239148,13.83942625,0
                100.908218717,13.839337815,0
                100.908190067,13.8392070890001,0
                100.908121239,13.8389842350001,0
                100.908032641,13.8387538380001,0
                100.907952408,13.8385811420001,0
                100.907834571,13.8384047750001,0
                100.90778072,13.8383272,0
                100.907678495,13.8382820570001,0
                100.907549278,13.838104561,0
                100.90785518,13.8378294610001,0
                100.90813161,13.8375910950001,0
                100.908192708,13.8375383970001,0
                100.908788269,13.8370792640001,0
                100.909072842,13.836876021,0
                100.909268901,13.836787083,0
                100.909410865,13.836680358,0
                100.909597832,13.836539798,0
                100.910113318,13.8361337210001,0
                100.910450983,13.8358601370001,0
                100.910949145,13.8355241200001,0
                100.912238321,13.8345701100001,0
                100.912985135,13.8340136320001,0
                100.913927339,13.8332895770001,0
                100.913927384,13.833289542,0
                100.914471316,13.832841639,0
                100.914549067,13.8327515560001,0
                100.914839902,13.8325567150001,0
                100.914869259,13.832530546,0
                100.915358314,13.8321771180001,0
                100.915642374,13.831912684,0
                100.916584785,13.831214833,0
                100.916904553,13.8309413810001,0
                100.917739975,13.8302880590001,0
                100.918255719,13.829916934,0
                100.918575555,13.8296522260001,0
                100.919153532,13.8292369070001,0
                100.919535255,13.8288843030001,0
                100.919808537,13.8286381670001,0
                100.919908026,13.82853177,0
                100.920139488,13.82839885,0
                100.920228781,13.8283806760001,0
                100.920433204,13.828221747,0
                100.920747418,13.827981299,0
                100.921090953,13.8277183970001,0
                100.921434077,13.827461597,0
                100.921775469,13.827206099,0
                100.922219994,13.8268792220001,0
                100.922895483,13.826358246,0
                100.923703986,13.8256963800001,0
                100.924227923,13.8252377790001,0
                100.924755744,13.8248938460001,0
                100.924779488,13.8248750990001,0
                100.92494773,13.8247585400001,0
                100.925046725,13.8246881200001,0
                100.925383995,13.8244245920001,0
                100.925561428,13.824248396,0
                100.92580096,13.8240105240001,0
                100.926032063,13.8238339070001,0
                100.926574456,13.8234450730001,0
                100.926983995,13.823214611,0
                100.927401683,13.8228879370001,0
                100.927561735,13.8227730560001,0
                100.927623474,13.822667687,0
                100.927854422,13.8224735850001,0
                100.928398599,13.8220969760001,0
                100.928481334,13.8220397270001,0
                100.928557003,13.8219873510001,0
                100.92896553,13.821634525,0
              </coordinates>
                
            </LinearRing>
            
          </outerBoundaryIs>
        
        </Polygon>
        
      <styleUrl>
        #tambonStyle</styleUrl>
    </Placemark>

  </Document>
</kml>