<?xml version="1.0" encoding="UTF-8"?>
<kml xmlns="http://www.opengis.net/kml/2.2">
  <Document id="tambon_doc">
    <name>บุญเรือง, เชียงของ, Chiang Rai</name>
    <description>ข้อมูลขอบเขตตำบลบุญเรือง อำเภอเชียงของ จังหวัดChiang Rai</description>
    
    <!-- Schema สำหรับข้อมูลตำบล -->
    <Schema id="tambon.schema">
      <SimpleField name="ADM3_EN" type="string">
        <displayName>Subdistrict Name (English)</displayName>
      </SimpleField>
      <SimpleField name="ADM3_TH" type="string">
        <displayName>ชื่อตำบล</displayName>
      </SimpleField>
      <SimpleField name="ADM2_EN" type="string">
        <displayName>District Name (English)</displayName>
      </SimpleField>
      <SimpleField name="ADM2_TH" type="string">
        <displayName>ชื่ออำเภอ</displayName>
      </SimpleField>
      <SimpleField name="ADM1_EN" type="string">
        <displayName>Province Name (English)</displayName>
      </SimpleField>
      <SimpleField name="ADM1_TH" type="string">
        <displayName>ชื่อจังหวัด</displayName>
      </SimpleField>
      <SimpleField name="ADM0_EN" type="string">
        <displayName>Country Name (English)</displayName>
      </SimpleField>
      <SimpleField name="ADM0_TH" type="string">
        <displayName>ชื่อประเทศ</displayName>
      </SimpleField>
    </Schema>

    <!-- Style สำหรับตำบล -->
    <Style id="tambonStyle">
      <LineStyle>
        <color>ffff0000</color>
        <width>1.5</width>
      </LineStyle>
      <PolyStyle>
        <color>33ff0000</color>
        <fill>1</fill>
        <outline>1</outline>
      </PolyStyle>
    </Style>

    <Placemark id="Chiang_Rai.25">
        
        <ExtendedData>
            
          <SchemaData schemaUrl="#tambon.schema">
                
            <SimpleData name="Shape_Leng">
                0.373727589655</SimpleData>
                
            <SimpleData name="Shape_Area">
                0.00431598407186</SimpleData>
                
            <SimpleData name="ADM3_EN">
                Bunrueang</SimpleData>
                
            <SimpleData name="ADM3_TH">
                บุญเรือง</SimpleData>
                
            <SimpleData name="ADM3_PCODE">
                TH570304</SimpleData>
                
            <SimpleData name="ADM2_EN">
                Chiang Khong</SimpleData>
                
            <SimpleData name="ADM2_TH">
                เชียงของ</SimpleData>
                
            <SimpleData name="ADM2_PCODE">
                TH5703</SimpleData>
                
            <SimpleData name="ADM1_EN">
                Chiang Rai</SimpleData>
                
            <SimpleData name="ADM1_TH">
                เชียงราย</SimpleData>
                
            <SimpleData name="ADM1_PCODE">
                TH57</SimpleData>
                
            <SimpleData name="ADM0_EN">
                Thailand</SimpleData>
                
            <SimpleData name="ADM0_TH">
                ประเทศไทย</SimpleData>
                
            <SimpleData name="ADM0_PCODE">
                TH</SimpleData>
            
          </SchemaData>
        
        </ExtendedData>
        
        <Polygon>
            
          <outerBoundaryIs>
                
            <LinearRing>
                    
              <coordinates>
                    
                100.35000536,20.0197304070001,0
                100.350870419,20.019360337,0
                100.351322852,20.019097032,0
                100.351575071,20.018915211,0
                100.351716784,20.018794202,0
                100.351916312,20.0186327690001,0
                100.352095375,20.018551448,0
                100.352232485,20.0185104230001,0
                100.352433203,20.018488905,0
                100.352544378,20.018481681,0
                100.352634702,20.018480991,0
                100.352721606,20.0184708410001,0
                100.352806791,20.01845596,0
                100.352905398,20.01844572,0
                100.352990682,20.0184419060001,0
                100.353094362,20.0184379520001,0
                100.353100286,20.0184377310001,0
                100.353201391,20.018433972,0
                100.353301671,20.0184237190001,0
                100.353411964,20.018410223,0
                100.353483971,20.018419163,0
                100.353591163,20.018434155,0
                100.353658043,20.0184304810001,0
                100.35370477,20.018417475,0
                100.35376963,20.018372705,0
                100.353806145,20.0183392230001,0
                100.353847664,20.0183041220001,0
                100.353902538,20.0182657560001,0
                100.353955879,20.0182432130001,0
                100.354005911,20.018225439,0
                100.354065992,20.018209164,0
                100.354161163,20.0181878820001,0
                100.354359833,20.0181420920001,0
                100.354453251,20.0181113370001,0
                100.354509959,20.01809193,0
                100.354556605,20.0180694380001,0
                100.354588187,20.0180454810001,0
                100.354618052,20.0180167930001,0
                100.354657776,20.0179674710001,0
                100.354687302,20.017899259,0
                100.354733162,20.017785066,0
                100.354749894,20.0177487,0
                100.354772575,20.0176993860001,0
                100.35481546,20.01762791,0
                100.354894935,20.0175324320001,0
                100.354961165,20.017452872,0
                100.355017702,20.017412908,0
                100.355074343,20.0173855960001,0
                100.355154333,20.0173502000001,0
                100.355210829,20.0173054970001,0
                100.355262357,20.017267157,0
                100.355307343,20.017246259,0
                100.355354123,20.0172395760001,0
                100.355402568,20.0172313,0
                100.355460976,20.0172150380001,0
                100.355534437,20.017198665,0
                100.355597985,20.0171965970001,0
                100.355653202,20.017197755,0
                100.355798791,20.0172045460001,0
                100.355899143,20.017202196,0
                100.355979417,20.017200001,0
                100.356065063,20.0171993450001,0
                100.356089818,20.0171991550001,0
                100.356180128,20.0171968820001,0
                100.356238677,20.017196434,0
                100.356410323,20.0172143,0
                100.356600832,20.017235327,0
                100.356779606,20.017275183,0
                100.356922797,20.0173265550001,0
                100.357046546,20.01742305,0
                100.357194277,20.0175418490001,0
                100.357297977,20.0176122620001,0
                100.357346643,20.017629831,0
                100.357397357,20.0176414810001,0
                100.357471268,20.0176451020001,0
                100.357536127,20.0176404170001,0
                100.35767861,20.0176093430001,0
                100.357813064,20.017567087,0
                100.357998995,20.017516937,0
                100.358049674,20.017512857,0
                100.358118459,20.017524499,0
                100.358185672,20.0175529850001,0
                100.358273543,20.0176272680001,0
                100.358377179,20.017690185,0
                100.35848731,20.0177346950001,0
                100.35862755,20.0177557260001,0
                100.358758488,20.0177659610001,0
                100.358917311,20.017790979,0
                100.359020593,20.017812673,0
                100.359135642,20.017819285,0
                100.359238667,20.0178109990001,0
                100.359352777,20.0177868860001,0
                100.359436429,20.017753263,0
                100.359637577,20.0176280420001,0
                100.359873863,20.0174388340001,0
                100.360058928,20.0172874990001,0
                100.360216108,20.0171213900001,0
                100.360357361,20.0169479050001,0
                100.360538007,20.0167441350001,0
                100.360683032,20.0165481330001,0
                100.360820286,20.0163709330001,0
                100.360973437,20.0161973560001,0
                100.361091253,20.0160652750001,0
                100.361240889,20.015944194,0
                100.361426269,20.015830336,0
                100.361575969,20.0157167520001,0
                100.361662614,20.0156486240001,0
                100.361764992,20.015565386,0
                100.361855281,20.0154597490001,0
                100.36195682,20.015279073,0
                100.362046109,20.015057267,0
                100.362131689,20.0148654700001,0
                100.362232517,20.014602349,0
                100.362337602,20.0143729220001,0
                100.362402308,20.0142224800001,0
                100.362533255,20.013964905,0
                100.362850752,20.0132188920001,0
                100.363235775,20.0122536600001,0
                100.363553459,20.011529518,0
                100.363756213,20.010893734,0
                100.363988918,20.0103773210001,0
                100.364279732,20.009901003,0
                100.364601484,20.009640651,0
                100.365361176,20.0091974040001,0
                100.366167515,20.008797531,0
                100.366950338,20.008354099,0
                100.367165379,20.0081833730001,0
                100.367478858,20.007934495,0
                100.36770079,20.007679232,0
                100.367890189,20.0073408390001,0
                100.368019959,20.0069632660001,0
                100.368051121,20.0064510650001,0
                100.36808328,20.005589774,0
                100.367982425,20.0046282860001,0
                100.36767204,20.00351533,0
                100.367151747,20.002207164,0
                100.366772159,20.0011166090001,0
                100.366531755,20.000068721,0
                100.366274867,19.9992881750001,0
                100.366074369,19.9986746380001,0
                100.365953539,19.998245007,0
                100.365924014,19.997839282,0
                100.365933206,19.9973963480001,0
                100.365982392,19.997063821,0
                100.366096959,19.9967676970001,0
                100.366328954,19.9965075740001,0
                100.366600841,19.9963455550001,0
                100.367107588,19.996255536,0
                100.367758108,19.996238211,0
                100.368668989,19.9962311780001,0
                100.369475661,19.9962126460001,0
                100.370048,19.9961836200001,0
                100.370658845,19.9960927830001,0
                100.371163318,19.995916155,0
                100.371630183,19.995721002,0
                100.37234391,19.9953218210001,0
                100.373033164,19.9947697430001,0
                100.373230805,19.9945338840001,0
                100.3736972,19.9939772870001,0
                100.374522586,19.9931179720001,0
                100.375256577,19.992390583,0
                100.375923627,19.99194801,0
                100.376380984,19.991678112,0
                100.376859015,19.991488153,0
                100.3774225,19.991389629,0
                100.378393501,19.9913164710001,0
                100.378907335,19.991378766,0
                100.379459506,19.991526876,0
                100.380644992,19.9921737340001,0
                100.381968519,19.9927320260001,0
                100.383048539,19.9931203580001,0
                100.383337744,19.9932243440001,0
                100.383473729,19.993259928,0
                100.384105171,19.993515643,0
                100.384952368,19.9936689470001,0
                100.385708154,19.993786055,0
                100.386752583,19.994171539,0
                100.387496978,19.994473253,0
                100.387805595,19.9946127480001,0
                100.388058771,19.994727186,0
                100.388736923,19.9948940960001,0
                100.389323124,19.9949633140001,0
                100.389857279,19.9950329340001,0
                100.3904694,19.995089641,0
                100.391004092,19.995220761,0
                100.391435229,19.995414205,0
                100.39187992,19.9956690450001,0
                100.392428388,19.995886166,0
                100.392949423,19.995943579,0
                100.393443786,19.9959273920001,0
                100.393924704,19.995862102,0
                100.39441885,19.9958213080001,0
                100.395212824,19.9958396600001,0
                100.395876673,19.995859038,0
                100.396450627,19.996014433,0
                100.396804129,19.996103873,0
                100.397269804,19.9961433240001,0
                100.398094525,19.9961368190001,0
                100.399168102,19.9960739530001,0
                100.400336613,19.9959015360001,0
                100.401293662,19.99567639,0
                100.402077294,19.995361949,0
                100.40471165,19.9940481510001,0
                100.40370979,19.9927821640001,0
                100.402864161,19.99201851,0
                100.4019686,19.991028677,0
                100.401009965,19.9896552210001,0
                100.400851956,19.989428838,0
                100.400001554,19.988121431,0
                100.399295752,19.9869035130001,0
                100.398587767,19.9854363740001,0
                100.397323216,19.9833618710001,0
                100.396640425,19.9820304630001,0
                100.395837428,19.9806546900001,0
                100.395167589,19.97953341,0
                100.393265377,19.9766903980001,0
                100.392774745,19.9757621200001,0
                100.392407931,19.9749266790001,0
                100.392136174,19.973999855,0
                100.391885606,19.9727556670001,0
                100.391587711,19.9715798170001,0
                100.391412812,19.970765522,0
                100.391092749,19.9697937650001,0
                100.390821413,19.968912253,0
                100.39040432,19.9678053110001,0
                100.39011022,19.9670599200001,0
                100.38986742,19.9666993010001,0
                100.389509969,19.966315308,0
                100.389047353,19.9660939720001,0
                100.388543158,19.9659846320001,0
                100.387655174,19.9658329760001,0
                100.386790361,19.9655905060001,0
                100.386505053,19.9653943120001,0
                100.386282803,19.9650960060001,0
                100.386015264,19.9646449480001,0
                100.385695056,19.963650521,0
                100.385371293,19.962956046,0
                100.384955733,19.9621650500001,0
                100.384472635,19.961438979,0
                100.384058395,19.9607982310001,0
                100.383576241,19.960179478,0
                100.383117167,19.959603471,0
                100.382545897,19.9591786020001,0
                100.381473532,19.958564439,0
                100.380651819,19.9580556510001,0
                100.380080935,19.9576736990001,0
                100.379373851,19.957292808,0
                100.378736179,19.957061636,0
                100.377917091,19.9568533360001,0
                100.377189363,19.9567087230001,0
                100.376099172,19.956652778,0
                100.375622084,19.9566135480001,0
                100.37498535,19.956489682,0
                100.37459758,19.9562780250001,0
                100.374209435,19.9560234370001,0
                100.37393424,19.955703579,0
                100.373567874,19.9553414920001,0
                100.373200767,19.9548935450001,0
                100.372874865,19.954409346,0
                100.372855802,19.954381025,0
                100.372188095,19.953536914,0
                100.367513081,19.9568661430001,0
                100.36707182,19.957125809,0
                100.366506369,19.9572699450001,0
                100.365964153,19.9572508210001,0
                100.364705453,19.957004237,0
                100.363474195,19.957083588,0
                100.36310328,19.9571583970001,0
                100.362914049,19.957223185,0
                100.361676261,19.9576047630001,0
                100.360135539,19.9579600380001,0
                100.358956554,19.9581407970001,0
                100.358019466,19.958291075,0
                100.357448805,19.9584035410001,0
                100.356961796,19.958499515,0
                100.356134342,19.958696983,0
                100.355391761,19.958969457,0
                100.354758566,19.959260509,0
                100.353853445,19.959610872,0
                100.352978833,19.959989626,0
                100.352135218,19.9604539970001,0
                100.351089391,19.9609744150001,0
                100.350295407,19.96124079,0
                100.349449585,19.961447575,0
                100.348179754,19.961628955,0
                100.347242876,19.961807799,0
                100.346527244,19.9620962130001,0
                100.345914684,19.962247201,0
                100.34500734,19.962339947,0
                100.344601217,19.9624365710001,0
                100.344252552,19.9625746400001,0
                100.34346895,19.962981277,0
                100.342716093,19.9634449220001,0
                100.341813581,19.9641100480001,0
                100.341549375,19.9642434570001,0
                100.341248807,19.9643104360001,0
                100.34101778,19.9643514160001,0
                100.340783775,19.964352778,0
                100.340303524,19.9642140440001,0
                100.339796177,19.964109566,0
                100.339284153,19.9640390380001,0
                100.338810429,19.964082954,0
                100.338373427,19.964202727,0
                100.338046028,19.964334615,0
                100.33739221,19.9647148650001,0
                100.336928484,19.9649124860001,0
                100.33642304,19.9650327700001,0
                100.336026877,19.96512635,0
                100.335617349,19.965258853,0
                100.335303959,19.9654294580001,0
                100.334963412,19.965626152,0
                100.334677397,19.965796545,0
                100.334336195,19.965915593,0
                100.333912653,19.9660093700001,0
                100.333488567,19.9660384420001,0
                100.332982572,19.9660940140001,0
                100.332503843,19.966136432,0
                100.332011535,19.966191899,0
                100.331355739,19.9663391820001,0
                100.330877986,19.966498071,0
                100.330359391,19.9666831490001,0
                100.329894998,19.966803108,0
                100.329361948,19.9668976950001,0
                100.328995849,19.967023817,0
                100.328663847,19.967198277,0
                100.328352378,19.967410796,0
                100.328067607,19.967619203,0
                100.327945677,19.967714791,0
                100.327808847,19.967776444,0
                100.3276889,19.9678218060001,0
                100.32752217,19.967869181,0
                100.327139461,19.9679367570001,0
                100.326551658,19.9680317450001,0
                100.325745719,19.968231901,0
                100.325223964,19.968429746,0
                100.32516452,19.9684695230001,0
                100.325119738,19.968540691,0
                100.325092858,19.9686042480001,0
                100.325069572,19.9686592950001,0
                100.325030641,19.968761698,0
                100.324991549,19.968845287,0
                100.324929792,19.968937109,0
                100.324873518,19.9690047030001,0
                100.324782455,19.9690790670001,0
                100.324760606,19.9690969070001,0
                100.324667297,19.96915403,0
                100.324571234,19.969221926,0
                100.324469648,19.969308669,0
                100.324367811,19.9693658570001,0
                100.324251634,19.969407033,0
                100.324115424,19.969432232,0
                100.323959257,19.9694495200001,0
                100.323814304,19.9694479140001,0
                100.323683331,19.9694193330001,0
                100.323605877,19.969390941,0
                100.323503732,19.969353499,0
                100.323372781,19.9693276020001,0
                100.323219098,19.9693018780001,0
                100.323031424,19.9692898430001,0
                100.32287219,19.969280284,0
                100.322738603,19.969278592,0
                100.32262222,19.969295582,0
                100.322531528,19.969325816,0
                100.322466411,19.9693558590001,0
                100.322404249,19.969399314,0
                100.322359228,19.969453389,0
                100.322311544,19.969528983,0
                100.322266769,19.969612618,0
                100.322224949,19.969709661,0
                100.322188541,19.969774423,0
                100.322150298,19.9698340090001,0
                100.322129624,19.9698662230001,0
                100.322079074,19.9699391500001,0
                100.322053213,19.969993244,0
                100.322012033,19.970079378,0
                100.321958779,19.970168447,0
                100.321908095,19.970225252,0
                100.321834678,19.970282227,0
                100.321735748,19.970347455,0
                100.321647966,19.970385725,0
                100.32139819,19.9704252070001,0
                100.321224993,19.9704453030001,0
                100.321057436,19.970459986,0
                100.320909835,19.970482583,0
                100.320756689,19.9705213450001,0
                100.320629229,19.970573345,0
                100.320584202,19.9705970040001,0
                100.320537643,19.970611535,0
                100.320415062,19.970637326,0
                100.320264008,19.970667475,0
                100.320152181,19.970668307,0
                100.320038234,19.9706774480001,0
                100.319972695,19.97070696,0
                100.319924973,19.9707695120001,0
                100.31990412,19.9708158560001,0
                100.319858561,19.9708851410001,0
                100.31980353,19.970932126,0
                100.319778692,19.9709679580001,0
                100.319703138,19.971014547,0
                100.31965087,19.9710327760001,0
                100.31951969,19.971079364,0
                100.31940997,19.971115411,0
                100.319309451,19.9711286360001,0
                100.319139095,19.971148713,0
                100.318977419,19.971187537,0
                100.318847075,19.9712341860001,0
                100.318703032,19.9713427360001,0
                100.318592846,19.971421481,0
                100.318462609,19.971481564,0
                100.318278579,19.971566233,0
                100.31812017,19.971656083,0
                100.317972903,19.97171898,0
                100.317862252,19.9717412960001,0
                100.317757232,19.9717581990001,0
                100.317484346,19.971752167,0
                100.317231327,19.9717432940001,0
                100.317060854,19.971749936,0
                100.316901662,19.9717457420001,0
                100.316771094,19.9717655220001,0
                100.316637678,19.9717853230001,0
                100.316498694,19.9718185990001,0
                100.316425207,19.971867509,0
                100.316343348,19.971935295,0
                100.316258848,19.9720272820001,0
                100.316177127,19.9721111860001,0
                100.316092492,19.972187052,0
                100.316043122,19.9722344670001,0
                100.316016364,19.9722601670001,0
                100.315951356,19.9723036410001,0
                100.315880444,19.97232029,0
                100.31580087,19.97232088,0
                100.315746827,19.9723159100001,0
                100.315738838,19.9723141440001,0
                100.315667734,19.9722984310001,0
                100.315495523,19.972247162,0
                100.315282813,19.972186638,0
                100.315151334,19.9721732830001,0
                100.314994832,19.972188773,0
                100.314853605,19.9722184830001,0
                100.314712536,19.972267296,0
                100.314576601,19.9723256290001,0
                100.314440819,19.972403066,0
                100.31428503,19.9725045390001,0
                100.314169463,19.9725818260001,0
                100.314028592,19.9726545250001,0
                100.313827565,19.9727849920001,0
                100.313606411,19.972925166,0
                100.313400219,19.9730413410001,0
                100.313254688,19.973161842,0
                100.313154433,19.9732581230001,0
                100.313013679,19.9733451500001,0
                100.312862706,19.9734179230001,0
                100.312706321,19.9734477440001,0
                100.312494317,19.973473196,0
                100.31228216,19.973479545,0
                100.312145985,19.9735092110001,0
                100.312091082,19.9735908280001,0
                100.312072058,19.97373428,0
                100.312083309,19.9738727280001,0
                100.312095074,19.974073275,0
                100.312116708,19.9742450890001,0
                100.312138969,19.97449333,0
                100.312191432,19.9747270130001,0
                100.312260078,19.975084779,0
                100.312318422,19.975418737,0
                100.312600746,19.9754783020001,0
                100.312762174,19.9755264830001,0
                100.312947717,19.9755971180001,0
                100.313161861,19.9757045650001,0
                100.313328081,19.9758062010001,0
                100.313407028,19.97587968,0
                100.313488421,19.9759860550001,0
                100.313543704,19.9760926230001,0
                100.313581649,19.97620755,0
                100.313613545,19.9763801290001,0
                100.313625736,19.9765384470001,0
                100.313631623,19.97672356,0
                100.313624316,19.9768923130001,0
                100.31358901,19.9770843530001,0
                100.31348359,19.9773764280001,0
                100.313369472,19.9775609610001,0
                100.313204318,19.97772838,0
                100.312923886,19.977940387,0
                100.312652672,19.978147951,0
                100.312252293,19.9784002050001,0
                100.311907097,19.978612689,0
                100.311483441,19.9788476210001,0
                100.31093037,19.979096628,0
                100.31046985,19.979349327,0
                100.310203075,19.979534986,0
                100.309908863,19.9797602130001,0
                100.309730086,19.9799583400001,0
                100.309579168,19.9801693850001,0
                100.309437752,19.9804109790001,0
                100.309360524,19.9805821140001,0
                100.309315889,19.9807792550001,0
                100.30928517,19.9809806660001,0
                100.309277943,19.981225637,0
                100.309284736,19.9814880010001,0
                100.309305946,19.98181586,0
                100.309381553,19.982567556,0
                100.309544472,19.9838084410001,0
                100.309621123,19.9841271450001,0
                100.309725025,19.984384414,0
                100.309842086,19.9845541190001,0
                100.309986685,19.9846973780001,0
                100.310154376,19.9848360940001,0
                100.31039131,19.9849568020001,0
                100.310618565,19.9850250970001,0
                100.31083642,19.98507597,0
                100.311081882,19.985109143,0
                100.311350227,19.985111531,0
                100.311761865,19.9850997400001,0
                100.312173105,19.9850398410001,0
                100.312537942,19.984962792,0
                100.312865555,19.984859772,0
                100.313105486,19.984783647,0
                100.313358794,19.984646189,0
                100.313607291,19.9844869020001,0
                100.313896621,19.984231091,0
                100.314098347,19.9840109200001,0
                100.31436386,19.983672187,0
                100.314602487,19.983438619,0
                100.314772627,19.983314899,0
                100.314938583,19.9832436930001,0
                100.315141867,19.983211571,0
                100.315354623,19.98320562,0
                100.315576703,19.983208345,0
                100.315748004,19.9832245650001,0
                100.31588245,19.98325856,0
                100.316008076,19.983345098,0
                100.316087549,19.9834450980001,0
                100.316153801,19.9836239210001,0
                100.316215936,19.9838640040001,0
                100.316245908,19.9841305680001,0
                100.316243571,19.9844061210001,0
                100.316226446,19.98457244,0
                100.31618186,19.984773955,0
                100.316068861,19.9850940640001,0
                100.315969379,19.985370334,0
                100.315851318,19.985637996,0
                100.315746339,19.9858093440001,0
                100.315586137,19.9860160900001,0
                100.315411618,19.9861704580001,0
                100.315255024,19.9862547180001,0
                100.315116568,19.9862951060001,0
                100.314973237,19.9863049190001,0
                100.314773953,19.986262659,0
                100.314389198,19.986169295,0
                100.313934837,19.986050205,0
                100.313430056,19.985988343,0
                100.313045846,19.98596057,0
                100.312708147,19.98596307,0
                100.311570986,19.986072081,0
                100.310687819,19.986126723,0
                100.309485814,19.9862274490001,0
                100.308787902,19.9863069510001,0
                100.308353706,19.986388881,0
                100.307758106,19.9865332310001,0
                100.307273057,19.986619902,0
                100.306884689,19.986649007,0
                100.306671963,19.9866593250001,0
                100.306394076,19.986622008,0
                100.306014057,19.98654171,0
                100.305531867,19.9864140560001,0
                100.304785388,19.9862139950001,0
                100.304285022,19.986125832,0
                100.304058236,19.986114377,0
                100.303919529,19.986124148,0
                100.303758015,19.9861734420001,0
                100.303624505,19.986253149,0
                100.303541996,19.9863456,0
                100.303501258,19.9864552400001,0
                100.303502373,19.9865908090001,0
                100.303541292,19.9868223230001,0
                100.303631594,19.987114687,0
                100.303853733,19.9876859930001,0
                100.30406063,19.9880912080001,0
                100.304173165,19.9882740730001,0
                100.304341111,19.9884434030001,0
                100.304532221,19.9886169390001,0
                100.304709522,19.988799327,0
                100.304840677,19.9889951690001,0
                100.304935037,19.989217528,0
                100.305015479,19.989435612,0
                100.305068854,19.9897369930001,0
                100.305095764,19.99019602,0
                100.305099259,19.9906202280001,0
                100.305069507,19.9909397170001,0
                100.305030107,19.9912111670001,0
                100.304963021,19.991491571,0
                100.304877285,19.991754616,0
                100.304722768,19.992092515,0
                100.304608409,19.992250804,0
                100.30448451,19.992374179,0
                100.304351072,19.9924626320001,0
                100.304185106,19.992533829,0
                100.303931345,19.9926187940001,0
                100.30363122,19.9926909770001,0
                100.303358561,19.99272797,0
                100.303118032,19.9927341160001,0
                100.302784588,19.9926928290001,0
                100.30245078,19.992607811,0
                100.302153806,19.992500653,0
                100.301810317,19.9923632260001,0
                100.301415578,19.992182432,0
                100.300988026,19.991949398,0
                100.300481725,19.991703823,0
                100.300156817,19.991574997,0
                100.299952688,19.991506519,0
                100.299813761,19.991490046,0
                100.299698141,19.9914952670001,0
                100.299578003,19.9915136390001,0
                100.299485838,19.9915580530001,0
                100.299398483,19.9916242960001,0
                100.299320696,19.991729833,0
                100.299270882,19.991861403,0
                100.299258046,19.99198833,0
                100.299263927,19.9921413600001,0
                100.299297961,19.9923422960001,0
                100.299408133,19.9928007140001,0
                100.299494954,19.9932330620001,0
                100.299559402,19.993757413,0
                100.299594405,19.994076427,0
                100.299635362,19.994557217,0
                100.299638663,19.9949595620001,0
                100.299656026,19.995383669,0
                100.299672631,19.9957159410001,0
                100.299698455,19.996043768,0
                100.299757167,19.9964325830001,0
                100.299844207,19.9968911710001,0
                100.299966185,19.997660022,0
                100.300089761,19.998102815,0
                100.300216713,19.9985004800001,0
                100.300343011,19.9988184310001,0
                100.300491885,19.999146841,0
                100.300611691,19.999358548,0
                100.300765444,19.999596578,0
                100.30091942,19.9998611770001,0
                100.301061847,20.0000886600001,0
                100.301170494,20.000311074,0
                100.301250994,20.000528381,0
                100.30130918,20.0007671120001,0
                100.301345398,20.0010697820001,0
                100.301359176,20.0013779280001,0
                100.301327845,20.0016704600001,0
                100.30127473,20.0020481870001,0
                100.301209405,20.002309084,0
                100.30113284,20.002570059,0
                100.30104472,20.002793922,0
                100.300945071,20.002982656,0
                100.300769908,20.003219116,0
                100.30060681,20.003383737,0
                100.300414487,20.0035844450001,0
                100.300221739,20.0037333400001,0
                100.300003626,20.003874449,0
                100.299713995,20.0040360130001,0
                100.299503885,20.004125247,0
                100.299196963,20.0042351170001,0
                100.298902363,20.004305039,0
                100.298547877,20.004386029,0
                100.298185417,20.004408616,0
                100.297805766,20.0043914670001,0
                100.297358616,20.0043708270001,0
                100.296848088,20.0043347070001,0
                100.296278235,20.0042631430001,0
                100.295341054,20.0041344740001,0
                100.294851611,20.004098195,0
                100.294653529,20.0041116,0
                100.2946057,20.004123275,0
                100.294518861,20.0041444730001,0
                100.294397233,20.0042250770001,0
                100.2943096,20.0043373250001,0
                100.294210197,20.004557279,0
                100.294169463,20.004732962,0
                100.294179103,20.004880368,0
                100.294260551,20.005043201,0
                100.294349982,20.0051501670001,0
                100.294494389,20.005276662,0
                100.294731689,20.0054184250001,0
                100.29499426,20.005556014,0
                100.295391398,20.0057632570001,0
                100.296504022,20.006144856,0
                100.297451153,20.006456799,0
                100.298308155,20.006748138,0
                100.298788329,20.006967166,0
                100.299284063,20.0072545080001,0
                100.299957875,20.007660118,0
                100.300699421,20.0080971130001,0
                100.301034373,20.0083178690001,0
                100.301225561,20.008491845,0
                100.301480756,20.008757028,0
                100.301634066,20.008939255,0
                100.301766292,20.0091216370001,0
                100.301894494,20.009327964,0
                100.302061373,20.009621699,0
                100.302258292,20.0099789860001,0
                100.302361525,20.0102253580001,0
                100.302473652,20.0105274640001,0
                100.302530238,20.0107422900001,0
                100.302553423,20.010997219,0
                100.302556015,20.0113120930001,0
                100.302553589,20.012041541,0
                100.302555984,20.0123324960001,0
                100.302561807,20.0125277650001,0
                100.302584238,20.0126910230001,0
                100.302644285,20.012814146,0
                100.302712445,20.0128973490001,0
                100.302827149,20.013000139,0
                100.302966994,20.013082819,0
                100.303119189,20.013129529,0
                100.303380959,20.01316746,0
                100.303600131,20.013153889,0
                100.303747422,20.0131169320001,0
                100.303848332,20.0130803160001,0
                100.303974044,20.012983729,0
                100.304224586,20.0126829390001,0
                100.304479145,20.0123581980001,0
                100.304679579,20.0121175690001,0
                100.304779497,20.0119613790001,0
                100.304854148,20.0118093630001,0
                100.304895035,20.0116536080001,0
                100.304934275,20.0112985690001,0
                100.304972796,20.0108558480001,0
                100.304991284,20.010540819,0
                100.304980318,20.0102339810001,0
                100.304960687,20.0098993070001,0
                100.304957795,20.0095485680001,0
                100.304981226,20.009321195,0
                100.305013707,20.009169491,0
                100.305059039,20.009041602,0
                100.305150722,20.0089093930001,0
                100.305242861,20.008832979,0
                100.305368804,20.0087642890001,0
                100.305553842,20.0087031370001,0
                100.305844264,20.0086372230001,0
                100.306185416,20.008586877,0
                100.306796535,20.0085464920001,0
                100.307913746,20.0085143310001,0
                100.308457429,20.0084784310001,0
                100.308807212,20.0084519270001,0
                100.309198961,20.0084012020001,0
                100.309809546,20.008297042,0
                100.310159131,20.0082466210001,0
                100.310352996,20.00823323,0
                100.310504995,20.00825602,0
                100.310619271,20.0083069940001,0
                100.310763991,20.008469346,0
                100.310964614,20.0087628220001,0
                100.311041805,20.0089177040001,0
                100.31107231,20.0090370550001,0
                100.311073399,20.009168581,0
                100.311057327,20.009264365,0
                100.31100778,20.0093922820001,0
                100.310686337,20.009785283,0
                100.30998483,20.010623536,0
                100.309542907,20.011236653,0
                100.309218985,20.011840923,0
                100.309057866,20.0122446930001,0
                100.308880832,20.0127641780001,0
                100.308807961,20.0131314230001,0
                100.308752986,20.0136220970001,0
                100.308730488,20.013961071,0
                100.308733917,20.0143755830001,0
                100.308741429,20.0147741220001,0
                100.3087269,20.0150572330001,0
                100.308703512,20.0152885900001,0
                100.308642569,20.0155680550001,0
                100.308494425,20.0160115910001,0
                100.3083162,20.016387583,0
                100.308066583,20.01679998,0
                100.307887301,20.017048435,0
                100.307665551,20.017261326,0
                100.307288571,20.0175710280001,0
                100.30696555,20.017776697,0
                100.306592321,20.018030567,0
                100.306344877,20.0181958150001,0
                100.306160454,20.018332699,0
                100.306081154,20.018432929,0
                100.306023301,20.018576852,0
                100.305999711,20.018784295,0
                100.305996813,20.0189437540001,0
                100.306023759,20.019142851,0
                100.306058944,20.019317976,0
                100.306127794,20.019484875,0
                100.306200569,20.019615877,0
                100.306298414,20.019718789,0
                100.306455363,20.019829234,0
                100.306650133,20.0199234620001,0
                100.306980075,20.020044592,0
                100.307529561,20.0201959840001,0
                100.308443026,20.020504127,0
                100.308828222,20.0206766590001,0
                100.309510122,20.02103035,0
                100.30999307,20.0212938330001,0
                100.310386832,20.0214822460001,0
                100.310767812,20.021654805,0
                100.311254021,20.021802673,0
                100.311697699,20.0219070050001,0
                100.312297501,20.02202214,0
                100.312766052,20.0220744650001,0
                100.313213219,20.0220910800001,0
                100.313495722,20.0220849990001,0
                100.313744356,20.0220632240001,0
                100.313946475,20.022025851,0
                100.314190463,20.0219522940001,0
                100.314442555,20.021838815,0
                100.314774307,20.02166894,0
                100.315013378,20.0215117160001,0
                100.315235356,20.0213267140001,0
                100.315457162,20.021121782,0
                100.315582314,20.0209574300001,0
                100.315690462,20.0207772580001,0
                100.315785496,20.0205413840001,0
                100.315863658,20.020305631,0
                100.31591201,20.0200342270001,0
                100.31592755,20.0198746780001,0
                100.315949833,20.0195117910001,0
                100.315985662,20.019256426,0
                100.316043373,20.01909656,0
                100.316143582,20.018976234,0
                100.316282012,20.0188875170001,0
                100.316521746,20.0188100010001,0
                100.316787046,20.018764182,0
                100.316955717,20.0187629270001,0
                100.317116162,20.0187856490001,0
                100.317213615,20.0188407270001,0
                100.317302832,20.0189197820001,0
                100.317358513,20.019023002,0
                100.317376379,20.0191424500001,0
                100.317328964,20.0195254500001,0
                100.317043834,20.0207353060001,0
                100.316974767,20.021050711,0
                100.316934724,20.021306107,0
                100.316916393,20.021637076,0
                100.316922671,20.0218841550001,0
                100.316945014,20.0220354570001,0
                100.316979945,20.022178689,0
                100.317039847,20.0222818770001,0
                100.317334106,20.022674297,0
                100.317956167,20.0234349610001,0
                100.318220111,20.0237319450001,0
                100.318402839,20.02389799,0
                100.318547216,20.0240164950001,0
                100.31872091,20.024110862,0
                100.318911244,20.0241772050001,0
                100.319118277,20.024223492,0
                100.319362931,20.024229642,0
                100.31958205,20.0242080780001,0
                100.31988521,20.024150014,0
                100.320167056,20.0240642090001,0
                100.320448697,20.023954486,0
                100.320683849,20.023833156,0
                100.320935373,20.0236519110001,0
                100.321182381,20.023434831,0
                100.321500074,20.023097638,0
                100.322021337,20.022392225,0
                100.322346894,20.021987215,0
                100.32251765,20.0217730840001,0
                100.322711514,20.0215617480001,0
                100.322884773,20.0214155300001,0
                100.323105656,20.021273953,0
                100.323379494,20.0211419770001,0
                100.323716855,20.0210195170001,0
                100.324165163,20.0208862310001,0
                100.324846094,20.020751207,0
                100.325469079,20.0206416,0
                100.32569998,20.0205917690001,0
                100.325881912,20.0205341880001,0
                100.326012322,20.020480741,0
                100.326122908,20.0204274390001,0
                100.326253071,20.0203440080001,0
                100.326379047,20.0202343710001,0
                100.326461498,20.0201363080001,0
                100.326508294,20.020042258,0
                100.326546878,20.0199145330001,0
                100.32655761,20.0197757770001,0
                100.326560005,20.0195883590001,0
                100.326526112,20.0193300010001,0
                100.326483945,20.019030475,0
                100.326331169,20.0183082570001,0
                100.32613783,20.017477645,0
                100.326051925,20.017163457,0
                100.325949278,20.0167444460001,0
                100.325831524,20.0164155030001,0
                100.325726828,20.0162251420001,0
                100.325602245,20.0160274260001,0
                100.325225349,20.015531765,0
                100.324896884,20.015136931,0
                100.324744484,20.0149319330001,0
                100.324648319,20.0148127150001,0
                100.324611719,20.014704296,0
                100.324614713,20.0145880860001,0
                100.324700344,20.014396296,0
                100.324833524,20.0142004050001,0
                100.324959497,20.0140907690001,0
                100.325085846,20.0140261060001,0
                100.325216476,20.013998896,0
                100.325406826,20.0140012160001,0
                100.325692687,20.014044051,0
                100.326949138,20.0144506710001,0
                100.327283429,20.01459434,0
                100.327518567,20.0147350020001,0
                100.32767446,20.0148837520001,0
                100.327846754,20.015096097,0
                100.327947266,20.015260256,0
                100.328023987,20.015424592,0
                100.328076882,20.0155853590001,0
                100.328102942,20.0158550190001,0
                100.328093564,20.0161549320001,0
                100.328048119,20.0164101350001,0
                100.327951225,20.0166769730001,0
                100.327811063,20.016985361,0
                100.327635052,20.017275275,0
                100.327525979,20.017508472,0
                100.327460551,20.017745087,0
                100.327399656,20.0180491310001,0
                100.327361832,20.018266797,0
                100.327343922,20.0184955610001,0
                100.32735739,20.0186828600001,0
                100.32737429,20.01880642,0
                100.327423192,20.0189634660001,0
                100.327516029,20.019157669,0
                100.327628312,20.019306746,0
                100.327792206,20.019462935,0
                100.328027536,20.0196260820001,0
                100.32829053,20.0197777770001,0
                100.328620934,20.0199289660001,0
                100.328951208,20.020065162,0
                100.32921754,20.02014187,0
                100.329662214,20.0202059980001,0
                100.330071259,20.0202778820001,0
                100.33033756,20.0203508430001,0
                100.330512629,20.0204207400001,0
                100.33071586,20.0205391490001,0
                100.33130593,20.020917006,0
                100.33181667,20.021291713,0
                100.33210406,20.0215144310001,0
                100.33228335,20.0216142800001,0
                100.332442495,20.0216767960001,0
                100.332585494,20.021705706,0
                100.332783887,20.0217192010001,0
                100.332962288,20.021714113,0
                100.333128672,20.021694117,0
                100.333310787,20.021659014,0
                100.333492717,20.021601425,0
                100.334149333,20.0214053290001,0
                100.334893055,20.021193585,0
                100.335584694,20.0209185090001,0
                100.335991464,20.0207205460001,0
                100.336287556,20.0205646430001,0
                100.336559983,20.0204239120001,0
                100.336761005,20.02027997,0
                100.336953714,20.0200911150001,0
                100.337169489,20.0198158810001,0
                100.337334349,20.0196159930001,0
                100.33762514,20.019302711,0
                100.337860958,20.0190535620001,0
                100.338018137,20.018883713,0
                100.33811213,20.018744328,0
                100.338217349,20.018526152,0
                100.338299283,20.018368115,0
                100.33840092,20.018194941,0
                100.338479083,20.01805942,0
                100.338573483,20.0179687560001,0
                100.338680069,20.0179117270001,0
                100.338858243,20.017880398,0
                100.339060403,20.017871375,0
                100.33933809,20.017884263,0
                100.339616095,20.017934634,0
                100.340227679,20.0180424430001,0
                100.340839358,20.018161498,0
                100.341093733,20.018230783,0
                100.341268803,20.018300669,0
                100.341388391,20.0183747200001,0
                100.341544082,20.018497226,0
                100.341696093,20.0186534910001,0
                100.341804422,20.018802588,0
                100.341932834,20.0189815200001,0
                100.342061915,20.0192391520001,0
                100.342111372,20.019459908,0
                100.342165782,20.019796812,0
                100.342204458,20.020148829,0
                100.342271368,20.020556856,0
                100.342325207,20.020826302,0
                100.34238253,20.0210395030001,0
                100.342471706,20.0212674520001,0
                100.342580583,20.0214802620001,0
                100.342701097,20.021663002,0
                100.342881124,20.0218490350001,0
                100.343100706,20.0220235240001,0
                100.343299922,20.0221344500001,0
                100.343522775,20.022226463,0
                100.343781151,20.0222994580001,0
                100.344003426,20.0223240080001,0
                100.344257012,20.022299595,0
                100.344565726,20.0222297880001,0
                100.345142835,20.022011768,0
                100.345593438,20.0218396830001,0
                100.346091648,20.021670984,0
                100.346771945,20.0214634180001,0
                100.347547245,20.021236388,0
                100.348207422,20.0209952390001,0
                100.348602502,20.0208235690001,0
                100.348827336,20.020683182,0
                100.34902454,20.0205579940001,0
                100.349225487,20.020406544,0
                100.349375272,20.0202744580001,0
                100.35000536,20.0197304070001,0
              </coordinates>
                
            </LinearRing>
            
          </outerBoundaryIs>
        
        </Polygon>
        
      <styleUrl>
        #tambonStyle</styleUrl>
    </Placemark>

  </Document>
</kml>