<?xml version="1.0" encoding="UTF-8"?>
<kml xmlns="http://www.opengis.net/kml/2.2">
  <Document id="tambon_doc">
    <name>ปะอาว, อุทุมพรพิสัย, Si Sa Ket</name>
    <description>ข้อมูลขอบเขตตำบลปะอาว อำเภออุทุมพรพิสัย จังหวัดSi Sa Ket</description>
    
    <!-- Schema สำหรับข้อมูลตำบล -->
    <Schema id="tambon.schema">
      <SimpleField name="ADM3_EN" type="string">
        <displayName>Subdistrict Name (English)</displayName>
      </SimpleField>
      <SimpleField name="ADM3_TH" type="string">
        <displayName>ชื่อตำบล</displayName>
      </SimpleField>
      <SimpleField name="ADM2_EN" type="string">
        <displayName>District Name (English)</displayName>
      </SimpleField>
      <SimpleField name="ADM2_TH" type="string">
        <displayName>ชื่ออำเภอ</displayName>
      </SimpleField>
      <SimpleField name="ADM1_EN" type="string">
        <displayName>Province Name (English)</displayName>
      </SimpleField>
      <SimpleField name="ADM1_TH" type="string">
        <displayName>ชื่อจังหวัด</displayName>
      </SimpleField>
      <SimpleField name="ADM0_EN" type="string">
        <displayName>Country Name (English)</displayName>
      </SimpleField>
      <SimpleField name="ADM0_TH" type="string">
        <displayName>ชื่อประเทศ</displayName>
      </SimpleField>
    </Schema>

    <!-- Style สำหรับตำบล -->
    <Style id="tambonStyle">
      <LineStyle>
        <color>ffff0000</color>
        <width>1.5</width>
      </LineStyle>
      <PolyStyle>
        <color>33ff0000</color>
        <fill>1</fill>
        <outline>1</outline>
      </PolyStyle>
    </Style>

    <Placemark id="Si_Sa_Ket.139">
        
        <ExtendedData>
            
          <SchemaData schemaUrl="#tambon.schema">
                
            <SimpleData name="Shape_Leng">
                0.288540196677</SimpleData>
                
            <SimpleData name="Shape_Area">
                0.00234025451671</SimpleData>
                
            <SimpleData name="ADM3_EN">
                Pa-Ao</SimpleData>
                
            <SimpleData name="ADM3_TH">
                ปะอาว</SimpleData>
                
            <SimpleData name="ADM3_PCODE">
                TH331017</SimpleData>
                
            <SimpleData name="ADM2_EN">
                Uthumphon Phisai</SimpleData>
                
            <SimpleData name="ADM2_TH">
                อุทุมพรพิสัย</SimpleData>
                
            <SimpleData name="ADM2_PCODE">
                TH3310</SimpleData>
                
            <SimpleData name="ADM1_EN">
                Si Sa Ket</SimpleData>
                
            <SimpleData name="ADM1_TH">
                ศรีสะเกษ</SimpleData>
                
            <SimpleData name="ADM1_PCODE">
                TH33</SimpleData>
                
            <SimpleData name="ADM0_EN">
                Thailand</SimpleData>
                
            <SimpleData name="ADM0_TH">
                ประเทศไทย</SimpleData>
                
            <SimpleData name="ADM0_PCODE">
                TH</SimpleData>
            
          </SchemaData>
        
        </ExtendedData>
        
        <Polygon>
            
          <outerBoundaryIs>
                
            <LinearRing>
                    
              <coordinates>
                    
                104.25928127,15.0941480220001,0
                104.259123411,15.0939392670001,0
                104.258896323,15.0935489440001,0
                104.258860888,15.0934509150001,0
                104.258792373,15.0931698700001,0
                104.258751902,15.0929466150001,0
                104.258758404,15.092746413,0
                104.258859104,15.092283933,0
                104.258920867,15.0920714000001,0
                104.258934827,15.0920233730001,0
                104.259019326,15.0918122250001,0
                104.259174393,15.091424741,0
                104.2592417,15.091222884,0
                104.259263025,15.0911105390001,0
                104.259280354,15.090908734,0
                104.259277697,15.0908370830001,0
                104.259267653,15.090756357,0
                104.25924403,15.090666191,0
                104.259210283,15.090589945,0
                104.259159141,15.0905168370001,0
                104.259080556,15.0904284970001,0
                104.258775678,15.0903953110001,0
                104.258729931,15.0904046860001,0
                104.258699323,15.090410961,0
                104.258659636,15.090430091,0
                104.258617595,15.090462282,0
                104.258571042,15.0905163780001,0
                104.25854239,15.0905683190001,0
                104.258290323,15.0911780110001,0
                104.258075838,15.0919700480001,0
                104.258044541,15.092020771,0
                104.258011112,15.092069832,0
                104.257984094,15.0921000750001,0
                104.257929815,15.0921317140001,0
                104.257893155,15.0921469310001,0
                104.257811884,15.092173965,0
                104.257784305,15.092179575,0
                104.257716914,15.092193282,0
                104.257624701,15.0921979190001,0
                104.257496576,15.0922041000001,0
                104.257334555,15.09216952,0
                104.257214719,15.0921115950001,0
                104.257131326,15.092053903,0
                104.25689724,15.0917791960001,0
                104.255944093,15.090220393,0
                104.255843023,15.0900558120001,0
                104.255744307,15.089920695,0
                104.255646456,15.0898207070001,0
                104.255556283,15.0897652840001,0
                104.255437472,15.0897488750001,0
                104.255381823,15.0897597590001,0
                104.255290805,15.089803417,0
                104.255174119,15.0898732430001,0
                104.254895052,15.090087183,0
                104.254624677,15.090304181,0
                104.254327164,15.090526256,0
                104.253966204,15.0907569550001,0
                104.253588467,15.0910298100001,0
                104.25326161,15.091301125,0
                104.253082863,15.091410479,0
                104.25280008,15.091583481,0
                104.252515146,15.0916962960001,0
                104.252328161,15.091743208,0
                104.252055537,15.091722573,0
                104.251836919,15.0916605460001,0
                104.251653916,15.0915753240001,0
                104.251466841,15.0914582350001,0
                104.25132594,15.091346468,0
                104.251034924,15.091036602,0
                104.250651363,15.0905883240001,0
                104.250426448,15.0904260730001,0
                104.249644153,15.0898617440001,0
                104.24964411,15.0898617130001,0
                104.249520692,15.0897440700001,0
                104.24945489,15.0896376050001,0
                104.249405556,15.08951597,0
                104.249323303,15.089099822,0
                104.249277007,15.0889673200001,0
                104.249166577,15.088771977,0
                104.248950102,15.088425751,0
                104.248861691,15.0882200090001,0
                104.248727111,15.087869363,0
                104.248636931,15.0876212700001,0
                104.248597025,15.0874388940001,0
                104.248557115,15.0872565180001,0
                104.248527831,15.087037858,0
                104.248474131,15.086755871,0
                104.248459581,15.0865718970001,0
                104.248473836,15.086512197,0
                104.248654141,15.0861357370001,0
                104.249072367,15.085745461,0
                104.249168782,15.085676187,0
                104.249290087,15.0856210630001,0
                104.249456111,15.0855890550001,0
                104.24959334,15.085582416,0
                104.249745758,15.085596724,0
                104.249898443,15.0856211330001,0
                104.250022381,15.085673023,0
                104.25054896,15.0859225,0
                104.250756264,15.0860139930001,0
                104.251007242,15.086055029,0
                104.251275545,15.0860871410001,0
                104.251446797,15.086095943,0
                104.251573481,15.0860759550001,0
                104.251660509,15.086048367,0
                104.251749131,15.0859936140001,0
                104.251862734,15.085890276,0
                104.251968396,15.0857445770001,0
                104.251986276,15.0855677910001,0
                104.251987061,15.085436105,0
                104.251965378,15.085291808,0
                104.251826134,15.085004811,0
                104.251739252,15.0848963600001,0
                104.25094493,15.0841702170001,0
                104.250600169,15.083870163,0
                104.25032638,15.0836725350001,0
                104.250255086,15.083637965,0
                104.250129005,15.083626657,0
                104.250021138,15.08362951,0
                104.249913868,15.0836566130001,0
                104.249681167,15.0837696400001,0
                104.24887968,15.0842949780001,0
                104.248593104,15.084412458,0
                104.248441507,15.084432239,0
                104.248137472,15.0844383460001,0
                104.247350916,15.0845735180001,0
                104.246994765,15.084654791,0
                104.246590209,15.0847625280001,0
                104.246196437,15.0849099110001,0
                104.245792393,15.0850334080001,0
                104.245520807,15.085088764,0
                104.245279388,15.085125915,0
                104.245019763,15.085142284,0
                104.2449018,15.0851335180001,0
                104.244817494,15.085120697,0
                104.244690716,15.0850820220001,0
                104.244504178,15.0850083180001,0
                104.244355933,15.084926893,0
                104.244270123,15.0848474100001,0
                104.244211233,15.084752118,0
                104.244176634,15.0846439530001,0
                104.244155419,15.0845460030001,0
                104.244121203,15.0841853380001,0
                104.244099555,15.0840282770001,0
                104.244053591,15.0838443960001,0
                104.243979978,15.083663836,0
                104.243928166,15.0835586740001,0
                104.24371746,15.0832620260001,0
                104.243522703,15.0830186750001,0
                104.242837565,15.0824196240001,0
                104.242639401,15.0821763500001,0
                104.242528869,15.0820162520001,0
                104.24240054,15.0817897040001,0
                104.242322787,15.0815765790001,0
                104.242308161,15.081506758,0
                104.242301891,15.0814196850001,0
                104.242305266,15.0812926990001,0
                104.242342012,15.081067793,0
                104.2423738,15.0809621990001,0
                104.242427335,15.0808560790001,0
                104.242555452,15.080648958,0
                104.242743033,15.080539737,0
                104.242854665,15.08049089,0
                104.242976183,15.0804446600001,0
                104.243207852,15.0803706290001,0
                104.243700649,15.080178806,0
                104.243841217,15.080108893,0
                104.243981061,15.0800100930001,0
                104.244216336,15.079804097,0
                104.244532462,15.079434586,0
                104.244648552,15.079283914,0
                104.245458873,15.0783117570001,0
                104.245525016,15.078219631,0
                104.245775521,15.0778277160001,0
                104.245845679,15.0776783090001,0
                104.245889928,15.077505671,0
                104.245895199,15.0773599130001,0
                104.2458759,15.0772272780001,0
                104.245828797,15.077108787,0
                104.245803719,15.0770680840001,0
                104.245772517,15.077023938,0
                104.245735579,15.076991632,0
                104.245684887,15.0769713500001,0
                104.245602136,15.076953759,0
                104.245393756,15.076927025,0
                104.245143006,15.076887834,0
                104.244876792,15.0768056490001,0
                104.244787585,15.0767882650001,0
                104.244607516,15.0767850340001,0
                104.244348732,15.076805221,0
                104.243902058,15.0768627320001,0
                104.243651241,15.076875721,0
                104.243242618,15.0768788120001,0
                104.24307999,15.0768734320001,0
                104.242354452,15.076804829,0
                104.242136978,15.07677138,0
                104.241614842,15.0767642640001,0
                104.241448497,15.07680814,0
                104.241239184,15.076906724,0
                104.241031006,15.077025911,0
                104.240958608,15.077057456,0
                104.240854516,15.0770836790001,0
                104.240771228,15.077100649,0
                104.240699717,15.0771009380001,0
                104.240286751,15.077065997,0
                104.240144617,15.077071769,0
                104.240032229,15.0770852380001,0
                104.2395105,15.0772208980001,0
                104.23926538,15.0772772290001,0
                104.239066882,15.077336244,0
                104.238583749,15.0774995730001,0
                104.23845358,15.0775338670001,0
                104.237638729,15.077715659,0
                104.237567101,15.077728372,0
                104.237336538,15.07774475,0
                104.237027666,15.077707134,0
                104.236936436,15.0776861460001,0
                104.236723797,15.0776176410001,0
                104.236622049,15.077566038,0
                104.236344205,15.077407748,0
                104.235971443,15.077147128,0
                104.235722587,15.077002088,0
                104.235284177,15.076730141,0
                104.234906009,15.0764767150001,0
                104.234473734,15.0761249760001,0
                104.234359285,15.0759507020001,0
                104.234320791,15.075822896,0
                104.234303988,15.075699334,0
                104.234308887,15.075465648,0
                104.234351418,15.075316881,0
                104.234381674,15.0752399250001,0
                104.234573574,15.0747986120001,0
                104.234621509,15.074671876,0
                104.234692366,15.074412813,0
                104.234775871,15.0741534800001,0
                104.234820915,15.074038022,0
                104.234909513,15.073869136,0
                104.235014648,15.073633101,0
                104.235160928,15.073367531,0
                104.235298271,15.073172518,0
                104.235521728,15.073014018,0
                104.235672015,15.072940606,0
                104.236016944,15.072802052,0
                104.236270313,15.0727314060001,0
                104.236470628,15.0726974130001,0
                104.236602955,15.072692155,0
                104.236851181,15.072706495,0
                104.237379191,15.0727369960001,0
                104.237497006,15.0727395870001,0
                104.237678081,15.072721727,0
                104.237791909,15.0726997670001,0
                104.237897393,15.0726689110001,0
                104.237960658,15.072641705,0
                104.238064181,15.0725928640001,0
                104.238122929,15.072551982,0
                104.238202301,15.072494073,0
                104.23826465,15.072430669,0
                104.238325182,15.072346859,0
                104.238350622,15.072297373,0
                104.238384202,15.07220126,0
                104.238394666,15.072110443,0
                104.238387157,15.0719294740001,0
                104.238373072,15.071853247,0
                104.238265635,15.071508056,0
                104.238210535,15.071399679,0
                104.23812097,15.071287704,0
                104.237687908,15.070899162,0
                104.237363838,15.0705820480001,0
                104.23693337,15.070106541,0
                104.236877428,15.070065867,0
                104.23679666,15.0700176730001,0
                104.236796627,15.0700176510001,0
                104.236683364,15.0699700120001,0
                104.236589539,15.06994475,0
                104.236481398,15.06993621,0
                104.236300126,15.069946132,0
                104.236246376,15.069955137,0
                104.235988277,15.070032778,0
                104.235652998,15.0701644820001,0
                104.235536686,15.0702229680001,0
                104.235356919,15.0702942730001,0
                104.235142379,15.0703481190001,0
                104.234799046,15.070351252,0
                104.234666308,15.070339866,0
                104.234527854,15.0702953630001,0
                104.234289622,15.0701262540001,0
                104.23373928,15.069428078,0
                104.233538282,15.0691283100001,0
                104.233526677,15.0690960540001,0
                104.233524325,15.069077808,0
                104.232061777,15.0698415430001,0
                104.230011556,15.070592477,0
                104.229548222,15.070678566,0
                104.228613452,15.070846148,0
                104.22826098,15.0709093350001,0
                104.22704942,15.0710629700001,0
                104.225867387,15.0713666680001,0
                104.224664421,15.071871851,0
                104.224264261,15.0721149350001,0
                104.223976478,15.0722897540001,0
                104.223191296,15.0729611570001,0
                104.222762747,15.073563297,0
                104.222535933,15.073927016,0
                104.222517475,15.073956621,0
                104.222005471,15.0752247290001,0
                104.221226992,15.0772276320001,0
                104.220858347,15.078680659,0
                104.220760993,15.0793196400001,0
                104.220661655,15.0808964760001,0
                104.220698523,15.0824031650001,0
                104.220775594,15.084143431,0
                104.220724703,15.084881626,0
                104.220675451,15.0856867840001,0
                104.220454712,15.0865294070001,0
                104.220221683,15.086869801,0
                104.219918914,15.087178303,0
                104.219717883,15.087417454,0
                104.219346192,15.087727552,0
                104.218700444,15.0881109790001,0
                104.218255732,15.0882552580001,0
                104.217705991,15.088334957,0
                104.216120781,15.088371565,0
                104.214497251,15.088296502,0
                104.211771293,15.088170442,0
                104.210748179,15.088036081,0
                104.210500642,15.088028057,0
                104.209282196,15.0879054010001,0
                104.208423752,15.0876990580001,0
                104.207926542,15.0874592590001,0
                104.207578281,15.0869647640001,0
                104.207281713,15.0864690770001,0
                104.207001183,15.0855710020001,0
                104.206962921,15.085341166,0
                104.206667842,15.08356859,0
                104.206355455,15.081364686,0
                104.206114377,15.0799631740001,0
                104.206040622,15.079817098,0
                104.205788307,15.0793174040001,0
                104.205535348,15.078863848,0
                104.20519337,15.078250676,0
                104.20469311,15.0772950410001,0
                104.204569538,15.077058983,0
                104.204176875,15.076094476,0
                104.204121863,15.075959346,0
                104.203991893,15.075640086,0
                104.2037875,15.0748775120001,0
                104.203764317,15.07479103,0
                104.203600682,15.074534998,0
                104.203214865,15.0739313230001,0
                104.203113066,15.073733437,0
                104.20309271,15.073693862,0
                104.202867761,15.0734163700001,0
                104.202703716,15.073250542,0
                104.202451067,15.0730302170001,0
                104.202126422,15.072839818,0
                104.201808876,15.0727415270001,0
                104.201701392,15.072708257,0
                104.20110225,15.07259484,0
                104.200681006,15.0726186590001,0
                104.20042105,15.0726953070001,0
                104.200235156,15.0728267860001,0
                104.199627932,15.073575696,0
                104.199400488,15.07379293,0
                104.199174077,15.07405254,0
                104.198519444,15.07464707,0
                104.198177261,15.0750557530001,0
                104.197912615,15.0754737610001,0
                104.197877705,15.0755243150001,0
                104.197840755,15.075552965,0
                104.197787317,15.0755849230001,0
                104.197725999,15.075602431,0
                104.197658627,15.075618611,0
                104.197574374,15.0756220120001,0
                104.197378321,15.075610424,0
                104.197225388,15.075599314,0
                104.197164096,15.075594863,0
                104.197119052,15.0756002860001,0
                104.197072609,15.0756101320001,0
                104.197048774,15.0756214950001,0
                104.197014551,15.0756378090001,0
                104.196793172,15.0757614180001,0
                104.196741276,15.0757948040001,0
                104.196659388,15.0758332660001,0
                104.196544525,15.0758783430001,0
                104.196473026,15.0759107150001,0
                104.196418158,15.075945629,0
                104.196354469,15.075989529,0
                104.196304438,15.0760375020001,0
                104.196221196,15.076124878,0
                104.196101756,15.076313885,0
                104.196034042,15.076388395,0
                104.195988203,15.0764295650001,0
                104.195831778,15.076528131,0
                104.195754569,15.0765626620001,0
                104.195677691,15.076597054,0
                104.195496869,15.076664862,0
                104.19538329,15.076700638,0
                104.195315768,15.0767314550001,0
                104.19525637,15.0767659860001,0
                104.195177237,15.076814628,0
                104.195054999,15.0769071830001,0
                104.194966115,15.076967756,0
                104.194847177,15.0770309700001,0
                104.194690201,15.0770989640001,0
                104.194489506,15.077185516,0
                104.193513795,15.0775605860001,0
                104.193315367,15.077650422,0
                104.193270156,15.07767324,0
                104.193176797,15.077731843,0
                104.193161578,15.077745044,0
                104.193107479,15.0777919660001,0
                104.19305472,15.0778517090001,0
                104.193018583,15.0779139970001,0
                104.19300012,15.0779597810001,0
                104.192986458,15.078017162,0
                104.192980464,15.078080222,0
                104.192978627,15.0781285520001,0
                104.193000929,15.078488002,0
                104.193001997,15.0785318740001,0
                104.193002922,15.078569897,0
                104.192995351,15.078630065,0
                104.192982728,15.0786684,0
                104.192960933,15.0787010940001,0
                104.192689727,15.0789646220001,0
                104.192448079,15.0791963140001,0
                104.1921912,15.0794000860001,0
                104.192089284,15.0794773000001,0
                104.192034658,15.0795224500001,0
                104.191985772,15.079555767,0
                104.191796544,15.07963913,0
                104.191723786,15.079681769,0
                104.191668947,15.0797181500001,0
                104.191633501,15.079746766,0
                104.191589487,15.0797946000001,0
                104.191512018,15.079900063,0
                104.191278735,15.0803499240001,0
                104.19125724,15.0803724630001,0
                104.19125631,15.080373133,0
                104.191230853,15.080391573,0
                104.191202466,15.080408689,0
                104.191159648,15.0804244870001,0
                104.191129309,15.080430945,0
                104.191074468,15.080440437,0
                104.190923601,15.0804648270001,0
                104.190890528,15.0804701770001,0
                104.190851057,15.0804842540001,0
                104.190818475,15.080503111,0
                104.190791296,15.0805350090001,0
                104.19077347,15.080568342,0
                104.190760867,15.0806073200001,0
                104.190761,15.0806476450001,0
                104.190765027,15.0806738900001,0
                104.190778328,15.0806982780001,0
                104.190804269,15.0807199070001,0
                104.190852158,15.0807385590001,0
                104.191252149,15.0808709200001,0
                104.191278623,15.0808925600001,0
                104.191296922,15.08091354,0
                104.191306027,15.080939668,0
                104.191308624,15.080976649,0
                104.191304382,15.081011318,0
                104.191286976,15.081061924,0
                104.191252394,15.081133272,0
                104.191215085,15.0811994430001,0
                104.191148342,15.0813660690001,0
                104.191111449,15.0814744690001,0
                104.19108079,15.0815607710001,0
                104.19106393,15.081610545,0
                104.191042259,15.0816483570001,0
                104.191011557,15.081686373,0
                104.190957684,15.081746875,0
                104.190600529,15.082062363,0
                104.190516364,15.0821312410001,0
                104.190462358,15.0821862560001,0
                104.190312265,15.0823839980001,0
                104.190220973,15.082504269,0
                104.19018815,15.0825410580001,0
                104.190140242,15.082589861,0
                104.190092914,15.0826625010001,0
                104.190057709,15.0827288990001,0
                104.19004105,15.0828008300001,0
                104.190037397,15.082879544,0
                104.190038784,15.082936584,0
                104.190045979,15.083003449,0
                104.190056578,15.0830488450001,0
                104.190072517,15.083085059,0
                104.190087939,15.083106534,0
                104.190132254,15.0831682360001,0
                104.190160077,15.08320697,0
                104.190207704,15.083277529,0
                104.190223021,15.083315042,0
                104.190230715,15.0833527250001,0
                104.190234115,15.0833880430001,0
                104.190233988,15.0834176760001,0
                104.190228114,15.0834548510001,0
                104.190154602,15.083609623,0
                104.190140599,15.0836391020001,0
                104.19011917,15.0836842200001,0
                104.190094069,15.0837600030001,0
                104.190080591,15.0838327440001,0
                104.190053495,15.0839536400001,0
                104.190037495,15.084025024,0
                104.189995441,15.0841689170001,0
                104.189957817,15.084293793,0
                104.189897991,15.084424643,0
                104.189864516,15.0844978710001,0
                104.189779272,15.08465698,0
                104.189340038,15.085518032,0
                104.189317678,15.0856079860001,0
                104.189308313,15.085727456,0
                104.189310922,15.0858347240001,0
                104.189320827,15.085989527,0
                104.189346017,15.0861045190001,0
                104.189375115,15.0862029350001,0
                104.189487453,15.086506861,0
                104.189513633,15.0865992540001,0
                104.189523759,15.0866581650001,0
                104.189529614,15.0867178,0
                104.189527388,15.086771126,0
                104.189527389,15.086771153,0
                104.189478402,15.0870717610001,0
                104.189403978,15.0875284570001,0
                104.18940175,15.0875498950001,0
                104.189382581,15.0877709550001,0
                104.189375284,15.087868536,0
                104.189363497,15.0879309370001,0
                104.189356311,15.087950773,0
                104.189346006,15.087979207,0
                104.189317725,15.0880237530001,0
                104.189079985,15.088267923,0
                104.189005801,15.088369243,0
                104.188985308,15.0883888490001,0
                104.188956443,15.08840371,0
                104.188932467,15.0884104360001,0
                104.188909604,15.088410961,0
                104.188885353,15.0884065770001,0
                104.188863525,15.088397204,0
                104.188844671,15.088379732,0
                104.188568364,15.0881056800001,0
                104.18847569,15.0879691660001,0
                104.18847179,15.087963422,0
                104.188429923,15.087901753,0
                104.188390531,15.087859329,0
                104.188348576,15.0878253290001,0
                104.188303212,15.0878017090001,0
                104.188143664,15.087727414,0
                104.1880427,15.0876884360001,0
                104.187783493,15.0876287990001,0
                104.187678064,15.087583517,0
                104.187174431,15.0873148360001,0
                104.187056877,15.087275796,0
                104.186939324,15.087236752,0
                104.186779416,15.0872225360001,0
                104.186662049,15.087213847,0
                104.186642822,15.087216095,0
                104.186619845,15.0872187800001,0
                104.18658777,15.0872236340001,0
                104.186552618,15.0872337060001,0
                104.186241529,15.087373153,0
                104.186155828,15.0874022830001,0
                104.186071619,15.087423148,0
                104.185983867,15.087437509,0
                104.185857969,15.087451097,0
                104.185810534,15.087451366,0
                104.185768869,15.087444912,0
                104.185726112,15.0874286100001,0
                104.185664853,15.0873986290001,0
                104.185547783,15.087341339,0
                104.185518755,15.087332127,0
                104.185486504,15.087329574,0
                104.1854407,15.0873273330001,0
                104.18519331,15.0873264300001,0
                104.185108621,15.0873275490001,0
                104.185081363,15.087332431,0
                104.185075413,15.087333496,0
                104.185045358,15.0873388790001,0
                104.185019293,15.0873468830001,0
                104.184983307,15.0873649920001,0
                104.184723624,15.0875193790001,0
                104.184658732,15.0875434590001,0
                104.183976966,15.087734472,0
                104.183680461,15.0878041990001,0
                104.18362426,15.087813092,0
                104.183474923,15.087836716,0
                104.183359373,15.087854002,0
                104.183255693,15.0878636960001,0
                104.182964064,15.087889477,0
                104.182884613,15.0879014760001,0
                104.182784262,15.087927043,0
                104.18265111,15.0879609720001,0
                104.182570152,15.087976,0
                104.182497239,15.0879849880001,0
                104.182072227,15.088005341,0
                104.181693062,15.088015141,0
                104.181575868,15.0880266090001,0
                104.181308684,15.0880634660001,0
                104.181111255,15.088100814,0
                104.180957339,15.0881465190001,0
                104.180445586,15.088301363,0
                104.180201687,15.088366582,0
                104.180018834,15.0884184780001,0
                104.179750401,15.088536989,0
                104.179690404,15.088569072,0
                104.179677951,15.088575776,0
                104.179643574,15.0885942900001,0
                104.17959051,15.0886299910001,0
                104.179381291,15.08883016,0
                104.179378137,15.0888331730001,0
                104.179335656,15.088862958,0
                104.179297098,15.088885374,0
                104.178973079,15.0890443210001,0
                104.178685199,15.089185543,0
                104.178450027,15.0892713440001,0
                104.177979901,15.0893715620001,0
                104.177321218,15.0895416920001,0
                104.17724819,15.089567217,0
                104.177220345,15.089585153,0
                104.177193998,15.0896102030001,0
                104.177147955,15.089669988,0
                104.177098166,15.0897524810001,0
                104.177058129,15.089827975,0
                104.177043091,15.0898679740001,0
                104.177035474,15.0899060090001,0
                104.177036342,15.0899417680001,0
                104.177042961,15.0899731980001,0
                104.17705229,15.0900083760001,0
                104.177067541,15.0900434230001,0
                104.177127053,15.0901345240001,0
                104.177220642,15.0902777900001,0
                104.177243496,15.090311834,0
                104.177263945,15.0903516990001,0
                104.177320557,15.090525569,0
                104.177354117,15.0906440570001,0
                104.177373145,15.090731942,0
                104.177379307,15.0907762470001,0
                104.177382517,15.0908387270001,0
                104.177382967,15.090892217,0
                104.177379715,15.090932626,0
                104.17737356,15.0909582850001,0
                104.177358211,15.090989092,0
                104.177345161,15.091009968,0
                104.177319435,15.091031958,0
                104.177298628,15.0910472510001,0
                104.177259973,15.09106361,0
                104.177113918,15.0911146600001,0
                104.176928267,15.091167393,0
                104.176693145,15.09122253,0
                104.176259526,15.091313126,0
                104.175251494,15.091503185,0
                104.174750978,15.091616018,0
                104.174561985,15.0916680510001,0
                104.174493578,15.091699668,0
                104.174456088,15.0917225590001,0
                104.174452488,15.0917247580001,0
                104.174435698,15.0917350120001,0
                104.174405931,15.09176533,0
                104.174375442,15.0918121190001,0
                104.174362958,15.0918563060001,0
                104.174361793,15.0919013290001,0
                104.17436396,15.091944088,0
                104.174370351,15.0919746650001,0
                104.174380194,15.092015566,0
                104.174593844,15.09247987,0
                104.174701558,15.092682629,0
                104.175030988,15.0932911140001,0
                104.175351573,15.0938562010001,0
                104.175366633,15.0938909870001,0
                104.175374592,15.093914597,0
                104.175377069,15.0939381530001,0
                104.175376591,15.0939576100001,0
                104.175374125,15.0939738700001,0
                104.175365502,15.0939916620001,0
                104.175352127,15.094010027,0
                104.175010925,15.094297006,0
                104.174457584,15.094699554,0
                104.17411958,15.094933887,0
                104.173926039,15.095051615,0
                104.172819526,15.095636606,0
                104.172791793,15.0956542550001,0
                104.172735304,15.095684482,0
                104.172605595,15.095772751,0
                104.17224205,15.0960598390001,0
                104.172178738,15.096104091,0
                104.172110016,15.096144193,0
                104.171984929,15.096217181,0
                104.171938127,15.0962434960001,0
                104.171881691,15.0962919790001,0
                104.171700285,15.0964688880001,0
                104.171595885,15.096570699,0
                104.171542836,15.0966191040001,0
                104.171454092,15.0966858900001,0
                104.171386234,15.096729323,0
                104.171206985,15.0968440560001,0
                104.170787375,15.097076997,0
                104.170740672,15.0970993510001,0
                104.170685858,15.0971214580001,0
                104.170641986,15.0971290480001,0
                104.170613734,15.0971285960001,0
                104.170579705,15.097122789,0
                104.170569188,15.0971190980001,0
                104.170462353,15.0970815800001,0
                104.170237792,15.096983031,0
                104.170142846,15.0969413620001,0
                104.170112971,15.096928248,0
                104.170062949,15.096915128,0
                104.169957582,15.096902175,0
                104.169897744,15.096903545,0
                104.169855122,15.0969045210001,0
                104.169778306,15.096913955,0
                104.169778255,15.096913961,0
                104.169707502,15.096930946,0
                104.169611024,15.0969583990001,0
                104.169007237,15.0971449,0
                104.168868009,15.0971793580001,0
                104.168805677,15.097191848,0
                104.168747055,15.0971978210001,0
                104.168626111,15.097203918,0
                104.168540364,15.0972079490001,0
                104.16848523,15.0972105390001,0
                104.168444077,15.097212472,0
                104.168380605,15.0972263260001,0
                104.168342528,15.0972346350001,0
                104.168283731,15.0972508190001,0
                104.168252604,15.0972620050001,0
                104.168198448,15.0972848750001,0
                104.168142162,15.097308646,0
                104.16805459,15.0973618680001,0
                104.167631567,15.0976160860001,0
                104.167687795,15.0981647460001,0
                104.167769741,15.0985444950001,0
                104.16797007,15.099006338,0
                104.168255925,15.0993955540001,0
                104.168749112,15.099935498,0
                104.169766976,15.1011135950001,0
                104.170199272,15.1015418540001,0
                104.170379228,15.1017155820001,0
                104.172750624,15.103805848,0
                104.174323667,15.105433164,0
                104.175317095,15.1062018970001,0
                104.175888065,15.1066151800001,0
                104.176307096,15.1068293590001,0
                104.176689743,15.1069653210001,0
                104.177937855,15.1072382140001,0
                104.180748352,15.1079442670001,0
                104.182487961,15.1085743740001,0
                104.183988758,15.109310459,0
                104.185636397,15.1104116820001,0
                104.187606484,15.112008009,0
                104.188460033,15.112798863,0
                104.188858272,15.1132264010001,0
                104.18923246,15.113655937,0
                104.190572734,15.1155190270001,0
                104.191291704,15.11636464,0
                104.192290061,15.117331017,0
                104.192734558,15.1176599940001,0
                104.193340727,15.1180559110001,0
                104.194547901,15.1186358580001,0
                104.195280463,15.118845122,0
                104.195864164,15.1189164730001,0
                104.196592933,15.11897035,0
                104.197581642,15.118957729,0
                104.199341836,15.1189352490001,0
                104.199441289,15.118938456,0
                104.201675819,15.119010459,0
                104.203566462,15.118695368,0
                104.204952534,15.1182613610001,0
                104.206131801,15.117832116,0
                104.207970255,15.1168600020001,0
                104.210976856,15.1150066050001,0
                104.212349963,15.1140452180001,0
                104.214197586,15.1123944560001,0
                104.214596905,15.112053052,0
                104.215879214,15.1107465750001,0
                104.216760824,15.1100229730001,0
                104.217409004,15.109405613,0
                104.217763498,15.109095908,0
                104.218400471,15.10870429,0
                104.218962981,15.108440022,0
                104.219628878,15.1081733620001,0
                104.220374781,15.1080053520001,0
                104.220418762,15.108000051,0
                104.221406241,15.107880983,0
                104.222129983,15.107864234,0
                104.223556549,15.10803222,0
                104.224209524,15.1082934830001,0
                104.224874255,15.1084249830001,0
                104.225040501,15.1084578700001,0
                104.225119131,15.108473426,0
                104.225819488,15.1085577050001,0
                104.226672472,15.1085379470001,0
                104.227111267,15.1085026580001,0
                104.227855925,15.1082844040001,0
                104.228223486,15.108016256,0
                104.228714257,15.1076582220001,0
                104.228745184,15.107635664,0
                104.230646456,15.106248608,0
                104.232070584,15.105413604,0
                104.232124014,15.105393313,0
                104.232129246,15.105371319,0
                104.233255417,15.104892955,0
                104.233948974,15.1047009960001,0
                104.23464561,15.104634586,0
                104.235265941,15.104620196,0
                104.235681344,15.1046859370001,0
                104.235942901,15.1048054940001,0
                104.236135064,15.10493867,0
                104.236258619,15.1050242920001,0
                104.237716491,15.106121414,0
                104.237813236,15.1061942210001,0
                104.237833586,15.106218981,0
                104.238319773,15.1068105890001,0
                104.238690277,15.1071537390001,0
                104.238978307,15.1072978020001,0
                104.2391857,15.1073181100001,0
                104.23924483,15.1073022790001,0
                104.239494011,15.1072355750001,0
                104.239724166,15.1071297340001,0
                104.240378891,15.106411028,0
                104.240705346,15.106132347,0
                104.240802479,15.106049431,0
                104.241468069,15.105481234,0
                104.24236035,15.1049580100001,0
                104.243152328,15.104562738,0
                104.243306181,15.104512334,0
                104.243357865,15.1044816360001,0
                104.244586413,15.103961758,0
                104.24466856,15.103945697,0
                104.24476521,15.103897139,0
                104.245203368,15.1038367090001,0
                104.245243133,15.1038333660001,0
                104.2454471,15.103816212,0
                104.245616293,15.103801988,0
                104.245917771,15.1038533130001,0
                104.246135697,15.1038904100001,0
                104.246631725,15.10407988,0
                104.246941031,15.104195286,0
                104.247002613,15.1042182620001,0
                104.247075449,15.1042454350001,0
                104.24754192,15.104284842,0
                104.248004685,15.1041735810001,0
                104.248543129,15.1039851890001,0
                104.248977566,15.103774086,0
                104.249459366,15.1033860100001,0
                104.250040219,15.1028197580001,0
                104.250540433,15.102129754,0
                104.250627961,15.101998388,0
                104.25091451,15.101568312,0
                104.251431281,15.1005010590001,0
                104.252014442,15.098980016,0
                104.252406315,15.0980915390001,0
                104.253028928,15.0971223240001,0
                104.253807855,15.096199713,0
                104.254492675,15.095656164,0
                104.255027993,15.095342214,0
                104.255054916,15.09533121,0
                104.255744847,15.0950491620001,0
                104.25928127,15.0941480220001,0
              </coordinates>
                
            </LinearRing>
            
          </outerBoundaryIs>
        
        </Polygon>
        
      <styleUrl>
        #tambonStyle</styleUrl>
    </Placemark>

  </Document>
</kml>