<?xml version="1.0" encoding="UTF-8"?>
<kml xmlns="http://www.opengis.net/kml/2.2">
  <Document id="tambon_doc">
    <name>บางปอ, เมืองนราธิวาส, Narathiwat</name>
    <description>ข้อมูลขอบเขตตำบลบางปอ อำเภอเมืองนราธิวาส จังหวัดNarathiwat</description>
    
    <!-- Schema สำหรับข้อมูลตำบล -->
    <Schema id="tambon.schema">
      <SimpleField name="ADM3_EN" type="string">
        <displayName>Subdistrict Name (English)</displayName>
      </SimpleField>
      <SimpleField name="ADM3_TH" type="string">
        <displayName>ชื่อตำบล</displayName>
      </SimpleField>
      <SimpleField name="ADM2_EN" type="string">
        <displayName>District Name (English)</displayName>
      </SimpleField>
      <SimpleField name="ADM2_TH" type="string">
        <displayName>ชื่ออำเภอ</displayName>
      </SimpleField>
      <SimpleField name="ADM1_EN" type="string">
        <displayName>Province Name (English)</displayName>
      </SimpleField>
      <SimpleField name="ADM1_TH" type="string">
        <displayName>ชื่อจังหวัด</displayName>
      </SimpleField>
      <SimpleField name="ADM0_EN" type="string">
        <displayName>Country Name (English)</displayName>
      </SimpleField>
      <SimpleField name="ADM0_TH" type="string">
        <displayName>ชื่อประเทศ</displayName>
      </SimpleField>
    </Schema>

    <!-- Style สำหรับตำบล -->
    <Style id="tambonStyle">
      <LineStyle>
        <color>ffff0000</color>
        <width>1.5</width>
      </LineStyle>
      <PolyStyle>
        <color>33ff0000</color>
        <fill>1</fill>
        <outline>1</outline>
      </PolyStyle>
    </Style>

    <Placemark id="Narathiwat.4">
        
        <ExtendedData>
            
          <SchemaData schemaUrl="#tambon.schema">
                
            <SimpleData name="Shape_Leng">
                0.230723130878</SimpleData>
                
            <SimpleData name="Shape_Area">
                0.00280251016775</SimpleData>
                
            <SimpleData name="ADM3_EN">
                Bang Po</SimpleData>
                
            <SimpleData name="ADM3_TH">
                บางปอ</SimpleData>
                
            <SimpleData name="ADM3_PCODE">
                TH960104</SimpleData>
                
            <SimpleData name="ADM2_EN">
                Mueang Narathiwat</SimpleData>
                
            <SimpleData name="ADM2_TH">
                เมืองนราธิวาส</SimpleData>
                
            <SimpleData name="ADM2_PCODE">
                TH9601</SimpleData>
                
            <SimpleData name="ADM1_EN">
                Narathiwat</SimpleData>
                
            <SimpleData name="ADM1_TH">
                นราธิวาส</SimpleData>
                
            <SimpleData name="ADM1_PCODE">
                TH96</SimpleData>
                
            <SimpleData name="ADM0_EN">
                Thailand</SimpleData>
                
            <SimpleData name="ADM0_TH">
                ประเทศไทย</SimpleData>
                
            <SimpleData name="ADM0_PCODE">
                TH</SimpleData>
            
          </SchemaData>
        
        </ExtendedData>
        
        <Polygon>
            
          <outerBoundaryIs>
                
            <LinearRing>
                    
              <coordinates>
                    
                101.799673699,6.34440506000004,0
                101.80169478,6.34405416200002,0
                101.803114094,6.34410407700005,0
                101.804280836,6.34432082100005,0
                101.80526518,6.34472944400005,0
                101.805952014,6.34501769300005,0
                101.806920608,6.34522987900004,0
                101.808263186,6.34539313900007,0
                101.809628908,6.34535017000007,0
                101.810750057,6.34526840400002,0
                101.811878759,6.34492400900007,0
                101.813122652,6.34427176400004,0
                101.814472677,6.34362234900004,0
                101.815517834,6.34306944800005,0
                101.816631561,6.34256417300003,0
                101.818187596,6.34181481000007,0
                101.819721129,6.34118019600004,0
                101.820819909,6.34062869900004,0
                101.821605082,6.34032287100007,0
                101.822825975,6.33980796900005,0
                101.82346702,6.33956843600004,0
                101.824580195,6.33907444000005,0
                101.825236529,6.33874333100005,0
                101.826571426,6.33812728900006,0
                101.827380365,6.33773094500003,0
                101.828463394,6.33729417900003,0
                101.83024857,6.33665195500004,0
                101.831156085,6.33632568900003,0
                101.832033312,6.33603344700003,0
                101.833818666,6.33552899300003,0
                101.834566229,6.33526909900007,0
                101.836084343,6.33471359100002,0
                101.836701928,6.33453065000003,0
                101.837327486,6.33435894500008,0
                101.837922674,6.33419870000006,0
                101.838556089,6.33401622200006,0
                101.840177341,6.33384599500005,0
                101.839663328,6.33251151800005,0
                101.839577693,6.33226680800004,0
                101.83804591,6.32832730100006,0
                101.837893533,6.32788304700006,0
                101.837520148,6.32636384900007,0
                101.837408266,6.32565701600004,0
                101.837253162,6.32422823400003,0
                101.837102615,6.32213253000003,0
                101.837083123,6.32186118500005,0
                101.837093512,6.32106525200004,0
                101.837179626,6.32031941000002,0
                101.837187132,6.32022465000006,0
                101.837499863,6.31814482200002,0
                101.83784425,6.31646767300003,0
                101.837898156,6.31626997700005,0
                101.837984643,6.31602146100005,0
                101.83803266,6.31590167100006,0
                101.838119479,6.31570296100006,0
                101.838225791,6.31550502400006,0
                101.838304807,6.31538434000004,0
                101.838630909,6.31485689000004,0
                101.83905022,6.31431419300003,0
                101.839495145,6.31376479000005,0
                101.840236267,6.31301073900005,0
                101.840544742,6.31268895300008,0
                101.840550698,6.31268322800003,0
                101.840822512,6.31246713000007,0
                101.84093357,6.31239731700003,0
                101.841285418,6.31222441800003,0
                101.841367399,6.31218413300007,0
                101.841439672,6.31213404000005,0
                101.841845098,6.31180323200005,0
                101.842117791,6.31156414600002,0
                101.842178754,6.31149555400003,0
                101.842860062,6.31064318200004,0
                101.843867324,6.30897224400007,0
                101.844522359,6.30753904500006,0
                101.844939434,6.30658860000005,0
                101.845128747,6.30618963000006,0
                101.845352751,6.30584942400003,0
                101.846132992,6.30486751800004,0
                101.846908187,6.30386107600003,0
                101.847261963,6.30305746900007,0
                101.844138247,6.30181134900005,0
                101.842443897,6.30111578500004,0
                101.841997381,6.30093248000003,0
                101.838254508,6.30006232200003,0
                101.83353214,6.29910839900003,0
                101.830190497,6.29836957500004,0
                101.826984042,6.29794168600006,0
                101.825426278,6.29790559900005,0
                101.822116055,6.29850201500005,0
                101.821066887,6.29824089300007,0
                101.819244512,6.29865150100005,0
                101.817777661,6.29897112600003,0
                101.816890041,6.29942120500004,0
                101.816138326,6.30031583000005,0
                101.81485067,6.30085712400006,0
                101.813697236,6.30153127700004,0
                101.812700045,6.30244385200007,0
                101.811837291,6.30323339400007,0
                101.81006226,6.30417806700007,0
                101.808854112,6.30462237400008,0
                101.806283432,6.30491089100008,0
                101.804457172,6.30460902300007,0
                101.803211114,6.30461572800004,0
                101.801921029,6.30471172500006,0
                101.799966039,6.30530111100006,0
                101.798765433,6.30548567800003,0
                101.797651918,6.30531354300007,0
                101.796361825,6.30540952700005,0
                101.794717381,6.30581911300004,0
                101.793119582,6.30662920700007,0
                101.7924104,6.30716736000005,0
                101.791302599,6.30806388200006,0
                101.790236913,6.30851488600007,0
                101.788635521,6.30865705300005,0
                101.786899188,6.30853276000005,0
                101.785294934,6.30814057900005,0
                101.783600725,6.30757075500003,0
                101.781636885,6.30651253800005,0
                101.778733742,6.30456872700006,0
                101.776682097,6.30373359900005,0
                101.775390796,6.30360688900004,0
                101.773917451,6.30399738500006,0
                101.772859325,6.30460002300003,0
                101.771085817,6.30585629700005,0
                101.769714961,6.30751119800004,0
                101.768791263,6.30956449100006,0
                101.767522882,6.31375706300003,0
                101.766278002,6.31927955700007,0
                101.765647285,6.32093639100003,0
                101.764326335,6.32361523000003,0
                101.762438937,6.32692629400003,0
                101.766291184,6.32961639800004,0
                101.767352001,6.33060978300006,0
                101.769159733,6.33227063900006,0
                101.770707892,6.33351387000005,0
                101.772890092,6.33510097300007,0
                101.774377541,6.33638910700006,0
                101.775780818,6.33756079700004,0
                101.777245771,6.33885917800006,0
                101.778214707,6.33977111700005,0
                101.779656498,6.34105776000007,0
                101.781304004,6.34240655200006,0
                101.78321106,6.34414928300004,0
                101.783928173,6.34492983800004,0
                101.785827897,6.34645400500006,0
                101.787460067,6.34788193500003,0
                101.788566307,6.34901334600005,0
                101.789619162,6.35008689700004,0
                101.790145749,6.35039465400007,0
                101.790943442,6.35093418000002,0
                101.79160263,6.34997623500004,0
                101.792434267,6.34906477700002,0
                101.793257861,6.34823300000005,0
                101.793677322,6.34772587900005,0
                101.79451677,6.34690586200003,0
                101.795096511,6.34649329200005,0
                101.796171754,6.34586120300003,0
                101.797438664,6.34527892100004,0
                101.798490927,6.34478359400003,0
                101.799673699,6.34440506000004,0
              </coordinates>
                
            </LinearRing>
            
          </outerBoundaryIs>
        
        </Polygon>
        
      <styleUrl>
        #tambonStyle</styleUrl>
    </Placemark>

  </Document>
</kml>