<?xml version="1.0" encoding="UTF-8"?>
<kml xmlns="http://www.opengis.net/kml/2.2">
  <Document id="tambon_doc">
    <name>เหล่ากอหก, นาแห้ว, Loei</name>
    <description>ข้อมูลขอบเขตตำบลเหล่ากอหก อำเภอนาแห้ว จังหวัดLoei</description>
    
    <!-- Schema สำหรับข้อมูลตำบล -->
    <Schema id="tambon.schema">
      <SimpleField name="ADM3_EN" type="string">
        <displayName>Subdistrict Name (English)</displayName>
      </SimpleField>
      <SimpleField name="ADM3_TH" type="string">
        <displayName>ชื่อตำบล</displayName>
      </SimpleField>
      <SimpleField name="ADM2_EN" type="string">
        <displayName>District Name (English)</displayName>
      </SimpleField>
      <SimpleField name="ADM2_TH" type="string">
        <displayName>ชื่ออำเภอ</displayName>
      </SimpleField>
      <SimpleField name="ADM1_EN" type="string">
        <displayName>Province Name (English)</displayName>
      </SimpleField>
      <SimpleField name="ADM1_TH" type="string">
        <displayName>ชื่อจังหวัด</displayName>
      </SimpleField>
      <SimpleField name="ADM0_EN" type="string">
        <displayName>Country Name (English)</displayName>
      </SimpleField>
      <SimpleField name="ADM0_TH" type="string">
        <displayName>ชื่อประเทศ</displayName>
      </SimpleField>
    </Schema>

    <!-- Style สำหรับตำบล -->
    <Style id="tambonStyle">
      <LineStyle>
        <color>ffff0000</color>
        <width>1.5</width>
      </LineStyle>
      <PolyStyle>
        <color>33ff0000</color>
        <fill>1</fill>
        <outline>1</outline>
      </PolyStyle>
    </Style>

    <Placemark id="Loei.47">
        
        <ExtendedData>
            
          <SchemaData schemaUrl="#tambon.schema">
                
            <SimpleData name="Shape_Leng">
                0.491529102621</SimpleData>
                
            <SimpleData name="Shape_Area">
                0.00879720089921</SimpleData>
                
            <SimpleData name="ADM3_EN">
                Lao Ko Hok</SimpleData>
                
            <SimpleData name="ADM3_TH">
                เหล่ากอหก</SimpleData>
                
            <SimpleData name="ADM3_PCODE">
                TH420605</SimpleData>
                
            <SimpleData name="ADM2_EN">
                Na Haeo</SimpleData>
                
            <SimpleData name="ADM2_TH">
                นาแห้ว</SimpleData>
                
            <SimpleData name="ADM2_PCODE">
                TH4206</SimpleData>
                
            <SimpleData name="ADM1_EN">
                Loei</SimpleData>
                
            <SimpleData name="ADM1_TH">
                เลย</SimpleData>
                
            <SimpleData name="ADM1_PCODE">
                TH42</SimpleData>
                
            <SimpleData name="ADM0_EN">
                Thailand</SimpleData>
                
            <SimpleData name="ADM0_TH">
                ประเทศไทย</SimpleData>
                
            <SimpleData name="ADM0_PCODE">
                TH</SimpleData>
            
          </SchemaData>
        
        </ExtendedData>
        
        <Polygon>
            
          <outerBoundaryIs>
                
            <LinearRing>
                    
              <coordinates>
                    
                100.904429948,17.591678625,0
                100.904506693,17.5916148690001,0
                100.904699876,17.5913827590001,0
                100.90475756,17.5912721510001,0
                100.904846388,17.5910602650001,0
                100.904928368,17.5906744640001,0
                100.904946696,17.590177678,0
                100.905005484,17.5893474280001,0
                100.905033353,17.5889539,0
                100.905128831,17.5884997630001,0
                100.905228937,17.5882257440001,0
                100.905265077,17.5881312820001,0
                100.905511409,17.587774349,0
                100.905557742,17.587717082,0
                100.905726665,17.5875566550001,0
                100.906560607,17.586652433,0
                100.90698909,17.5861878370001,0
                100.907421883,17.585718559,0
                100.907944997,17.585192793,0
                100.908993088,17.5843193810001,0
                100.909659916,17.583874447,0
                100.909740397,17.5838251160001,0
                100.909783717,17.5837924160001,0
                100.910227025,17.5834578720001,0
                100.911097478,17.582643035,0
                100.911586842,17.5821849340001,0
                100.912105842,17.581824544,0
                100.91236601,17.5817106110001,0
                100.912864274,17.581541353,0
                100.913519537,17.5813568730001,0
                100.914175807,17.5812682980001,0
                100.91455374,17.5812101810001,0
                100.915094503,17.5812680110001,0
                100.91568879,17.5814172950001,0
                100.916713853,17.5818550000001,0
                100.916929361,17.581923256,0
                100.916956295,17.5819275100001,0
                100.917383267,17.581949771,0
                100.917600807,17.581938173,0
                100.917806606,17.581834128,0
                100.917842392,17.5818160370001,0
                100.918086939,17.5816227940001,0
                100.918185871,17.5814637340001,0
                100.918847512,17.580399936,0
                100.918874836,17.5803258490001,0
                100.918885808,17.580005708,0
                100.918829968,17.579879755,0
                100.918759884,17.5797216720001,0
                100.91843434,17.579334294,0
                100.916690596,17.577707595,0
                100.916613166,17.5775959380001,0
                100.916526286,17.577305353,0
                100.916523386,17.5770301260001,0
                100.916562284,17.5769100090001,0
                100.916596825,17.5768033570001,0
                100.916743776,17.576633111,0
                100.917138946,17.5762463400001,0
                100.917610216,17.5759785060001,0
                100.918048044,17.5758435110001,0
                100.923199931,17.573650554,0
                100.924480918,17.5731258640001,0
                100.924564409,17.5730669590001,0
                100.924760714,17.572928469,0
                100.924986176,17.5726758390001,0
                100.925819154,17.571589691,0
                100.926061874,17.571312203,0
                100.927460897,17.569739382,0
                100.927684713,17.5695349330001,0
                100.927822921,17.569408692,0
                100.928005212,17.569283113,0
                100.928158134,17.5692395890001,0
                100.928377113,17.569267417,0
                100.92855191,17.5693472830001,0
                100.928639551,17.5694267420001,0
                100.928785093,17.569734324,0
                100.928796389,17.569764751,0
                100.928812534,17.569808235,0
                100.928880775,17.569992078,0
                100.928944775,17.5701644920001,0
                100.928974514,17.5702228640001,0
                100.928991753,17.570245582,0
                100.929012038,17.5702681070001,0
                100.929020164,17.5702765070001,0
                100.929059822,17.5703175080001,0
                100.929085234,17.5703387350001,0
                100.929169755,17.570395911,0
                100.92922627,17.570415612,0
                100.929325797,17.5704418400001,0
                100.929398886,17.570454453,0
                100.929538564,17.5704518520001,0
                100.929543284,17.57045105,0
                100.929651893,17.5704431940001,0
                100.929840916,17.5704413490001,0
                100.929962544,17.570448689,0
                100.930057559,17.570474919,0
                100.930079223,17.5704828410001,0
                100.930134753,17.5705200730001,0
                100.930199153,17.5705678310001,0
                100.930236445,17.57060542,0
                100.930335863,17.5707674290001,0
                100.930383937,17.570844021,0
                100.930427017,17.5708902860001,0
                100.930483709,17.570920066,0
                100.930583369,17.5709327340001,0
                100.930604223,17.5709351940001,0
                100.930616855,17.5709346990001,0
                100.930685709,17.5709260090001,0
                100.93073972,17.5709050470001,0
                100.930783998,17.5708917050001,0
                100.930844166,17.5708735700001,0
                100.930962308,17.5708379700001,0
                100.931049889,17.570805792,0
                100.93116282,17.570759357,0
                100.931294551,17.5707036760001,0
                100.931478073,17.570629352,0
                100.931561097,17.5705851660001,0
                100.931615958,17.5705426260001,0
                100.931711256,17.570446008,0
                100.93175432,17.570386403,0
                100.931755622,17.5703843150001,0
                100.931826275,17.570242244,0
                100.931842085,17.5701951610001,0
                100.931897543,17.5700767610001,0
                100.9319135,17.5700442090001,0
                100.931955342,17.5699403850001,0
                100.931970596,17.569893762,0
                100.931980046,17.5698357050001,0
                100.932011886,17.569712172,0
                100.932032563,17.5694408430001,0
                100.932032322,17.5694181540001,0
                100.932031167,17.56930937,0
                100.932039465,17.569200499,0
                100.93205501,17.569070464,0
                100.932058956,17.5690507320001,0
                100.932107006,17.568948146,0
                100.932126538,17.5689243160001,0
                100.932179989,17.568877216,0
                100.932231423,17.5688492140001,0
                100.932379981,17.5688192010001,0
                100.932434301,17.568823964,0
                100.932488797,17.568828743,0
                100.9325367,17.568851135,0
                100.932589594,17.56889792,0
                100.93266307,17.5689784730001,0
                100.932692901,17.569013259,0
                100.932719248,17.569043982,0
                100.932962364,17.569327473,0
                100.932997869,17.569362853,0
                100.933339453,17.5697032200001,0
                100.933542181,17.5698237730001,0
                100.933642795,17.5698836010001,0
                100.933700839,17.569898605,0
                100.933869102,17.5699196900001,0
                100.933894442,17.5699228660001,0
                100.934266773,17.569919225,0
                100.934962589,17.569944192,0
                100.935459811,17.5699816860001,0
                100.93570313,17.570021664,0
                100.936310519,17.570036901,0
                100.936959757,17.569921547,0
                100.93699649,17.5699150180001,0
                100.937441808,17.5697438660001,0
                100.937690379,17.569727798,0
                100.93773142,17.5697251460001,0
                100.937897096,17.569731464,0
                100.937991871,17.569746552,0
                100.938213965,17.569876692,0
                100.938363455,17.5699810520001,0
                100.938844754,17.570389544,0
                100.938942555,17.570508836,0
                100.938985896,17.5705827250001,0
                100.939138802,17.5708433840001,0
                100.939200585,17.570976291,0
                100.939201426,17.570979247,0
                100.939294562,17.571465989,0
                100.939508336,17.5724533540001,0
                100.939610613,17.5726812980001,0
                100.93964793,17.572744829,0
                100.939762578,17.572858447,0
                100.939763071,17.572858813,0
                100.93982904,17.5729078030001,0
                100.939946773,17.572995233,0
                100.940061163,17.573032611,0
                100.94021057,17.573081428,0
                100.940333914,17.5731217320001,0
                100.940389251,17.5731398140001,0
                100.940539248,17.5731419850001,0
                100.940607282,17.5731429690001,0
                100.940654911,17.573143658,0
                100.940735153,17.573144819,0
                100.94087995,17.573146911,0
                100.941021958,17.573112596,0
                100.941043329,17.5731074300001,0
                100.941142978,17.5730833540001,0
                100.941489344,17.5729750570001,0
                100.941676601,17.5729165120001,0
                100.94177801,17.5728953670001,0
                100.941812073,17.572891236,0
                100.943447197,17.572960864,0
                100.943652804,17.573004919,0
                100.943997603,17.5731520320001,0
                100.944197081,17.573221555,0
                100.944389902,17.5732494440001,0
                100.944638222,17.57324104,0
                100.944855117,17.573197211,0
                100.944995201,17.573193669,0
                100.945026761,17.573192867,0
                100.945185014,17.5731888650001,0
                100.945382568,17.573239965,0
                100.945539337,17.5732977050001,0
                100.945766367,17.5734083620001,0
                100.946310926,17.573673781,0
                100.946469522,17.5737316510001,0
                100.94652317,17.573741394,0
                100.946588297,17.573729132,0
                100.94662068,17.573709088,0
                100.946653331,17.573667201,0
                100.946669503,17.573508501,0
                100.946670726,17.5734379570001,0
                100.946671656,17.5733840230001,0
                100.946733913,17.572885544,0
                100.946794523,17.5726738490001,0
                100.946873537,17.5725490990001,0
                100.947019056,17.572437091,0
                100.94716779,17.5723926920001,0
                100.947317364,17.5723787330001,0
                100.947462535,17.572365183,0
                100.947498237,17.572368141,0
                100.947712535,17.5724161790001,0
                100.947789037,17.5724640170001,0
                100.947858452,17.572517362,0
                100.947959926,17.5726424260001,0
                100.947985047,17.5728151710001,0
                100.947986951,17.572828255,0
                100.947982602,17.5728413370001,0
                100.947960228,17.5729086480001,0
                100.947778867,17.57345424,0
                100.947774733,17.573466673,0
                100.947770021,17.573610791,0
                100.947820898,17.573747729,0
                100.947936716,17.573856558,0
                100.948053546,17.573966344,0
                100.94805548,17.573968168,0
                100.94805858,17.573970135,0
                100.948498652,17.5742502750001,0
                100.948584816,17.5743051260001,0
                100.948641661,17.5743290790001,0
                100.949169513,17.5745514930001,0
                100.949527051,17.5746260070001,0
                100.950096719,17.574638399,0
                100.950541422,17.5745989660001,0
                100.950906428,17.57452389,0
                100.951255623,17.5744084070001,0
                100.951424378,17.5743525980001,0
                100.952037934,17.5741171220001,0
                100.952433916,17.573969592,0
                100.95284512,17.5738772070001,0
                100.952962825,17.573850764,0
                100.953009339,17.573842498,0
                100.953418583,17.5737697870001,0
                100.953432838,17.5737713560001,0
                100.953624687,17.5737924360001,0
                100.953806889,17.573881074,0
                100.953842207,17.57390968,0
                100.953884497,17.5739598440001,0
                100.954098551,17.57431924,0
                100.954340373,17.574696944,0
                100.954363933,17.5747337400001,0
                100.954547289,17.5749117670001,0
                100.954762664,17.5749906410001,0
                100.954830746,17.575007208,0
                100.954982864,17.5749987520001,0
                100.95519236,17.5749341110001,0
                100.955387067,17.5748418090001,0
                100.955523047,17.574680567,0
                100.955585952,17.574464429,0
                100.955596712,17.5741167240001,0
                100.955606051,17.573636938,0
                100.955635055,17.573371884,0
                100.955692311,17.5732158650001,0
                100.9557411,17.573154001,0
                100.955767215,17.5731208930001,0
                100.95592335,17.573022419,0
                100.955990335,17.572993544,0
                100.956128227,17.57299218,0
                100.956309855,17.5730320980001,0
                100.956608113,17.5731334270001,0
                100.957068201,17.573455622,0
                100.958225156,17.574549544,0
                100.959317214,17.5753094200001,0
                100.959445307,17.5753985480001,0
                100.959676434,17.5755000930001,0
                100.959843109,17.575528924,0
                100.960097158,17.5755309140001,0
                100.960227296,17.575518581,0
                100.960344517,17.575494883,0
                100.960777562,17.575323741,0
                100.961109434,17.57518141,0
                100.961297338,17.5751308800001,0
                100.961597372,17.5751123640001,0
                100.962453933,17.575335823,0
                100.962852043,17.5753950490001,0
                100.963105359,17.5754327330001,0
                100.963210668,17.5754239140001,0
                100.963591955,17.575391973,0
                100.963670194,17.5753854180001,0
                100.963904561,17.575327472,0
                100.964142189,17.575268723,0
                100.964226812,17.575247796,0
                100.96462426,17.5751204490001,0
                100.964754272,17.5750787920001,0
                100.964974563,17.574969283,0
                100.965004831,17.5749440820001,0
                100.965148208,17.5748247120001,0
                100.965209183,17.5747392210001,0
                100.965306091,17.5745140610001,0
                100.965384456,17.574066401,0
                100.965408491,17.573929074,0
                100.965617612,17.5724879250001,0
                100.965831732,17.5719241470001,0
                100.965983828,17.571706106,0
                100.966024474,17.5716478410001,0
                100.966175562,17.5714892030001,0
                100.966281316,17.571423168,0
                100.966509507,17.5712806710001,0
                100.966789152,17.5711840660001,0
                100.966917152,17.571185213,0
                100.96710248,17.57123483,0
                100.967186014,17.571257195,0
                100.967361723,17.571355958,0
                100.96753068,17.5714983830001,0
                100.966787551,17.5705653790001,0
                100.965727622,17.570002201,0
                100.963334749,17.5690212490001,0
                100.960110664,17.5679746220001,0
                100.959957816,17.5679250000001,0
                100.95758752,17.567279297,0
                100.952274207,17.5664837460001,0
                100.949180368,17.5662426050001,0
                100.947395786,17.565709756,0
                100.946268402,17.564922729,0
                100.945887213,17.564155882,0
                100.945791736,17.5632761410001,0
                100.945897666,17.5616538900001,0
                100.945265446,17.5597682690001,0
                100.94496558,17.557161788,0
                100.943839302,17.5535848850001,0
                100.942855329,17.550593694,0
                100.941870698,17.5475372660001,0
                100.939855079,17.543447158,0
                100.938731787,17.540131119,0
                100.938167036,17.538179562,0
                100.937110423,17.5347323830001,0
                100.936549478,17.533235394,0
                100.936073016,17.531588761,0
                100.935443199,17.5299069230001,0
                100.935350748,17.528403315,0
                100.935026901,17.5267184910001,0
                100.934627349,17.5251077950001,0
                100.9340397,17.523792492,0
                100.932876868,17.5223360140001,0
                100.931640678,17.521173807,0
                100.930780328,17.519384111,0
                100.93007684,17.5179598330001,0
                100.929802945,17.517375369,0
                100.929187975,17.5170877910001,0
                100.928383351,17.516948832,0
                100.927541261,17.5168836280001,0
                100.92704296,17.5167783850001,0
                100.926734315,17.516524513,0
                100.926115099,17.5158333110001,0
                100.924997586,17.515036858,0
                100.924570358,17.5144171810001,0
                100.924100253,17.5133575680001,0
                100.923814251,17.5124753470001,0
                100.92366842,17.5117319620001,0
                100.923386725,17.510429287,0
                100.923025394,17.5088351850001,0
                100.922703004,17.5075364900001,0
                100.922640209,17.50734278,0
                100.922592899,17.5072632390001,0
                100.922561217,17.507220612,0
                100.922478804,17.5071334420001,0
                100.922309971,17.5069746770001,0
                100.922204375,17.506903046,0
                100.921923368,17.506797358,0
                100.921718078,17.5067349190001,0
                100.921545669,17.5066595070001,0
                100.921401229,17.50656023,0
                100.921261273,17.506450004,0
                100.921206627,17.5064007140001,0
                100.920859909,17.505910155,0
                100.920629633,17.505660703,0
                100.92044984,17.5055057380001,0
                100.920210772,17.505360841,0
                100.920082985,17.505299113,0
                100.920032239,17.505281295,0
                100.919838341,17.505240982,0
                100.919735699,17.505207489,0
                100.919674275,17.505177491,0
                100.919634057,17.505153906,0
                100.919358411,17.504924036,0
                100.9187658,17.5044298330001,0
                100.918533417,17.504194173,0
                100.918505795,17.50413401,0
                100.918486022,17.5040631860001,0
                100.918480537,17.5040367170001,0
                100.918492702,17.5038721280001,0
                100.91851298,17.5036416950001,0
                100.918518571,17.503481,0
                100.918552907,17.503288803,0
                100.918574393,17.503168535,0
                100.918573697,17.503151072,0
                100.918565732,17.5031175350001,0
                100.918539947,17.503074037,0
                100.918463934,17.5030176440001,0
                100.918416032,17.502979171,0
                100.918372294,17.502933322,0
                100.918243265,17.5027396040001,0
                100.918125147,17.5025269070001,0
                100.918101992,17.502458556,0
                100.918094272,17.502435759,0
                100.91809137,17.5024235220001,0
                100.918090833,17.502409071,0
                100.918087941,17.5023313400001,0
                100.918095791,17.502266525,0
                100.91813437,17.5021340480001,0
                100.918239984,17.50186825,0
                100.918289623,17.501609398,0
                100.918311619,17.5013528920001,0
                100.918300283,17.501153416,0
                100.918279014,17.5010961090001,0
                100.918099524,17.500832023,0
                100.918003962,17.5005613480001,0
                100.917998864,17.500526875,0
                100.918000382,17.5004516760001,0
                100.918010699,17.5003845960001,0
                100.918049007,17.50026267,0
                100.918159678,17.499962431,0
                100.918172005,17.499915145,0
                100.918180409,17.4997317360001,0
                100.918168216,17.499670295,0
                100.918163618,17.4996471380001,0
                100.918160667,17.499641339,0
                100.9181352,17.499591319,0
                100.918084394,17.4995250330001,0
                100.918025187,17.4994534840001,0
                100.917959539,17.499397726,0
                100.917912819,17.499367712,0
                100.91790868,17.499361333,0
                100.917865467,17.499329419,0
                100.917477444,17.499085769,0
                100.917142873,17.498799327,0
                100.916814801,17.498460396,0
                100.916777786,17.4984031610001,0
                100.916598701,17.497873839,0
                100.916396438,17.497462656,0
                100.916185181,17.497137034,0
                100.915678293,17.4964628650001,0
                100.915498862,17.4963411300001,0
                100.915371882,17.496225827,0
                100.915350131,17.496196921,0
                100.915271966,17.4959396830001,0
                100.915146894,17.495337803,0
                100.915095376,17.495095029,0
                100.915035073,17.4945838400001,0
                100.914860024,17.4939349540001,0
                100.914728985,17.493645884,0
                100.914658882,17.493427287,0
                100.91456613,17.4931380740001,0
                100.914527571,17.4930783770001,0
                100.914314339,17.492862266,0
                100.914084337,17.492636545,0
                100.913688321,17.492151246,0
                100.913417447,17.4918024510001,0
                100.912907605,17.4908433790001,0
                100.912620944,17.4904045110001,0
                100.912354282,17.489984442,0
                100.912131356,17.4894879760001,0
                100.911863947,17.4889966870001,0
                100.911702036,17.488656335,0
                100.911693664,17.488328758,0
                100.911720473,17.488053074,0
                100.911757623,17.48782003,0
                100.911746736,17.487725159,0
                100.911677016,17.4876830910001,0
                100.911577712,17.487650807,0
                100.911507744,17.4875850010001,0
                100.911437577,17.487500196,0
                100.911316247,17.487254434,0
                100.911255483,17.487122051,0
                100.911173587,17.486861661,0
                100.911098076,17.4867389250001,0
                100.911066901,17.486596761,0
                100.911065363,17.486449565,0
                100.911073025,17.4862358010001,0
                100.911001921,17.486060782,0
                100.910949415,17.4857716170001,0
                100.910874252,17.4856821120001,0
                100.910774499,17.4856070920001,0
                100.910684346,17.4855034880001,0
                100.910553666,17.4853100510001,0
                100.910481968,17.485078054,0
                100.910374045,17.484694446,0
                100.910272011,17.4844010050001,0
                100.910169933,17.48410282,0
                100.909404882,17.483815753,0
                100.909333428,17.4837385810001,0
                100.908040147,17.4832914510001,0
                100.907919377,17.483193434,0
                100.907812763,17.4830931540001,0
                100.907655101,17.482938674,0
                100.90759418,17.48282461,0
                100.907569549,17.4825467490001,0
                100.907598572,17.48195552,0
                100.907630486,17.4811999250001,0
                100.907567117,17.4807774700001,0
                100.907504182,17.4804959300001,0
                100.907376021,17.480015957,0
                100.907143716,17.479672056,0
                100.906726081,17.4792708410001,0
                100.906194008,17.4788622790001,0
                100.90537871,17.47828759,0
                100.904697115,17.477880457,0
                100.904365798,17.477785011,0
                100.903983936,17.477819755,0
                100.903772351,17.477821782,0
                100.90198839,17.4779486140001,0
                100.901888009,17.477941131,0
                100.901670175,17.477924893,0
                100.90148658,17.4779112050001,0
                100.901169046,17.477829824,0
                100.900762412,17.4776395430001,0
                100.9003104,17.4773146210001,0
                100.900106164,17.477130845,0
                100.899963414,17.4769380390001,0
                100.899747241,17.47602277,0
                100.899625784,17.4757678020001,0
                100.899157909,17.474323494,0
                100.89882861,17.473883147,0
                100.898024009,17.4731491380001,0
                100.897199351,17.4725154010001,0
                100.895976185,17.4716237540001,0
                100.895948839,17.471605303,0
                100.895762813,17.4714062910001,0
                100.895508588,17.4710833460001,0
                100.895296524,17.4705496300001,0
                100.895075028,17.469547117,0
                100.894595324,17.4673438350001,0
                100.894337542,17.465579904,0
                100.893872036,17.4655750330001,0
                100.893764588,17.4655506830001,0
                100.893485389,17.4654328570001,0
                100.893214006,17.465249225,0
                100.892984669,17.46496174,0
                100.892775713,17.4645602580001,0
                100.892695887,17.464136857,0
                100.892691611,17.463723083,0
                100.892422785,17.462742833,0
                100.892272785,17.4624434720001,0
                100.892257693,17.4624133520001,0
                100.891897588,17.462107611,0
                100.891769377,17.4620192360001,0
                100.890794761,17.461661705,0
                100.889651375,17.461234889,0
                100.889210613,17.461169956,0
                100.888658076,17.461129127,0
                100.888385654,17.461093315,0
                100.888120432,17.460980638,0
                100.887838981,17.4608450740001,0
                100.887557129,17.460671115,0
                100.88728455,17.4606199420001,0
                100.886828498,17.460624269,0
                100.886483905,17.460573778,0
                100.886243253,17.4605146230001,0
                100.886106525,17.4604468050001,0
                100.886009406,17.4603402070001,0
                100.885870781,17.4600880880001,0
                100.885795288,17.4599583140001,0
                100.885595515,17.459551321,0
                100.885576946,17.45951654,0
                100.885521775,17.459464623,0
                100.88543408,17.4594374910001,0
                100.885189168,17.4593524160001,0
                100.884940654,17.4592708710001,0
                100.884863667,17.459222658,0
                100.884804714,17.4591567950001,0
                100.884767536,17.4590837370001,0
                100.884749019,17.458967527,0
                100.884954443,17.4574643620001,0
                100.884935313,17.4572577930001,0
                100.884872852,17.4571080370001,0
                100.884846633,17.457055204,0
                100.884669584,17.4568393660001,0
                100.884466887,17.4566486210001,0
                100.884401748,17.456610401,0
                100.884128809,17.4565151,0
                100.8837646,17.456451631,0
                100.88339191,17.45636302,0
                100.883264156,17.456336261,0
                100.883169106,17.4563022040001,0
                100.883077523,17.456250631,0
                100.883007823,17.456202348,0
                100.882904697,17.45609146,0
                100.882790393,17.4559097380001,0
                100.882688928,17.455687003,0
                100.882508803,17.4553495920001,0
                100.881905723,17.4542198930001,0
                100.881760687,17.4541214270001,0
                100.881653843,17.4540714120001,0
                100.881592304,17.454012473,0
                100.881558938,17.453954378,0
                100.881501277,17.4537936510001,0
                100.881330033,17.4534803970001,0
                100.881223898,17.4532740510001,0
                100.881021757,17.4530686050001,0
                100.880222217,17.4523465780001,0
                100.880053974,17.4522744810001,0
                100.880012921,17.452262783,0
                100.87802067,17.4521240030001,0
                100.877854281,17.4521124130001,0
                100.877731832,17.4520991470001,0
                100.877567518,17.4520587480001,0
                100.877301952,17.4519609380001,0
                100.877193056,17.451891357,0
                100.877163675,17.4518716310001,0
                100.876967476,17.4517398880001,0
                100.876683917,17.4513969700001,0
                100.876180967,17.450725893,0
                100.875946832,17.4505207440001,0
                100.875797468,17.4504107980001,0
                100.875700527,17.450365414,0
                100.875557221,17.450298317,0
                100.875352138,17.450188381,0
                100.875175575,17.4500187520001,0
                100.874998051,17.449754738,0
                100.874784183,17.4494980580001,0
                100.874652292,17.4494223940001,0
                100.874524223,17.4493641710001,0
                100.874346271,17.4493274110001,0
                100.874246803,17.4493068690001,0
                100.874166501,17.449303093,0
                100.873974002,17.449295201,0
                100.873768084,17.4493135590001,0
                100.873590372,17.449337213,0
                100.873391536,17.4494110530001,0
                100.873238419,17.4494796000001,0
                100.87308551,17.4495682840001,0
                100.872696141,17.449779978,0
                100.871731248,17.450460139,0
                100.870170908,17.4514333560001,0
                100.869908145,17.451537117,0
                100.869659363,17.451600319,0
                100.869295968,17.4516171550001,0
                100.868911461,17.4516207670001,0
                100.868893662,17.451620325,0
                100.868522082,17.451564461,0
                100.86846221,17.451548551,0
                100.868179761,17.4514734950001,0
                100.867625699,17.4513835610001,0
                100.867547809,17.4513842920001,0
                100.867417301,17.4513855170001,0
                100.867237332,17.451391528,0
                100.86712948,17.4513894950001,0
                100.867084423,17.4513886450001,0
                100.866964253,17.451369689,0
                100.866885738,17.4513386670001,0
                100.866605619,17.451233297,0
                100.866445227,17.451170502,0
                100.866380767,17.4511536420001,0
                100.86630686,17.451138605,0
                100.866243983,17.4511339490001,0
                100.866156686,17.4511452580001,0
                100.866110006,17.4511757600001,0
                100.866109975,17.451175786,0
                100.866074278,17.451208041,0
                100.86601173,17.4512746660001,0
                100.865889735,17.4514345270001,0
                100.865759632,17.4516905020001,0
                100.865556091,17.452033683,0
                100.865520527,17.4520772170001,0
                100.865475701,17.45209492,0
                100.865402817,17.452114378,0
                100.865323187,17.452115125,0
                100.865276141,17.4521297200001,0
                100.865252745,17.452149757,0
                100.865229589,17.4521924430001,0
                100.865180657,17.452311804,0
                100.865150635,17.452382401,0
                100.865112959,17.4524119160001,0
                100.865051097,17.452430513,0
                100.865007841,17.4524309180001,0
                100.864940988,17.452431545,0
                100.864830953,17.452440127,0
                100.86475371,17.4524502850001,0
                100.864247617,17.452701652,0
                100.864060492,17.4528644650001,0
                100.863827664,17.453173667,0
                100.863778796,17.453306035,0
                100.863730703,17.4534362970001,0
                100.863683338,17.453555426,0
                100.86365304,17.4535889090001,0
                100.863536309,17.453649726,0
                100.863481225,17.453655054,0
                100.863365152,17.4536561420001,0
                100.863329731,17.453651214,0
                100.863213453,17.4536223320001,0
                100.863117822,17.453585579,0
                100.863109099,17.453582226,0
                100.863061386,17.4535638890001,0
                100.863014885,17.4535561000001,0
                100.862960213,17.4535632390001,0
                100.862949087,17.453564693,0
                100.862913086,17.4535797990001,0
                100.862830315,17.45365344,0
                100.862703925,17.453785022,0
                100.862656322,17.4538298160001,0
                100.862610334,17.453860078,0
                100.862574727,17.4538761470001,0
                100.862536397,17.453887443,0
                100.862504675,17.453896786,0
                100.862406303,17.4539476640001,0
                100.862333413,17.4539855800001,0
                100.86232468,17.4539901260001,0
                100.862309291,17.453994569,0
                100.862253311,17.45400155,0
                100.862240274,17.454000836,0
                100.862189031,17.453988311,0
                100.862169812,17.453979851,0
                100.862125199,17.4539428040001,0
                100.862118604,17.4539352680001,0
                100.862088338,17.453900683,0
                100.862040331,17.4537862350001,0
                100.862018693,17.4537250590001,0
                100.861978704,17.453611966,0
                100.861951947,17.4535397830001,0
                100.861909478,17.4534577520001,0
                100.86184619,17.4533759170001,0
                100.861725527,17.453282131,0
                100.861390096,17.453052975,0
                100.861227366,17.4529171230001,0
                100.861030867,17.4527865760001,0
                100.86088967,17.452720459,0
                100.86081653,17.4526936670001,0
                100.860717347,17.4526646200001,0
                100.860618238,17.4526430660001,0
                100.860594646,17.4526426080001,0
                100.859350605,17.4520916550001,0
                100.859224494,17.452035806,0
                100.858967771,17.451884244,0
                100.858580425,17.451765773,0
                100.858270836,17.451761049,0
                100.857960438,17.4517734070001,0
                100.8576788,17.4517846210001,0
                100.857461634,17.4517932690001,0
                100.857394868,17.4517914750001,0
                100.857069972,17.451782742,0
                100.857065092,17.451782049,0
                100.856929228,17.4517283640001,0
                100.856845782,17.451711662,0
                100.856783308,17.4517097470001,0
                100.856715728,17.451717871,0
                100.856663736,17.4517233510001,0
                100.856606902,17.4517238820001,0
                100.856567518,17.451713705,0
                100.856496772,17.4516824470001,0
                100.856337079,17.451589019,0
                100.856171183,17.4515164540001,0
                100.85613581,17.451500981,0
                100.856025963,17.451447054,0
                100.85591359,17.4514006420001,0
                100.85588497,17.451390524,0
                100.855842824,17.4513756270001,0
                100.855837853,17.451373872,0
                100.8557127,17.451350061,0
                100.855673534,17.451350426,0
                100.85564129,17.451344798,0
                100.855613645,17.4513334960001,0
                100.855555867,17.451281581,0
                100.855503394,17.4512396100001,0
                100.855441908,17.4512073080001,0
                100.855436994,17.45120511,0
                100.855354598,17.451193543,0
                100.855335176,17.4511937240001,0
                100.855289541,17.45119415,0
                100.855224794,17.4512247270001,0
                100.85516983,17.4512582850001,0
                100.855087718,17.4513084330001,0
                100.854990496,17.4513719550001,0
                100.854986177,17.45137478,0
                100.854968045,17.4513925250001,0
                100.85493028,17.4514372800001,0
                100.854909266,17.4515045150001,0
                100.854907829,17.451512408,0
                100.85490633,17.451652037,0
                100.854907141,17.4517321280001,0
                100.854893312,17.451838095,0
                100.854879164,17.4519126000001,0
                100.854859029,17.451984302,0
                100.854854142,17.4520901860001,0
                100.854861257,17.4522045420001,0
                100.855032972,17.452680652,0
                100.855077964,17.453003472,0
                100.855096481,17.4530662350001,0
                100.855087945,17.453106357,0
                100.854992442,17.4533875860001,0
                100.854862248,17.4537749690001,0
                100.854810579,17.453969971,0
                100.854760061,17.4542793790001,0
                100.854718949,17.4546344730001,0
                100.8547147,17.4548032810001,0
                100.854740996,17.455046183,0
                100.854741611,17.455106884,0
                100.854742154,17.4551605950001,0
                100.854719273,17.455255203,0
                100.854663258,17.455315795,0
                100.854601025,17.455350706,0
                100.854538619,17.45536845,0
                100.854470073,17.455369089,0
                100.85438972,17.4553418880001,0
                100.854371388,17.455335685,0
                100.854287594,17.4553021350001,0
                100.854236849,17.4552940300001,0
                100.854079163,17.45532124,0
                100.853731681,17.455441766,0
                100.853607042,17.455494414,0
                100.85356468,17.4555270760001,0
                100.853370456,17.4556768370001,0
                100.853278711,17.4557406210001,0
                100.853210288,17.4557527010001,0
                100.853147701,17.455753284,0
                100.853007321,17.4557231200001,0
                100.852806674,17.4556277360001,0
                100.852543187,17.4555071830001,0
                100.852395889,17.455382695,0
                100.852140645,17.4551934090001,0
                100.851885603,17.455024156,0
                100.851747509,17.4549253220001,0
                100.851639245,17.454829069,0
                100.851576029,17.454766728,0
                100.851480178,17.454718986,0
                100.851304865,17.4546731020001,0
                100.850949241,17.454610299,0
                100.850397694,17.454559494,0
                100.850337747,17.454564164,0
                100.85032358,17.454565266,0
                100.850265656,17.454601402,0
                100.850206812,17.4547208270001,0
                100.850182586,17.454769996,0
                100.850152034,17.4548503180001,0
                100.849955482,17.455367102,0
                100.849860401,17.4555979190001,0
                100.849889539,17.45595754,0
                100.84988747,17.4565108680001,0
                100.849878039,17.4565868490001,0
                100.849837747,17.456638636,0
                100.84977197,17.4566931090001,0
                100.849680551,17.4567331330001,0
                100.849586373,17.4567535910001,0
                100.84952774,17.456756586,0
                100.849448892,17.456779354,0
                100.849354912,17.4568194020001,0
                100.84924561,17.4568571410001,0
                100.849138761,17.4568850640001,0
                100.849108929,17.456890346,0
                100.848978529,17.4569134540001,0
                100.848978345,17.456913485,0
                100.848810329,17.456946873,0
                100.848703481,17.456974802,0
                100.848503092,17.4570868280001,0
                100.848371278,17.457168848,0
                100.848318211,17.457218305,0
                100.848285399,17.457252887,0
                100.848187724,17.457432516,0
                100.848064999,17.457656448,0
                100.847914804,17.4579393920001,0
                100.847874906,17.458030352,0
                100.847860341,17.4581039340001,0
                100.847866628,17.4582213900001,0
                100.847880569,17.458338772,0
                100.847881631,17.4584440410001,0
                100.847865007,17.458566606,0
                100.847847772,17.458627974,0
                100.847822732,17.458674724,0
                100.847756913,17.458724299,0
                100.847586833,17.4588066740001,0
                100.847528791,17.45886842,0
                100.847508856,17.4589151230001,0
                100.847504322,17.4589714700001,0
                100.847505062,17.459044911,0
                100.847506173,17.4591550710001,0
                100.847507333,17.459270132,0
                100.847488086,17.4593853800001,0
                100.847448044,17.459461645,0
                100.84738286,17.459574871,0
                100.847278978,17.459644387,0
                100.847103899,17.459736595,0
                100.847002196,17.459769366,0
                100.846910424,17.4597751150001,0
                100.846813621,17.459788259,0
                100.846760304,17.459813233,0
                100.846681782,17.459867828,0
                100.846596073,17.4599690000001,0
                100.84653285,17.460023446,0
                100.846421432,17.460105275,0
                100.84634764,17.4601230980001,0
                100.846278772,17.4601237370001,0
                100.846153793,17.4601248970001,0
                100.846095152,17.4601278920001,0
                100.846044314,17.4601455000001,0
                100.845996272,17.4601875660001,0
                100.845956007,17.4602418010001,0
                100.845936438,17.4603252220001,0
                100.845915013,17.4604772120001,0
                100.845895022,17.460574922,0
                100.845845932,17.460653721,0
                100.845792047,17.460706449,0
                100.845629508,17.460777599,0
                100.845430734,17.460853437,0
                100.845308437,17.460867625,0
                100.845199697,17.4608773410001,0
                100.845122785,17.460895465,0
                100.844969669,17.4610013440001,0
                100.844682619,17.4613173820001,0
                100.844556527,17.461405599,0
                100.844362598,17.4615118580001,0
                100.844141501,17.46162272,0
                100.844079873,17.461692688,0
                100.844029409,17.461749979,0
                100.843962139,17.461824597,0
                100.843858461,17.4618864930001,0
                100.843288956,17.4620745710001,0
                100.842931586,17.4622010150001,0
                100.842733135,17.462271233,0
                100.842388925,17.4623919250001,0
                100.842376138,17.462396406,0
                100.84222733,17.4624804850001,0
                100.84175388,17.462750369,0
                100.841456218,17.462914164,0
                100.841378777,17.4629696920001,0
                100.841204075,17.4630949530001,0
                100.841009797,17.463166388,0
                100.840847516,17.463263646,0
                100.840808017,17.4633107720001,0
                100.840727548,17.463406766,0
                100.840704116,17.4634347190001,0
                100.840632699,17.4635485420001,0
                100.840466453,17.4637024240001,0
                100.840416557,17.463748799,0
                100.840337759,17.4639831980001,0
                100.840227372,17.464311545,0
                100.840090487,17.46475682,0
                100.839913444,17.4650421260001,0
                100.839734668,17.465154781,0
                100.839428897,17.4652754580001,0
                100.839286665,17.465331593,0
                100.838762308,17.465583113,0
                100.838344876,17.465766769,0
                100.838070789,17.465823841,0
                100.8375825,17.4658283540001,0
                100.837223578,17.4659180090001,0
                100.836943207,17.466069868,0
                100.836852921,17.466118766,0
                100.836707378,17.466319045,0
                100.836586292,17.466441902,0
                100.836168067,17.467025436,0
                100.835892663,17.4674725880001,0
                100.835512382,17.4678209140001,0
                100.835061143,17.468133338,0
                100.83501763,17.4681885700001,0
                100.834836354,17.4684186750001,0
                100.834783611,17.4684856220001,0
                100.834277707,17.4708620110001,0
                100.833854721,17.4728360190001,0
                100.833628518,17.474363969,0
                100.833618267,17.474455898,0
                100.833595412,17.4746608680001,0
                100.833265037,17.477623614,0
                100.833265703,17.481178379,0
                100.833412864,17.4819148010001,0
                100.833821204,17.4825380780001,0
                100.834278188,17.482829042,0
                100.838976042,17.4854720070001,0
                100.83953588,17.4862151620001,0
                100.839730872,17.486473995,0
                100.840808932,17.487605601,0
                100.841688129,17.488433695,0
                100.841908008,17.4885899870001,0
                100.842235544,17.4887657570001,0
                100.842599689,17.488933484,0
                100.843141436,17.4891242950001,0
                100.843765506,17.489254224,0
                100.843803987,17.4892579620001,0
                100.843827281,17.4892647790001,0
                100.843966719,17.489273772,0
                100.843991149,17.4892753500001,0
                100.843996723,17.4892766940001,0
                100.844046079,17.489288561,0
                100.844191628,17.489376453,0
                100.844237448,17.489434288,0
                100.8442885,17.489611112,0
                100.844291712,17.489929664,0
                100.843851818,17.491359,0
                100.843586301,17.492753183,0
                100.843579139,17.4937760830001,0
                100.84374702,17.4965278220001,0
                100.843973033,17.497872231,0
                100.844025519,17.498071478,0
                100.844652144,17.4997370780001,0
                100.845266413,17.501197522,0
                100.845465432,17.501615846,0
                100.845802172,17.5022928440001,0
                100.845970771,17.502604429,0
                100.846041812,17.5027243700001,0
                100.846517189,17.503298457,0
                100.846853703,17.5035622780001,0
                100.847321154,17.503780309,0
                100.848532703,17.5041392210001,0
                100.850705718,17.5047829270001,0
                100.85183676,17.505117964,0
                100.853137347,17.5058333050001,0
                100.853312656,17.505909032,0
                100.854356374,17.506475885,0
                100.855063104,17.507060871,0
                100.858091685,17.5101735960001,0
                100.860472802,17.5123310590001,0
                100.862486399,17.514307307,0
                100.863589565,17.5153229690001,0
                100.863848733,17.5155615790001,0
                100.864113336,17.5158051930001,0
                100.86488435,17.516515037,0
                100.865729969,17.5175433700001,0
                100.865808204,17.5176523280001,0
                100.866123555,17.5182037600001,0
                100.866265299,17.5184912670001,0
                100.867194096,17.520910873,0
                100.868027377,17.5226894210001,0
                100.871112463,17.5274054970001,0
                100.871635726,17.5284097630001,0
                100.871829191,17.529179433,0
                100.871801279,17.5298134940001,0
                100.871617137,17.5306033050001,0
                100.871257381,17.531310929,0
                100.870957347,17.5315820340001,0
                100.870904151,17.5316300960001,0
                100.868493555,17.5338082220001,0
                100.86826109,17.5339921940001,0
                100.866959526,17.5348726240001,0
                100.866579353,17.5352953870001,0
                100.86634149,17.5358129580001,0
                100.866172284,17.5365064760001,0
                100.865434218,17.5395315650001,0
                100.864879189,17.5412593020001,0
                100.864393717,17.54203971,0
                100.863962803,17.542630623,0
                100.862927209,17.543516439,0
                100.862714803,17.5436981230001,0
                100.861171928,17.544738065,0
                100.861022232,17.5449347050001,0
                100.8609734,17.5450380610001,0
                100.86093009,17.5451742590001,0
                100.860930775,17.545241321,0
                100.860933514,17.545509571,0
                100.860936595,17.5458113600001,0
                100.861030829,17.5464811740001,0
                100.861263064,17.547420948,0
                100.861319565,17.5475954030001,0
                100.86133721,17.547701525,0
                100.86154246,17.5484263930001,0
                100.861655025,17.5488239200001,0
                100.862760212,17.5518444420001,0
                100.862850285,17.5520906130001,0
                100.863742514,17.554342261,0
                100.864310513,17.556201994,0
                100.864799324,17.5578866970001,0
                100.866938957,17.565765738,0
                100.867141057,17.5663630060001,0
                100.86756918,17.567287578,0
                100.867569206,17.5672876300001,0
                100.869704076,17.57098066,0
                100.869771094,17.5711808,0
                100.872124662,17.575371401,0
                100.872822483,17.576429138,0
                100.873240651,17.576876385,0
                100.873928952,17.5773071460001,0
                100.876857397,17.5793655460001,0
                100.877039841,17.5794937810001,0
                100.877064048,17.579518298,0
                100.877065414,17.579523926,0
                100.877571805,17.581611723,0
                100.87831574,17.582981982,0
                100.878673143,17.583396303,0
                100.879289362,17.583796868,0
                100.880730164,17.584257322,0
                100.881154221,17.584287159,0
                100.881776609,17.584145759,0
                100.882397015,17.583812455,0
                100.883438346,17.5832285010001,0
                100.884079352,17.582773821,0
                100.88431438,17.58260711,0
                100.884758884,17.5823742600001,0
                100.885174734,17.582251227,0
                100.885472499,17.5822340980001,0
                100.885800357,17.58224526,0
                100.88611897,17.582323187,0
                100.886378353,17.5824350180001,0
                100.886388767,17.5824398890001,0
                100.887002835,17.5827270820001,0
                100.887366368,17.5828971010001,0
                100.888025391,17.5832384880001,0
                100.888381495,17.5835147870001,0
                100.888455916,17.5835725320001,0
                100.888609307,17.5837823950001,0
                100.888632227,17.5838137490001,0
                100.888732221,17.583879471,0
                100.888740218,17.583882106,0
                100.888886689,17.583930385,0
                100.889210077,17.5839892110001,0
                100.889503499,17.584047131,0
                100.889920367,17.5839890350001,0
                100.890178949,17.5839526950001,0
                100.890460125,17.5838258250001,0
                100.89069599,17.5838687250001,0
                100.890840674,17.5839295160001,0
                100.890875395,17.5839746340001,0
                100.89108591,17.5841619390001,0
                100.891138714,17.5842257310001,0
                100.891176361,17.584264664,0
                100.891236277,17.584296237,0
                100.891326101,17.584338244,0
                100.891378942,17.584405609,0
                100.89144694,17.584497829,0
                100.89151158,17.584556069,0
                100.891573358,17.5845905740001,0
                100.891701583,17.5846311340001,0
                100.892007619,17.5846925020001,0
                100.892153597,17.5847625440001,0
                100.892281214,17.584857766,0
                100.892341841,17.5849572070001,0
                100.892343142,17.585082216,0
                100.892359005,17.5851749350001,0
                100.892393448,17.585263906,0
                100.892438695,17.5853170550001,0
                100.892517382,17.585362741,0
                100.892618448,17.5854117820001,0
                100.892752847,17.585442642,0
                100.892869288,17.5854993040001,0
                100.893064327,17.585656891,0
                100.893110966,17.5856882410001,0
                100.893143693,17.585705584,0
                100.893378046,17.5857495540001,0
                100.893541373,17.585772552,0
                100.893815072,17.585811091,0
                100.89392953,17.585866789,0
                100.894033575,17.5859506090001,0
                100.894282542,17.5862686470001,0
                100.894556267,17.5865411140001,0
                100.894980372,17.5867567280001,0
                100.895202925,17.5868798830001,0
                100.89571905,17.587431209,0
                100.89656472,17.588076127,0
                100.897814519,17.588997029,0
                100.898535973,17.589692432,0
                100.898892466,17.590036044,0
                100.899294124,17.5903046670001,0
                100.89982953,17.590849028,0
                100.900058261,17.591012721,0
                100.900326828,17.591124479,0
                100.900586171,17.5911697280001,0
                100.900597498,17.591172714,0
                100.900738381,17.591238592,0
                100.900931027,17.5914434040001,0
                100.901183644,17.5916327910001,0
                100.901306133,17.5916883090001,0
                100.901403122,17.5917322660001,0
                100.901575202,17.591796291,0
                100.90165791,17.591799211,0
                100.901818304,17.591804876,0
                100.901903614,17.591807885,0
                100.901951301,17.5917993420001,0
                100.90222725,17.5917498970001,0
                100.902425841,17.5917143070001,0
                100.902723485,17.591670105,0
                100.902989675,17.5916744410001,0
                100.90341191,17.591788346,0
                100.903447494,17.591797947,0
                100.903694307,17.591854599,0
                100.90378436,17.5918575160001,0
                100.90388688,17.591860841,0
                100.904165809,17.591815619,0
                100.904225936,17.591791772,0
                100.904355719,17.5917402910001,0
                100.904429948,17.591678625,0
              </coordinates>
                
            </LinearRing>
            
          </outerBoundaryIs>
        
        </Polygon>
        
      <styleUrl>
        #tambonStyle</styleUrl>
    </Placemark>

  </Document>
</kml>