<?xml version="1.0" encoding="UTF-8"?>
<kml xmlns="http://www.opengis.net/kml/2.2">
  <Document id="tambon_doc">
    <name>พุกร่าง, พระพุทธบาท, Saraburi</name>
    <description>ข้อมูลขอบเขตตำบลพุกร่าง อำเภอพระพุทธบาท จังหวัดSaraburi</description>
    
    <!-- Schema สำหรับข้อมูลตำบล -->
    <Schema id="tambon.schema">
      <SimpleField name="ADM3_EN" type="string">
        <displayName>Subdistrict Name (English)</displayName>
      </SimpleField>
      <SimpleField name="ADM3_TH" type="string">
        <displayName>ชื่อตำบล</displayName>
      </SimpleField>
      <SimpleField name="ADM2_EN" type="string">
        <displayName>District Name (English)</displayName>
      </SimpleField>
      <SimpleField name="ADM2_TH" type="string">
        <displayName>ชื่ออำเภอ</displayName>
      </SimpleField>
      <SimpleField name="ADM1_EN" type="string">
        <displayName>Province Name (English)</displayName>
      </SimpleField>
      <SimpleField name="ADM1_TH" type="string">
        <displayName>ชื่อจังหวัด</displayName>
      </SimpleField>
      <SimpleField name="ADM0_EN" type="string">
        <displayName>Country Name (English)</displayName>
      </SimpleField>
      <SimpleField name="ADM0_TH" type="string">
        <displayName>ชื่อประเทศ</displayName>
      </SimpleField>
    </Schema>

    <!-- Style สำหรับตำบล -->
    <Style id="tambonStyle">
      <LineStyle>
        <color>ffff0000</color>
        <width>1.5</width>
      </LineStyle>
      <PolyStyle>
        <color>33ff0000</color>
        <fill>1</fill>
        <outline>1</outline>
      </PolyStyle>
    </Style>

    <Placemark id="Saraburi.83">
        
        <ExtendedData>
            
          <SchemaData schemaUrl="#tambon.schema">
                
            <SimpleData name="Shape_Leng">
                0.239965343272</SimpleData>
                
            <SimpleData name="Shape_Area">
                0.00238962996482</SimpleData>
                
            <SimpleData name="ADM3_EN">
                Phu Krang</SimpleData>
                
            <SimpleData name="ADM3_TH">
                พุกร่าง</SimpleData>
                
            <SimpleData name="ADM3_PCODE">
                TH190908</SimpleData>
                
            <SimpleData name="ADM2_EN">
                Phra Phutthabat</SimpleData>
                
            <SimpleData name="ADM2_TH">
                พระพุทธบาท</SimpleData>
                
            <SimpleData name="ADM2_PCODE">
                TH1909</SimpleData>
                
            <SimpleData name="ADM1_EN">
                Saraburi</SimpleData>
                
            <SimpleData name="ADM1_TH">
                สระบุรี</SimpleData>
                
            <SimpleData name="ADM1_PCODE">
                TH19</SimpleData>
                
            <SimpleData name="ADM0_EN">
                Thailand</SimpleData>
                
            <SimpleData name="ADM0_TH">
                ประเทศไทย</SimpleData>
                
            <SimpleData name="ADM0_PCODE">
                TH</SimpleData>
            
          </SchemaData>
        
        </ExtendedData>
        
        <Polygon>
            
          <outerBoundaryIs>
                
            <LinearRing>
                    
              <coordinates>
                    
                100.814381882,14.708111606,0
                100.805679578,14.6781709700001,0
                100.802901361,14.668610211,0
                100.800539212,14.660480453,0
                100.800261182,14.659523512,0
                100.800144162,14.6591207430001,0
                100.799886907,14.6590392140001,0
                100.799869112,14.659031914,0
                100.799752469,14.6589840680001,0
                100.799678798,14.658963048,0
                100.799676309,14.6589623400001,0
                100.799672724,14.658962074,0
                100.799578434,14.658955072,0
                100.799526999,14.65895547,0
                100.799485968,14.6589708130001,0
                100.799452721,14.659000415,0
                100.799429841,14.6590440000001,0
                100.799425034,14.659068104,0
                100.799425334,14.659104744,0
                100.799443088,14.659201454,0
                100.799498426,14.6594249720001,0
                100.799495577,14.659435817,0
                100.799489371,14.6594426930001,0
                100.799455631,14.659455155,0
                100.799246596,14.65951793,0
                100.799104654,14.659560755,0
                100.798678956,14.6596697750001,0
                100.798360818,14.659768107,0
                100.79830212,14.65979365,0
                100.798277667,14.6598042910001,0
                100.79817785,14.6598611000001,0
                100.79793206,14.6600232920001,0
                100.797822023,14.6600825260001,0
                100.797616226,14.6601640010001,0
                100.797587927,14.660188029,0
                100.797577164,14.660205767,0
                100.797569916,14.6602464160001,0
                100.797578528,14.6606123890001,0
                100.797572367,14.6606275980001,0
                100.797560865,14.660640619,0
                100.797545676,14.660650122,0
                100.797522445,14.6606603430001,0
                100.797441682,14.660677014,0
                100.795378172,14.660900165,0
                100.795212707,14.660909121,0
                100.79515456,14.66090544,0
                100.795122973,14.6608962660001,0
                100.79509422,14.6608793350001,0
                100.79476879,14.6606055730001,0
                100.794729251,14.6605905280001,0
                100.794697707,14.660587676,0
                100.794642547,14.660591197,0
                100.794241478,14.66070941,0
                100.792698539,14.6613602100001,0
                100.792650861,14.661378585,0
                100.791727373,14.6617345440001,0
                100.791400971,14.6613529430001,0
                100.791277775,14.6612515090001,0
                100.791237756,14.661218564,0
                100.791123464,14.6611555490001,0
                100.791055803,14.6611349940001,0
                100.790933976,14.661118635,0
                100.790837481,14.661113513,0
                100.790792732,14.6611209390001,0
                100.790673431,14.661174981,0
                100.790539488,14.6612521270001,0
                100.790225604,14.66142245,0
                100.789987048,14.6615756050001,0
                100.789985155,14.661576817,0
                100.789897852,14.661663821,0
                100.789794826,14.661839736,0
                100.789738557,14.661991315,0
                100.789729123,14.6620167240001,0
                100.789681693,14.6622257180001,0
                100.789216875,14.6622599930001,0
                100.789143415,14.66222214,0
                100.789118865,14.662200973,0
                100.78908982,14.6621458540001,0
                100.788845533,14.6615225570001,0
                100.788752176,14.6613315330001,0
                100.788709327,14.6612976010001,0
                100.788649183,14.661274367,0
                100.788501955,14.661275468,0
                100.788409748,14.661289676,0
                100.788239604,14.661315888,0
                100.788134556,14.6613589780001,0
                100.788001136,14.661438316,0
                100.787918819,14.6615077710001,0
                100.787863859,14.661540598,0
                100.787775493,14.6615682,0
                100.787655389,14.661594881,0
                100.787574554,14.661607324,0
                100.785834928,14.6617326730001,0
                100.785802712,14.661719029,0
                100.785786046,14.6617119680001,0
                100.785759483,14.661687978,0
                100.785543295,14.661275222,0
                100.785343746,14.660969778,0
                100.785230183,14.660854548,0
                100.785199978,14.660828585,0
                100.785180739,14.6608120490001,0
                100.784784493,14.6606263950001,0
                100.784558713,14.6605252570001,0
                100.784314765,14.6604159890001,0
                100.784219793,14.660363789,0
                100.78411559,14.660279716,0
                100.784088808,14.660264784,0
                100.784050459,14.66025849,0
                100.784004204,14.6602572,0
                100.783702642,14.660250155,0
                100.78367528,14.660243985,0
                100.783663321,14.660237312,0
                100.783644335,14.6602210360001,0
                100.783613584,14.660172297,0
                100.783584021,14.660111488,0
                100.783539473,14.6600451410001,0
                100.783503498,14.660012836,0
                100.783435716,14.6599444350001,0
                100.783388894,14.6598874640001,0
                100.78336156,14.6598542030001,0
                100.783343593,14.659819898,0
                100.783333344,14.6598003240001,0
                100.783323469,14.6597616650001,0
                100.783312727,14.6597196050001,0
                100.783304686,14.6596471300001,0
                100.78330309,14.659612872,0
                100.78330694,14.659561481,0
                100.783314029,14.659527219,0
                100.783394599,14.659248038,0
                100.783404069,14.659174756,0
                100.783415989,14.659048662,0
                100.783413,14.6589552400001,0
                100.78341244,14.658937725,0
                100.783388522,14.658783441,0
                100.783385974,14.658769122,0
                100.783361378,14.6586308130001,0
                100.783351822,14.6585770950001,0
                100.783321473,14.6584987900001,0
                100.783293157,14.6584571810001,0
                100.783249972,14.6584302680001,0
                100.783126118,14.65838232,0
                100.783080166,14.658364529,0
                100.782980977,14.6583095410001,0
                100.782818961,14.658169937,0
                100.78275907,14.6581062240001,0
                100.782708847,14.658030905,0
                100.782689851,14.6580024150001,0
                100.782590827,14.6578290460001,0
                100.782520121,14.6577365360001,0
                100.782493205,14.6577107410001,0
                100.782294502,14.6575280000001,0
                100.782056721,14.657341595,0
                100.781898259,14.6572016060001,0
                100.781874979,14.6571628630001,0
                100.781844662,14.657095892,0
                100.781789853,14.656913069,0
                100.781761106,14.6568491530001,0
                100.781726178,14.6567975040001,0
                100.781660773,14.656747363,0
                100.781473783,14.6566192490001,0
                100.781271071,14.6564289740001,0
                100.781201675,14.656331198,0
                100.78095953,14.6558688420001,0
                100.78092572,14.655774508,0
                100.780907103,14.655665286,0
                100.780929866,14.6555557520001,0
                100.780981092,14.65543195,0
                100.781095749,14.655256993,0
                100.78113922,14.6552016840001,0
                100.781416604,14.65490114,0
                100.781440449,14.65482373,0
                100.781446485,14.654750587,0
                100.781418728,14.654596541,0
                100.781321163,14.6542289170001,0
                100.781265678,14.653947309,0
                100.781264096,14.6537516240001,0
                100.781291935,14.6535384420001,0
                100.781360829,14.653284661,0
                100.781373777,14.6532257580001,0
                100.781379809,14.6531595430001,0
                100.781366434,14.6530850120001,0
                100.781359935,14.653070046,0
                100.781315211,14.653005842,0
                100.781272052,14.6529710200001,0
                100.78124495,14.6529491490001,0
                100.781175907,14.652916297,0
                100.781090715,14.652890713,0
                100.780998842,14.652856839,0
                100.780960725,14.6528347440001,0
                100.780923201,14.652802857,0
                100.78089156,14.6527666600001,0
                100.780864947,14.652712267,0
                100.780847264,14.652649695,0
                100.78084536,14.6526013980001,0
                100.780852247,14.652534544,0
                100.780973556,14.6520640040001,0
                100.780605961,14.6520529370001,0
                100.780553829,14.65218572,0
                100.780501273,14.652266706,0
                100.780395469,14.652342339,0
                100.779736013,14.6526754720001,0
                100.779247062,14.6528921770001,0
                100.778781762,14.6531087000001,0
                100.778516713,14.6532316010001,0
                100.778281916,14.653440608,0
                100.778047722,14.653724433,0
                100.77792617,14.653826173,0
                100.777869177,14.653865335,0
                100.777618304,14.6539924840001,0
                100.777282313,14.654115926,0
                100.776550652,14.6542941910001,0
                100.776308506,14.654324817,0
                100.776060029,14.6543036950001,0
                100.775876395,14.6542590510001,0
                100.775532218,14.654100514,0
                100.774695513,14.653715501,0
                100.774215137,14.653529226,0
                100.773841962,14.6534399780001,0
                100.773457424,14.6534083780001,0
                100.772887169,14.6534340910001,0
                100.772881238,14.6534331290001,0
                100.772734975,14.6534382250001,0
                100.772635248,14.6534596130001,0
                100.772625049,14.653461801,0
                100.772572942,14.65348519,0
                100.772554158,14.6534991300001,0
                100.772529617,14.653517347,0
                100.772402159,14.653655095,0
                100.77235635,14.653696918,0
                100.77232352,14.653726889,0
                100.772287949,14.653745547,0
                100.772219054,14.6537816850001,0
                100.772185441,14.653794513,0
                100.772106054,14.653821824,0
                100.771588541,14.653961134,0
                100.771408582,14.6539994510001,0
                100.771193722,14.654019637,0
                100.771003066,14.6540304660001,0
                100.770946667,14.654029273,0
                100.770878221,14.654015207,0
                100.770841659,14.653998847,0
                100.770635619,14.6538481760001,0
                100.770498842,14.653735442,0
                100.770461004,14.65372554,0
                100.770425696,14.653726084,0
                100.770333313,14.6537580400001,0
                100.770253737,14.6537855600001,0
                100.769810799,14.653941818,0
                100.769474874,14.654023264,0
                100.769245912,14.654049824,0
                100.768986767,14.6540763730001,0
                100.768814361,14.654073279,0
                100.768865597,14.6546128160001,0
                100.768413349,14.654648606,0
                100.767922634,14.65468744,0
                100.767874443,14.654732294,0
                100.76747383,14.6552408420001,0
                100.767414071,14.6554493310001,0
                100.767363892,14.6558175480001,0
                100.767272264,14.655867965,0
                100.767251315,14.6558752820001,0
                100.766974085,14.6559721090001,0
                100.766837732,14.655983936,0
                100.766643868,14.6559538810001,0
                100.7662556,14.6563654980001,0
                100.766073892,14.6564813730001,0
                100.765885698,14.656527544,0
                100.765333367,14.6564768150001,0
                100.764784323,14.6566163960001,0
                100.763006912,14.656978935,0
                100.761599315,14.6572062560001,0
                100.76143475,14.656881453,0
                100.759929631,14.6537228220001,0
                100.759869383,14.653758818,0
                100.759808786,14.653793444,0
                100.75970942,14.653839367,0
                100.759625082,14.6538629840001,0
                100.759417036,14.6538987340001,0
                100.759293675,14.653912216,0
                100.759065249,14.653928228,0
                100.758899519,14.653949288,0
                100.758796594,14.653973348,0
                100.758677207,14.6540317440001,0
                100.758493817,14.65414078,0
                100.758333897,14.6542029940001,0
                100.758155515,14.6542545020001,0
                100.757872273,14.6543212450001,0
                100.757507904,14.654402998,0
                100.757220848,14.654458956,0
                100.757131744,14.654462381,0
                100.757074797,14.6544566160001,0
                100.757056792,14.654454796,0
                100.756997724,14.6544391370001,0
                100.75695614,14.6544169420001,0
                100.756916854,14.654385489,0
                100.75686582,14.65431449,0
                100.756753486,14.654152008,0
                100.756724305,14.654116059,0
                100.756693103,14.6540954590001,0
                100.75665267,14.654083088,0
                100.756605565,14.6540775880001,0
                100.756206282,14.6541167550001,0
                100.755072409,14.6542970140001,0
                100.754985098,14.65440562,0
                100.75494007,14.65444222,0
                100.754846555,14.6544916350001,0
                100.75472184,14.6545299200001,0
                100.754554502,14.654547414,0
                100.754464671,14.6545481690001,0
                100.754417762,14.654548559,0
                100.753294434,14.654545517,0
                100.753081608,14.6545471210001,0
                100.752815991,14.654600928,0
                100.752544113,14.654670697,0
                100.752474681,14.654703463,0
                100.752429378,14.65473832,0
                100.752414103,14.6547553080001,0
                100.752397319,14.654782697,0
                100.752381127,14.654827434,0
                100.752368013,14.6548768390001,0
                100.752371337,14.65495523,0
                100.752378504,14.6550247220001,0
                100.752415185,14.6552329830001,0
                100.752410809,14.655385461,0
                100.752390759,14.6554871610001,0
                100.752385675,14.6555016780001,0
                100.752359928,14.655575218,0
                100.752313826,14.6556502220001,0
                100.752257725,14.655717005,0
                100.752211609,14.655756787,0
                100.751917761,14.655931971,0
                100.750709155,14.6563620740001,0
                100.748912687,14.656874056,0
                100.748235249,14.6571014360001,0
                100.748254243,14.6577762430001,0
                100.748398348,14.658730549,0
                100.748485457,14.6589542030001,0
                100.748683626,14.659193637,0
                100.749455152,14.6596364500001,0
                100.750064025,14.660014023,0
                100.749935349,14.6610036110001,0
                100.749946786,14.661369065,0
                100.750066756,14.66250632,0
                100.750362935,14.664340097,0
                100.750468369,14.664721458,0
                100.750685526,14.66520167,0
                100.750928813,14.665748147,0
                100.751104496,14.6663782100001,0
                100.751386742,14.6675308550001,0
                100.751364974,14.6680128670001,0
                100.751271429,14.6691268060001,0
                100.751217774,14.6698915210001,0
                100.751219823,14.6701490450001,0
                100.751282067,14.670464269,0
                100.751343518,14.6706798060001,0
                100.751386845,14.6707625560001,0
                100.751816554,14.671141472,0
                100.752288138,14.6714203770001,0
                100.752596067,14.671509439,0
                100.753467928,14.671685629,0
                100.753895921,14.671848552,0
                100.75403272,14.6718807510001,0
                100.754322591,14.671845331,0
                100.754953399,14.6717574890001,0
                100.755678075,14.6716689360001,0
                100.756044944,14.671657855,0
                100.756420544,14.671671631,0
                100.756719676,14.6717275230001,0
                100.757027873,14.6718498070001,0
                100.757241472,14.6718814220001,0
                100.757412007,14.6718635170001,0
                100.757574672,14.671928747,0
                100.757703667,14.6720523880001,0
                100.758197501,14.6729791110001,0
                100.758396093,14.6732683770001,0
                100.758653688,14.673465811,0
                100.759227686,14.6737439250001,0
                100.759535354,14.6737997490001,0
                100.760441693,14.6740171880001,0
                100.760604559,14.674107339,0
                100.76063109,14.6742234450001,0
                100.760392523,14.675338482,0
                100.760335712,14.6757044510001,0
                100.760257022,14.676535814,0
                100.759997662,14.6780952560001,0
                100.759899465,14.6783858470001,0
                100.759568465,14.6790084130001,0
                100.759173825,14.6796860690001,0
                100.758778028,14.680221477,0
                100.760552711,14.6802021570001,0
                100.760753826,14.6802121420001,0
                100.760890088,14.6802456460001,0
                100.761897695,14.680548818,0
                100.762413419,14.680711822,0
                100.76291131,14.6808634500001,0
                100.763769953,14.6810238510001,0
                100.764344017,14.681088555,0
                100.764610589,14.681149847,0
                100.764778812,14.681228381,0
                100.76492811,14.681301048,0
                100.765085571,14.681393734,0
                100.765181141,14.681513883,0
                100.765480875,14.682023875,0
                100.765636262,14.682229905,0
                100.765764889,14.682378998,0
                100.765873636,14.6824860360001,0
                100.765958124,14.682549782,0
                100.766025285,14.682593615,0
                100.766139055,14.6826521360001,0
                100.766337908,14.682719567,0
                100.76641235,14.682757275,0
                100.766462628,14.6827876890001,0
                100.766493512,14.6828299360001,0
                100.766501567,14.682863544,0
                100.766488307,14.6829483060001,0
                100.766484086,14.682975297,0
                100.766459071,14.6830812650001,0
                100.766459857,14.6831791060001,0
                100.766474518,14.68323651,0
                100.766491864,14.6832652310001,0
                100.766503123,14.6832838720001,0
                100.766746526,14.683533787,0
                100.766966813,14.683722056,0
                100.767098136,14.683876464,0
                100.767193985,14.684031142,0
                100.767267166,14.684171162,0
                100.767274756,14.684200585,0
                100.767285953,14.684243985,0
                100.76729746,14.684398727,0
                100.767253454,14.6850725510001,0
                100.767268251,14.685220214,0
                100.767268595,14.6852220330001,0
                100.767298992,14.6853254050001,0
                100.767458847,14.6856190560001,0
                100.767576713,14.685795334,0
                100.767915319,14.686177607,0
                100.768043711,14.6863425070001,0
                100.76828988,14.686658677,0
                100.768295406,14.6866657750001,0
                100.76830884,14.686684701,0
                100.768401588,14.686815407,0
                100.768527122,14.687047985,0
                100.768557169,14.6871036490001,0
                100.768586313,14.687207008,0
                100.768634561,14.6873781080001,0
                100.768695833,14.6877034410001,0
                100.768749429,14.687928776,0
                100.768866383,14.688323772,0
                100.768969539,14.688651067,0
                100.769038143,14.689093744,0
                100.769046697,14.6894217600001,0
                100.769039384,14.689538199,0
                100.769048346,14.689717972,0
                100.769053474,14.689740735,0
                100.769073635,14.689830221,0
                100.769107713,14.689922892,0
                100.769152181,14.689990457,0
                100.769239343,14.690066369,0
                100.76955453,14.69024805,0
                100.769890827,14.690441896,0
                100.770002702,14.690503688,0
                100.770006982,14.6905088520001,0
                100.77002736,14.6905334640001,0
                100.770047256,14.6906324830001,0
                100.770127267,14.6911095410001,0
                100.770155555,14.6912781950001,0
                100.770145535,14.6915027490001,0
                100.769194014,14.695970779,0
                100.768678611,14.6982642740001,0
                100.768471797,14.698647588,0
                100.767958271,14.6993026660001,0
                100.767662102,14.6998231960001,0
                100.767583077,14.700182603,0
                100.767612412,14.700434871,0
                100.767727294,14.701138314,0
                100.767922628,14.703356093,0
                100.767948959,14.703818101,0
                100.767990008,14.703964076,0
                100.768423944,14.704574861,0
                100.769265818,14.705777574,0
                100.769425309,14.706059135,0
                100.769430232,14.706090427,0
                100.769430314,14.706100662,0
                100.769427789,14.706107617,0
                100.769395586,14.706175393,0
                100.769389079,14.706198692,0
                100.769389198,14.706213454,0
                100.769395006,14.7062359990001,0
                100.769403009,14.706250868,0
                100.769490409,14.7063405280001,0
                100.769710682,14.70652303,0
                100.769841651,14.70663139,0
                100.770132692,14.706790332,0
                100.770386283,14.706894177,0
                100.770831637,14.7071935600001,0
                100.770857289,14.707206979,0
                100.770935033,14.707247647,0
                100.771002918,14.7072753530001,0
                100.771088245,14.7072972,0
                100.771133817,14.70729893,0
                100.771254795,14.7073035230001,0
                100.771400648,14.707294388,0
                100.771465691,14.7072856570001,0
                100.771509839,14.707276038,0
                100.771549446,14.707263476,0
                100.771557448,14.7072609430001,0
                100.771642229,14.707225464,0
                100.771721947,14.7071632130001,0
                100.771815673,14.707110417,0
                100.777429636,14.71009768,0
                100.779643722,14.7095315120001,0
                100.782679148,14.708622905,0
                100.785410773,14.7078051980001,0
                100.791569718,14.70596139,0
                100.793100512,14.710549612,0
                100.793500097,14.7117407490001,0
                100.793662997,14.7122263380001,0
                100.794103904,14.713540629,0
                100.794385299,14.7143794310001,0
                100.798837197,14.712965237,0
                100.803276618,14.7115549050001,0
                100.809642923,14.7096084570001,0
                100.812979317,14.708560042,0
                100.81360139,14.7083645600001,0
                100.814381882,14.708111606,0
              </coordinates>
                
            </LinearRing>
            
          </outerBoundaryIs>
        
        </Polygon>
        
      <styleUrl>
        #tambonStyle</styleUrl>
    </Placemark>

  </Document>
</kml>