<?xml version="1.0" encoding="UTF-8"?>
<kml xmlns="http://www.opengis.net/kml/2.2">
  <Document id="tambon_doc">
    <name>โนนเมือง, ขามสะแกแสง, Nakhon Ratchasima</name>
    <description>ข้อมูลขอบเขตตำบลโนนเมือง อำเภอขามสะแกแสง จังหวัดNakhon Ratchasima</description>
    
    <!-- Schema สำหรับข้อมูลตำบล -->
    <Schema id="tambon.schema">
      <SimpleField name="ADM3_EN" type="string">
        <displayName>Subdistrict Name (English)</displayName>
      </SimpleField>
      <SimpleField name="ADM3_TH" type="string">
        <displayName>ชื่อตำบล</displayName>
      </SimpleField>
      <SimpleField name="ADM2_EN" type="string">
        <displayName>District Name (English)</displayName>
      </SimpleField>
      <SimpleField name="ADM2_TH" type="string">
        <displayName>ชื่ออำเภอ</displayName>
      </SimpleField>
      <SimpleField name="ADM1_EN" type="string">
        <displayName>Province Name (English)</displayName>
      </SimpleField>
      <SimpleField name="ADM1_TH" type="string">
        <displayName>ชื่อจังหวัด</displayName>
      </SimpleField>
      <SimpleField name="ADM0_EN" type="string">
        <displayName>Country Name (English)</displayName>
      </SimpleField>
      <SimpleField name="ADM0_TH" type="string">
        <displayName>ชื่อประเทศ</displayName>
      </SimpleField>
    </Schema>

    <!-- Style สำหรับตำบล -->
    <Style id="tambonStyle">
      <LineStyle>
        <color>ffff0000</color>
        <width>1.5</width>
      </LineStyle>
      <PolyStyle>
        <color>33ff0000</color>
        <fill>1</fill>
        <outline>1</outline>
      </PolyStyle>
    </Style>

    <Placemark id="Nakhon_Ratchasima.119">
        
        <ExtendedData>
            
          <SchemaData schemaUrl="#tambon.schema">
                
            <SimpleData name="Shape_Leng">
                0.289938713721</SimpleData>
                
            <SimpleData name="Shape_Area">
                0.0042526775782</SimpleData>
                
            <SimpleData name="ADM3_EN">
                Non Mueang</SimpleData>
                
            <SimpleData name="ADM3_TH">
                โนนเมือง</SimpleData>
                
            <SimpleData name="ADM3_PCODE">
                TH301102</SimpleData>
                
            <SimpleData name="ADM2_EN">
                Kham Sakaesaeng</SimpleData>
                
            <SimpleData name="ADM2_TH">
                ขามสะแกแสง</SimpleData>
                
            <SimpleData name="ADM2_PCODE">
                TH3011</SimpleData>
                
            <SimpleData name="ADM1_EN">
                Nakhon Ratchasima</SimpleData>
                
            <SimpleData name="ADM1_TH">
                นครราชสีมา</SimpleData>
                
            <SimpleData name="ADM1_PCODE">
                TH30</SimpleData>
                
            <SimpleData name="ADM0_EN">
                Thailand</SimpleData>
                
            <SimpleData name="ADM0_TH">
                ประเทศไทย</SimpleData>
                
            <SimpleData name="ADM0_PCODE">
                TH</SimpleData>
            
          </SchemaData>
        
        </ExtendedData>
        
        <Polygon>
            
          <outerBoundaryIs>
                
            <LinearRing>
                    
              <coordinates>
                    
                102.135907052,15.38802358,0
                102.127851911,15.387210313,0
                102.125305853,15.387169349,0
                102.125234726,15.387183323,0
                102.125010534,15.387239847,0
                102.124806049,15.387276684,0
                102.124466493,15.387310567,0
                102.124206939,15.387343324,0
                102.12392782,15.3874054670001,0
                102.123905563,15.387411103,0
                102.123727872,15.3874561050001,0
                102.123637359,15.387484108,0
                102.123189211,15.3875475450001,0
                102.122718236,15.387561303,0
                102.122261662,15.38755343,0
                102.121746841,15.387589228,0
                102.11880481,15.3877805160001,0
                102.117891977,15.3877861770001,0
                102.11626356,15.387694722,0
                102.115017158,15.387547904,0
                102.108700996,15.3877175970001,0
                102.108357232,15.3877268270001,0
                102.108128783,15.387730021,0
                102.10742162,15.38770419,0
                102.106177334,15.3877001500001,0
                102.105684795,15.3877498840001,0
                102.105242833,15.3877346300001,0
                102.103623142,15.3877358180001,0
                102.09966546,15.387955311,0
                102.094724384,15.388031144,0
                102.094562776,15.3880165310001,0
                102.094394247,15.387971593,0
                102.092066225,15.3873146170001,0
                102.091670725,15.3871418420001,0
                102.091654083,15.387132326,0
                102.08985098,15.386014516,0
                102.087999664,15.3849545050001,0
                102.083847023,15.382269229,0
                102.082752163,15.381912969,0
                102.082366184,15.3816992650001,0
                102.08164231,15.381204527,0
                102.081125661,15.3807831020001,0
                102.080936806,15.3806238130001,0
                102.080719351,15.3805220580001,0
                102.079763449,15.3802686230001,0
                102.079319985,15.3801509530001,0
                102.079148366,15.3800830380001,0
                102.078607843,15.379869135,0
                102.078046648,15.3797554710001,0
                102.07788897,15.3797010280001,0
                102.074398835,15.3779294300001,0
                102.070721316,15.3768978580001,0
                102.07005958,15.3785394380001,0
                102.069596223,15.378909698,0
                102.06618976,15.381048922,0
                102.062973428,15.382659898,0
                102.060272224,15.382454501,0
                102.059261458,15.382438085,0
                102.058249953,15.382371134,0
                102.057644957,15.382318808,0
                102.057575436,15.3823119080001,0
                102.05701898,15.3822566600001,0
                102.055873841,15.382312827,0
                102.055104407,15.3824143640001,0
                102.054307875,15.3826001570001,0
                102.053894073,15.382725958,0
                102.053237824,15.383006021,0
                102.05213129,15.3835670170001,0
                102.051067444,15.384198176,0
                102.04982082,15.385155282,0
                102.049102155,15.385882779,0
                102.048611904,15.3865566000001,0
                102.048258675,15.3873397300001,0
                102.04750355,15.3898567700001,0
                102.047478778,15.390301843,0
                102.047486086,15.3904403650001,0
                102.047521947,15.39111997,0
                102.047522865,15.391126441,0
                102.047603251,15.391694988,0
                102.047704802,15.392229296,0
                102.047806055,15.3927434,0
                102.047856849,15.3933693750001,0
                102.047853758,15.3944349450001,0
                102.047853386,15.3945621170001,0
                102.047710247,15.3954636570001,0
                102.04766258,15.395767542,0
                102.047665524,15.3959696530001,0
                102.047238594,15.3983952200001,0
                102.046536672,15.4007255990001,0
                102.0461758,15.401700878,0
                102.04583223,15.402433337,0
                102.04572103,15.4026673400001,0
                102.045615718,15.403305561,0
                102.045496753,15.4037216040001,0
                102.045409922,15.4041978560001,0
                102.045391294,15.4043497220001,0
                102.045006932,15.405143389,0
                102.044610715,15.406553778,0
                102.044316342,15.4085186950001,0
                102.044080903,15.411497287,0
                102.044043108,15.41256538,0
                102.044021372,15.41502065,0
                102.046180771,15.415128672,0
                102.047488105,15.4150449110001,0
                102.048822872,15.414847927,0
                102.05182142,15.4143196960001,0
                102.053767133,15.4138248890001,0
                102.055893022,15.4130824170001,0
                102.057196503,15.412663289,0
                102.057929944,15.4125417450001,0
                102.058572481,15.412488319,0
                102.059540292,15.4126622630001,0
                102.05972429,15.4126953270001,0
                102.061039509,15.4130783860001,0
                102.064010179,15.415110188,0
                102.069440091,15.418757247,0
                102.080245222,15.425941418,0
                102.083548256,15.428327354,0
                102.084692085,15.4290246520001,0
                102.086683146,15.4310771190001,0
                102.087642782,15.431747246,0
                102.089360687,15.4319016200001,0
                102.090589406,15.4321222290001,0
                102.091733276,15.432819485,0
                102.092660983,15.4334008810001,0
                102.093526111,15.4338939900001,0
                102.094756158,15.4342037110001,0
                102.096754172,15.4346512760001,0
                102.099762975,15.435084698,0
                102.100964169,15.435513644,0
                102.10287914,15.4365566450001,0
                102.103583307,15.436851055,0
                102.104667194,15.4373042350001,0
                102.106669218,15.4380190950001,0
                102.108704984,15.4389414720001,0
                102.112468927,15.440701333,0
                102.116390072,15.442726351,0
                102.121108769,15.4452028210001,0
                102.129903882,15.4481618460001,0
                102.135465601,15.4495704020001,0
                102.135951895,15.44890652,0
                102.136199772,15.448485335,0
                102.136202721,15.448404451,0
                102.136230174,15.448259374,0
                102.136295324,15.448157849,0
                102.136389455,15.448012799,0
                102.136552598,15.4478402940001,0
                102.13681241,15.44730859,0
                102.137019319,15.447054424,0
                102.13733799,15.4449979570001,0
                102.137435953,15.4436602270001,0
                102.137203764,15.4408738980001,0
                102.137211787,15.440289733,0
                102.137242439,15.439874075,0
                102.137280277,15.4396909870001,0
                102.137368857,15.4394463300001,0
                102.13741771,15.439259502,0
                102.137463202,15.439094202,0
                102.137483238,15.4389543190001,0
                102.13750535,15.4387070220001,0
                102.13757311,15.438305159,0
                102.137675402,15.4377453110001,0
                102.137940223,15.4364601030001,0
                102.137961713,15.436416847,0
                102.138024437,15.436415959,0
                102.138182977,15.4364065550001,0
                102.138293129,15.4363692000001,0
                102.13834023,15.4363112610001,0
                102.138363526,15.4361426950001,0
                102.138417447,15.435311493,0
                102.138414862,15.4351397130001,0
                102.138367546,15.434692947,0
                102.138395716,15.4346030610001,0
                102.138468378,15.4345268640001,0
                102.138745172,15.4342831180001,0
                102.138831513,15.4341351360001,0
                102.138855455,15.434009517,0
                102.138874467,15.4338016360001,0
                102.138865554,15.4334545510001,0
                102.138827399,15.4326353920001,0
                102.138863491,15.4320907970001,0
                102.138883556,15.4317075050001,0
                102.138851539,15.4312963190001,0
                102.138731005,15.430642977,0
                102.138556502,15.429836483,0
                102.138453632,15.429376183,0
                102.138349607,15.4290841390001,0
                102.138239494,15.4288780850001,0
                102.138086074,15.4287370760001,0
                102.137881434,15.428625427,0
                102.13762856,15.4284965640001,0
                102.137407767,15.4282920750001,0
                102.13718883,15.42796586,0
                102.137051064,15.427638496,0
                102.136882177,15.4270451350001,0
                102.136901279,15.4269340590001,0
                102.136947089,15.42687297,0
                102.13704497,15.4268212210001,0
                102.137230948,15.426758149,0
                102.137702303,15.4266809690001,0
                102.138480019,15.4266044870001,0
                102.138697679,15.4265762260001,0
                102.138790665,15.426544689,0
                102.138841596,15.426478489,0
                102.138860995,15.4263875570001,0
                102.139685798,15.415191291,0
                102.139892287,15.4126804520001,0
                102.139305986,15.407437111,0
                102.13803256,15.401377466,0
                102.137845796,15.400138875,0
                102.137075984,15.39695841,0
                102.1369112,15.3961356570001,0
                102.13650773,15.394911521,0
                102.136419465,15.394375687,0
                102.136309817,15.394019181,0
                102.135827451,15.39341885,0
                102.135579693,15.39294754,0
                102.13593183,15.3907475500001,0
                102.136025441,15.3889637460001,0
                102.135907052,15.38802358,0
              </coordinates>
                
            </LinearRing>
            
          </outerBoundaryIs>
        
        </Polygon>
        
      <styleUrl>
        #tambonStyle</styleUrl>
    </Placemark>

  </Document>
</kml>