<?xml version="1.0" encoding="UTF-8"?>
<kml xmlns="http://www.opengis.net/kml/2.2">
  <Document id="amphoe_doc">
    <name>บางซื่อ, Bangkok</name>
    <description>ข้อมูลขอบเขตอำเภอบางซื่อ จังหวัดBangkok</description>
    
    <!-- Schema สำหรับข้อมูลอำเภอ -->
    <Schema id="amphoe.schema">
      <SimpleField name="ADM2_EN" type="string">
        <displayName>District Name (English)</displayName>
      </SimpleField>
      <SimpleField name="ADM2_TH" type="string">
        <displayName>ชื่ออำเภอ</displayName>
      </SimpleField>
      <SimpleField name="ADM1_EN" type="string">
        <displayName>Province Name (English)</displayName>
      </SimpleField>
      <SimpleField name="ADM1_TH" type="string">
        <displayName>ชื่อจังหวัด</displayName>
      </SimpleField>
      <SimpleField name="ADM0_EN" type="string">
        <displayName>Country Name (English)</displayName>
      </SimpleField>
      <SimpleField name="ADM0_TH" type="string">
        <displayName>ชื่อประเทศ</displayName>
      </SimpleField>
      <SimpleField name="AREA_KM2" type="double">
        <displayName>พื้นที่ (ตร.กม.)</displayName>
      </SimpleField>
      <SimpleField name="Shape_Area" type="double">
        <displayName>Shape Area</displayName>
      </SimpleField>
      <SimpleField name="Shape_Leng" type="double">
        <displayName>Shape Length</displayName>
      </SimpleField>
    </Schema>

    <!-- Style สำหรับอำเภอ -->
    <Style id="amphoeStyle">
      <LineStyle>
        <color>ff0000ff</color>
        <width>2</width>
      </LineStyle>
      <PolyStyle>
        <color>330000ff</color>
        <fill>1</fill>
        <outline>1</outline>
      </PolyStyle>
    </Style>

    <Placemark id="Bangkok.29">
        
        <ExtendedData>
            
          <SchemaData schemaUrl="#amphoe.schema">
                
            <SimpleData name="Shape_Leng">
                0.163252560624</SimpleData>
                
            <SimpleData name="Shape_Area">
                0.00108374924334</SimpleData>
                
            <SimpleData name="ADM2_EN">
                Bang Sue</SimpleData>
                
            <SimpleData name="ADM2_TH">
                บางซื่อ</SimpleData>
                
            <SimpleData name="ADM2_PCODE">
                TH1029</SimpleData>
                
            <SimpleData name="ADM1_EN">
                Bangkok</SimpleData>
                
            <SimpleData name="ADM1_TH">
                กรุงเทพมหานคร</SimpleData>
                
            <SimpleData name="ADM1_PCODE">
                TH10</SimpleData>
                
            <SimpleData name="ADM0_EN">
                Thailand</SimpleData>
                
            <SimpleData name="ADM0_TH">
                ประเทศไทย</SimpleData>
                
            <SimpleData name="ADM0_PCODE">
                TH</SimpleData>
            
          </SchemaData>
        
        </ExtendedData>
        
        <Polygon>
            
          <outerBoundaryIs>
                
            <LinearRing>
                    
              <coordinates>
                    
                100.538411105,13.8272498320001,0
                100.53776564,13.8245251700001,0
                100.537573036,13.8236715210001,0
                100.537285645,13.822375139,0
                100.537117045,13.821651881,0
                100.538381013,13.821568905,0
                100.539380213,13.8214702440001,0
                100.540575425,13.821344939,0
                100.541222642,13.821278509,0
                100.541756439,13.8212174130001,0
                100.541935964,13.821200113,0
                100.542521255,13.8210624650001,0
                100.542848958,13.8209333630001,0
                100.54340737,13.8206619060001,0
                100.543557957,13.8205570170001,0
                100.543826051,13.820349752,0
                100.544081856,13.8200709600001,0
                100.54430698,13.8197992940001,0
                100.544559842,13.819432745,0
                100.544854364,13.8189319680001,0
                100.544951959,13.81867727,0
                100.544993314,13.8184968410001,0
                100.545022442,13.818254122,0
                100.54503092,13.8181062420001,0
                100.545025037,13.817930728,0
                100.545002336,13.817713745,0
                100.544965604,13.8175199500001,0
                100.544882607,13.817120872,0
                100.544617644,13.816573724,0
                100.544422416,13.816100196,0
                100.54425909,13.815702287,0
                100.544078793,13.815252135,0
                100.543973361,13.8149495320001,0
                100.543935646,13.8148324360001,0
                100.543886324,13.814635986,0
                100.543795275,13.8142737200001,0
                100.543647384,13.813695196,0
                100.54349368,13.8130751910001,0
                100.543396926,13.8126876920001,0
                100.543370448,13.812593995,0
                100.543154169,13.812008679,0
                100.543026526,13.811698993,0
                100.542808737,13.8111642320001,0
                100.542664137,13.8108041150001,0
                100.542481992,13.8103521640001,0
                100.542363855,13.810083939,0
                100.542194795,13.809655376,0
                100.541980717,13.809122395,0
                100.541687675,13.808378707,0
                100.54144351,13.807764682,0
                100.541270711,13.807328919,0
                100.541066169,13.806841009,0
                100.540971672,13.806514866,0
                100.540833741,13.8060445890001,0
                100.540673792,13.805596107,0
                100.540466787,13.805014344,0
                100.540289812,13.804504593,0
                100.540047079,13.803825574,0
                100.539793062,13.803115937,0
                100.539624333,13.8027361040001,0
                100.539363809,13.802160089,0
                100.539062084,13.801497682,0
                100.538859694,13.801054879,0
                100.538509509,13.8003259870001,0
                100.538168839,13.7996385480001,0
                100.538073316,13.79943697,0
                100.537940196,13.799134537,0
                100.53779575,13.7987960720001,0
                100.537679369,13.798511585,0
                100.537592921,13.798284676,0
                100.537508365,13.798064977,0
                100.537424276,13.797854429,0
                100.53718027,13.7978887580001,0
                100.537095549,13.7979254270001,0
                100.536784234,13.798051699,0
                100.53585366,13.798510632,0
                100.535505772,13.798708216,0
                100.534898324,13.798991143,0
                100.534053752,13.7994291900001,0
                100.533583441,13.7996524340001,0
                100.533491332,13.799701139,0
                100.533203826,13.7998275890001,0
                100.532330992,13.798213085,0
                100.531728578,13.7983260030001,0
                100.530978306,13.798374343,0
                100.530206092,13.7984839490001,0
                100.52954161,13.7986714740001,0
                100.529015257,13.7988013770001,0
                100.528644755,13.798851712,0
                100.528188354,13.798839758,0
                100.528090656,13.798837694,0
                100.527899237,13.7987902350001,0
                100.52733972,13.798648782,0
                100.52709937,13.7986307100001,0
                100.526913074,13.7986377390001,0
                100.526811279,13.798665552,0
                100.526807281,13.798666644,0
                100.526632861,13.79872491,0
                100.52606791,13.7990740720001,0
                100.525797639,13.7992082480001,0
                100.525737346,13.799229978,0
                100.525694092,13.799245564,0
                100.525595277,13.7992530970001,0
                100.525087711,13.799191029,0
                100.52500224,13.7991975300001,0
                100.524827174,13.7992341990001,0
                100.524428364,13.7993907760001,0
                100.523817677,13.79961401,0
                100.523519391,13.799671081,0
                100.523027445,13.799737238,0
                100.522407177,13.7999304100001,0
                100.522116965,13.799987425,0
                100.52141439,13.7999365590001,0
                100.520736289,13.799924979,0
                100.520002253,13.800000515,0
                100.519449261,13.8001224720001,0
                100.519090879,13.8001792270001,0
                100.519019981,13.8001852560001,0
                100.518341677,13.8001975340001,0
                100.517242929,13.800289589,0
                100.516497561,13.8003580980001,0
                100.516946644,13.8017397200001,0
                100.517219798,13.8025400880001,0
                100.51746073,13.803537078,0
                100.517600326,13.8044037450001,0
                100.517672399,13.8051889830001,0
                100.51764441,13.80604032,0
                100.517616421,13.806891653,0
                100.51753924,13.8079069730001,0
                100.51749334,13.808578362,0
                100.517413623,13.809200859,0
                100.517217191,13.8099059190001,0
                100.516953553,13.8105786530001,0
                100.51652444,13.8115634110001,0
                100.516193383,13.81217109,0
                100.515844834,13.8126642940001,0
                100.51525513,13.8132748400001,0
                100.515159809,13.8133533860001,0
                100.515158825,13.8133541990001,0
                100.515155371,13.813357191,0
                100.514971498,13.813519682,0
                100.514893178,13.8135764400001,0
                100.51477841,13.813659597,0
                100.514698355,13.813717593,0
                100.514398321,13.8138960470001,0
                100.514011225,13.814068504,0
                100.513470447,13.814281146,0
                100.513069802,13.8144275120001,0
                100.512528947,13.81462708,0
                100.512079138,13.814783775,0
                100.512041446,13.814796905,0
                100.511974652,13.814820179,0
                100.511166488,13.8150867840001,0
                100.510438439,13.8153201970001,0
                100.510107683,13.815395526,0
                100.509729996,13.815481543,0
                100.509604126,13.8155147580001,0
                100.508933359,13.815691751,0
                100.508101649,13.815882919,0
                100.507400598,13.816038387,0
                100.507262978,13.8163795310001,0
                100.506933801,13.817195526,0
                100.506608951,13.8180767470001,0
                100.506366745,13.8187218190001,0
                100.506304549,13.818928102,0
                100.506276961,13.8191246650001,0
                100.506282885,13.81920036,0
                100.506286359,13.8192447490001,0
                100.50629375,13.8193392200001,0
                100.506329139,13.8194482160001,0
                100.506356268,13.8194964510001,0
                100.506646965,13.820013325,0
                100.506677558,13.8200677090001,0
                100.50671196,13.8201524890001,0
                100.5067637,13.820279984,0
                100.506834927,13.8204554870001,0
                100.506899634,13.820641315,0
                100.506985274,13.8209481260001,0
                100.507023038,13.8210387290001,0
                100.507073301,13.8211459120001,0
                100.507102428,13.8211899240001,0
                100.50723521,13.8213180600001,0
                100.507343558,13.821377377,0
                100.507445654,13.82146762,0
                100.507503378,13.82153085,0
                100.50755027,13.8215941550001,0
                100.507569153,13.8216394560001,0
                100.507581964,13.8217044800001,0
                100.507582617,13.821805913,0
                100.507567539,13.822111825,0
                100.507565281,13.8221863420001,0
                100.507564424,13.8222145070001,0
                100.507561152,13.8223223100001,0
                100.507558425,13.8223869890001,0
                100.507562167,13.822460419,0
                100.507569159,13.822530634,0
                100.50757356,13.8225603560001,0
                100.507575307,13.822572112,0
                100.507585523,13.8226352900001,0
                100.507596941,13.822684397,0
                100.507615522,13.8227277140001,0
                100.507635379,13.822765912,0
                100.507644565,13.8227811530001,0
                100.507659165,13.8228053660001,0
                100.507686833,13.822839049,0
                100.507719049,13.8228688740001,0
                100.507768277,13.822900509,0
                100.507843703,13.822942197,0
                100.507947268,13.822986907,0
                100.50808162,13.8230442010001,0
                100.508164875,13.8230826540001,0
                100.508233746,13.8231192800001,0
                100.508286886,13.8231496110001,0
                100.508332868,13.8231863680001,0
                100.508409765,13.823251686,0
                100.508541991,13.8233843620001,0
                100.50857356,13.823414826,0
                100.508595225,13.823429382,0
                100.508618163,13.8234394630001,0
                100.508644805,13.8234469440001,0
                100.508651131,13.823448715,0
                100.508707221,13.8234644620001,0
                100.508897646,13.823499704,0
                100.508924401,13.8235051450001,0
                100.509071658,13.823535136,0
                100.509209688,13.823563241,0
                100.509247787,13.8235709950001,0
                100.509372161,13.823599475,0
                100.509538422,13.8236375490001,0
                100.509596712,13.8236569900001,0
                100.509620742,13.8236682040001,0
                100.5096413,13.823677796,0
                100.509683267,13.8236998890001,0
                100.509721317,13.823722651,0
                100.50976268,13.823750503,0
                100.509790955,13.8237729630001,0
                100.509796185,13.8237771230001,0
                100.509824484,13.8238076060001,0
                100.509940347,13.823935272,0
                100.510061032,13.824101871,0
                100.510121712,13.8241877240001,0
                100.51014028,13.824229125,0
                100.51015098,13.8242661,0
                100.51015051,13.8242942090001,0
                100.510145461,13.8243223470001,0
                100.510133242,13.824353715,0
                100.510118417,13.824385744,0
                100.510091794,13.8244121000001,0
                100.510057972,13.82443849,0
                100.510022128,13.824454044,0
                100.509941247,13.82448136,0
                100.509782613,13.824511079,0
                100.509647457,13.824532355,0
                100.509560062,13.8245622700001,0
                100.509515108,13.824585542,0
                100.50946376,13.824629934,0
                100.509453613,13.824642222,0
                100.509414702,13.824689327,0
                100.509385293,13.8247249410001,0
                100.509269847,13.824880627,0
                100.509261822,13.8248942700001,0
                100.509207791,13.8249963480001,0
                100.509179809,13.8250612690001,0
                100.509162742,13.8251114170001,0
                100.509161226,13.8251158580001,0
                100.509161019,13.8251187020001,0
                100.509158443,13.825153357,0
                100.509158384,13.8251541430001,0
                100.509158325,13.8251549290001,0
                100.509158662,13.82515814,0
                100.509163927,13.8252083360001,0
                100.509178093,13.8252843060001,0
                100.509194189,13.825334567,0
                100.509235844,13.8254329760001,0
                100.509265623,13.8254841780001,0
                100.509293211,13.825522037,0
                100.509352937,13.825587399,0
                100.509376083,13.8256103410001,0
                100.509376679,13.8256109320001,0
                100.509377275,13.8256115240001,0
                100.509394987,13.825622273,0
                100.509395841,13.8256225160001,0
                100.509396697,13.8256227580001,0
                100.509419222,13.825629142,0
                100.50944275,13.825628361,0
                100.509480594,13.825619186,0
                100.509674897,13.825545182,0
                100.509931028,13.825431188,0
                100.510224182,13.8252799250001,0
                100.510299128,13.82524561,0
                100.510344114,13.8252274490001,0
                100.51040281,13.8252072870001,0
                100.510452392,13.8251929370001,0
                100.510500039,13.8251837020001,0
                100.510546421,13.8251789490001,0
                100.51055963,13.8251792030001,0
                100.510596103,13.825179915,0
                100.510643189,13.825184736,0
                100.510684465,13.8251991710001,0
                100.510710929,13.8252124430001,0
                100.51073102,13.8252225150001,0
                100.510763837,13.825244673,0
                100.510793431,13.8252713090001,0
                100.510813226,13.825301209,0
                100.510829151,13.8253375150001,0
                100.510839858,13.82537705,0
                100.51085881,13.825477848,0
                100.510874282,13.825647019,0
                100.510887453,13.8258640940001,0
                100.510900545,13.825969404,0
                100.510910045,13.8260236350001,0
                100.510927346,13.8260714260001,0
                100.510946562,13.826110908,0
                100.510966332,13.826136977,0
                100.510969979,13.8261406880001,0
                100.510989365,13.826160466,0
                100.51101038,13.826176306,0
                100.511035945,13.8261876510001,0
                100.511064202,13.826195951,0
                100.511069995,13.8261976540001,0
                100.511070437,13.826197682,0
                100.51107088,13.826197709,0
                100.511100077,13.8261993850001,0
                100.511132084,13.8261966360001,0
                100.511143943,13.8261949380001,0
                100.511299906,13.826172607,0
                100.511396834,13.8261543190001,0
                100.511439439,13.8261462790001,0
                100.511521426,13.826130811,0
                100.511551894,13.8261250630001,0
                100.511577649,13.8261207900001,0
                100.511687703,13.8261025100001,0
                100.511719852,13.8260968120001,0
                100.511833291,13.826076711,0
                100.511903107,13.82605648,0
                100.511939592,13.826039651,0
                100.511976059,13.8260183460001,0
                100.512010594,13.8259960300001,0
                100.512020967,13.8259893270001,0
                100.512052206,13.82596869,0
                100.512096431,13.825933293,0
                100.512132762,13.8258909090001,0
                100.512157974,13.825848992,0
                100.512160253,13.8258451990001,0
                100.512174794,13.825821037,0
                100.512224874,13.8257228050001,0
                100.512274713,13.825625051,0
                100.512360679,13.8254564640001,0
                100.512522684,13.825138666,0
                100.512694551,13.8248291040001,0
                100.512728174,13.824773328,0
                100.512752179,13.824745718,0
                100.51277428,13.824727062,0
                100.512801633,13.824711559,0
                100.512831449,13.8247040840001,0
                100.51283557,13.8247030430001,0
                100.512839335,13.8247027640001,0
                100.512881952,13.8246995710001,0
                100.512967584,13.824701593,0
                100.513040845,13.8247100840001,0
                100.513076159,13.8247201410001,0
                100.513077164,13.824720427,0
                100.513078168,13.824720712,0
                100.513099162,13.824733355,0
                100.513121503,13.8247504660001,0
                100.513134026,13.8247676300001,0
                100.513145335,13.824798226,0
                100.513149503,13.8248365200001,0
                100.513147702,13.8249031080001,0
                100.513146338,13.8249534240001,0
                100.513140036,13.825099417,0
                100.513133262,13.825256252,0
                100.513132115,13.825281417,0
                100.513114938,13.82565684,0
                100.513118873,13.8259331850001,0
                100.513121559,13.825968672,0
                100.513122963,13.8259873700001,0
                100.513134163,13.826041801,0
                100.513168587,13.8260945800001,0
                100.51326057,13.826183337,0
                100.513341636,13.826261561,0
                100.513403964,13.826315677,0
                100.513449071,13.826342658,0
                100.513503445,13.826366545,0
                100.513562459,13.826387375,0
                100.513705266,13.8264288840001,0
                100.513869841,13.8264838860001,0
                100.514074899,13.8265689180001,0
                100.514309553,13.8266779900001,0
                100.514582755,13.826797098,0
                100.51466224,13.8268317440001,0
                100.514662311,13.8268317700001,0
                100.514662383,13.8268317920001,0
                100.514783338,13.826870371,0
                100.514915287,13.826910427,0
                100.515033191,13.826933931,0
                100.515081739,13.8269441530001,0
                100.515113834,13.826950911,0
                100.515158855,13.8269603950001,0
                100.515238044,13.826987166,0
                100.515311086,13.82702153,0
                100.5153749,13.8270665520001,0
                100.515510565,13.827201975,0
                100.515647999,13.827370692,0
                100.515727767,13.827488293,0
                100.515770139,13.8275713,0
                100.515790752,13.8276438410001,0
                100.515808465,13.827748195,0
                100.515795403,13.8281222320001,0
                100.515799364,13.82825695,0
                100.5158061,13.8283401780001,0
                100.515820498,13.828409729,0
                100.515826773,13.828424635,0
                100.515841379,13.828459298,0
                100.515850397,13.828480702,0
                100.515857526,13.828493387,0
                100.515877265,13.8285284510001,0
                100.515891147,13.828553126,0
                100.515933234,13.828592228,0
                100.51599704,13.8286357320001,0
                100.516179035,13.8287481630001,0
                100.516577549,13.828993557,0
                100.516662451,13.829045837,0
                100.516788233,13.829137729,0
                100.5168855,13.8292162660001,0
                100.516992343,13.8293101560001,0
                100.517110812,13.8294152820001,0
                100.51725574,13.8295438920001,0
                100.517392255,13.8296735700001,0
                100.517485423,13.829767545,0
                100.517546563,13.82982766,0
                100.517597621,13.829877847,0
                100.517662523,13.8299343190001,0
                100.517714098,13.829979188,0
                100.517716087,13.8299809230001,0
                100.517904519,13.8301106600001,0
                100.518147411,13.8302953790001,0
                100.518276607,13.830388441,0
                100.518398004,13.8304724770001,0
                100.518600214,13.830595375,0
                100.518706207,13.830663784,0
                100.518823145,13.830777745,0
                100.51907004,13.8310419210001,0
                100.519405665,13.83137027,0
                100.519618425,13.831566519,0
                100.519865949,13.8317478010001,0
                100.520273624,13.832076832,0
                100.520478874,13.83226534,0
                100.520492224,13.832277597,0
                100.520501274,13.83228704,0
                100.520791733,13.8325902610001,0
                100.520998619,13.8327774700001,0
                100.521276648,13.833003978,0
                100.521310681,13.8330336390001,0
                100.521351528,13.8330692600001,0
                100.521567646,13.8332576560001,0
                100.521823815,13.833487088,0
                100.521844651,13.833505743,0
                100.521941007,13.8335923070001,0
                100.52206556,13.8337042160001,0
                100.522364594,13.833943074,0
                100.522496742,13.8340728370001,0
                100.522571639,13.834152993,0
                100.522661873,13.8342705260001,0
                100.522707061,13.834332057,0
                100.522707751,13.8343330000001,0
                100.522708441,13.834333943,0
                100.522829534,13.8344988470001,0
                100.522860728,13.8345293900001,0
                100.522874956,13.83454332,0
                100.522909059,13.8345767050001,0
                100.522958049,13.8346059200001,0
                100.523044356,13.8346542080001,0
                100.523220498,13.8347587160001,0
                100.523301011,13.834809308,0
                100.523354771,13.834856669,0
                100.523470985,13.8350376240001,0
                100.523588128,13.8351822390001,0
                100.523691036,13.8352815170001,0
                100.523853461,13.835421304,0
                100.524001726,13.8355271240001,0
                100.524294667,13.8357217390001,0
                100.52447101,13.835856902,0
                100.524669624,13.836021445,0
                100.524822912,13.836184002,0
                100.524988812,13.836344062,0
                100.525089531,13.8364412340001,0
                100.525125248,13.8364726670001,0
                100.525222767,13.836558489,0
                100.525349061,13.836669731,0
                100.525357175,13.836676875,0
                100.525368084,13.83668462,0
                100.525473854,13.836759656,0
                100.525480924,13.836764671,0
                100.52561867,13.8368614710001,0
                100.52569732,13.8369185620001,0
                100.525831166,13.8370157050001,0
                100.525893663,13.8370823070001,0
                100.525931798,13.837122949,0
                100.525940718,13.837131818,0
                100.526008996,13.8371996820001,0
                100.526137484,13.837302215,0
                100.526217016,13.8373614990001,0
                100.526349354,13.8374601680001,0
                100.526441088,13.8375285490001,0
                100.526671723,13.8377086830001,0
                100.526896776,13.837882178,0
                100.527178945,13.838141702,0
                100.52760981,13.838553419,0
                100.527847103,13.838766542,0
                100.528166149,13.839043888,0
                100.528249249,13.839120935,0
                100.528406987,13.8392672100001,0
                100.528560539,13.8393976840001,0
                100.52880896,13.8396087510001,0
                100.5292625,13.840018098,0
                100.529793162,13.8404905470001,0
                100.530011042,13.8407571600001,0
                100.530083375,13.840831555,0
                100.530138936,13.840866288,0
                100.530138972,13.84086631,0
                100.530139008,13.8408663330001,0
                100.530250029,13.8409357370001,0
                100.53076058,13.84142532,0
                100.530793507,13.8414568920001,0
                100.531094393,13.8417454240001,0
                100.531237349,13.841882512,0
                100.5316135,13.842074628,0
                100.531863524,13.8422289650001,0
                100.532112083,13.8425403590001,0
                100.532190691,13.8426207090001,0
                100.53229611,13.8427284580001,0
                100.532501593,13.842912601,0
                100.532541396,13.8429482710001,0
                100.532684738,13.8431355650001,0
                100.532806936,13.843235292,0
                100.533278046,13.843504588,0
                100.533478566,13.8437816250001,0
                100.533504485,13.8438174340001,0
                100.533558874,13.8438787000001,0
                100.533773865,13.844120875,0
                100.533852848,13.844195095,0
                100.534063611,13.844393124,0
                100.534123502,13.8444406900001,0
                100.534255347,13.8445454050001,0
                100.534378954,13.844625895,0
                100.534533275,13.844726382,0
                100.534564633,13.844748528,0
                100.534645329,13.8448055330001,0
                100.534779375,13.8449002400001,0
                100.535053998,13.8451335300001,0
                100.535177197,13.8452630140001,0
                100.535230914,13.8453194740001,0
                100.535357189,13.8454703360001,0
                100.535417514,13.8455329500001,0
                100.535505919,13.845624704,0
                100.535644281,13.845743633,0
                100.535782352,13.845862325,0
                100.53597427,13.846042003,0
                100.536150715,13.8461450510001,0
                100.536317567,13.8462097770001,0
                100.536400404,13.8462419090001,0
                100.536630657,13.84633122,0
                100.536907985,13.846446433,0
                100.537065647,13.846512037,0
                100.537136124,13.846535552,0
                100.537162652,13.8465444080001,0
                100.537350504,13.8466070860001,0
                100.537478031,13.846664758,0
                100.537777436,13.8469142180001,0
                100.537937969,13.8470621880001,0
                100.538060355,13.8471607390001,0
                100.538173077,13.847237233,0
                100.538183301,13.8472430620001,0
                100.538245511,13.8472785280001,0
                100.538284538,13.8472947380001,0
                100.538315794,13.8473077200001,0
                100.53844222,13.847355823,0
                100.53873499,13.847471877,0
                100.539064296,13.8476069760001,0
                100.539605129,13.847855651,0
                100.540179691,13.8481075190001,0
                100.540593328,13.8483030560001,0
                100.541086671,13.8485542940001,0
                100.541515543,13.848739327,0
                100.541624067,13.8487785520001,0
                100.541711058,13.848809986,0
                100.541727584,13.848815964,0
                100.54194471,13.848892313,0
                100.542207402,13.848984688,0
                100.542496321,13.84912904,0
                100.542725022,13.849215299,0
                100.543010523,13.849313974,0
                100.543135825,13.849357286,0
                100.543176708,13.849371417,0
                100.543204846,13.849387366,0
                100.543222919,13.849397616,0
                100.543629472,13.8496281120001,0
                100.542979988,13.8468084720001,0
                100.542904748,13.846401294,0
                100.542810787,13.8460347820001,0
                100.542485111,13.8446559920001,0
                100.542125286,13.8430146700001,0
                100.541994299,13.842527261,0
                100.541960343,13.8424497240001,0
                100.541033507,13.8386075290001,0
                100.540929013,13.838021794,0
                100.540262592,13.8351884160001,0
                100.539688401,13.83270594,0
                100.539423145,13.831571932,0
                100.539196913,13.8305863520001,0
                100.539088378,13.830149287,0
                100.538958043,13.8296091120001,0
                100.538411105,13.8272498320001,0
              </coordinates>
                
            </LinearRing>
            
          </outerBoundaryIs>
        
        </Polygon>
        
      <styleUrl>
        #amphoeStyle</styleUrl>
    </Placemark>

  </Document>
</kml>