<?xml version="1.0" encoding="UTF-8"?>
<kml xmlns="http://www.opengis.net/kml/2.2">
  <Document id="tambon_doc">
    <name>ศรีถ้อย, แม่ใจ, Phayao</name>
    <description>ข้อมูลขอบเขตตำบลศรีถ้อย อำเภอแม่ใจ จังหวัดPhayao</description>
    
    <!-- Schema สำหรับข้อมูลตำบล -->
    <Schema id="tambon.schema">
      <SimpleField name="ADM3_EN" type="string">
        <displayName>Subdistrict Name (English)</displayName>
      </SimpleField>
      <SimpleField name="ADM3_TH" type="string">
        <displayName>ชื่อตำบล</displayName>
      </SimpleField>
      <SimpleField name="ADM2_EN" type="string">
        <displayName>District Name (English)</displayName>
      </SimpleField>
      <SimpleField name="ADM2_TH" type="string">
        <displayName>ชื่ออำเภอ</displayName>
      </SimpleField>
      <SimpleField name="ADM1_EN" type="string">
        <displayName>Province Name (English)</displayName>
      </SimpleField>
      <SimpleField name="ADM1_TH" type="string">
        <displayName>ชื่อจังหวัด</displayName>
      </SimpleField>
      <SimpleField name="ADM0_EN" type="string">
        <displayName>Country Name (English)</displayName>
      </SimpleField>
      <SimpleField name="ADM0_TH" type="string">
        <displayName>ชื่อประเทศ</displayName>
      </SimpleField>
    </Schema>

    <!-- Style สำหรับตำบล -->
    <Style id="tambonStyle">
      <LineStyle>
        <color>ffff0000</color>
        <width>1.5</width>
      </LineStyle>
      <PolyStyle>
        <color>33ff0000</color>
        <fill>1</fill>
        <outline>1</outline>
      </PolyStyle>
    </Style>

    <Placemark id="Phayao.56">
        
        <ExtendedData>
            
          <SchemaData schemaUrl="#tambon.schema">
                
            <SimpleData name="Shape_Leng">
                0.407563159989</SimpleData>
                
            <SimpleData name="Shape_Area">
                0.00599610213027</SimpleData>
                
            <SimpleData name="ADM3_EN">
                Si Thoi</SimpleData>
                
            <SimpleData name="ADM3_TH">
                ศรีถ้อย</SimpleData>
                
            <SimpleData name="ADM3_PCODE">
                TH560702</SimpleData>
                
            <SimpleData name="ADM2_EN">
                Mae Chai</SimpleData>
                
            <SimpleData name="ADM2_TH">
                แม่ใจ</SimpleData>
                
            <SimpleData name="ADM2_PCODE">
                TH5607</SimpleData>
                
            <SimpleData name="ADM1_EN">
                Phayao</SimpleData>
                
            <SimpleData name="ADM1_TH">
                พะเยา</SimpleData>
                
            <SimpleData name="ADM1_PCODE">
                TH56</SimpleData>
                
            <SimpleData name="ADM0_EN">
                Thailand</SimpleData>
                
            <SimpleData name="ADM0_TH">
                ประเทศไทย</SimpleData>
                
            <SimpleData name="ADM0_PCODE">
                TH</SimpleData>
            
          </SchemaData>
        
        </ExtendedData>
        
        <Polygon>
            
          <outerBoundaryIs>
                
            <LinearRing>
                    
              <coordinates>
                    
                99.697082901,19.392857281,0
                99.700523322,19.3909702620001,0
                99.7005810190001,19.3909831020001,0
                99.7006451930001,19.3910051010001,0
                99.700843901,19.3910385940001,0
                99.7010485760001,19.391060645,0
                99.7011870650001,19.3910829500001,0
                99.701262376,19.391105499,0
                99.7013407680001,19.3911451650001,0
                99.7015589660001,19.3914204120001,0
                99.701608466,19.391482855,0
                99.701616034,19.391492402,0
                99.701766766,19.391563193,0
                99.7022034770001,19.391672848,0
                99.702263622,19.3916669060001,0
                99.7024129120001,19.391650962,0
                99.702512487,19.3916403270001,0
                99.7025132190001,19.391640248,0
                99.7025133650001,19.391640191,0
                99.7030628690001,19.3914268610001,0
                99.7032371170001,19.391369089,0
                99.7033694420001,19.3913571570001,0
                99.7036613170001,19.391367448,0
                99.7038327650001,19.39135822,0
                99.7039709590001,19.3913120060001,0
                99.704280209,19.3911652090001,0
                99.704433286,19.391081823,0
                99.7045294970001,19.391067176,0
                99.704655878,19.3910723970001,0
                99.7047701390001,19.391057679,0
                99.7048482870001,19.391040246,0
                99.7049713040001,19.3909626880001,0
                99.705115048,19.390807965,0
                99.7052199140001,19.390707637,0
                99.7053009840001,19.3906702090001,0
                99.70540019,19.390652695,0
                99.7055115050001,19.390652263,0
                99.7058534600001,19.3908422220001,0
                99.7059544240001,19.3908732260001,0
                99.7059607290001,19.390873202,0
                99.7060238830001,19.3908672470001,0
                99.7060653510001,19.3908534450001,0
                99.7061019930001,19.3908412490001,0
                99.706300271,19.390774817,0
                99.706414544,19.390762953,0
                99.7065168330001,19.390762556,0
                99.706558128,19.390769854,0
                99.7066432880001,19.390784904,0
                99.7067005970001,19.39081894,0
                99.7067701010001,19.390890042,0
                99.706794114,19.390932096,0
                99.7069034850001,19.391123626,0
                99.7070616550001,19.391338927,0
                99.7072178130001,19.391612084,0
                99.707232623,19.391628209,0
                99.707326019,19.391702814,0
                99.7074934940001,19.3917761860001,0
                99.7078086820001,19.3918592220001,0
                99.7080752050001,19.3918888260001,0
                99.7085757610001,19.391902196,0
                99.7089955270001,19.3919005600001,0
                99.7094312390001,19.3918528990001,0
                99.7098747570001,19.3917439250001,0
                99.7102453900001,19.391581611,0
                99.7104032010001,19.3915035380001,0
                99.7104951030001,19.391458072,0
                99.7105243450001,19.391446542,0
                99.710946392,19.3912801220001,0
                99.7109598270001,19.3912755100001,0
                99.711284934,19.391163894,0
                99.7116874870001,19.390917191,0
                99.711698346,19.390910483,0
                99.7119370650001,19.3907630100001,0
                99.7121385400001,19.3906856180001,0
                99.7123806450001,19.3906693490001,0
                99.712719851,19.390706321,0
                99.712972683,19.3907532750001,0
                99.713002616,19.390758835,0
                99.7133745460001,19.390895261,0
                99.7137138190001,19.3909475510001,0
                99.7145857340001,19.390967108,0
                99.7151104380001,19.3909650460001,0
                99.715431332,19.390936706,0
                99.7154735610001,19.3909329750001,0
                99.715699386,19.3908861260001,0
                99.7158408320001,19.390820724,0
                99.7161505340001,19.390677523,0
                99.7164727580001,19.390523048,0
                99.716682672,19.3905298820001,0
                99.716916971,19.3905749190001,0
                99.717143702,19.390734891,0
                99.7173054500001,19.390803195,0
                99.7174428150001,19.3908332940001,0
                99.7177494970001,19.390816763,0
                99.7180964400001,19.3907770930001,0
                99.7185243420001,19.3907907230001,0
                99.718920359,19.3908964010001,0
                99.7197343660001,19.3909694970001,0
                99.7199663050001,19.3909661330001,0
                99.7207311530001,19.391004966,0
                99.720792912,19.3910081020001,0
                99.720964951,19.39101126,0
                99.721468407,19.391020504,0
                99.7219609740001,19.3909959270001,0
                99.7222389250001,19.390957121,0
                99.7223740110001,19.390956585,0
                99.7226125980001,19.39100088,0
                99.72291842,19.3911155530001,0
                99.7229309790001,19.3911202630001,0
                99.72316162,19.391164589,0
                99.7234876480001,19.391216076,0
                99.7237817260001,19.391229987,0
                99.7244105020001,19.3913399750001,0
                99.724504026,19.391388454,0
                99.724819455,19.391497886,0
                99.725134934,19.3916183860001,0
                99.725505033,19.3916369740001,0
                99.7256231520001,19.3916697080001,0
                99.726102354,19.391854849,0
                99.7261740020001,19.391884254,0
                99.7262411990001,19.391917918,0
                99.726321693,19.3919260800001,0
                99.726393096,19.3919003450001,0
                99.7265224930001,19.391848929,0
                99.726669525,19.3917423030001,0
                99.7274553560001,19.3915482900001,0
                99.7275833990001,19.3915179040001,0
                99.7277098690001,19.3914878910001,0
                99.727901767,19.391419258,0
                99.728284902,19.3911335400001,0
                99.7284214480001,19.3910401590001,0
                99.7285670370001,19.390940594,0
                99.7286280340001,19.3908988790001,0
                99.728694476,19.3908739670001,0
                99.72879521,19.390836198,0
                99.728810992,19.390830281,0
                99.7290565630001,19.3907699150001,0
                99.729175909,19.3907646160001,0
                99.7294766430001,19.3907512640001,0
                99.729802953,19.390754196,0
                99.729945871,19.3907281730001,0
                99.7301510440001,19.3906297940001,0
                99.730226916,19.39060404,0
                99.730342883,19.390548434,0
                99.7304987750001,19.390424802,0
                99.7306546660001,19.390301171,0
                99.7307169210001,19.3902288150001,0
                99.7307886500001,19.3900400520001,0
                99.7308008620001,19.3900079160001,0
                99.7308352270001,19.389987191,0
                99.7309212220001,19.3899353260001,0
                99.7311110210001,19.3898875260001,0
                99.7311266020001,19.3898836020001,0
                99.73128289,19.389849042,0
                99.7314772230001,19.389816164,0
                99.7317171700001,19.389765653,0
                99.7317436910001,19.3897634480001,0
                99.7321452400001,19.3897777070001,0
                99.7321988210001,19.389764767,0
                99.7322521720001,19.389700928,0
                99.7322961180001,19.3896048340001,0
                99.732331849,19.3895267030001,0
                99.73246056,19.3893225900001,0
                99.732600453,19.389172472,0
                99.7326242110001,19.3891421440001,0
                99.7327172770001,19.389086424,0
                99.732868813,19.389063677,0
                99.7331838960001,19.3890956130001,0
                99.7334643330001,19.3892051710001,0
                99.7336281280001,19.3893151990001,0
                99.7337549440001,19.3893867100001,0
                99.7338620090001,19.3894470820001,0
                99.733991502,19.3895166090001,0
                99.7340937000001,19.3896112150001,0
                99.7341787290001,19.389718611,0
                99.7344976190001,19.3900608880001,0
                99.7346321480001,19.3901579010001,0
                99.7347305770001,19.39017871,0
                99.7348289110001,19.390178313,0
                99.7349047820001,19.390152557,0
                99.734947741,19.390116581,0
                99.7349855350001,19.390059256,0
                99.7350024300001,19.3899994670001,0
                99.7350556480001,19.389905937,0
                99.7351216850001,19.389680868,0
                99.7351792190001,19.3895533890001,0
                99.735263246,19.3894750870001,0
                99.7352948600001,19.3894554930001,0
                99.7354107100001,19.3893446170001,0
                99.735495025,19.3892085470001,0
                99.7355931290001,19.3891572520001,0
                99.7357583940001,19.389131133,0
                99.7358246960001,19.3891072330001,0
                99.735878814,19.389072679,0
                99.7359054550001,19.389032983,0
                99.7359760000001,19.388933418,0
                99.7359898450001,19.388913877,0
                99.7361277960001,19.3887775900001,0
                99.7362480570001,19.388683788,0
                99.7363906670001,19.388589897,0
                99.7365376700001,19.388479021,0
                99.7366488590001,19.3883555670001,0
                99.73672429,19.388232256,0
                99.7367524470001,19.388182768,0
                99.7367737200001,19.388105942,0
                99.7367496000001,19.3878970700001,0
                99.736725935,19.3876044990001,0
                99.7367299850001,19.387511169,0
                99.7367318770001,19.3875019880001,0
                99.736747483,19.387426267,0
                99.7367828960001,19.3873497760001,0
                99.7368362830001,19.3872944190001,0
                99.736916604,19.3872644030001,0
                99.7369560990001,19.3872597430001,0
                99.737028287,19.387251226,0
                99.7371893470001,19.3872845060001,0
                99.7373818460001,19.38735159,0
                99.737475728,19.38735545,0
                99.737585784,19.387344893,0
                99.737629299,19.387324854,0
                99.7376586970001,19.3872910850001,0
                99.7378349790001,19.386734727,0
                99.737909931,19.386505379,0
                99.7379405490001,19.386356801,0
                99.7379488000001,19.3862040710001,0
                99.7379526010001,19.3860556010001,0
                99.7379656470001,19.3859749590001,0
                99.7380056820001,19.385932381,0
                99.7380227500001,19.385916045,0
                99.738137039,19.385866186,0
                99.7382951930001,19.3857064040001,0
                99.7383438420001,19.3855916840001,0
                99.738379121,19.385485503,0
                99.7384100820001,19.3854132710001,0
                99.7384768780001,19.3853578600001,0
                99.7386464350001,19.3852935470001,0
                99.7388072250001,19.3852674450001,0
                99.7390396050001,19.3852580180001,0
                99.7392718120001,19.3852104170001,0
                99.7394055170001,19.385170782,0
                99.739423974,19.3851554830001,0
                99.7395009890001,19.385125772,0
                99.739589015,19.3850800820001,0
                99.739726885,19.3850261810001,0
                99.7401065880001,19.384977979,0
                99.7403565970001,19.384913338,0
                99.7405973200001,19.3847723870001,0
                99.740824462,19.3845933170001,0
                99.7410597180001,19.3842318270001,0
                99.7412101090001,19.383883407,0
                99.7412361230001,19.38383601,0
                99.741254311,19.3837743170001,0
                99.74125394,19.3836923590001,0
                99.7412486150001,19.3836805560001,0
                99.7411708660001,19.383508227,0
                99.741154613,19.3834722030001,0
                99.7411184790001,19.383359661,0
                99.741113811,19.383345123,0
                99.74111314,19.3831966710001,0
                99.7412108360001,19.3830563020001,0
                99.741322209,19.382975259,0
                99.741496463,19.3829618240001,0
                99.7417690650001,19.3829522290001,0
                99.741775008,19.3829522980001,0
                99.742041724,19.3829553590001,0
                99.7423187950001,19.382945745,0
                99.742510715,19.38288558,0
                99.742599779,19.3828131110001,0
                99.742767595,19.382292841,0
                99.7428025290001,19.382184533,0
                99.742869188,19.38209943,0
                99.7429494840001,19.38206517,0
                99.7429580240001,19.3820627010001,0
                99.7430387590001,19.3820393560001,0
                99.743387398,19.3820421730001,0
                99.7436197530001,19.3820284990001,0
                99.74380281,19.381985335,0
                99.743968007,19.3819464850001,0
                99.7441150760001,19.38185257,0
                99.7441996110001,19.3817673930001,0
                99.744221554,19.3817326980001,0
                99.744377119,19.3814867250001,0
                99.7444928420001,19.3813802120001,0
                99.744648811,19.381277776,0
                99.744747024,19.3812519250001,0
                99.7448051470001,19.3812559290001,0
                99.74486348,19.3813065890001,0
                99.744899564,19.381378548,0
                99.7449578790001,19.3814249650001,0
                99.7450338800001,19.381428896,0
                99.745256339,19.381374341,0
                99.7453690940001,19.3812532970001,0
                99.74553812,19.380819869,0
                99.7456797550001,19.3806299660001,0
                99.745850041,19.380473755,0
                99.746091698,19.380344295,0
                99.7461535450001,19.3803280160001,0
                99.7462493370001,19.380302801,0
                99.746483099,19.3802412680001,0
                99.7472586470001,19.3800188640001,0
                99.7476073610001,19.3799188610001,0
                99.7477848,19.37976938,0
                99.7479333080001,19.379525356,0
                99.7479469100001,19.379383309,0
                99.7479103910001,19.3791873760001,0
                99.747824215,19.3790389770001,0
                99.7475025250001,19.378803647,0
                99.747337917,19.3786420480001,0
                99.7472524650001,19.37829415,0
                99.747522152,19.378197189,0
                99.747657626,19.378151363,0
                99.7479963070001,19.378037036,0
                99.748262986,19.377923008,0
                99.748516791,19.3778428140001,0
                99.7488191530001,19.377857384,0
                99.749289778,19.3779729870001,0
                99.749953781,19.3783090640001,0
                99.7514477330001,19.379380573,0
                99.7527983530001,19.380201863,0
                99.753786882,19.3808596640001,0
                99.7545700630001,19.381493558,0
                99.7549321960001,19.381679524,0
                99.755388253,19.381805845,0
                99.7553904820001,19.381806462,0
                99.7560893880001,19.3823841340001,0
                99.7566909600001,19.3831203280001,0
                99.7572567390001,19.383721227,0
                99.7577139220001,19.3841350180001,0
                99.7580396060001,19.3844001900001,0
                99.758329061,19.384575252,0
                99.758691372,19.3846798980001,0
                99.7590294930001,19.3846807460001,0
                99.7594770380001,19.38455465,0
                99.7604214360001,19.3842705320001,0
                99.7617649690001,19.383700144,0
                99.7635324120001,19.3831437800001,0
                99.7646708130001,19.382605853,0
                99.7661239450001,19.3819219440001,0
                99.7678787020001,19.3813293590001,0
                99.7694403550001,19.380818977,0
                99.7797498530001,19.37727756,0
                99.7799619690001,19.3772614540001,0
                99.780066134,19.3772762040001,0
                99.780154393,19.3773138180001,0
                99.780254701,19.3773589850001,0
                99.7804314000001,19.3774722160001,0
                99.7806083170001,19.3776310310001,0
                99.7807889630001,19.377732844,0
                99.7809695720001,19.377827058,0
                99.7812315020001,19.377970786,0
                99.7814029340001,19.3780298900001,0
                99.7816075530001,19.3781202000001,0
                99.7817188450001,19.378159618,0
                99.7818600130001,19.378167562,0
                99.781943922,19.378133006,0
                99.7819850010001,19.378122752,0
                99.7820728450001,19.378092555,0
                99.782123955,19.3781065790001,0
                99.782217228,19.3781460760001,0
                99.782277546,19.378199958,0
                99.7823828250001,19.3782394,0
                99.7824323870001,19.3782526100001,0
                99.7825660730001,19.3782557070001,0
                99.7826563030001,19.3782866720001,0
                99.7827106890001,19.378357674,0
                99.782735157,19.3784516050001,0
                99.7827461510001,19.378491287,0
                99.7827596050001,19.3785398380001,0
                99.7827600680001,19.3786367230001,0
                99.782802551,19.378730578,0
                99.782884198,19.3788499090001,0
                99.782929418,19.378886761,0
                99.78300175,19.378943442,0
                99.7830340960001,19.3789683210001,0
                99.7830680540001,19.3789944540001,0
                99.7831203370001,19.3790964570001,0
                99.783190796,19.3792307950001,0
                99.7832586980001,19.3793010320001,0
                99.7832633420001,19.379330935,0
                99.7832568760001,19.379390804,0
                99.7832571920001,19.3794570520001,0
                99.7832665020001,19.379521132,0
                99.7832869970001,19.379568063,0
                99.7833322380001,19.3796106090001,0
                99.7833931650001,19.379635997,0
                99.783467628,19.3796655940001,0
                99.7835106030001,19.3797038770001,0
                99.7835529320001,19.37976568,0
                99.7836255000001,19.3798700850001,0
                99.7836685060001,19.3799147820001,0
                99.7837926780001,19.3799805040001,0
                99.7838175320001,19.379997498,0
                99.783842527,19.380042266,0
                99.783876558,19.3800955520001,0
                99.7839331580001,19.380157286,0
                99.7840100120001,19.380216798,0
                99.784048511,19.380261514,0
                99.7840621750001,19.3802935140001,0
                99.7840761080001,19.380381077,0
                99.784098864,19.380430135,0
                99.7841599870001,19.3804961270001,0
                99.7843068650001,19.380600212,0
                99.7843499040001,19.380651324,0
                99.7843545850001,19.3806876350001,0
                99.7843504150001,19.380758181,0
                99.7843686690001,19.3808072570001,0
                99.7844049230001,19.380854121,0
                99.7844208440001,19.3808861110001,0
                99.784430124,19.380943777,0
                99.7844483380001,19.3809843020001,0
                99.784475484,19.38100983,0
                99.784494276,19.3810129880001,0
                99.784711997,19.380927543,0
                99.784785614,19.3809191600001,0
                99.7848000390001,19.3809208100001,0
                99.784814075,19.3809333830001,0
                99.784819128,19.3809379080001,0
                99.784838107,19.38096138,0
                99.7848441730001,19.380984906,0
                99.7848462460001,19.381002795,0
                99.784841408,19.381029201,0
                99.7848266230001,19.3810564360001,0
                99.7848259570001,19.3810614720001,0
                99.784801939,19.381109898,0
                99.784800476,19.381125277,0
                99.7848001840001,19.3811283050001,0
                99.784805227,19.3811443000001,0
                99.784817198,19.3811564970001,0
                99.784832114,19.381162083,0
                99.784861047,19.3811648440001,0
                99.784990893,19.381192496,0
                99.7850421000001,19.381237979,0
                99.785076496,19.3813211720001,0
                99.7851107380001,19.381372103,0
                99.7851704380001,19.3814148590001,0
                99.7853151930001,19.3814733780001,0
                99.785494009,19.381545197,0
                99.7857443240001,19.381756497,0
                99.785795776,19.3818530570001,0
                99.785821711,19.3819443510001,0
                99.78582185,19.381973252,0
                99.7858418220001,19.382040746,0
                99.7859219430001,19.382169746,0
                99.7859848000001,19.3822796970001,0
                99.786016503,19.382392474,0
                99.786025673,19.3825322370001,0
                99.7860430270001,19.382607437,0
                99.786068781,19.3826610900001,0
                99.7861371810001,19.3827468260001,0
                99.786196997,19.382813777,0
                99.786231329,19.382883529,0
                99.7862511070001,19.3829353350001,0
                99.7862887050001,19.3830338270001,0
                99.7863400090001,19.3830981300001,0
                99.786428153,19.3831649590001,0
                99.78648516,19.383237298,0
                99.7866192750001,19.383438348,0
                99.7867703090001,19.3836231930001,0
                99.78690133,19.383770488,0
                99.787043699,19.383920431,0
                99.7872425450001,19.384032484,0
                99.7874361280001,19.384227895,0
                99.787757641,19.3845168550001,0
                99.7878556730001,19.3846037110001,0
                99.7880535350001,19.384779032,0
                99.788212709,19.384888566,0
                99.7883209670001,19.385014456,0
                99.78840368,19.385129696,0
                99.7885210840001,19.3853899690001,0
                99.7885540920001,19.3854797590001,0
                99.788615812,19.385647642,0
                99.7886529410001,19.385709316,0
                99.7887411460001,19.3857895830001,0
                99.7888339670001,19.3858969510001,0
                99.790604224,19.3884631760001,0
                99.7907201390001,19.388685438,0
                99.7908806680001,19.3888977010001,0
                99.790997352,19.3890725790001,0
                99.7911404800001,19.3891741100001,0
                99.7911994740001,19.3892039730001,0
                99.7913805890001,19.3892956510001,0
                99.7915045460001,19.389328311,0
                99.791652711,19.3893583130001,0
                99.7919595830001,19.3893723,0
                99.7921695090001,19.38937394,0
                99.7924171010001,19.389372861,0
                99.7925704510001,19.3893619770001,0
                99.7926700510001,19.3893666500001,0
                99.7929123960001,19.3893936870001,0
                99.7931628640001,19.3894309020001,0
                99.793273303,19.389450851,0
                99.7933970610001,19.38944265,0
                99.7936633800001,19.3894185030001,0
                99.7938705170001,19.3893997220001,0
                99.7939324150001,19.3893994520001,0
                99.794112849,19.389424202,0
                99.794727004,19.3895364430001,0
                99.795254829,19.389605644,0
                99.7957502100001,19.389644339,0
                99.795882093,19.389646315,0
                99.796143091,19.3896349570001,0
                99.7964203100001,19.389638851,0
                99.796689594,19.3896708720001,0
                99.796821675,19.389685462,0
                99.7969537540001,19.389678916,0
                99.79701363,19.389702533,0
                99.7972028040001,19.3897942340001,0
                99.797259361,19.3897820450001,0
                99.79729045,19.3897072880001,0
                99.797343508,19.3896204920001,0
                99.797422049,19.389602242,0
                99.7975950330001,19.389598499,0
                99.7977586370001,19.3896067380001,0
                99.797830956,19.3896004480001,0
                99.798019508,19.389535897,0
                99.7984046030001,19.3895252140001,0
                99.7995528870001,19.389563084,0
                99.800991228,19.389647192,0
                99.8022234460001,19.3898111680001,0
                99.8033826420001,19.390135817,0
                99.804142685,19.3903872130001,0
                99.8048211230001,19.3907024850001,0
                99.8058878460001,19.391163351,0
                99.8071540820001,19.3916075440001,0
                99.8073519690001,19.3916730170001,0
                99.8105818990001,19.39167876,0
                99.813120858,19.391683232,0
                99.8157666330001,19.3916898850001,0
                99.8169422380001,19.383812139,0
                99.817846214,19.3772098750001,0
                99.8187176370001,19.3739770610001,0
                99.8193901720001,19.3704175510001,0
                99.820155905,19.3657813290001,0
                99.8207615000001,19.362228778,0
                99.820951875,19.361442406,0
                99.8216369660001,19.358612554,0
                99.8223876920001,19.3563567210001,0
                99.8229040990001,19.3551351790001,0
                99.8234513420001,19.3543482870001,0
                99.82381258,19.35395319,0
                99.8241154030001,19.353559186,0
                99.8242438520001,19.3531246540001,0
                99.8243708470001,19.3524008160001,0
                99.8245418970001,19.3517800990001,0
                99.824920466,19.3508415790001,0
                99.8249285480001,19.350821545,0
                99.8247640860001,19.350582961,0
                99.8245981850001,19.350342273,0
                99.824587083,19.350326163,0
                99.8245647210001,19.350314493,0
                99.824502442,19.3503147750001,0
                99.824422294,19.3503220580001,0
                99.8243240150001,19.350350184,0
                99.8242283470001,19.3504134670001,0
                99.82406187,19.350603285,0
                99.8235797890001,19.351215778,0
                99.8230037110001,19.351859188,0
                99.82255968,19.352342827,0
                99.8221677600001,19.3527952270001,0
                99.822061611,19.352907331,0
                99.8218580440001,19.353137701,0
                99.8215788680001,19.3534903660001,0
                99.8215571740001,19.353507001,0
                99.8215245420001,19.353513352,0
                99.8212214200001,19.353434104,0
                99.820973027,19.3534104170001,0
                99.8206420010001,19.353411909,0
                99.8202880680001,19.35342373,0
                99.8201061350001,19.35343591,0
                99.819897789,19.353434577,0
                99.819677346,19.353408293,0
                99.8194401200001,19.3533775400001,0
                99.819303512,19.3533554270001,0
                99.8189366990001,19.353270702,0
                99.818404463,19.3531480880001,0
                99.817932225,19.3530501930001,0
                99.817610932,19.352969817,0
                99.817397521,19.352911675,0
                99.817224944,19.352880629,0
                99.8170859290001,19.3528562500001,0
                99.8168112480001,19.352758964,0
                99.816457395,19.352629881,0
                99.81621426,19.3525339940001,0
                99.8159424340001,19.352447323,0
                99.815664085,19.3523334070001,0
                99.815027097,19.3520119890001,0
                99.814601429,19.35180781,0
                99.8144638200001,19.351744787,0
                99.8143263790001,19.3517150980001,0
                99.814156918,19.351667364,0
                99.8138458320001,19.3515151070001,0
                99.8136393010001,19.351373946,0
                99.8135706930001,19.3512790350001,0
                99.8135191600001,19.351188349,0
                99.813448253,19.351055323,0
                99.8133936950001,19.3509979840001,0
                99.8133042970001,19.350943999,0
                99.8132591890001,19.3509167610001,0
                99.8131968600001,19.350845957,0
                99.8131572250001,19.3507667380001,0
                99.8130000190001,19.3504525170001,0
                99.812964235,19.350391447,0
                99.812917015,19.3503123580001,0
                99.8128335660001,19.350224843,0
                99.8126958990001,19.3501496910001,0
                99.8125424340001,19.350107952,0
                99.8124559140001,19.350044693,0
                99.812404632,19.3500055270001,0
                99.812353117,19.3499178710001,0
                99.8123441500001,19.349862226,0
                99.8123399390001,19.3498361000001,0
                99.8123995970001,19.3496327890001,0
                99.812414248,19.3495274900001,0
                99.812424987,19.3494503110001,0
                99.8124262620001,19.3492144470001,0
                99.8124351970001,19.3490840900001,0
                99.812431255,19.348932577,0
                99.812417882,19.348811416,0
                99.8122814750001,19.3486056240001,0
                99.8122645050001,19.3485020300001,0
                99.812276259,19.3483698380001,0
                99.8122730600001,19.3481307210001,0
                99.812293991,19.348022943,0
                99.8123100500001,19.3479898100001,0
                99.8123971860001,19.347810027,0
                99.8124457260001,19.347705037,0
                99.8124635610001,19.3475914530001,0
                99.8124567510001,19.3474546960001,0
                99.8124095940001,19.3472191660001,0
                99.812389855,19.347092274,0
                99.8124076130001,19.3468925500001,0
                99.8124073720001,19.346843984,0
                99.8124003240001,19.3467161290001,0
                99.8123961360001,19.346518228,0
                99.8123857450001,19.3463629830001,0
                99.8123559100001,19.346168242,0
                99.8123520390001,19.3460342830001,0
                99.812383174,19.345922552,0
                99.812224697,19.345890722,0
                99.811141816,19.3456731690001,0
                99.8103798170001,19.345499445,0
                99.8101946560001,19.34545723,0
                99.8100248750001,19.3454185210001,0
                99.809573776,19.345315629,0
                99.808266394,19.345015249,0
                99.807899944,19.3449229770001,0
                99.8077674040001,19.3448973870001,0
                99.8086109720001,19.343654724,0
                99.8085567890001,19.3436340380001,0
                99.8083187410001,19.343582208,0
                99.8078476430001,19.3435007250001,0
                99.8073399500001,19.3434645790001,0
                99.806542945,19.343404864,0
                99.8064458490001,19.3433917410001,0
                99.8058780300001,19.343355767,0
                99.8049964410001,19.3432738340001,0
                99.8038483710001,19.343213398,0
                99.80280946,19.3432089410001,0
                99.8016252910001,19.3431825330001,0
                99.8002111750001,19.343121078,0
                99.7993431740001,19.3430560630001,0
                99.797220538,19.3430668350001,0
                99.7968766920001,19.3429677890001,0
                99.796207241,19.342762678,0
                99.7959548530001,19.3426909670001,0
                99.7955160220001,19.342588865,0
                99.79508465,19.3425179340001,0
                99.794821454,19.342477473,0
                99.794284055,19.3423862020001,0
                99.7941488390001,19.3423729260001,0
                99.793494787,19.3423306990001,0
                99.7931074690001,19.342304647,0
                99.7923218050001,19.342238719,0
                99.7922741510001,19.342204252,0
                99.7922483950001,19.342166224,0
                99.792243441,19.3418957970001,0
                99.792236034,19.341875024,0
                99.792216081,19.341858944,0
                99.791921453,19.3419097660001,0
                99.7917626610001,19.3419312560001,0
                99.7916492020001,19.3419369320001,0
                99.7914778160001,19.3419455000001,0
                99.7911298710001,19.3419418070001,0
                99.790661426,19.341946443,0
                99.7904312790001,19.341942236,0
                99.7901573550001,19.3419486290001,0
                99.789976612,19.341962412,0
                99.7898041440001,19.3419891670001,0
                99.7895030720001,19.3420476800001,0
                99.7892896370001,19.3421006140001,0
                99.789122745,19.342145546,0
                99.7889127550001,19.342176604,0
                99.7886866760001,19.3421794770001,0
                99.7886796800001,19.342180054,0
                99.7882571420001,19.342167497,0
                99.7879201430001,19.3421611520001,0
                99.7876435140001,19.3421753490001,0
                99.787438045,19.3422009990001,0
                99.787394363,19.3422076310001,0
                99.7871835940001,19.3422449510001,0
                99.787000171,19.3422717440001,0
                99.7867729660001,19.3423091350001,0
                99.786674379,19.34231736,0
                99.786137877,19.341849332,0
                99.785728696,19.3415145550001,0
                99.7852466050001,19.341100843,0
                99.7847533660001,19.340603706,0
                99.784211655,19.3400503030001,0
                99.7833567220001,19.339197744,0
                99.7821989280001,19.33828241,0
                99.781805385,19.3379712770001,0
                99.7815365480001,19.33805668,0
                99.7814365450001,19.338071078,0
                99.7813364770001,19.3380715070001,0
                99.781265739,19.338052254,0
                99.7812096480001,19.338016172,0
                99.7811120480001,19.3379160120001,0
                99.7809285430001,19.3377016650001,0
                99.7807124290001,19.3374371730001,0
                99.7805170490001,19.3372005320001,0
                99.7803747340001,19.336983219,0
                99.7803510370001,19.336944385,0
                99.780119627,19.3365652260001,0
                99.7798912590001,19.3362001990001,0
                99.779698603,19.33591605,0
                99.7796009790001,19.335810295,0
                99.7794621880001,19.3357158970001,0
                99.7777445400001,19.3345770290001,0
                99.7776371990001,19.3345667740001,0
                99.777484723,19.3345620580001,0
                99.7772360320001,19.334509526,0
                99.776958703,19.334371345,0
                99.7766417860001,19.33422261,0
                99.7764884490001,19.3340356630001,0
                99.7763921090001,19.3339610350001,0
                99.7761377680001,19.3339085160001,0
                99.7758611400001,19.3339204160001,0
                99.7756808350001,19.3340015860001,0
                99.7756318840001,19.3340201510001,0
                99.7753286320001,19.334083471,0
                99.7748934960001,19.334162115,0
                99.7747911120001,19.3341619770001,0
                99.7746082400001,19.3340517020001,0
                99.7743745180001,19.3339812310001,0
                99.7740881620001,19.3339252700001,0
                99.77383939,19.3338548620001,0
                99.7736655290001,19.3337055150001,0
                99.773513812,19.333463173,0
                99.7733550020001,19.3333137610001,0
                99.7730231830001,19.3331936760001,0
                99.7690757700001,19.3320769430001,0
                99.7689568760001,19.3320091050001,0
                99.768863755,19.332017545,0
                99.7688045200001,19.33202985,0
                99.768736141,19.332066691,0
                99.7686006330001,19.332123795,0
                99.768422189,19.3321697750001,0
                99.7682268550001,19.3321705990001,0
                99.768152952,19.332157346,0
                99.7681146470001,19.3321447280001,0
                99.7680908820001,19.332128212,0
                99.7680358790001,19.3320832160001,0
                99.7680071010001,19.332040368,0
                99.7679612030001,19.3319048870001,0
                99.767934553,19.331807767,0
                99.7679296040001,19.331769346,0
                99.7679081040001,19.3317558640001,0
                99.7678414760001,19.3317719770001,0
                99.7677629610001,19.3317903980001,0
                99.7674539700001,19.331936419,0
                99.7673635570001,19.331959409,0
                99.767292034,19.3319461460001,0
                99.767241874,19.33191922,0
                99.7670842860001,19.3318384830001,0
                99.7670246590001,19.3318229010001,0
                99.766981806,19.3318276090001,0
                99.7668938370001,19.331864152,0
                99.7668319800001,19.331880244,0
                99.7667653,19.3318850520001,0
                99.7667129710001,19.331901096,0
                99.766691618,19.3319192760001,0
                99.7666537570001,19.3319737090001,0
                99.7666206750001,19.33203038,0
                99.7665684300001,19.332064514,0
                99.7665601990001,19.332069614,0
                99.7664868750001,19.3321149820001,0
                99.7663538210001,19.3321879060001,0
                99.766284005,19.3322002630001,0
                99.7661982480001,19.3322006240001,0
                99.7661186510001,19.3321587400001,0
                99.766045235,19.3320806560001,0
                99.765997451,19.3320507120001,0
                99.7658606970001,19.332012095,0
                99.7657969890001,19.331970144,0
                99.765749026,19.3319040170001,0
                99.7657486740001,19.3319021300001,0
                99.765732755,19.3318196660001,0
                99.7657005560001,19.3317248270001,0
                99.765589477,19.3315162490001,0
                99.7655253560001,19.3313878860001,0
                99.7654617050001,19.33136001,0
                99.7653939720001,19.33136431,0
                99.765220534,19.331405236,0
                99.7650683840001,19.331470199,0
                99.764945627,19.3314827780001,0
                99.764805718,19.331447182,0
                99.7646912430001,19.3314195200001,0
                99.7645515520001,19.331363088,0
                99.7644323860001,19.331304029,0
                99.764177965,19.3312327310001,0
                99.7639576440001,19.331209535,0
                99.7637077240001,19.3311945030001,0
                99.763584306,19.3311950200001,0
                99.763450354,19.331156928,0
                99.7634407250001,19.3311514000001,0
                99.7633345420001,19.331083504,0
                99.7632496020001,19.331031599,0
                99.763126556,19.330979853,0
                99.7629020420001,19.3309647130001,0
                99.7627030290001,19.33096957,0
                99.76257186,19.330994237,0
                99.7623563000001,19.3310835730001,0
                99.762017696,19.331255565,0
                99.761791314,19.3313307290001,0
                99.761720311,19.331315547,0
                99.7616754470001,19.331287424,0
                99.76111783,19.330900308,0
                99.7610604480001,19.330855329,0
                99.7610063720001,19.3308374550001,0
                99.760850911,19.3308742950001,0
                99.7607746640001,19.330868577,0
                99.7606823340001,19.330820725,0
                99.760346714,19.3305130850001,0
                99.760267287,19.330433011,0
                99.76008949,19.330188976,0
                99.7600570440001,19.3301444480001,0
                99.7599834680001,19.3301072310001,0
                99.759955468,19.3301073480001,0
                99.759887485,19.330107631,0
                99.7598025890001,19.3300651050001,0
                99.759740284,19.3300224830001,0
                99.7597328370001,19.3299901890001,0
                99.7597229890001,19.3299475170001,0
                99.7596943440001,19.3298565100001,0
                99.759670913,19.329674373,0
                99.759636244,19.329502996,0
                99.759579359,19.3294121070001,0
                99.759488473,19.329294566,0
                99.7593413060001,19.329214775,0
                99.7592168100001,19.3291563340001,0
                99.759064165,19.3291140900001,0
                99.758951112,19.3290877580001,0
                99.758628081,19.329135336,0
                99.7584517240001,19.3292186630001,0
                99.7582094370001,19.329265719,0
                99.7580571290001,19.329294487,0
                99.7579768840001,19.329343066,0
                99.757883737,19.329347478,0
                99.7577777240001,19.329315751,0
                99.7577310120001,19.329287811,0
                99.7576883710001,19.3292236630001,0
                99.757590178,19.3290512080001,0
                99.7575668490001,19.328979568,0
                99.7575491330001,19.328955867,0
                99.757488025,19.328939071,0
                99.75737781,19.32891541,0
                99.7571957550001,19.3289242060001,0
                99.7568701200001,19.329018025,0
                99.7567474570001,19.3290506930001,0
                99.75665853,19.3290510620001,0
                99.7565737040001,19.3290232700001,0
                99.756459093,19.328963446,0
                99.7563997380001,19.328947613,0
                99.7562348600001,19.329008597,0
                99.7560869760001,19.3290815670001,0
                99.7558885010001,19.3292030000001,0
                99.7556265600001,19.3293367430001,0
                99.7555251470001,19.3293854080001,0
                99.7554830060001,19.3294297960001,0
                99.7554833570001,19.3295061740001,0
                99.7555388160001,19.329594389,0
                99.7555539040001,19.329622724,0
                99.75556872,19.3296505500001,0
                99.755568887,19.3296867230001,0
                99.7555478770001,19.329722992,0
                99.755471759,19.329747426,0
                99.755374455,19.329767933,0
                99.755205125,19.329780688,0
                99.7549195460001,19.3297919140001,0
                99.754750986,19.32984084,0
                99.7546452590001,19.3298630400001,0
                99.75441383,19.329880077,0
                99.7541769890001,19.329945373,0
                99.7539794350001,19.329962277,0
                99.7538385280001,19.330016454,0
                99.7537502370001,19.330121166,0
                99.7537205940001,19.330156306,0
                99.7536529420001,19.3301780210001,0
                99.7535690280001,19.330170787,0
                99.7535343200001,19.330167798,0
                99.7533025710001,19.3301151530001,0
                99.7531273120001,19.33006764,0
                99.7530031700001,19.3300842310001,0
                99.7528059690001,19.330176163,0
                99.7525747450001,19.3302360770001,0
                99.7523151570001,19.3302693160001,0
                99.751886142,19.330292521,0
                99.751344368,19.3303537140001,0
                99.7510455550001,19.3304514280001,0
                99.7506475120001,19.330738625,0
                99.7504843830001,19.3308065250001,0
                99.74980464,19.331405783,0
                99.7491608290001,19.3319919350001,0
                99.7491465530001,19.332004931,0
                99.748715249,19.332448904,0
                99.7485102240001,19.332624568,0
                99.7483482480001,19.332738351,0
                99.748110442,19.3328524460001,0
                99.7477097140001,19.3328746610001,0
                99.7476488870001,19.332870674,0
                99.7474652160001,19.332858631,0
                99.7471600640001,19.332755756,0
                99.746781744,19.3326416200001,0
                99.7465865600001,19.332601921,0
                99.746403704,19.3325911090001,0
                99.7461785020001,19.3326498700001,0
                99.745947421,19.3327549420001,0
                99.7456559110001,19.332970157,0
                99.7453829550001,19.333248933,0
                99.745335045,19.3334342410001,0
                99.7453025560001,19.33353715,0
                99.7452088900001,19.3338338830001,0
                99.745130305,19.3339730390001,0
                99.744905976,19.334222687,0
                99.7446019670001,19.3343743240001,0
                99.7443226920001,19.3346010650001,0
                99.7440870550001,19.3350474320001,0
                99.7435786630001,19.3354183280001,0
                99.7430316480001,19.3358319070001,0
                99.742484383,19.3361906390001,0
                99.7418938360001,19.336563251,0
                99.741447119,19.336798163,0
                99.740812679,19.33704755,0
                99.740423057,19.337131399,0
                99.739960953,19.337160704,0
                99.7396431230001,19.3371482800001,0
                99.739498374,19.337080315,0
                99.739338806,19.3369301340001,0
                99.7391637430001,19.3365469230001,0
                99.7389311490001,19.3362187920001,0
                99.7387856600001,19.3359862790001,0
                99.738640665,19.335863467,0
                99.7384958540001,19.3357817790001,0
                99.7383367200001,19.335727585,0
                99.738134255,19.3356735580001,0
                99.7374983380001,19.3355938560001,0
                99.7368043340001,19.3354458360001,0
                99.736023732,19.335311876,0
                99.7355178190001,19.3352316510001,0
                99.7348674660001,19.3351519990001,0
                99.734129523,19.3348670400001,0
                99.7336521290001,19.33470442,0
                99.7334202920001,19.3345408110001,0
                99.7331301190001,19.3342540370001,0
                99.7324494710001,19.333859138,0
                99.731813388,19.3337382920001,0
                99.7310027450001,19.3333439090001,0
                99.7303222880001,19.3329901330001,0
                99.729960153,19.3327584890001,0
                99.7294250610001,19.332609803,0
                99.7289769970001,19.332543034,0
                99.7272568070001,19.3328215380001,0
                99.7248456730001,19.3332295000001,0
                99.72215506,19.3337049190001,0
                99.7217010470001,19.3338395070001,0
                99.720724508,19.334440902,0
                99.7195458740001,19.33589607,0
                99.7193690990001,19.336287353,0
                99.7187563670001,19.3401916,0
                99.7185181080001,19.3416863730001,0
                99.7174429780001,19.3437487640001,0
                99.71535843,19.3455552020001,0
                99.7138784640001,19.3461492010001,0
                99.7121317230001,19.346587588,0
                99.711223299,19.346790307,0
                99.7095099310001,19.346863387,0
                99.7063381310001,19.347139182,0
                99.7010636590001,19.347597681,0
                99.700936654,19.3481564470001,0
                99.7007980270001,19.3487487420001,0
                99.7007520700001,19.349005719,0
                99.700647631,19.3493410830001,0
                99.7004614730001,19.3498219140001,0
                99.700228354,19.3503252520001,0
                99.700024796,19.350788068,0
                99.7000069960001,19.3508285460001,0
                99.699832025,19.351175337,0
                99.699586761,19.351589403,0
                99.6994584610001,19.351846703,0
                99.69910723,19.35223884,0
                99.698802528,19.3525079730001,0
                99.6985917900001,19.352743253,0
                99.698392815,19.352978487,0
                99.6981232530001,19.3532139930001,0
                99.6977714450001,19.353472148,0
                99.6975483200001,19.35356233,0
                99.6971722280001,19.3536419230001,0
                99.69698829,19.353659528,0
                99.6968077070001,19.3536768180001,0
                99.696478432,19.353700405,0
                99.6961728150001,19.3537574000001,0
                99.6958084830001,19.353836947,0
                99.6953386100001,19.3539950590001,0
                99.6949867470001,19.3542420380001,0
                99.6947760050001,19.3544773150001,0
                99.6946594570001,19.354734566,0
                99.6945667630001,19.3550698810001,0
                99.6944632540001,19.355628546,0
                99.6943238900001,19.3560533580001,0
                99.694242966,19.356388629,0
                99.694080259,19.3568581930001,0
                99.69397566,19.3571600540001,0
                99.6938473470001,19.35741735,0
                99.69363674,19.3576861170001,0
                99.6933907420001,19.357932696,0
                99.6931209290001,19.358112369,0
                99.6927691020001,19.3583705140001,0
                99.6924758110001,19.358561439,0
                99.6921476080001,19.358841822,0
                99.691889931,19.3591107720001,0
                99.6917025120001,19.359301293,0
                99.6915152820001,19.3595364760001,0
                99.6914222120001,19.3597824670001,0
                99.691364852,19.3601288090001,0
                99.6913658400001,19.360363278,0
                99.6913902590001,19.3605753300001,0
                99.691471425,19.361050114,0
                99.6919580190001,19.3630029440001,0
                99.69208681,19.363857465,0
                99.6920929820001,19.363956194,0
                99.692515122,19.365879394,0
                99.6928837900001,19.367459486,0
                99.693126239,19.368217654,0
                99.6937753670001,19.370744851,0
                99.6940001310001,19.3716288840001,0
                99.6940364480001,19.371871593,0
                99.694037972,19.3722316650001,0
                99.6940478610001,19.3724828490001,0
                99.6940193020001,19.3726448690001,0
                99.6939961560001,19.372776141,0
                99.6939004150001,19.3730863440001,0
                99.6938750410001,19.373346037,0
                99.693867217,19.3735805370001,0
                99.6939562970001,19.3737811710001,0
                99.694080752,19.373998425,0
                99.694091944,19.3740194480001,0
                99.6942319570001,19.374282561,0
                99.6942863230001,19.374617315,0
                99.694287671,19.3749355210001,0
                99.6942714400001,19.375270545,0
                99.694246138,19.3755469870001,0
                99.6942474860001,19.375865193,0
                99.6942488340001,19.3761834000001,0
                99.694250061,19.376473085,0
                99.694250395,19.376551847,0
                99.6942870410001,19.376869927,0
                99.6943681920001,19.377279936,0
                99.6944227290001,19.3776565640001,0
                99.694565292,19.3779826050001,0
                99.694632514,19.3782391030001,0
                99.6946639510001,19.378359056,0
                99.6947975560001,19.378651635,0
                99.694984279,19.378985889,0
                99.695153104,19.379261582,0
                99.695339892,19.379612579,0
                99.6955088610001,19.3799217710001,0
                99.695538189,19.380008682,0
                99.695553755,19.3800548030001,0
                99.695616101,19.3802395720001,0
                99.695670293,19.38053246,0
                99.6957103710001,19.380755112,0
                99.6957154770001,19.3807835000001,0
                99.6957254040001,19.381043058,0
                99.695682133,19.3812442020001,0
                99.6955946750001,19.381428767,0
                99.6954544180001,19.3816470250001,0
                99.695287508,19.381823519,0
                99.6950852000001,19.3819750230001,0
                99.6948740590001,19.3821265600001,0
                99.6946450980001,19.3822362990001,0
                99.6943721550001,19.382379697,0
                99.6941608710001,19.382497744,0
                99.6939583120001,19.382590624,0
                99.6936154270001,19.3826841870001,0
                99.693519903,19.383358604,0
                99.6934134260001,19.3841103510001,0
                99.6932702290001,19.384974926,0
                99.6930373920001,19.3854775040001,0
                99.693032443,19.3854839480001,0
                99.692307139,19.386427928,0
                99.69151816,19.387371536,0
                99.691488883,19.387406551,0
                99.6908466100001,19.3883287630001,0
                99.6900882500001,19.3895858760001,0
                99.6893910920001,19.3914280560001,0
                99.6888373720001,19.3924614090001,0
                99.6885754900001,19.3930477060001,0
                99.688482165,19.3933949890001,0
                99.688435074,19.394581192,0
                99.6882530820001,19.3953469090001,0
                99.687750898,19.396652814,0
                99.6875120980001,19.397598655,0
                99.6872444420001,19.398658771,0
                99.687170925,19.398949955,0
                99.687262805,19.398890454,0
                99.6916775050001,19.3960313170001,0
                99.6960214380001,19.3934805910001,0
                99.697082901,19.392857281,0
              </coordinates>
                
            </LinearRing>
            
          </outerBoundaryIs>
        
        </Polygon>
        
      <styleUrl>
        #tambonStyle</styleUrl>
    </Placemark>

  </Document>
</kml>