<?xml version="1.0" encoding="UTF-8"?>
<kml xmlns="http://www.opengis.net/kml/2.2">
  <Document id="tambon_doc">
    <name>หนองพระ, วังทอง, Phitsanulok</name>
    <description>ข้อมูลขอบเขตตำบลหนองพระ อำเภอวังทอง จังหวัดPhitsanulok</description>
    
    <!-- Schema สำหรับข้อมูลตำบล -->
    <Schema id="tambon.schema">
      <SimpleField name="ADM3_EN" type="string">
        <displayName>Subdistrict Name (English)</displayName>
      </SimpleField>
      <SimpleField name="ADM3_TH" type="string">
        <displayName>ชื่อตำบล</displayName>
      </SimpleField>
      <SimpleField name="ADM2_EN" type="string">
        <displayName>District Name (English)</displayName>
      </SimpleField>
      <SimpleField name="ADM2_TH" type="string">
        <displayName>ชื่ออำเภอ</displayName>
      </SimpleField>
      <SimpleField name="ADM1_EN" type="string">
        <displayName>Province Name (English)</displayName>
      </SimpleField>
      <SimpleField name="ADM1_TH" type="string">
        <displayName>ชื่อจังหวัด</displayName>
      </SimpleField>
      <SimpleField name="ADM0_EN" type="string">
        <displayName>Country Name (English)</displayName>
      </SimpleField>
      <SimpleField name="ADM0_TH" type="string">
        <displayName>ชื่อประเทศ</displayName>
      </SimpleField>
    </Schema>

    <!-- Style สำหรับตำบล -->
    <Style id="tambonStyle">
      <LineStyle>
        <color>ffff0000</color>
        <width>1.5</width>
      </LineStyle>
      <PolyStyle>
        <color>33ff0000</color>
        <fill>1</fill>
        <outline>1</outline>
      </PolyStyle>
    </Style>

    <Placemark id="Phitsanulok.84">
        
        <ExtendedData>
            
          <SchemaData schemaUrl="#tambon.schema">
                
            <SimpleData name="Shape_Leng">
                0.380529603639</SimpleData>
                
            <SimpleData name="Shape_Area">
                0.0050464192103</SimpleData>
                
            <SimpleData name="ADM3_EN">
                Nong Phra</SimpleData>
                
            <SimpleData name="ADM3_TH">
                หนองพระ</SimpleData>
                
            <SimpleData name="ADM3_PCODE">
                TH650809</SimpleData>
                
            <SimpleData name="ADM2_EN">
                Wang Thong</SimpleData>
                
            <SimpleData name="ADM2_TH">
                วังทอง</SimpleData>
                
            <SimpleData name="ADM2_PCODE">
                TH6508</SimpleData>
                
            <SimpleData name="ADM1_EN">
                Phitsanulok</SimpleData>
                
            <SimpleData name="ADM1_TH">
                พิษณุโลก</SimpleData>
                
            <SimpleData name="ADM1_PCODE">
                TH65</SimpleData>
                
            <SimpleData name="ADM0_EN">
                Thailand</SimpleData>
                
            <SimpleData name="ADM0_TH">
                ประเทศไทย</SimpleData>
                
            <SimpleData name="ADM0_PCODE">
                TH</SimpleData>
            
          </SchemaData>
        
        </ExtendedData>
        
        <Polygon>
            
          <outerBoundaryIs>
                
            <LinearRing>
                    
              <coordinates>
                    
                100.45375661,16.723868558,0
                100.453769586,16.723005513,0
                100.453770505,16.7226237100001,0
                100.453703711,16.722282062,0
                100.453542767,16.7214588260001,0
                100.453534613,16.7213957390001,0
                100.453531413,16.7213490880001,0
                100.453536979,16.7213093710001,0
                100.453550929,16.7212926620001,0
                100.453579452,16.7212800660001,0
                100.453946635,16.721227615,0
                100.454065902,16.721210576,0
                100.454310283,16.721173267,0
                100.454389013,16.7211582080001,0
                100.457432389,16.720261925,0
                100.457458797,16.7202500400001,0
                100.457475752,16.720231385,0
                100.457488305,16.7202109890001,0
                100.457615776,16.718976006,0
                100.457704946,16.717974988,0
                100.457770579,16.7169107940001,0
                100.457776335,16.716901847,0
                100.458152185,16.716888441,0
                100.45831571,16.7168826060001,0
                100.458944362,16.716805766,0
                100.45985473,16.716565121,0
                100.461701852,16.7158898230001,0
                100.461863189,16.715822267,0
                100.461891581,16.7158092560001,0
                100.461916035,16.7157779630001,0
                100.46192888,16.715741899,0
                100.461958381,16.7153278660001,0
                100.461962006,16.7152423790001,0
                100.461962697,16.7152074900001,0
                100.461965093,16.7150868840001,0
                100.461972934,16.7150481350001,0
                100.461981789,16.715034254,0
                100.461993452,16.715022843,0
                100.462008359,16.7150155310001,0
                100.462023391,16.715010395,0
                100.463665479,16.7152085290001,0
                100.463687826,16.7152077740001,0
                100.463767887,16.715198039,0
                100.466685271,16.7143874490001,0
                100.466688896,16.714386285,0
                100.466716109,16.71437001,0
                100.466802233,16.7141161550001,0
                100.466832108,16.7140482180001,0
                100.466921863,16.7138627,0
                100.467048981,16.713594551,0
                100.467103108,16.7134696960001,0
                100.467179416,16.7132641430001,0
                100.467240318,16.713031239,0
                100.467268149,16.712945011,0
                100.467306833,16.7127873150001,0
                100.467486715,16.7119678180001,0
                100.467558371,16.711650638,0
                100.467576567,16.711546168,0
                100.467587037,16.711425283,0
                100.46760354,16.7111882940001,0
                100.467618943,16.710528244,0
                100.467608737,16.710332211,0
                100.467611305,16.7103062470001,0
                100.467614146,16.71029638,0
                100.467620073,16.710285335,0
                100.467627213,16.7102760170001,0
                100.467639284,16.7102639070001,0
                100.468297233,16.7099441940001,0
                100.468643816,16.709773141,0
                100.468651602,16.709764862,0
                100.468655737,16.70975557,0
                100.468656844,16.7097433970001,0
                100.468654323,16.7097307220001,0
                100.468393177,16.7091300060001,0
                100.468305361,16.708911411,0
                100.468213731,16.7086649460001,0
                100.468207047,16.708628957,0
                100.46820542,16.7086002390001,0
                100.468212029,16.7083025260001,0
                100.468220907,16.7080666750001,0
                100.468215723,16.707947274,0
                100.468211807,16.7078546340001,0
                100.468207111,16.707799069,0
                100.468155454,16.70747098,0
                100.468144304,16.7074103100001,0
                100.468102846,16.707158341,0
                100.46805402,16.706920844,0
                100.468019276,16.7067079550001,0
                100.467956738,16.706354199,0
                100.467939666,16.7062173780001,0
                100.467900755,16.7060189370001,0
                100.467886349,16.7059510830001,0
                100.46782637,16.705744388,0
                100.467777821,16.7056056160001,0
                100.467597786,16.705074885,0
                100.467596759,16.705073573,0
                100.467593013,16.705070016,0
                100.46758928,16.705068086,0
                100.467583522,16.7050668260001,0
                100.467576114,16.705066878,0
                100.467530383,16.705081405,0
                100.466794184,16.7053152230001,0
                100.466767625,16.70531749,0
                100.466754005,16.705317587,0
                100.466742952,16.705315537,0
                100.466728921,16.705307195,0
                100.466499257,16.7048543560001,0
                100.466350391,16.7045739750001,0
                100.466249129,16.704371512,0
                100.46617673,16.7042264840001,0
                100.4661268,16.704126478,0
                100.466120926,16.704100791,0
                100.466122821,16.704057904,0
                100.466141109,16.703959932,0
                100.466138717,16.7039019970001,0
                100.466136749,16.703892341,0
                100.46602823,16.703612515,0
                100.465833549,16.7031155500001,0
                100.465689674,16.7027509600001,0
                100.465492908,16.702216401,0
                100.465489409,16.702211979,0
                100.465480336,16.702203932,0
                100.465469493,16.702200534,0
                100.465450998,16.7021988400001,0
                100.464824651,16.7022516000001,0
                100.464816615,16.702249759,0
                100.46480879,16.7022480740001,0
                100.464800339,16.702243503,0
                100.464792467,16.7022354470001,0
                100.464785808,16.7022224310001,0
                100.46475405,16.701937537,0
                100.464743067,16.701825349,0
                100.464690525,16.7012448470001,0
                100.464614091,16.700520522,0
                100.464551307,16.6999254510001,0
                100.464506976,16.6994254360001,0
                100.464476053,16.6990229510001,0
                100.464473131,16.6989717170001,0
                100.464476818,16.698791084,0
                100.464507191,16.6984565020001,0
                100.46458903,16.697565094,0
                100.464650273,16.6969618250001,0
                100.464692193,16.6964807200001,0
                100.46472178,16.6960436370001,0
                100.464665394,16.6953083380001,0
                100.464563977,16.6939458100001,0
                100.464536464,16.693326084,0
                100.464514668,16.6924598160001,0
                100.464494848,16.6913088160001,0
                100.464529415,16.6903308710001,0
                100.464612262,16.689387298,0
                100.464781839,16.6878460400001,0
                100.464784614,16.6878373810001,0
                100.464795196,16.6878239210001,0
                100.464806894,16.687816631,0
                100.464823889,16.6878104740001,0
                100.465475556,16.6878373920001,0
                100.467172012,16.68787967,0
                100.467195666,16.6878760770001,0
                100.467211281,16.687869103,0
                100.467221838,16.6878585170001,0
                100.467229016,16.6878438300001,0
                100.467229147,16.687707958,0
                100.467230033,16.686790134,0
                100.467234349,16.6860286260001,0
                100.467239142,16.68532894,0
                100.467241697,16.684778969,0
                100.467267252,16.6839696480001,0
                100.467262195,16.683565624,0
                100.467259404,16.68311005,0
                100.467269207,16.683084233,0
                100.467293881,16.6830651830001,0
                100.468043614,16.682887657,0
                100.47004465,16.682478776,0
                100.470531264,16.682388679,0
                100.47130502,16.682259194,0
                100.47145039,16.682227719,0
                100.471779111,16.682166807,0
                100.472990795,16.681981808,0
                100.473174747,16.6819537220001,0
                100.474005011,16.6818269520001,0
                100.474034408,16.681812468,0
                100.474051936,16.6817841610001,0
                100.47405117,16.681765061,0
                100.473901035,16.6811261930001,0
                100.473745809,16.6804481940001,0
                100.473627994,16.6799438190001,0
                100.473558655,16.6795690650001,0
                100.473525875,16.6792562910001,0
                100.473452733,16.678385506,0
                100.473383303,16.677750825,0
                100.473335393,16.6771983620001,0
                100.473287708,16.676675188,0
                100.473250503,16.6760329580001,0
                100.473201018,16.6755226060001,0
                100.473173614,16.675167689,0
                100.473124298,16.674679306,0
                100.472944119,16.674290405,0
                100.472936776,16.674246816,0
                100.472941496,16.67421484,0
                100.4731209,16.6737394840001,0
                100.473308701,16.6732164650001,0
                100.47341006,16.6729287540001,0
                100.473474192,16.6728038360001,0
                100.4735646,16.67265818,0
                100.473893748,16.672087246,0
                100.474034278,16.671839134,0
                100.47425183,16.671436903,0
                100.474478248,16.671060568,0
                100.474480694,16.6710524530001,0
                100.47447941,16.67104146,0
                100.474478139,16.6710322010001,0
                100.474470836,16.671020089,0
                100.474460378,16.6710097750001,0
                100.47372981,16.670597684,0
                100.473234069,16.670399402,0
                100.472732829,16.670188266,0
                100.472402112,16.670053534,0
                100.472386735,16.6700357400001,0
                100.472381058,16.6700265170001,0
                100.472377092,16.670014232,0
                100.472375478,16.6699895310001,0
                100.472379053,16.669974016,0
                100.472385051,16.669962631,0
                100.472736792,16.6693828310001,0
                100.473157241,16.6687379570001,0
                100.473662556,16.6679338320001,0
                100.474088662,16.667277918,0
                100.474094545,16.6672552960001,0
                100.474094379,16.667233676,0
                100.474091036,16.667215168,0
                100.474080211,16.66719671,0
                100.474065244,16.66718645,0
                100.472168149,16.6664763690001,0
                100.471377582,16.666197439,0
                100.471099016,16.666086111,0
                100.471012875,16.6660532710001,0
                100.469947929,16.6656589780001,0
                100.469937466,16.6656491750001,0
                100.469934199,16.6656407030001,0
                100.469934129,16.6656314360001,0
                100.469936052,16.6656180420001,0
                100.47104806,16.6636822560001,0
                100.471674806,16.662766812,0
                100.471689165,16.6627239270001,0
                100.471700738,16.6626617630001,0
                100.471696879,16.662353807,0
                100.471697096,16.662039211,0
                100.471697468,16.6615033030001,0
                100.471684015,16.6609157730001,0
                100.471687533,16.6609049840001,0
                100.471694746,16.6608962170001,0
                100.471704945,16.660889868,0
                100.47172325,16.6608843700001,0
                100.472482237,16.660947419,0
                100.47259596,16.6609363540001,0
                100.473102938,16.6608559970001,0
                100.473360627,16.6608716160001,0
                100.474389305,16.6609339570001,0
                100.474408598,16.66093306,0
                100.474435096,16.660921892,0
                100.474453987,16.660908942,0
                100.474466986,16.660870409,0
                100.474468336,16.6608673860001,0
                100.47449052,16.6596099550001,0
                100.474494269,16.6595902,0
                100.474502625,16.6595654280001,0
                100.474515319,16.6595488620001,0
                100.474542407,16.6595247700001,0
                100.475036258,16.659369014,0
                100.475060696,16.659351412,0
                100.475073322,16.6593266090001,0
                100.47508152,16.659281247,0
                100.475082695,16.6592486050001,0
                100.475068858,16.659115222,0
                100.475052022,16.659034724,0
                100.474874257,16.658405938,0
                100.474442236,16.6573678340001,0
                100.474379923,16.6572421970001,0
                100.474329202,16.657209477,0
                100.474203554,16.6572147530001,0
                100.472996049,16.6573472700001,0
                100.472982334,16.6573418410001,0
                100.472974818,16.657336748,0
                100.472970414,16.657319274,0
                100.472969057,16.657304864,0
                100.473013244,16.656969798,0
                100.473223394,16.655977411,0
                100.473262875,16.6556792330001,0
                100.473286513,16.6556466210001,0
                100.473306343,16.655632752,0
                100.473324785,16.6556230100001,0
                100.473334718,16.6556212130001,0
                100.474145894,16.6556896710001,0
                100.474168372,16.6556856560001,0
                100.474195333,16.6556731060001,0
                100.474212318,16.6556592580001,0
                100.474226472,16.655635633,0
                100.474189542,16.6551822170001,0
                100.474137203,16.6546285640001,0
                100.474128657,16.6545041530001,0
                100.474137862,16.654268046,0
                100.474155486,16.6539658930001,0
                100.474187809,16.6535373300001,0
                100.474177379,16.6531629420001,0
                100.474162633,16.653124458,0
                100.474133365,16.653106243,0
                100.47368366,16.6530184110001,0
                100.472716749,16.6529198740001,0
                100.472672866,16.6529078310001,0
                100.472649267,16.652894614,0
                100.472637445,16.6528854310001,0
                100.472631638,16.6528788160001,0
                100.472623917,16.652845568,0
                100.472747176,16.652234966,0
                100.47284008,16.651802312,0
                100.472883709,16.6515481750001,0
                100.472945755,16.6511191880001,0
                100.473025989,16.6505751710001,0
                100.473049362,16.6502753990001,0
                100.473046703,16.650253236,0
                100.473042339,16.6502409080001,0
                100.473031594,16.6502327470001,0
                100.473017655,16.650225639,0
                100.473005241,16.65022236,0
                100.470259492,16.6503409750001,0
                100.468086827,16.650448431,0
                100.468057908,16.6504396390001,0
                100.468047866,16.6504300980001,0
                100.468040641,16.650416422,0
                100.468035687,16.650398658,0
                100.468089624,16.649549306,0
                100.468156436,16.6487938930001,0
                100.468166077,16.6487488820001,0
                100.468175323,16.6487314020001,0
                100.468202191,16.6487073710001,0
                100.468226214,16.648696903,0
                100.470227844,16.6484049600001,0
                100.471606933,16.6481999280001,0
                100.472120574,16.648135773,0
                100.472150959,16.6481218390001,0
                100.472171705,16.648103387,0
                100.472184825,16.648081328,0
                100.472194325,16.648040032,0
                100.472270527,16.647131103,0
                100.472220339,16.6467474620001,0
                100.472158882,16.646513489,0
                100.472099956,16.646538686,0
                100.472022965,16.646555338,0
                100.471836898,16.64659383,0
                100.471105332,16.6467291170001,0
                100.470546895,16.6468148480001,0
                100.47002316,16.646900337,0
                100.469477207,16.646995856,0
                100.469147256,16.647053946,0
                100.468716509,16.647119763,0
                100.468411632,16.6471474520001,0
                100.46838235,16.6471471780001,0
                100.468367883,16.647146584,0
                100.468358466,16.6471438670001,0
                100.468349024,16.6471383570001,0
                100.468340792,16.6471275000001,0
                100.468261471,16.646774819,0
                100.468152466,16.646347206,0
                100.468147715,16.646328555,0
                100.468125796,16.646242592,0
                100.468117111,16.6462008550001,0
                100.468043217,16.6458457430001,0
                100.467996006,16.645501751,0
                100.467986768,16.645469602,0
                100.467975085,16.6454548140001,0
                100.467949267,16.645440132,0
                100.467917047,16.6454279700001,0
                100.467455355,16.645306303,0
                100.466733861,16.64507682,0
                100.466427908,16.644955081,0
                100.466032736,16.644820752,0
                100.46551361,16.644609658,0
                100.464996292,16.644411764,0
                100.464313076,16.6441165430001,0
                100.463756977,16.6438844940001,0
                100.46374273,16.643875898,0
                100.463730342,16.643863444,0
                100.463723238,16.643851317,0
                100.463716984,16.6438319150001,0
                100.463711403,16.6433524390001,0
                100.463700646,16.6433320730001,0
                100.463690893,16.643317272,0
                100.463673454,16.6433062460001,0
                100.463651242,16.6432998980001,0
                100.463624231,16.643297299,0
                100.463350496,16.643300159,0
                100.462943615,16.643287231,0
                100.462211781,16.6432589400001,0
                100.4616726,16.6432144140001,0
                100.461226451,16.6431751740001,0
                100.460411368,16.6430965870001,0
                100.460062896,16.6430742630001,0
                100.460019088,16.6430597030001,0
                100.459999716,16.6430474480001,0
                100.45998676,16.643033912,0
                100.459971187,16.6430141910001,0
                100.459959454,16.6429919780001,0
                100.459955384,16.642963508,0
                100.459974155,16.64272672,0
                100.460003244,16.642465234,0
                100.460023467,16.6421105850001,0
                100.460019413,16.642084595,0
                100.460010258,16.642063593,0
                100.459996029,16.642051302,0
                100.459967677,16.6420415910001,0
                100.459581907,16.6420145700001,0
                100.459391551,16.641996082,0
                100.459333683,16.641991535,0
                100.459142554,16.642000506,0
                100.458803058,16.642015089,0
                100.458751631,16.642012973,0
                100.458719443,16.642005765,0
                100.458700063,16.6419922690001,0
                100.458685803,16.6419762680001,0
                100.458679199,16.64195277,0
                100.458647176,16.641627135,0
                100.458624205,16.641311961,0
                100.458524235,16.640621133,0
                100.45848355,16.640015755,0
                100.458464162,16.6398886710001,0
                100.458436351,16.639801644,0
                100.458047675,16.638796121,0
                100.457766031,16.6380847630001,0
                100.457541503,16.637525043,0
                100.457295237,16.636974977,0
                100.456924331,16.636098739,0
                100.456913131,16.6360821110001,0
                100.456905863,16.636077282,0
                100.456897888,16.6360738560001,0
                100.456888474,16.636071831,0
                100.4568705,16.6360704250001,0
                100.455878572,16.636217129,0
                100.455859385,16.636214953,0
                100.455852135,16.6362122200001,0
                100.455845601,16.636208084,0
                100.455841026,16.636199898,0
                100.455779656,16.6358759710001,0
                100.455548608,16.634915531,0
                100.455346088,16.6340025490001,0
                100.455204802,16.633480702,0
                100.454992607,16.6325407780001,0
                100.454991172,16.6325362600001,0
                100.45498743,16.632529176,0
                100.454984142,16.632525022,0
                100.454974911,16.632522468,0
                100.454963339,16.6325208980001,0
                100.454293245,16.632617431,0
                100.454200601,16.6326356970001,0
                100.453887686,16.63273,0
                100.453003088,16.6329318850001,0
                100.45299821,16.6329329970001,0
                100.452991738,16.632933043,0
                100.452979807,16.6329326040001,0
                100.452970033,16.63293058,0
                100.45295942,16.6329253970001,0
                100.452950543,16.63291696,0
                100.45255977,16.632060858,0
                100.452329233,16.631536624,0
                100.452195613,16.631336511,0
                100.451948871,16.631121378,0
                100.451562572,16.630834771,0
                100.451358578,16.630723932,0
                100.451238993,16.6306906770001,0
                100.451133185,16.630661257,0
                100.45096232,16.630639311,0
                100.450939305,16.63063635,0
                100.450837342,16.6306119870001,0
                100.450774356,16.6305794360001,0
                100.450520413,16.6303722920001,0
                100.450398461,16.630268836,0
                100.449720476,16.6296362530001,0
                100.449477914,16.629382429,0
                100.448474945,16.6284731000001,0
                100.447704198,16.627821054,0
                100.447631848,16.627770351,0
                100.447581938,16.6277409630001,0
                100.447504608,16.627711762,0
                100.447109623,16.62759557,0
                100.447028933,16.6275746530001,0
                100.446987649,16.627553468,0
                100.44695143,16.6275223280001,0
                100.446916874,16.6274845730001,0
                100.446882238,16.6274352510001,0
                100.446788041,16.6272128850001,0
                100.446744015,16.6270545940001,0
                100.446647238,16.626716603,0
                100.446610786,16.62665408,0
                100.446539939,16.6265752740001,0
                100.446438166,16.626485121,0
                100.446309745,16.626387838,0
                100.446474439,16.6254989940001,0
                100.446647888,16.6245594270001,0
                100.446812595,16.6236727850001,0
                100.44689163,16.6232449070001,0
                100.447034644,16.6225126100001,0
                100.447189198,16.621628227,0
                100.447321315,16.6209477850001,0
                100.447574493,16.619640584,0
                100.447019551,16.6197438,0
                100.446287904,16.619853086,0
                100.445996397,16.6198865310001,0
                100.44473356,16.619984414,0
                100.443813253,16.620034542,0
                100.443671567,16.620042255,0
                100.44365331,16.620039547,0
                100.443644063,16.62003543,0
                100.443634244,16.6200276600001,0
                100.443630496,16.6200221870001,0
                100.443567195,16.619688577,0
                100.443561379,16.6196794040001,0
                100.44354829,16.6196698750001,0
                100.44353765,16.619664635,0
                100.44248006,16.6194415890001,0
                100.44249092,16.619673221,0
                100.442495107,16.6197624910001,0
                100.442495407,16.619802642,0
                100.442492429,16.6198325230001,0
                100.442485108,16.6198531700001,0
                100.442474629,16.619864621,0
                100.442467098,16.6198728570001,0
                100.442446895,16.619884326,0
                100.442422055,16.61989119,0
                100.442396764,16.6198929070001,0
                100.442366826,16.6198879680001,0
                100.441591075,16.619647967,0
                100.4402179,16.619246043,0
                100.44021547,16.6192463,0
                100.440206466,16.6192475190001,0
                100.440199876,16.6192498830001,0
                100.440193893,16.6192533990001,0
                100.440190395,16.6192575580001,0
                100.440147428,16.6195271820001,0
                100.44010831,16.619712943,0
                100.440035064,16.6200746690001,0
                100.439958258,16.6203883320001,0
                100.439863799,16.6207061210001,0
                100.439673205,16.6213073910001,0
                100.439539461,16.621703708,0
                100.439446118,16.6219803000001,0
                100.439304344,16.622373415,0
                100.439238568,16.622575682,0
                100.43907245,16.6230700400001,0
                100.438970012,16.623368322,0
                100.438787242,16.623921485,0
                100.438625207,16.6243911010001,0
                100.438457872,16.624865906,0
                100.438371379,16.625100318,0
                100.438299798,16.6252943060001,0
                100.43806326,16.625941541,0
                100.437984722,16.626151108,0
                100.437797103,16.6266270790001,0
                100.43763679,16.62704211,0
                100.437571862,16.627214515,0
                100.437536178,16.6272991910001,0
                100.437445795,16.627495455,0
                100.437290171,16.627822935,0
                100.437095838,16.628258793,0
                100.436938258,16.628609968,0
                100.436773227,16.628965312,0
                100.436695625,16.6291573670001,0
                100.436577634,16.6294134290001,0
                100.436552436,16.629468117,0
                100.436534436,16.62949873,0
                100.436458822,16.629627355,0
                100.436457628,16.6296291890001,0
                100.43638808,16.6297361040001,0
                100.436372253,16.629761957,0
                100.436359611,16.6297857270001,0
                100.436299735,16.629919995,0
                100.435963483,16.630606802,0
                100.435804722,16.630943571,0
                100.435661616,16.6312318350001,0
                100.435510185,16.631548991,0
                100.435335606,16.631913667,0
                100.435211617,16.6321873840001,0
                100.435167415,16.6322752090001,0
                100.435047669,16.63254478,0
                100.434928864,16.632797865,0
                100.434810197,16.633069489,0
                100.434706971,16.6332627460001,0
                100.434508871,16.6336244980001,0
                100.434370791,16.633870508,0
                100.434200054,16.634177498,0
                100.433894282,16.6347098860001,0
                100.433711752,16.6350107750001,0
                100.433538646,16.6352868910001,0
                100.433306439,16.6356581420001,0
                100.433152412,16.6359145640001,0
                100.432963399,16.63620623,0
                100.432671729,16.6366242300001,0
                100.432422208,16.6369657400001,0
                100.432190701,16.637288589,0
                100.431932448,16.6376044190001,0
                100.431526985,16.6380890950001,0
                100.431284554,16.6383790730001,0
                100.431142993,16.638589073,0
                100.431016268,16.6387835210001,0
                100.430834913,16.63909985,0
                100.430553072,16.6395486650001,0
                100.430289218,16.6399747040001,0
                100.430118263,16.6402538890001,0
                100.42992285,16.6405476580001,0
                100.42966908,16.640893315,0
                100.429519979,16.6410951280001,0
                100.429441732,16.6412017220001,0
                100.429368602,16.641278421,0
                100.429252037,16.64140278,0
                100.428996594,16.6416671060001,0
                100.428637101,16.642015546,0
                100.428168409,16.642473883,0
                100.427494438,16.643104459,0
                100.427205124,16.6433529610001,0
                100.426510575,16.643921533,0
                100.425601946,16.6446428990001,0
                100.425013012,16.645115554,0
                100.424321102,16.645701187,0
                100.423453183,16.6464515550001,0
                100.423262005,16.6466188320001,0
                100.422970509,16.646916155,0
                100.422644022,16.6472747350001,0
                100.421953129,16.647999473,0
                100.42164673,16.6483359480001,0
                100.421546291,16.6484489050001,0
                100.420625415,16.649536676,0
                100.419874392,16.650388499,0
                100.419439697,16.650838118,0
                100.418889905,16.651474019,0
                100.418701536,16.651680324,0
                100.418449963,16.651899266,0
                100.418090402,16.65223854,0
                100.417748082,16.652511799,0
                100.417632249,16.652598013,0
                100.417140785,16.652904017,0
                100.416520793,16.653291444,0
                100.415814684,16.653674573,0
                100.41508821,16.6540431940001,0
                100.414406922,16.6543403150001,0
                100.413138405,16.6548883290001,0
                100.414001559,16.6560175000001,0
                100.414277611,16.6563719530001,0
                100.414995801,16.657287196,0
                100.415609139,16.6582483880001,0
                100.415687098,16.6583705630001,0
                100.415704208,16.658388367,0
                100.415729975,16.658406041,0
                100.415762756,16.658420069,0
                100.416090614,16.6584887920001,0
                100.416114001,16.6584995630001,0
                100.41612449,16.658509532,0
                100.416127794,16.6585234090001,0
                100.416129834,16.658532483,0
                100.416096619,16.6592761590001,0
                100.415922141,16.6610463920001,0
                100.415516939,16.6612506290001,0
                100.415276348,16.6613718880001,0
                100.41415544,16.6619739830001,0
                100.413184282,16.662508385,0
                100.413171011,16.662528186,0
                100.413166826,16.662540569,0
                100.41316483,16.662559119,0
                100.413169213,16.662574534,0
                100.413190184,16.6625952270001,0
                100.413313983,16.66270803,0
                100.413377753,16.662816854,0
                100.413400521,16.662855714,0
                100.413526953,16.6631425250001,0
                100.41374112,16.663653745,0
                100.414082914,16.6643396850001,0
                100.414254802,16.664700695,0
                100.414514962,16.6652471130001,0
                100.41493938,16.666149708,0
                100.415260515,16.666779653,0
                100.415491654,16.6672222780001,0
                100.415514661,16.6672514110001,0
                100.415532489,16.66726593,0
                100.415591065,16.6673119060001,0
                100.415629242,16.6673384910001,0
                100.415649695,16.667365197,0
                100.415713663,16.6674629080001,0
                100.415788274,16.667598399,0
                100.416132526,16.668319324,0
                100.416351945,16.66874739,0
                100.416360252,16.668797081,0
                100.416358636,16.668835533,0
                100.416339835,16.668861287,0
                100.41632883,16.6688705130001,0
                100.415484186,16.6692063720001,0
                100.414735906,16.6695039140001,0
                100.41444859,16.6696094640001,0
                100.413458303,16.670007954,0
                100.412448624,16.6704157450001,0
                100.412403688,16.6704398250001,0
                100.412385145,16.6704632500001,0
                100.412298552,16.6706459060001,0
                100.412266717,16.67066591,0
                100.412229984,16.670683508,0
                100.411088803,16.671020228,0
                100.410600373,16.671160075,0
                100.410588591,16.671177761,0
                100.410583036,16.6711970210001,0
                100.410580347,16.6712190050001,0
                100.410828815,16.6718709850001,0
                100.410843008,16.671889853,0
                100.410862267,16.6718988640001,0
                100.411014775,16.6719123710001,0
                100.411039833,16.671918793,0
                100.411054129,16.67192556,0
                100.411064424,16.671945291,0
                100.411193236,16.672481459,0
                100.411336137,16.6731039810001,0
                100.411378952,16.673290504,0
                100.411493028,16.673474675,0
                100.411548768,16.673657888,0
                100.411583954,16.673798683,0
                100.411711564,16.6744934050001,0
                100.411747609,16.675137223,0
                100.411872822,16.6758421820001,0
                100.411930878,16.6761638790001,0
                100.411947337,16.676213008,0
                100.411962443,16.676248215,0
                100.41203547,16.676365752,0
                100.412128772,16.6764714460001,0
                100.412423071,16.67676385,0
                100.412810449,16.6771038970001,0
                100.412830417,16.677114299,0
                100.412851328,16.677117057,0
                100.412872668,16.677113825,0
                100.412899721,16.677104576,0
                100.414002273,16.676372712,0
                100.41400836,16.6763716310001,0
                100.414017975,16.6763715660001,0
                100.414025797,16.6763732520001,0
                100.414033982,16.6763807150001,0
                100.414473888,16.6772616800001,0
                100.414485739,16.6772672920001,0
                100.414502857,16.6772712920001,0
                100.41452782,16.6772692280001,0
                100.414726673,16.6771676120001,0
                100.414783646,16.677153924,0
                100.414672861,16.6775978270001,0
                100.414523818,16.677988068,0
                100.414484458,16.678185951,0
                100.414464638,16.678496828,0
                100.414461591,16.678545231,0
                100.414451381,16.678707398,0
                100.41445889,16.6788015220001,0
                100.414457331,16.6789496980001,0
                100.414481076,16.67933279,0
                100.41449088,16.679369261,0
                100.414526013,16.679449532,0
                100.414558758,16.679500854,0
                100.414949117,16.6797841700001,0
                100.41515562,16.6799938250001,0
                100.415197182,16.680049303,0
                100.415197691,16.680050384,0
                100.415222587,16.680102753,0
                100.415223377,16.6801617630001,0
                100.415203232,16.680245217,0
                100.415111633,16.680493787,0
                100.415023199,16.680662738,0
                100.415001153,16.680715401,0
                100.414987668,16.680770066,0
                100.414977348,16.6808195630001,0
                100.414971303,16.680869026,0
                100.414972629,16.680904028,0
                100.414977112,16.680932827,0
                100.415029473,16.681079708,0
                100.41504257,16.6811177160001,0
                100.415048225,16.681159897,0
                100.415051501,16.6813565850001,0
                100.415046836,16.6814070230001,0
                100.415042344,16.6814393770001,0
                100.415028363,16.6815101180001,0
                100.415006651,16.6816080840001,0
                100.414966958,16.6817308820001,0
                100.414938549,16.68178977,0
                100.414893108,16.6818570080001,0
                100.414834595,16.6819260840001,0
                100.414719315,16.6820447750001,0
                100.414498345,16.6822128590001,0
                100.414400201,16.6822959020001,0
                100.414340049,16.682380516,0
                100.414253884,16.682544024,0
                100.414227877,16.682622913,0
                100.414217104,16.68270719,0
                100.414192465,16.682972781,0
                100.414181088,16.6830476260001,0
                100.414168591,16.683091986,0
                100.414152923,16.683140484,0
                100.41410905,16.683275673,0
                100.414098628,16.683310751,0
                100.414098795,16.6833334030001,0
                100.414102208,16.6833622090001,0
                100.414184374,16.6834944760001,0
                100.414311919,16.683696448,0
                100.414337975,16.6837528990001,0
                100.414347865,16.6837909290001,0
                100.41435023,16.6838218030001,0
                100.414343373,16.684051466,0
                100.414347913,16.684087472,0
                100.414356788,16.684132716,0
                100.414376307,16.684171711,0
                100.414502428,16.6843253000001,0
                100.414582229,16.6844266890001,0
                100.414629823,16.68450668,0
                100.414672243,16.684609354,0
                100.414695085,16.684664802,0
                100.414708296,16.6847182540001,0
                100.414716239,16.6847591710001,0
                100.414718555,16.6848057030001,0
                100.414710569,16.6848819530001,0
                100.414703394,16.684945359,0
                100.414693953,16.6849863050001,0
                100.414671141,16.6850407900001,0
                100.414649057,16.6850883070001,0
                100.414610911,16.6851307810001,0
                100.414557832,16.685176449,0
                100.414452803,16.6852541800001,0
                100.414396669,16.6853204650001,0
                100.414375524,16.6853504690001,0
                100.41436304,16.68539586,0
                100.414357968,16.685432962,0
                100.414359227,16.6854586920001,0
                100.414369024,16.685483338,0
                100.414385199,16.6855038200001,0
                100.414435602,16.6855302490001,0
                100.414610418,16.6856227550001,0
                100.414680215,16.685670669,0
                100.41481889,16.685788136,0
                100.414840474,16.6858178480001,0
                100.414859962,16.685852722,0
                100.414867667,16.685883559,0
                100.414870055,16.685917519,0
                100.41486706,16.685946374,0
                100.41485027,16.6859876730001,0
                100.414807094,16.686072401,0
                100.414683782,16.686300799,0
                100.414667809,16.6863486890001,0
                100.414662582,16.6863736330001,0
                100.414661506,16.6863904360001,0
                100.414663447,16.686409537,0
                100.414667788,16.6864280390001,0
                100.414679311,16.6864418600001,0
                100.414698648,16.686456789,0
                100.414717343,16.686465346,0
                100.414751641,16.686471483,0
                100.414811755,16.686474547,0
                100.414868234,16.6864735830001,0
                100.414930136,16.686474321,0
                100.415046695,16.686471206,0
                100.415070744,16.6864727770001,0
                100.415106264,16.6864818020001,0
                100.415122562,16.6864915370001,0
                100.415135259,16.6865024530001,0
                100.415145569,16.686515125,0
                100.415150494,16.6865307310001,0
                100.415154287,16.686556191,0
                100.415140943,16.686661917,0
                100.415111971,16.6867597200001,0
                100.415098193,16.686847076,0
                100.415093706,16.6868911240001,0
                100.41509548,16.6869142790001,0
                100.415098022,16.686932798,0
                100.415108679,16.6869659290001,0
                100.415123258,16.686986683,0
                100.415137792,16.687002029,0
                100.415163563,16.687019612,0
                100.415186865,16.6870287200001,0
                100.415308003,16.687049514,0
                100.415348149,16.687060826,0
                100.415373061,16.6870706920001,0
                100.415389961,16.687080617,0
                100.415401289,16.6870959840001,0
                100.415406235,16.687114486,0
                100.41540723,16.687140734,0
                100.415397313,16.687208759,0
                100.415380373,16.687302318,0
                100.415375295,16.6873741690001,0
                100.415377944,16.6874073590001,0
                100.415385399,16.687440517,0
                100.415400821,16.6874674380001,0
                100.415424226,16.687490446,0
                100.415446795,16.687508827,0
                100.415478969,16.687525593,0
                100.415514299,16.687536165,0
                100.415543959,16.6875375070001,0
                100.415589621,16.6875364220001,0
                100.415615401,16.6875310630001,0
                100.415566311,16.6876645570001,0
                100.415553957,16.6876798160001,0
                100.415486464,16.687727227,0
                100.415392013,16.6877740640001,0
                100.414235262,16.6881895670001,0
                100.413656857,16.688393654,0
                100.412959507,16.688608317,0
                100.411486056,16.689003997,0
                100.410896067,16.689149516,0
                100.410885399,16.689158865,0
                100.410882254,16.6891673820001,0
                100.410882311,16.6891751040001,0
                100.410883164,16.6891820480001,0
                100.410883325,16.689185563,0
                100.411166803,16.689670038,0
                100.41157944,16.6903408540001,0
                100.411879618,16.6908708760001,0
                100.412020632,16.691106661,0
                100.412213401,16.6914934110001,0
                100.412440312,16.6920458980001,0
                100.412618246,16.692481566,0
                100.413016317,16.6934373350001,0
                100.413019066,16.6934579530001,0
                100.413012759,16.6934724110001,0
                100.413008548,16.693480677,0
                100.413000047,16.6934869130001,0
                100.412996384,16.693488646,0
                100.412535861,16.6935396210001,0
                100.411632566,16.6936486230001,0
                100.411066184,16.693725252,0
                100.410687612,16.6937717650001,0
                100.410219381,16.693829873,0
                100.409248779,16.6939518090001,0
                100.408343738,16.6940791690001,0
                100.408323124,16.694090896,0
                100.408313581,16.6941002240001,0
                100.408307246,16.69411108,0
                100.408304117,16.694121142,0
                100.408303434,16.694132177,0
                100.408326723,16.6942653360001,0
                100.408360775,16.694460328,0
                100.408374775,16.694620861,0
                100.408394738,16.694818421,0
                100.408409556,16.695285104,0
                100.408403487,16.6955701570001,0
                100.408394408,16.6957451220001,0
                100.408373978,16.695872938,0
                100.408301604,16.6962990260001,0
                100.408222835,16.6966304260001,0
                100.408065233,16.697259909,0
                100.40796541,16.6976340140001,0
                100.407952502,16.6976871840001,0
                100.407949026,16.697731144,0
                100.407955125,16.697786014,0
                100.407970964,16.6978737740001,0
                100.408049265,16.69819175,0
                100.408219103,16.6988184570001,0
                100.4084005,16.6994670560001,0
                100.408483874,16.699698961,0
                100.408650071,16.7000877300001,0
                100.408680886,16.7001460970001,0
                100.408798248,16.7003503130001,0
                100.408848379,16.70045248,0
                100.408943406,16.7007190900001,0
                100.409147031,16.701290654,0
                100.409237899,16.701507862,0
                100.409251499,16.7015498750001,0
                100.40926128,16.7015882490001,0
                100.409278912,16.701661347,0
                100.409291084,16.7017674360001,0
                100.409293628,16.7018552820001,0
                100.409292776,16.701998067,0
                100.409285457,16.7022946600001,0
                100.409282084,16.702611362,0
                100.409304,16.7030102640001,0
                100.4093152,16.703500766,0
                100.409313919,16.703584977,0
                100.409304863,16.7036454460001,0
                100.409290276,16.703727918,0
                100.409240201,16.7038930040001,0
                100.409089138,16.704272949,0
                100.408902693,16.7047501530001,0
                100.408733118,16.705196121,0
                100.408536882,16.7056331200001,0
                100.408428655,16.7058974500001,0
                100.40840636,16.7059653330001,0
                100.408387957,16.7060460010001,0
                100.408379053,16.7061266040001,0
                100.408377731,16.706205325,0
                100.408382415,16.7063261060001,0
                100.408403409,16.706598711,0
                100.408404443,16.7067396530001,0
                100.408405624,16.70690073,0
                100.408418462,16.7073564400001,0
                100.408443294,16.7076345090001,0
                100.408484357,16.708053416,0
                100.408486806,16.708128447,0
                100.408487209,16.7081833600001,0
                100.408478532,16.7082508120001,0
                100.408463646,16.708337285,0
                100.408424226,16.708462588,0
                100.408373965,16.7085828130001,0
                100.408233153,16.7087653620001,0
                100.408189952,16.708831558,0
                100.408159935,16.708883014,0
                100.408145128,16.7089362020001,0
                100.408137935,16.708991167,0
                100.408142096,16.7090405600001,0
                100.408157762,16.70910452,0
                100.408233539,16.709336481,0
                100.408429273,16.7098659970001,0
                100.408631439,16.7104961430001,0
                100.408770634,16.7109526680001,0
                100.408951128,16.711747399,0
                100.408951351,16.711777781,0
                100.408945123,16.711802537,0
                100.408936651,16.7118128880001,0
                100.408928171,16.7118222140001,0
                100.408899413,16.7118344030001,0
                100.408780116,16.7118606920001,0
                100.40855247,16.711900685,0
                100.408380833,16.7119289080001,0
                100.408090748,16.7119669620001,0
                100.407722168,16.7120075340001,0
                100.407419091,16.7120579890001,0
                100.407070032,16.712102584,0
                100.406795498,16.712185194,0
                100.40633327,16.712280553,0
                100.40628125,16.7122965780001,0
                100.406197175,16.7123387720001,0
                100.404527654,16.713635186,0
                100.404197095,16.7141483500001,0
                100.403893576,16.714579558,0
                100.40290589,16.7156561040001,0
                100.40225651,16.716212107,0
                100.401535742,16.716825547,0
                100.400671259,16.717577872,0
                100.40066743,16.717583872,0
                100.400657852,16.717597606,0
                100.400652691,16.7176223540001,0
                100.40065561,16.71764317,0
                100.400791382,16.7179946680001,0
                100.400803407,16.7180399690001,0
                100.400813985,16.718100914,0
                100.400810799,16.718134573,0
                100.400808905,16.718154554,0
                100.400562678,16.718863116,0
                100.400431611,16.7192564640001,0
                100.400420255,16.719331245,0
                100.400416117,16.7194581910001,0
                100.400433529,16.719729439,0
                100.400452197,16.719889945,0
                100.400467928,16.719963061,0
                100.400490303,16.7200469490001,0
                100.400523261,16.7201140010001,0
                100.400766962,16.720492436,0
                100.401156072,16.7204525180001,0
                100.401311406,16.7204514640001,0
                100.401426221,16.7204506850001,0
                100.401517442,16.720456574,0
                100.401569515,16.7204768760001,0
                100.401600047,16.7204961940001,0
                100.401620433,16.720513141,0
                100.401657878,16.7205563040001,0
                100.401819181,16.7209031720001,0
                100.401911887,16.7210954710001,0
                100.401977465,16.7211941140001,0
                100.402043567,16.7212860920001,0
                100.402534003,16.7218522580001,0
                100.402684099,16.7219980400001,0
                100.402692364,16.722002806,0
                100.402725176,16.7220145210001,0
                100.40274943,16.7220198470001,0
                100.402787899,16.722019586,0
                100.402932777,16.721959569,0
                100.402962337,16.721952979,0
                100.402971949,16.721952141,0
                100.402994153,16.721952781,0
                100.403008701,16.7219582130001,0
                100.403215611,16.7220670930001,0
                100.403659809,16.7223221410001,0
                100.403728938,16.722361834,0
                100.403985775,16.722508991,0
                100.404778789,16.7229759150001,0
                100.405132215,16.7231835650001,0
                100.405581642,16.7234660660001,0
                100.405691892,16.7235408240001,0
                100.405732013,16.7235721280001,0
                100.405748195,16.7235885800001,0
                100.40578747,16.7236285110001,0
                100.40610584,16.724036363,0
                100.406406277,16.724400879,0
                100.40643703,16.7244348040001,0
                100.406454128,16.724448302,0
                100.406482254,16.724464885,0
                100.406505288,16.7244732230001,0
                100.406542064,16.7244772880001,0
                100.406655288,16.724455559,0
                100.407050867,16.7243883370001,0
                100.407472187,16.7243346720001,0
                100.408082706,16.7242412750001,0
                100.408469781,16.724180973,0
                100.408709237,16.7241463890001,0
                100.409141904,16.7240857790001,0
                100.409661453,16.724021828,0
                100.409906335,16.723999565,0
                100.410007458,16.7239947530001,0
                100.410159872,16.72399097,0
                100.410273814,16.7239860710001,0
                100.410521487,16.7239555510001,0
                100.410754624,16.723922658,0
                100.410799338,16.7239088860001,0
                100.410804885,16.7239055860001,0
                100.410817295,16.7238982120001,0
                100.410834022,16.723884194,0
                100.410842747,16.72387178,0
                100.410851443,16.723855503,0
                100.410856915,16.7238369340001,0
                100.410855982,16.7238191770001,0
                100.410839103,16.7237034550001,0
                100.410835589,16.72366178,0
                100.410838495,16.723620829,0
                100.410842357,16.723600726,0
                100.41085342,16.723579801,0
                100.410870915,16.7235611450001,0
                100.41089699,16.7235392320001,0
                100.411202156,16.723385427,0
                100.411531407,16.7231993,0
                100.41192045,16.7230195390001,0
                100.412340839,16.7228152920001,0
                100.412356002,16.7228131590001,0
                100.412368827,16.7228130720001,0
                100.412381658,16.7228145300001,0
                100.412398665,16.7228233020001,0
                100.412547098,16.722989168,0
                100.412636321,16.723110745,0
                100.412676666,16.7231722500001,0
                100.412910684,16.7235763370001,0
                100.413036013,16.7238280870001,0
                100.413163282,16.724085318,0
                100.413244438,16.7242714770001,0
                100.413296464,16.724371799,0
                100.413332961,16.7244264610001,0
                100.413388475,16.7244846570001,0
                100.41362332,16.7246459690001,0
                100.414068146,16.724946787,0
                100.414585522,16.7252965330001,0
                100.414980726,16.7255461930001,0
                100.415018943,16.725558688,0
                100.415054393,16.725568057,0
                100.41508882,16.725567821,0
                100.415117296,16.7255648780001,0
                100.415128446,16.725564079,0
                100.415963011,16.7252304800001,0
                100.417930475,16.724495113,0
                100.417975884,16.724490906,0
                100.4180058,16.7244907,0
                100.418025809,16.724498801,0
                100.418047289,16.724513755,0
                100.418065106,16.724541405,0
                100.41818802,16.724820686,0
                100.419115735,16.7269285790001,0
                100.419134699,16.7269514810001,0
                100.419157574,16.726962309,0
                100.419180434,16.726970389,0
                100.419223171,16.726973259,0
                100.419646731,16.726951699,0
                100.420011203,16.726916655,0
                100.421020977,16.7268355030001,0
                100.421074404,16.7268223930001,0
                100.421118763,16.726801772,0
                100.421138433,16.7267855860001,0
                100.421280965,16.7264988050001,0
                100.421290833,16.7264882580001,0
                100.421301907,16.72648087,0
                100.421309697,16.726478571,0
                100.42131898,16.726477662,0
                100.421340851,16.7264769650001,0
                100.422209624,16.7265599090001,0
                100.423246267,16.726722266,0
                100.423884375,16.726718609,0
                100.424632057,16.7268023230001,0
                100.425810016,16.72700939,0
                100.426101665,16.727144664,0
                100.426907164,16.7274811770001,0
                100.426955294,16.7274891180001,0
                100.427653932,16.727435972,0
                100.428210278,16.72740284,0
                100.428730668,16.727388256,0
                100.42939157,16.7273653780001,0
                100.42957592,16.7273769170001,0
                100.429678577,16.727387191,0
                100.430164739,16.7274851670001,0
                100.430850779,16.7275695920001,0
                100.431226751,16.727638229,0
                100.431337005,16.727648446,0
                100.432071314,16.727727955,0
                100.432730853,16.7278202840001,0
                100.433409717,16.7278792110001,0
                100.433860324,16.7279223640001,0
                100.434400722,16.7279301840001,0
                100.434917107,16.7279381650001,0
                100.437194745,16.72798226,0
                100.438401443,16.7279738600001,0
                100.440153189,16.7277938820001,0
                100.441472028,16.7274918570001,0
                100.44158438,16.727444382,0
                100.441897438,16.7272173600001,0
                100.441975695,16.7271819470001,0
                100.443051097,16.7267595210001,0
                100.443071677,16.7267580540001,0
                100.443085573,16.726758987,0
                100.443101647,16.7267650520001,0
                100.443111322,16.7267732220001,0
                100.443115383,16.7267769210001,0
                100.443498745,16.72763353,0
                100.443505184,16.7276372440001,0
                100.4435136,16.7276377640001,0
                100.443520203,16.7276365610001,0
                100.44352709,16.727635058,0
                100.444884274,16.7262161800001,0
                100.446117149,16.724778622,0
                100.446168597,16.7247509330001,0
                100.446204675,16.7247488460001,0
                100.446240794,16.724752257,0
                100.446286445,16.724764812,0
                100.446844354,16.725024127,0
                100.447805438,16.725512844,0
                100.448021793,16.7256457130001,0
                100.448174673,16.725757333,0
                100.448321896,16.72588812,0
                100.448352048,16.7259240220001,0
                100.448533454,16.726181092,0
                100.44856034,16.726216745,0
                100.448620665,16.7262765830001,0
                100.448834574,16.726446766,0
                100.449392515,16.7269984010001,0
                100.449589572,16.727178511,0
                100.449614901,16.7271899190001,0
                100.44964501,16.7271972360001,0
                100.449780475,16.727227558,0
                100.449811798,16.7272366060001,0
                100.449878111,16.7272627830001,0
                100.449897433,16.727274229,0
                100.449906512,16.727282276,0
                100.449918044,16.727297251,0
                100.449929006,16.7273162880001,0
                100.449962217,16.7274162520001,0
                100.449969017,16.7274411120001,0
                100.450030422,16.7278290790001,0
                100.450051916,16.727955993,0
                100.45005688,16.7279768080001,0
                100.45006481,16.7279918130001,0
                100.450076325,16.728004475,0
                100.45009807,16.7280188,0
                100.450121576,16.728027324,0
                100.450151046,16.7280300140001,0
                100.45020092,16.7280279240001,0
                100.450337863,16.728015381,0
                100.450628498,16.727979165,0
                100.450997207,16.727934298,0
                100.451416385,16.727887332,0
                100.451521509,16.727879065,0
                100.451571383,16.727877558,0
                100.451846083,16.7278802590001,0
                100.452189931,16.7278859520001,0
                100.4522392,16.7278838660001,0
                100.452262019,16.7278813880001,0
                100.452282419,16.727876613,0
                100.452304607,16.727869507,0
                100.452330347,16.727856005,0
                100.45235186,16.7278396360001,0
                100.452364948,16.7278215910001,0
                100.452373767,16.727795466,0
                100.452381899,16.7277583420001,0
                100.452383516,16.7277334240001,0
                100.452367854,16.7274908630001,0
                100.452358617,16.7273026930001,0
                100.452360882,16.7272847250001,0
                100.452364996,16.727272531,0
                100.452372712,16.7272591560001,0
                100.452389457,16.7272480350001,0
                100.452417065,16.7272426270001,0
                100.45276428,16.7272176000001,0
                100.452802684,16.727209219,0
                100.452832057,16.727198588,0
                100.45312571,16.727054659,0
                100.453150471,16.727043671,0
                100.453170466,16.727038126,0
                100.453197687,16.7270348440001,0
                100.453463537,16.7270067200001,0
                100.453834419,16.7269848010001,0
                100.453937619,16.726960908,0
                100.454039218,16.726930672,0
                100.454153307,16.726897497,0
                100.454221577,16.726882376,0
                100.45428232,16.726876454,0
                100.454473515,16.72687058,0
                100.454296024,16.726010354,0
                100.453963982,16.724740124,0
                100.45375661,16.723868558,0
              </coordinates>
                
            </LinearRing>
            
          </outerBoundaryIs>
        
        </Polygon>
        
      <styleUrl>
        #tambonStyle</styleUrl>
    </Placemark>

  </Document>
</kml>