<?xml version="1.0" encoding="UTF-8"?>
<kml xmlns="http://www.opengis.net/kml/2.2">
  <Document id="tambon_doc">
    <name>คุยบ้านโอง, พรานกระต่าย, Kamphaeng Phet</name>
    <description>ข้อมูลขอบเขตตำบลคุยบ้านโอง อำเภอพรานกระต่าย จังหวัดKamphaeng Phet</description>
    
    <!-- Schema สำหรับข้อมูลตำบล -->
    <Schema id="tambon.schema">
      <SimpleField name="ADM3_EN" type="string">
        <displayName>Subdistrict Name (English)</displayName>
      </SimpleField>
      <SimpleField name="ADM3_TH" type="string">
        <displayName>ชื่อตำบล</displayName>
      </SimpleField>
      <SimpleField name="ADM2_EN" type="string">
        <displayName>District Name (English)</displayName>
      </SimpleField>
      <SimpleField name="ADM2_TH" type="string">
        <displayName>ชื่ออำเภอ</displayName>
      </SimpleField>
      <SimpleField name="ADM1_EN" type="string">
        <displayName>Province Name (English)</displayName>
      </SimpleField>
      <SimpleField name="ADM1_TH" type="string">
        <displayName>ชื่อจังหวัด</displayName>
      </SimpleField>
      <SimpleField name="ADM0_EN" type="string">
        <displayName>Country Name (English)</displayName>
      </SimpleField>
      <SimpleField name="ADM0_TH" type="string">
        <displayName>ชื่อประเทศ</displayName>
      </SimpleField>
    </Schema>

    <!-- Style สำหรับตำบล -->
    <Style id="tambonStyle">
      <LineStyle>
        <color>ffff0000</color>
        <width>1.5</width>
      </LineStyle>
      <PolyStyle>
        <color>33ff0000</color>
        <fill>1</fill>
        <outline>1</outline>
      </PolyStyle>
    </Style>

    <Placemark id="Kamphaeng_Phet.55">
        
        <ExtendedData>
            
          <SchemaData schemaUrl="#tambon.schema">
                
            <SimpleData name="Shape_Leng">
                0.32854389293</SimpleData>
                
            <SimpleData name="Shape_Area">
                0.00448484520413</SimpleData>
                
            <SimpleData name="ADM3_EN">
                Khui Ban Ong</SimpleData>
                
            <SimpleData name="ADM3_TH">
                คุยบ้านโอง</SimpleData>
                
            <SimpleData name="ADM3_PCODE">
                TH620607</SimpleData>
                
            <SimpleData name="ADM2_EN">
                Phran Kratai</SimpleData>
                
            <SimpleData name="ADM2_TH">
                พรานกระต่าย</SimpleData>
                
            <SimpleData name="ADM2_PCODE">
                TH6206</SimpleData>
                
            <SimpleData name="ADM1_EN">
                Kamphaeng Phet</SimpleData>
                
            <SimpleData name="ADM1_TH">
                กำแพงเพชร</SimpleData>
                
            <SimpleData name="ADM1_PCODE">
                TH62</SimpleData>
                
            <SimpleData name="ADM0_EN">
                Thailand</SimpleData>
                
            <SimpleData name="ADM0_TH">
                ประเทศไทย</SimpleData>
                
            <SimpleData name="ADM0_PCODE">
                TH</SimpleData>
            
          </SchemaData>
        
        </ExtendedData>
        
        <Polygon>
            
          <outerBoundaryIs>
                
            <LinearRing>
                    
              <coordinates>
                    
                99.6427531310001,16.6964969790001,0
                99.643710958,16.696254475,0
                99.6440836450001,16.6962190990001,0
                99.6458404730001,16.69601686,0
                99.646603616,16.6959545990001,0
                99.6468342570001,16.6959111,0
                99.647046908,16.6957992270001,0
                99.647366015,16.695669912,0
                99.6486244660001,16.6950842590001,0
                99.6491564010001,16.6948943890001,0
                99.6499101780001,16.6946867070001,0
                99.650371469,16.694608271,0
                99.6510547330001,16.694546238,0
                99.6517912770001,16.6944925880001,0
                99.6521667410001,16.694499278,0
                99.6527542960001,16.6944446730001,0
                99.6553451280001,16.693746477,0
                99.6563885770001,16.693054982,0
                99.6568932420001,16.6928036790001,0
                99.6569894950001,16.6927714080001,0
                99.6570762810001,16.692742196,0
                99.6571267880001,16.692729856,0
                99.657204167,16.6927220000001,0
                99.6572626380001,16.6927248590001,0
                99.657556614,16.6927680800001,0
                99.6576119170001,16.6927709500001,0
                99.6576624560001,16.692767744,0
                99.6577192670001,16.692750817,0
                99.6577634320001,16.6927293590001,0
                99.657818589,16.6926895930001,0
                99.657900468,16.692613212,0
                99.6581646590001,16.69226066,0
                99.6582134800001,16.692216359,0
                99.658254469,16.692190339,0
                99.6583081260001,16.6921749480001,0
                99.6584075750001,16.6921533140001,0
                99.6588812790001,16.692089379,0
                99.6593848530001,16.6919812,0
                99.6594590760001,16.691974874,0
                99.659520688,16.6919746780001,0
                99.6595633350001,16.691974542,0
                99.6596455110001,16.6919803700001,0
                99.65975295,16.691986119,0
                99.6598224680001,16.6919889430001,0
                99.659887214,16.691981119,0
                99.6599456270001,16.6919718030001,0
                99.659994538,16.691953375,0
                99.6600355680001,16.691939544,0
                99.660131821,16.6919072640001,0
                99.6603795810001,16.6918333900001,0
                99.660444274,16.691810348,0
                99.66047739,16.6917934890001,0
                99.6605325520001,16.6917552470001,0
                99.660907734,16.6915226300001,0
                99.6609455820001,16.6915042370001,0
                99.6609818790001,16.6914934650001,0
                99.6610308210001,16.6914841720001,0
                99.661076623,16.691480981,0
                99.6611097970001,16.691480875,0
                99.6611745880001,16.6914882780001,0
                99.6612425550001,16.6914987160001,0
                99.6612709930001,16.6915001520001,0
                99.6614131520001,16.6914951260001,0
                99.6615000050001,16.6914841920001,0
                99.6615363020001,16.6914734210001,0
                99.6615678260001,16.6914535290001,0
                99.6616182320001,16.6914122580001,0
                99.6616528600001,16.6913740840001,0
                99.6616999760001,16.6912947590001,0
                99.6619352490001,16.6908037490001,0
                99.6619886220001,16.6907061320001,0
                99.6620232280001,16.690661875,0
                99.662056281,16.69062675,0
                99.6620940810001,16.690594656,0
                99.662124018,16.6905717240001,0
                99.6621712930001,16.6905365540001,0
                99.6627310330001,16.690228733,0
                99.6631599080001,16.689992885,0
                99.663295453,16.689902622,0
                99.6633427950001,16.68988877,0
                99.663382282,16.689887116,0
                99.6634217760001,16.68988699,0
                99.6634850080001,16.68989745,0
                99.6635134640001,16.6899049680001,0
                99.6635466330001,16.689903336,0
                99.663567141,16.689895661,0
                99.663592372,16.689881879,0
                99.6637436080001,16.6897626300001,0
                99.6637656560001,16.6897397220001,0
                99.663778177,16.6897077090001,0
                99.66380623,16.689596481,0
                99.6638171760001,16.689564465,0
                99.6638392090001,16.6895400390001,0
                99.6640000410001,16.6894542590001,0
                99.6642286300001,16.689316497,0
                99.6642443800001,16.689304265,0
                99.6643010640001,16.6892508,0
                99.664453726,16.689084345,0
                99.6644726000001,16.6890599290001,0
                99.6644914010001,16.689014188,0
                99.6644991490001,16.6889715350001,0
                99.6644974340001,16.688933476,0
                99.6644941580001,16.6888999940001,0
                99.664404754,16.6886262250001,0
                99.6643503770001,16.688434553,0
                99.6643455350001,16.6884041220001,0
                99.6643454460001,16.6883782400001,0
                99.6643516810001,16.688353857,0
                99.6643674210001,16.688337061,0
                99.6644083910001,16.6883080010001,0
                99.6644414550001,16.6882759220001,0
                99.6644634830001,16.688249969,0
                99.6644807150001,16.688208805,0
                99.6644901000001,16.688181366,0
                99.6645506840001,16.6878842780001,0
                99.664567816,16.687814185,0
                99.6645850340001,16.6877684560001,0
                99.6646132660001,16.6877089830001,0
                99.6646478120001,16.687649492,0
                99.66480348,16.687438887,0
                99.664838086,16.6873976680001,0
                99.664872749,16.6873701480001,0
                99.6648964010001,16.68735789,0
                99.6649342680001,16.687345587,0
                99.6649690030001,16.687339391,0
                99.665011662,16.6873407730001,0
                99.6650716730001,16.6873360160001,0
                99.6651016550001,16.687326784,0
                99.6651268620001,16.68730843,0
                99.6651441700001,16.687287058,0
                99.6651865150001,16.687200138,0
                99.665199075,16.6871772600001,0
                99.665230593,16.687154322,0
                99.665276384,16.687148085,0
                99.665311144,16.6871510180001,0
                99.6653475090001,16.6871600380001,0
                99.66537601,16.687178212,0
                99.6654108870001,16.687213118,0
                99.6654394750001,16.687258706,0
                99.6654538220001,16.6872967250001,0
                99.6654666090001,16.6873393110001,0
                99.6654874320001,16.687422982,0
                99.665504893,16.687445763,0
                99.6655238970001,16.6874609290001,0
                99.6655507930001,16.687473024,0
                99.6655855760001,16.687480522,0
                99.66562193,16.6874864970001,0
                99.665672494,16.6874909050001,0
                99.6657388410001,16.6874906910001,0
                99.6657877760001,16.687479872,0
                99.6658240310001,16.6874569190001,0
                99.665850795,16.6874309510001,0
                99.665919768,16.687276954,0
                99.6661578160001,16.686679355,0
                99.6661923340001,16.686612252,0
                99.6662206180001,16.6865680070001,0
                99.666255214,16.68652374,0
                99.6663134900001,16.6864733080001,0
                99.666382781,16.686410665,0
                99.666441089,16.686369368,0
                99.6664994060001,16.686332636,0
                99.6666980830001,16.6862254210001,0
                99.6668225920001,16.6861443280001,0
                99.6668745700001,16.6861000060001,0
                99.666931268,16.6860511030001,0
                99.6669847700001,16.68599155,0
                99.6672345810001,16.685599451,0
                99.667248751,16.685584185,0
                99.667267667,16.6855719430001,0
                99.667299261,16.685573359,0
                99.6673308900001,16.685582395,0
                99.667602947,16.685683527,0
                99.6676962640001,16.685716719,0
                99.6677816470001,16.6857392800001,0
                99.6678306420001,16.6857482570001,0
                99.6678843880001,16.6857572220001,0
                99.667950751,16.685761578,0
                99.6680597800001,16.685770356,0
                99.6681340540001,16.6857792590001,0
                99.668170418,16.685788272,0
                99.6682194320001,16.685800294,0
                99.668276367,16.685819902,0
                99.668334923,16.6858501670001,0
                99.668396654,16.685886505,0
                99.668439413,16.685916822,0
                99.6684774540001,16.685953243,0
                99.6685171060001,16.6859987890001,0
                99.668540937,16.686038296,0
                99.668615591,16.6861568100001,0
                99.6686616050001,16.6862145160001,0
                99.6687107400001,16.686261557,0
                99.6689974600001,16.6864905410001,0
                99.6690339030001,16.6865223890001,0
                99.6690545440001,16.686552777,0
                99.6691435110001,16.6866971270001,0
                99.6691673490001,16.6867381590001,0
                99.6691832270001,16.686760952,0
                99.6692165210001,16.686795864,0
                99.6692466090001,16.6868170760001,0
                99.6692703530001,16.6868291810001,0
                99.6693003930001,16.686836693,0
                99.669341472,16.686839607,0
                99.6693856950001,16.686837944,0
                99.669422007,16.686831737,0
                99.6694564380001,16.6868141190001,0
                99.6695293010001,16.6867705760001,0
                99.6696862460001,16.6866780350001,0
                99.6697619500001,16.6866426030001,0
                99.6698909930001,16.686601588,0
                99.6699864160001,16.686585037,0
                99.6701380110001,16.6865683030001,0
                99.6704104,16.686562011,0
                99.6704862350001,16.6865644750001,0
                99.6705536810001,16.6865777890001,0
                99.6707308460001,16.686644878,0
                99.6707814220001,16.6866528360001,0
                99.6708460200001,16.686655328,0
                99.6709049460001,16.6866416120001,0
                99.670955425,16.686619794,0
                99.6709946400001,16.686589886,0
                99.671056219,16.6865328530001,0
                99.671095339,16.6864758780001,0
                99.671134355,16.686389137,0
                99.6711620770001,16.6862861970001,0
                99.6711872130001,16.686245511,0
                99.6712235970001,16.6862102060001,0
                99.6712824670001,16.6861802400001,0
                99.6713387650001,16.686164267,0
                99.6743006330001,16.6854103910001,0
                99.6770070970001,16.6852304720001,0
                99.6772467420001,16.685229688,0
                99.6822141970001,16.6851875510001,0
                99.682581138,16.6852091600001,0
                99.68295987,16.685219316,0
                99.6832085130001,16.685252712,0
                99.6835634510001,16.6852287290001,0
                99.68404853,16.6851929050001,0
                99.6845811090001,16.685202556,0
                99.6853740340001,16.685211339,0
                99.6891021160001,16.685290213,0
                99.6894451790001,16.6852548480001,0
                99.6903633330001,16.6850225200001,0
                99.6920197780001,16.684702703,0
                99.6928047520001,16.6844483510001,0
                99.69322994,16.6842880780001,0
                99.694722771,16.6838520210001,0
                99.6951095590001,16.683739039,0
                99.6962622680001,16.683470415,0
                99.6974978100001,16.683320645,0
                99.6981156990001,16.68327885,0
                99.6992683570001,16.6834107780001,0
                99.7034571820001,16.683743372,0
                99.703183831,16.6828186770001,0
                99.703152979,16.6826612,0
                99.703127904,16.6824278300001,0
                99.7031500990001,16.6818732990001,0
                99.7031609080001,16.681517243,0
                99.7031702660001,16.6807643180001,0
                99.7032346340001,16.680151279,0
                99.703250503,16.680011103,0
                99.703281561,16.6797367360001,0
                99.7032869980001,16.679567462,0
                99.7032740550001,16.679339887,0
                99.7032238850001,16.678867311,0
                99.7031535390001,16.6782600380001,0
                99.703152995,16.678250232,0
                99.7031313400001,16.6777687260001,0
                99.7031227000001,16.677454821,0
                99.7030908520001,16.676896669,0
                99.703064499,16.6764845640001,0
                99.7030461720001,16.676221046,0
                99.7030400990001,16.675916687,0
                99.703021328,16.6755621630001,0
                99.7030130260001,16.675339374,0
                99.7029998030001,16.67510457,0
                99.7029867430001,16.674948854,0
                99.7029110810001,16.6746447680001,0
                99.702785222,16.67420915,0
                99.7026955110001,16.673930398,0
                99.7026291700001,16.673687296,0
                99.7024783240001,16.6732156680001,0
                99.7023800970001,16.6728757770001,0
                99.7022991250001,16.672727437,0
                99.702844343,16.6726212840001,0
                99.7037918280001,16.6724051840001,0
                99.7046420460001,16.6721757650001,0
                99.7048176920001,16.6721186720001,0
                99.705165982,16.6719966410001,0
                99.705508927,16.67186214,0
                99.705679257,16.671790335,0
                99.7060145010001,16.671638979,0
                99.7063451270001,16.6714762030001,0
                99.7065077180001,16.6713909690001,0
                99.706668607,16.671302269,0
                99.7069861320001,16.6711181680001,0
                99.7072966740001,16.6709238350001,0
                99.707600099,16.6707183180001,0
                99.7078958430001,16.6705026340001,0
                99.7081834090001,16.670277948,0
                99.7126219820001,16.6666232380001,0
                99.712775105,16.6664928220001,0
                99.712293135,16.665335199,0
                99.712024989,16.664460406,0
                99.7117169310001,16.6630874790001,0
                99.7113518880001,16.661519173,0
                99.7110113530001,16.6599595230001,0
                99.7109059210001,16.6595965970001,0
                99.7108086650001,16.659439091,0
                99.710313091,16.6588600260001,0
                99.710096278,16.65858108,0
                99.709811868,16.6581159080001,0
                99.709372714,16.6573789170001,0
                99.7092030640001,16.6570878900001,0
                99.7089511650001,16.656677551,0
                99.708588493,16.6565066650001,0
                99.7060913830001,16.6524312070001,0
                99.7057343760001,16.651873519,0
                99.7046396960001,16.6502005450001,0
                99.7039385290001,16.649358874,0
                99.7035938670001,16.648938017,0
                99.7032723230001,16.6483688010001,0
                99.702998155,16.6478108310001,0
                99.7019120750001,16.6452367250001,0
                99.7017681870001,16.644712526,0
                99.701612175,16.6441085330001,0
                99.7012869170001,16.6425127740001,0
                99.7007966040001,16.64107726,0
                99.700534324,16.640530648,0
                99.699427514,16.6387436200001,0
                99.698938717,16.6377187140001,0
                99.6987007280001,16.637343109,0
                99.6976425180001,16.635898089,0
                99.6968699550001,16.634919756,0
                99.6967387400001,16.63462364,0
                99.6965482950001,16.6343049070001,0
                99.696286737,16.633952193,0
                99.6959303240001,16.633542764,0
                99.6952060080001,16.632815199,0
                99.6946711160001,16.632121215,0
                99.6942074120001,16.6314840210001,0
                99.6938774110001,16.630832276,0
                99.6885261900001,16.6254464090001,0
                99.6879967830001,16.6241145920001,0
                99.6870618130001,16.622738129,0
                99.6864372810001,16.6214755990001,0
                99.6861152600001,16.6199504090001,0
                99.6856554400001,16.6198909170001,0
                99.685415822,16.619874596,0
                99.6846173500001,16.61989434,0
                99.6830471980001,16.6199850520001,0
                99.682275437,16.620030362,0
                99.6813707900001,16.620135986,0
                99.6802000870001,16.6202766960001,0
                99.6787899440001,16.620452405,0
                99.677237651,16.6205772340001,0
                99.6764035940001,16.6205713950001,0
                99.6748786960001,16.6209185440001,0
                99.6738676880001,16.6210587,0
                99.6722265720001,16.6211581160001,0
                99.6720579330001,16.6211415550001,0
                99.6716938220001,16.621048628,0
                99.6713917380001,16.6209298420001,0
                99.669569101,16.6198578350001,0
                99.669062829,16.6197054850001,0
                99.6686632650001,16.619621222,0
                99.6683729490001,16.619618148,0
                99.6663725340001,16.619889233,0
                99.6654546,16.6200028530001,0
                99.663608545,16.6201723610001,0
                99.6626356400001,16.620266895,0
                99.6622913340001,16.6202872420001,0
                99.6620520060001,16.6203553760001,0
                99.6618176810001,16.6204283020001,0
                99.6611012530001,16.6208060290001,0
                99.6606559080001,16.6211078960001,0
                99.6604562590001,16.6212181560001,0
                99.659978832,16.6213739570001,0
                99.659595902,16.621456374,0
                99.6595558970001,16.6214565010001,0
                99.6595074270001,16.621444475,0
                99.659271399,16.6213843250001,0
                99.6592250190001,16.621368229,0
                99.6591996760001,16.621345982,0
                99.659186946,16.6213175980001,0
                99.65917575,16.62112072,0
                99.6591499630001,16.6209685470001,0
                99.6591370740001,16.6208934750001,0
                99.6591179060001,16.620830604,0
                99.659082691,16.620745045,0
                99.6589373240001,16.620489719,0
                99.658849188,16.620344975,0
                99.6587789010001,16.6202241560001,0
                99.6586895360001,16.6200668560001,0
                99.6586358630001,16.619957401,0
                99.6585605880001,16.6197635140001,0
                99.6583617910001,16.6191201070001,0
                99.6582972720001,16.618955876,0
                99.6582591480001,16.6188886260001,0
                99.6582317950001,16.618855597,0
                99.658191371,16.6188111880001,0
                99.657635306,16.6182865270001,0
                99.657460643,16.618121505,0
                99.6574143280001,16.618083966,0
                99.657360913,16.618049881,0
                99.657309905,16.618026061,0
                99.6572767090001,16.6180158880001,0
                99.6570693030001,16.6179731500001,0
                99.6566663770001,16.6179013450001,0
                99.6562325890001,16.6178090770001,0
                99.6561745320001,16.617802408,0
                99.6561259690001,16.6178014180001,0
                99.656083359,16.6178084040001,0
                99.656038391,16.617819968,0
                99.6557202160001,16.6179431570001,0
                99.6552459060001,16.6181239320001,0
                99.6552045190001,16.618143474,0
                99.6551666810001,16.618161867,0
                99.6551277040001,16.6181939620001,0
                99.655094675,16.6182328900001,0
                99.654866246,16.6186275690001,0
                99.654852131,16.6186550210001,0
                99.654836801,16.618675625,0
                99.6548072720001,16.618698556,0
                99.6547706000001,16.6187123760001,0
                99.6547339210001,16.618722769,0
                99.6547090610001,16.61872513,0
                99.654673544,16.618729811,0
                99.6546380030001,16.6187276360001,0
                99.6546190330001,16.6187208440001,0
                99.6545952960001,16.618706076,0
                99.6545694750001,16.618683677,0
                99.6545143770001,16.6186261070001,0
                99.6541080000001,16.618001824,0
                99.6539705810001,16.6180089330001,0
                99.6537538640001,16.618065496,0
                99.6534996930001,16.61817216,0
                99.651990218,16.618990131,0
                99.651815878,16.61909173,0
                99.651527059,16.6192851160001,0
                99.6514124940001,16.619352846,0
                99.6511832400001,16.6194498020001,0
                99.6509639540001,16.619541918,0
                99.6506748530001,16.6196535020001,0
                99.6504605060001,16.6197311670001,0
                99.6500917160001,16.6198911160001,0
                99.6492299130001,16.620375014,0
                99.6486220460001,16.620680067,0
                99.64777524,16.621173534,0
                99.6475859720001,16.6212896120001,0
                99.647506229,16.621323546,0
                99.64730188,16.621405989,0
                99.6466841180001,16.6217399390001,0
                99.646280705,16.6219962320001,0
                99.645593584,16.622484381,0
                99.6455438500001,16.6225374700001,0
                99.645519118,16.622604913,0
                99.645509298,16.6226530650001,0
                99.6455294890001,16.622720373,0
                99.645584709,16.6228164390001,0
                99.6459005890001,16.623248539,0
                99.6459106820001,16.623282193,0
                99.6459008630001,16.6233303400001,0
                99.6458661340001,16.623393005,0
                99.6451243280001,16.623948693,0
                99.644820667,16.6241854240001,0
                99.6444422210001,16.6244464500001,0
                99.6439492200001,16.624780005,0
                99.6431175490001,16.6253311510001,0
                99.642519845,16.625698717,0
                99.6422408750001,16.6258583750001,0
                99.6419518760001,16.626003628,0
                99.6417276610001,16.6261198120001,0
                99.6413689440001,16.6263134010001,0
                99.6409254120001,16.6265168730001,0
                99.640486873,16.626720333,0
                99.640247651,16.626826931,0
                99.6400333870001,16.6269334570001,0
                99.639594845,16.6271369150001,0
                99.638563381,16.62765016,0
                99.638413884,16.627722804,0
                99.638314128,16.6277423560001,0
                99.638169496,16.627776485,0
                99.6380997190001,16.6278055720001,0
                99.638040001,16.627858685,0
                99.6374736710001,16.6286640320001,0
                99.6377118090001,16.6287444880001,0
                99.637756827,16.628774121,0
                99.6377920530001,16.6288184060001,0
                99.6378051510001,16.628857963,0
                99.6378106000001,16.6289038840001,0
                99.637810824,16.6289715520001,0
                99.6377889810001,16.6291583830001,0
                99.637662069,16.6298354670001,0
                99.6376091320001,16.629957431,0
                99.637539329,16.6300740360001,0
                99.637484123,16.6301608260001,0
                99.637480672,16.630166247,0
                99.6373884270001,16.630288336,0
                99.6373208480001,16.6303801660001,0
                99.6372880160001,16.630488943,0
                99.637271458,16.6305756100001,0
                99.6372706640001,16.6306816850001,0
                99.6373143480001,16.6310211790001,0
                99.6373749530001,16.6313088260001,0
                99.6373807790001,16.63137377,0
                99.6373809580001,16.631427902,0
                99.637344581,16.6315578460001,0
                99.63726719,16.6318342650001,0
                99.6372590650001,16.631923613,0
                99.6372592700001,16.631985871,0
                99.637273539,16.632056199,0
                99.6373103170001,16.6321399990001,0
                99.637366688,16.632207495,0
                99.6373822500001,16.6322264930001,0
                99.6374794450001,16.632345194,0
                99.637549956,16.632442417,0
                99.6375782470001,16.6325072970001,0
                99.637589721,16.6325803400001,0
                99.6375787520001,16.632977931,0
                99.6375392300001,16.63376369,0
                99.6375438270001,16.6338793890001,0
                99.637587624,16.6343888010001,0
                99.6376219570001,16.6352210250001,0
                99.6376056970001,16.635397691,0
                99.6375679540001,16.635522958,0
                99.637528376,16.635576574,0
                99.637244997,16.6358474420001,0
                99.6372156720001,16.6358942250001,0
                99.637203205,16.6359450150001,0
                99.637197132,16.636018117,0
                99.6372120520001,16.6360728820001,0
                99.6372354640001,16.6361479230001,0
                99.637474334,16.636427339,0
                99.6377179580001,16.6368711750001,0
                99.637792049,16.636988694,0
                99.637876524,16.6370635480001,0
                99.6379672180001,16.637107928,0
                99.638034641,16.6371199010001,0
                99.638123082,16.63711963,0
                99.6383862630001,16.637108669,0
                99.6384958260001,16.6371286350001,0
                99.638586466,16.637156776,0
                99.6386687340001,16.6371991520001,0
                99.63877002,16.6372638070001,0
                99.6393190220001,16.6377188820001,0
                99.63942876,16.6377916220001,0
                99.6395236920001,16.6378441160001,0
                99.6395721580001,16.6378541130001,0
                99.639616382,16.6378539770001,0
                99.639742729,16.637855621,0
                99.640035443,16.637860807,0
                99.6404229670001,16.637894354,0
                99.640581308,16.637923239,0
                99.6406569110001,16.6379421240001,0
                99.640774981,16.6379864190001,0
                99.6408214050001,16.6380167290001,0
                99.640876254,16.638047009,0
                99.6409227380001,16.638093558,0
                99.6410116220001,16.6382124950001,0
                99.6413463260001,16.6388271340001,0
                99.6414161710001,16.6389345100001,0
                99.6414756,16.6390744010001,0
                99.641507441,16.639151444,0
                99.641526679,16.6392366490001,0
                99.641529587,16.639478217,0
                99.641498911,16.640385754,0
                99.6414273570001,16.641110961,0
                99.64140869,16.6411962830001,0
                99.6413977770001,16.641238946,0
                99.6413789800001,16.641286204,0
                99.6413162870001,16.6414295180001,0
                99.6413022290001,16.64147676,0
                99.6412945010001,16.6415285530001,0
                99.6413009930001,16.6415802970001,0
                99.6413200650001,16.64161678,0
                99.641350226,16.641662363,0
                99.641407288,16.6417246120001,0
                99.6416403300001,16.6419888140001,0
                99.641694343,16.642083045,0
                99.6417166300001,16.6421362680001,0
                99.641724728,16.6421971410001,0
                99.641726485,16.642250427,0
                99.6417219020001,16.6422961170001,0
                99.6417157540001,16.6423479050001,0
                99.6416970070001,16.642408861,0
                99.6416468070001,16.64251103,0
                99.641581682,16.6426519250001,0
                99.6414014980001,16.642966791,0
                99.6413033460001,16.6431041270001,0
                99.6412422610001,16.643168545,0
                99.641090799,16.6433051870001,0
                99.6410287140001,16.6433353530001,0
                99.6409807950001,16.6433509180001,0
                99.6409559250001,16.6433527080001,0
                99.6409275010001,16.6433545080001,0
                99.6408946230001,16.643352043,0
                99.6408652760001,16.6433427100001,0
                99.6408234510001,16.643321429,0
                99.6407273230001,16.6432669160001,0
                99.6406614910001,16.6432388530001,0
                99.6406214770001,16.643227844,0
                99.6405956950001,16.643221931,0
                99.640586285,16.6432217070001,0
                99.640563709,16.6432211710001,0
                99.6405228570001,16.6432247230001,0
                99.6404864510001,16.6432299740001,0
                99.6404367420001,16.643242973,0
                99.6404039240001,16.643258491,0
                99.6403799870001,16.643273127,0
                99.6403667110001,16.643287726,0
                99.6403526130001,16.6433228830001,0
                99.6403438570001,16.6433614490001,0
                99.6403377400001,16.6433931560001,0
                99.6403352030001,16.643430849,0
                99.640324079,16.6435584920001,0
                99.6403224640001,16.64360731,0
                99.6403225720001,16.643639856,0
                99.6403235380001,16.6436638340001,0
                99.640331685,16.643710055,0
                99.6403389600001,16.6437605620001,0
                99.6403441320001,16.643776266,0
                99.6403533200001,16.6438041960001,0
                99.6403783760001,16.643858075,0
                99.640497113,16.6440332760001,0
                99.6405105680001,16.6440726330001,0
                99.6405214280001,16.6441325480001,0
                99.6405226540001,16.6442336050001,0
                99.640521134,16.6443106890001,0
                99.6405116400001,16.6443955030001,0
                99.6404942,16.644493191,0
                99.640469651,16.644591755,0
                99.640449436,16.64465691,0
                99.6404097920001,16.6447572340001,0
                99.640406139,16.6447685040001,0
                99.6403721330001,16.6448454800001,0
                99.64035069,16.644884167,0
                99.6403356160001,16.6448936370001,0
                99.6403205230001,16.644896251,0
                99.6403027540001,16.6448963060001,0
                99.64028232,16.644895515,0
                99.6402645480001,16.6448947110001,0
                99.6402236710001,16.6448905570001,0
                99.6401810090001,16.644885549,0
                99.6401187810001,16.644872892,0
                99.640039442,16.6448581450001,0
                99.639982806,16.644857899,0
                99.6399526020001,16.644858847,0
                99.639925965,16.644862355,0
                99.639878932,16.644877916,0
                99.6398266050001,16.644904626,0
                99.6397831930001,16.6449407330001,0
                99.6397646290001,16.6449681930001,0
                99.6397504940001,16.644992218,0
                99.6397443810001,16.6450247830001,0
                99.639740052,16.645058197,0
                99.6397383880001,16.645092457,0
                99.6397384790001,16.645119864,0
                99.639741304,16.6451686720001,0
                99.639748565,16.645214895,0
                99.639755746,16.645237142,0
                99.6397709600001,16.645269641,0
                99.6397888440001,16.6453055540001,0
                99.6398165640001,16.64535857,0
                99.639846059,16.6454124310001,0
                99.639996211,16.645684315,0
                99.6401017750001,16.6459049480001,0
                99.6401170300001,16.6459511510001,0
                99.640124251,16.645985384,0
                99.6401279500001,16.646029051,0
                99.6401280520001,16.6460598840001,0
                99.6401272720001,16.646093287,0
                99.6401220860001,16.646135268,0
                99.640111575,16.646180692,0
                99.6400807750001,16.646268998,0
                99.6400508630001,16.646358159,0
                99.6400412280001,16.646400155,0
                99.640033379,16.6464438570001,0
                99.640028182,16.646484125,0
                99.6400265610001,16.6465312350001,0
                99.6400258800001,16.646592899,0
                99.6400278500001,16.646651134,0
                99.6400308060001,16.6467393350001,0
                99.640074961,16.647193966,0
                99.6400832090001,16.6475373690001,0
                99.6400831080001,16.6475407730001,0
                99.6400768180001,16.647753213,0
                99.640074321,16.647804606,0
                99.6400683090001,16.6478662860001,0
                99.640059609,16.6479219820001,0
                99.6400464450001,16.647971694,0
                99.6400015570001,16.6481114100001,0
                99.6399293090001,16.648279517,0
                99.6399204900001,16.6482992410001,0
                99.639907313,16.6483438180001,0
                99.6398967970001,16.648387529,0
                99.6398942270001,16.6484157990001,0
                99.63989431,16.6484406340001,0
                99.6398997320001,16.6484680250001,0
                99.6399078840001,16.6485159580001,0
                99.6399325530001,16.6485942900001,0
                99.6400548290001,16.64889148,0
                99.640067435,16.6489419710001,0
                99.6400720280001,16.648986494,0
                99.640068608,16.6490267570001,0
                99.640056357,16.6490833180001,0
                99.6399991270001,16.649239365,0
                99.63995443,16.6494236350001,0
                99.63993344,16.6495239010001,0
                99.6399204450001,16.649623289,0
                99.6399171580001,16.6497038040001,0
                99.639920051,16.6497714550001,0
                99.6399195810001,16.649850429,0
                99.6399235480001,16.6498688610001,0
                99.6399301380001,16.6498878730001,0
                99.6399990580001,16.650020431,0
                99.640026816,16.650086292,0
                99.6400501640001,16.6501607320001,0
                99.6400547600001,16.650207822,0
                99.6400531080001,16.6502455080001,0
                99.6400452140001,16.6502755070001,0
                99.6400240130001,16.650312398,0
                99.640003112,16.650332065,0
                99.6399832690001,16.6503444690001,0
                99.6399513120001,16.6503571600001,0
                99.639882932,16.6503659360001,0
                99.6396343210001,16.6503703450001,0
                99.639541782,16.650366988,0
                99.63949383,16.6503731290001,0
                99.639459231,16.650387793,0
                99.6394379810001,16.650410127,0
                99.639415866,16.6504384570001,0
                99.639405276,16.6504599,0
                99.6393921000001,16.65050619,0
                99.6393851600001,16.650556742,0
                99.6393805210001,16.6506749500001,0
                99.639378154,16.6509140000001,0
                99.639364115,16.6509673300001,0
                99.639351596,16.6510023870001,0
                99.6393233160001,16.651046632,0
                99.6391547910001,16.651188749,0
                99.6390965250001,16.651240692,0
                99.639041466,16.651307853,0
                99.6390116260001,16.6513581900001,0
                99.638986527,16.6514100360001,0
                99.6389772540001,16.651472486,0
                99.6389823420001,16.651577526,0
                99.638998385,16.651652083,0
                99.6390206880001,16.651709871,0
                99.6390730310001,16.6517767,0
                99.639141136,16.651834352,0
                99.6391633480001,16.651864732,0
                99.6391776940001,16.651904276,0
                99.63918096,16.6519362380001,0
                99.639171606,16.651972809,0
                99.6391375850001,16.6520530390001,0
                99.6390976810001,16.6521250930001,0
                99.639027119,16.6522214300001,0
                99.6388084480001,16.652482456,0
                99.638731555,16.652633429,0
                99.638709797,16.652740071,0
                99.638700595,16.6528238400001,0
                99.638700837,16.652896922,0
                99.6387057890001,16.652960856,0
                99.6387186620001,16.653032377,0
                99.6387298530001,16.653073449,0
                99.6387505260001,16.653116015,0
                99.6387743280001,16.653149442,0
                99.6388076100001,16.6531828350001,0
                99.6388329260001,16.6531964600001,0
                99.6388994900001,16.6532332080001,0
                99.6390369600001,16.6532832610001,0
                99.6390747230001,16.653306362,0
                99.639087616,16.653317477,0
                99.6391161540001,16.6533508840001,0
                99.6391257450001,16.6533843500001,0
                99.6391274410001,16.6534193630001,0
                99.6391227820001,16.6534437390001,0
                99.639097667,16.653491015,0
                99.6387751950001,16.653886352,0
                99.638757319,16.653920833,0
                99.6387804450001,16.654041637,0
                99.638809113,16.654113104,0
                99.6389059480001,16.6542604960001,0
                99.6389551730001,16.6543395160001,0
                99.638993322,16.6544124810001,0
                99.6390077290001,16.6544702940001,0
                99.6390174470001,16.6545433470001,0
                99.6390144380001,16.654589032,0
                99.6390050840001,16.6546256030001,0
                99.638893726,16.654861941,0
                99.6388575450001,16.6549062060001,0
                99.6387976890001,16.654955112,0
                99.638744122,16.6549963840001,0
                99.6386731700001,16.6550331440001,0
                99.6382792640001,16.6552647390001,0
                99.6382311790001,16.6552947760001,0
                99.6381887580001,16.655337649,0
                99.638159396,16.655373883,0
                99.6381388470001,16.655423871,0
                99.6381362120001,16.6554464550001,0
                99.638136338,16.6554845420001,0
                99.6381478000001,16.655554883,0
                99.638167643,16.6556116620001,0
                99.6382241520001,16.6557170500001,0
                99.638525686,16.656111594,0
                99.6386611500001,16.6562516440001,0
                99.6387202170001,16.6562812340001,0
                99.638782043,16.656297287,0
                99.6388381850001,16.6562916990001,0
                99.6388830750001,16.656280732,0
                99.6391129360001,16.6561636370001,0
                99.6391689970001,16.6561336880001,0
                99.6392110780001,16.65612273,0
                99.6392616300001,16.6561252810001,0
                99.6392981850001,16.6561414120001,0
                99.639326408,16.6561846330001,0
                99.639337804,16.6562333150001,0
                99.639340765,16.6562793210001,0
                99.639326983,16.656357862,0
                99.6391820850001,16.656693945,0
                99.6391682440001,16.656753539,0
                99.6391741040001,16.6568266,0
                99.6391854230001,16.656853633,0
                99.6392248170001,16.656877873,0
                99.6392726060001,16.6568939650001,0
                99.6394328360001,16.6569476080001,0
                99.6395453310001,16.657001398,0
                99.639649418,16.6570606230001,0
                99.6397338560001,16.6571199100001,0
                99.639812695,16.657184628,0
                99.6398634130001,16.6572386080001,0
                99.639891709,16.657303482,0
                99.6399060300001,16.6573873460001,0
                99.6399295990001,16.6577202070001,0
                99.6399384870001,16.6578609270001,0
                99.6399415390001,16.6579340010001,0
                99.6399535100001,16.6579795320001,0
                99.6399557610001,16.6579880940001,0
                99.6399727240001,16.658023228,0
                99.6399980850001,16.658050218,0
                99.640761334,16.6586247440001,0
                99.6407778440001,16.6586378820001,0
                99.640862251,16.6586890500001,0
                99.6409746850001,16.6587238880001,0
                99.6411348710001,16.658763994,0
                99.6413035730001,16.6588311410001,0
                99.6414329660001,16.6588984090001,0
                99.6415708250001,16.658979188,0
                99.6416525050001,16.659054725,0
                99.6419370720001,16.6593434660001,0
                99.6420047380001,16.6594244570001,0
                99.6420498720001,16.659486572,0
                99.6421399150001,16.6595431370001,0
                99.6421675890001,16.6595519320001,0
                99.6422972390001,16.659567011,0
                99.6425106710001,16.659574467,0
                99.642757777,16.6595764080001,0
                99.642870126,16.6595841810001,0
                99.642971263,16.6596001070001,0
                99.6431202300001,16.6596429530001,0
                99.6432158900001,16.6596995,0
                99.6433087870001,16.6597695880001,0
                99.643500642,16.6600423740001,0
                99.6438561180001,16.660542015,0
                99.644050818,16.6608256220001,0
                99.6441606980001,16.6609362570001,0
                99.6442113420001,16.660965875,0
                99.644290025,16.660984577,0
                99.6444552870001,16.6609920990001,0
                99.644515342,16.6610025700001,0
                99.644581739,16.661020632,0
                99.644640306,16.6610569920001,0
                99.6446735860001,16.661090384,0
                99.644714853,16.6611511580001,0
                99.6447482300001,16.661211957,0
                99.6447547440001,16.6612713160001,0
                99.6447533320001,16.661321566,0
                99.6447472,16.661376395,0
                99.644731618,16.6614403930001,0
                99.6446955950001,16.6615318570001,0
                99.6446501120001,16.6616279190001,0
                99.644522114,16.662082035,0
                99.644490965,16.662214594,0
                99.6444756220001,16.662350147,0
                99.6444776000001,16.6624689,0
                99.6444773420001,16.6624773790001,0
                99.6444690610001,16.662749074,0
                99.6444692950001,16.66281911,0
                99.644482263,16.662918038,0
                99.6445015100001,16.66300476,0
                99.6445318790001,16.663112767,0
                99.6446019420001,16.663281554,0
                99.6447687300001,16.6635611830001,0
                99.644829143,16.6636782310001,0
                99.644902126,16.6637754440001,0
                99.6449258750001,16.66379212,0
                99.6449638500001,16.663811794,0
                99.644990733,16.663820849,0
                99.644999081,16.6638216270001,0
                99.6450223310001,16.6638237920001,0
                99.6450555100001,16.663826735,0
                99.64511079,16.6638250400001,0
                99.6454518050001,16.663776779,0
                99.6456776100001,16.6637578080001,0
                99.6458086870001,16.663751307,0
                99.6458545120001,16.6637557330001,0
                99.6459240550001,16.6637692200001,0
                99.6459572940001,16.6637904310001,0
                99.645995321,16.6638253310001,0
                99.6460334230001,16.6638830690001,0
                99.6460683710001,16.6639423400001,0
                99.646089138,16.6640123120001,0
                99.646092497,16.6640716810001,0
                99.6460959080001,16.664146277,0
                99.6460914130001,16.6642193700001,0
                99.6460837110001,16.6642772500001,0
                99.6460492130001,16.664351964,0
                99.6460146530001,16.6644084050001,0
                99.6458794380001,16.6645945760001,0
                99.645822889,16.6646891500001,0
                99.6457679550001,16.664792854,0
                99.6457099530001,16.664923974,0
                99.6456409720001,16.66507949,0
                99.6455611820001,16.665269836,0
                99.6454780060001,16.665468247,0
                99.645454569,16.665544445,0
                99.645439007,16.665614535,0
                99.645429709,16.665667851,0
                99.645426748,16.66572724,0
                99.6454253310001,16.6657759660001,0
                99.6454286860001,16.6658338120001,0
                99.6454319680001,16.665870344,0
                99.6454416280001,16.6659251240001,0
                99.6454607690001,16.6659798740001,0
                99.6454941160001,16.6660330620001,0
                99.645549622,16.66609988,0
                99.6455987250001,16.666140838,0
                99.645641471,16.6661696310001,0
                99.6457031800001,16.666201411,0
                99.6457632830001,16.6662255840001,0
                99.64581703,16.666239121,0
                99.6459405150001,16.6662471510001,0
                99.6463824200001,16.6662129970001,0
                99.6464329550001,16.666209797,0
                99.6464692540001,16.666200545,0
                99.6465197430001,16.6661836430001,0
                99.6466332460001,16.6661178160001,0
                99.6467073810001,16.666087136,0
                99.646767357,16.6660732450001,0
                99.6468510560001,16.666068415,0
                99.646948996,16.6660711550001,0
                99.6470027170001,16.6660755570001,0
                99.6470691010001,16.6660890530001,0
                99.6471386950001,16.6661162390001,0
                99.647203555,16.6661464900001,0
                99.6472526430001,16.666182878,0
                99.6472748830001,16.666219346,0
                99.6472829370001,16.66626652,0
                99.6472830960001,16.666313718,0
                99.6472817000001,16.666368537,0
                99.647269243,16.666421863,0
                99.6471925610001,16.6666352600001,0
                99.6471816380001,16.6666748820001,0
                99.6471786260001,16.6667175210001,0
                99.6471788760001,16.6667921260001,0
                99.6471854790001,16.6668773650001,0
                99.6472003910001,16.667084387,0
                99.647216756,16.667253336,0
                99.647224887,16.667323347,0
                99.647239293,16.66737964,0
                99.6472615750001,16.667429811,0
                99.6472949020001,16.667476906,0
                99.647492872,16.667633112,0
                99.6475418840001,16.667646662,0
                99.6475845450001,16.6676510940001,0
                99.647628764,16.667647914,0
                99.6476935060001,16.6676416190001,0
                99.6477692380001,16.6676170210001,0
                99.6478039310001,16.667600167,0
                99.647852851,16.667586311,0
                99.64788917,16.667583151,0
                99.6479176030001,16.6675830620001,0
                99.6479492270001,16.6675920970001,0
                99.6479998250001,16.6676086890001,0
                99.64819758,16.667700945,0
                99.6482291990001,16.667708458,0
                99.6482623680001,16.6677083540001,0
                99.6483002570001,16.6677021470001,0
                99.6483696830001,16.6676806150001,0
                99.6484611810001,16.667646829,0
                99.6485385080001,16.6676252720001,0
                99.6485874530001,16.6676190310001,0
                99.6486237880001,16.6676204410001,0
                99.648649107,16.6676340650001,0
                99.648676047,16.6676598600001,0
                99.648684051,16.667691812,0
                99.648687329,16.66772682,0
                99.6486827370001,16.667770987,0
                99.6486702750001,16.6678227900001,0
                99.6486279790001,16.6679264590001,0
                99.6485966370001,16.668001159,0
                99.648588869,16.6680392480001,0
                99.648589013,16.6680818770001,0
                99.6485954920001,16.6681290560001,0
                99.6486114950001,16.6681914320001,0
                99.6486673090001,16.668348081,0
                99.648697498,16.668401273,0
                99.648721283,16.6684286060001,0
                99.6487593050001,16.668461983,0
                99.648800457,16.668486215,0
                99.648857391,16.6685073510001,0
                99.6492653000001,16.668620263,0
                99.6492938110001,16.6686445350001,0
                99.6493144400001,16.6686718780001,0
                99.6493287600001,16.6687038050001,0
                99.6494006140001,16.668931964,0
                99.649418176,16.6689882420001,0
                99.6494451780001,16.66903231,0
                99.6494721600001,16.66907029,0
                99.6495038620001,16.669103686,0
                99.6498774240001,16.669335463,0
                99.6499739820001,16.669396063,0
                99.6500389350001,16.6694537160001,0
                99.6500849930001,16.669526654,0
                99.65012002,16.6696087620001,0
                99.6501471660001,16.669695459,0
                99.650160101,16.6697852510001,0
                99.6501586700001,16.6698278850001,0
                99.6501430420001,16.6698781800001,0
                99.6501194370001,16.669904138,0
                99.6500973650001,16.669916388,0
                99.6500184010001,16.6699212,0
                99.649801993,16.6699188330001,0
                99.6494813680001,16.6699274540001,0
                99.6494039620001,16.66992465,0
                99.649351805,16.669915679,0
                99.6492584900001,16.66987943,0
                99.6492030640001,16.669838493,0
                99.6491475560001,16.669771676,0
                99.6490601100001,16.6696029500001,0
                99.648891242,16.6691771650001,0
                99.648859536,16.6691437690001,0
                99.6488357710001,16.669122529,0
                99.648789934,16.6691135340001,0
                99.6487299380001,16.669121337,0
                99.6486905140001,16.669141252,0
                99.648650516,16.6691686670001,0
                99.648331205,16.6693875060001,0
                99.648291854,16.6694287400001,0
                99.6481377050001,16.6696210600001,0
                99.6481358340001,16.669622471,0
                99.648109343,16.6696424630001,0
                99.6480762200001,16.6696562710001,0
                99.6480288550001,16.6696625110001,0
                99.6479846350001,16.669665696,0
                99.647907219,16.6696598450001,0
                99.647793418,16.669638886,0
                99.647764995,16.6696420210001,0
                99.6477318560001,16.669651259,0
                99.647705075,16.669672658,0
                99.647508572,16.6699534200001,0
                99.6474754850001,16.669977884,0
                99.6474407970001,16.6699962650001,0
                99.6473997570001,16.670005528,0
                99.6473508010001,16.670008723,0
                99.6473081450001,16.670005814,0
                99.6472607030001,16.6699892120001,0
                99.6467735560001,16.669798896,0
                99.6464904160001,16.66968102,0
                99.646461962,16.669675017,0
                99.6464382790001,16.6696781370001,0
                99.6463862140001,16.669695045,0
                99.646289933,16.6697181870001,0
                99.6462157400001,16.669730595,0
                99.646163603,16.6697277160001,0
                99.646128833,16.669721732,0
                99.6460576420001,16.669689981,0
                99.6460212760001,16.6696794370001,0
                99.6459928370001,16.6696764800001,0
                99.6459596830001,16.6696811530001,0
                99.645729305,16.6697534310001,0
                99.6456488000001,16.669768904,0
                99.6455919580001,16.6697751730001,0
                99.6455556290001,16.669775287,0
                99.645512953,16.6697678040001,0
                99.6454734060001,16.669749659,0
                99.6452231810001,16.6695555540001,0
                99.645189971,16.669543477,0
                99.6451599480001,16.6695405240001,0
                99.6451236330001,16.6695452060001,0
                99.6450936910001,16.669565091,0
                99.6450701250001,16.6696032290001,0
                99.6449776480001,16.669818193,0
                99.644946201,16.669860925,0
                99.6449178290001,16.6698792820001,0
                99.6448831000001,16.669885482,0
                99.6448404440001,16.669882569,0
                99.6447645790001,16.6698691010001,0
                99.644709225,16.6698494820001,0
                99.6446601420001,16.6698146160001,0
                99.6446030860001,16.669756937,0
                99.644327053,16.66938315,0
                99.6441275870001,16.669166514,0
                99.6438014820001,16.668893468,0
                99.6437560910001,16.6688704860001,0
                99.643708943,16.668853503,0
                99.6436387250001,16.668846015,0
                99.643566751,16.668843667,0
                99.6434006010001,16.668844183,0
                99.643260206,16.668840339,0
                99.643188207,16.668831997,0
                99.6431330770001,16.6688184650001,0
                99.6430770260001,16.6687963700001,0
                99.6430289680001,16.6687733970001,0
                99.642976456,16.668745298,0
                99.6429399470001,16.6687222890001,0
                99.6429167630001,16.6686966660001,0
                99.6428988920001,16.668666747,0
                99.6428138910001,16.668489731,0
                99.6427915460001,16.6684495480001,0
                99.642760309,16.668407679,0
                99.6427317930001,16.668382932,0
                99.6426961930001,16.6683642,0
                99.642663279,16.668352312,0
                99.6426134980001,16.668345614,0
                99.6425726240001,16.668344028,0
                99.642543313,16.6683466860001,0
                99.6425104740001,16.6683570650001,0
                99.6424794320001,16.66837515,0
                99.642428082,16.668429261,0
                99.6423652030001,16.668491122,0
                99.6423359720001,16.668517761,0
                99.642296076,16.6685435790001,0
                99.642264143,16.668559949,0
                99.6422189040001,16.668582358,0
                99.6421781070001,16.6686038940001,0
                99.642131985,16.668628873,0
                99.6420681690001,16.6686753160001,0
                99.642047807,16.668696793,0
                99.642028344,16.6687225430001,0
                99.641993041,16.668792884,0
                99.6418448470001,16.6691162160001,0
                99.6418183010001,16.6691479850001,0
                99.6417917250001,16.6691720490001,0
                99.641756263,16.6691961400001,0
                99.641710995,16.6692099800001,0
                99.641679029,16.669215217,0
                99.641631944,16.6692170760001,0
                99.641599059,16.6692137520001,0
                99.6415750560001,16.669209546,0
                99.6413998370001,16.6691552790001,0
                99.641384729,16.6691536120001,0
                99.6413616460001,16.669159677,0
                99.641340358,16.6691708750001,0
                99.641324421,16.6691863410001,0
                99.6412970700001,16.669230058,0
                99.6412369220001,16.6693262110001,0
                99.6412200930001,16.6693416800001,0
                99.6411952910001,16.6693648790001,0
                99.641173128,16.669379506,0
                99.641143851,16.6693924460001,0
                99.6409654660001,16.6694546590001,0
                99.6409379600001,16.6694658770001,0
                99.6409193540001,16.6694813510001,0
                99.640908746,16.6694976540001,0
                99.6409017120001,16.669519945,0
                99.6408982940001,16.669561066,0
                99.6408887310001,16.6696236120001,0
                99.6408763910001,16.669653625,0
                99.6408586850001,16.6696733810001,0
                99.6408383030001,16.6696888600001,0
                99.64081258,16.669701785,0
                99.640789495,16.6697069950001,0
                99.640761963,16.6697105060001,0
                99.640723752,16.669708911,0
                99.640697968,16.6697047070001,0
                99.6406614940001,16.66969112,0
                99.6405894580001,16.6696699290001,0
                99.6405334300001,16.6696546850001,0
                99.6405005510001,16.6696530780001,0
                99.6404578920001,16.6696506390001,0
                99.6404250350001,16.6696558790001,0
                99.6403868690001,16.6696679880001,0
                99.6403443180001,16.6696963810001,0
                99.6403212980001,16.6697212880001,0
                99.6402876820001,16.6697659280001,0
                99.6402665090001,16.669810526,0
                99.6402612430001,16.6698302390001,0
                99.6402595690001,16.6698610780001,0
                99.6402596830001,16.6698953370001,0
                99.640262454,16.66992787,0
                99.6402696740001,16.669961248,0
                99.6402831730001,16.6700134490001,0
                99.640334388,16.670184578,0
                99.6403425270001,16.670226518,0
                99.6403435760001,16.6702753320001,0
                99.640335012,16.670372134,0
                99.640329797,16.6704072630001,0
                99.640320117,16.6704347,0
                99.6403015280001,16.670455313,0
                99.6402793490001,16.6704665140001,0
                99.640258057,16.670475144,0
                99.6402323030001,16.6704786500001,0
                99.6402029720001,16.6704770280001,0
                99.6401718530001,16.670470272,0
                99.6400223030001,16.670385949,0
                99.639933328,16.670348539,0
                99.6398924250001,16.6703383870001,0
                99.6398417660001,16.6703342640001,0
                99.6398115580001,16.6703352110001,0
                99.639763589,16.6703379310001,0
                99.6397120820001,16.6703466550001,0
                99.639665031,16.6703587860001,0
                99.639612674,16.670378649,0
                99.639562991,16.6704002120001,0
                99.6394237200001,16.6704683020001,0
                99.6393731570001,16.670493294,0
                99.6393181340001,16.670512306,0
                99.6392559770001,16.67052363,0
                99.6391858150001,16.6705332650001,0
                99.6390943200001,16.6705403990001,0
                99.638913083,16.670545243,0
                99.6385647720001,16.6705411780001,0
                99.6384874620001,16.6705388440001,0
                99.6382439050001,16.6705070530001,0
                99.638207445,16.6704977420001,0
                99.638195877,16.670491784,0
                99.6381780570001,16.670477277,0
                99.638170915,16.6704670250001,0
                99.638162879,16.6704559140001,0
                99.63816017,16.6704422180001,0
                99.6381609910001,16.6704225190001,0
                99.6382087520001,16.670088363,0
                99.6382077490001,16.6700532520001,0
                99.6382049420001,16.670011296,0
                99.6381995130001,16.6699804840001,0
                99.6381851800001,16.669945414,0
                99.6381619730001,16.669913794,0
                99.638136145,16.669895035,0
                99.638108559,16.6698822710001,0
                99.6380303320001,16.6698705210001,0
                99.637969007,16.6698655760001,0
                99.637469056,16.6698611800001,0
                99.6374432840001,16.6698595460001,0
                99.637421047,16.669851909,0
                99.6374050190001,16.66984168,0
                99.6373907430001,16.66982374,0
                99.6373276730001,16.6695592930001,0
                99.63731963,16.6695447600001,0
                99.6373009230001,16.6695311140001,0
                99.6372786860001,16.6695234760001,0
                99.6372618060001,16.6695235280001,0
                99.6372396030001,16.6695261630001,0
                99.6371224330001,16.6695607830001,0
                99.637080719,16.669574615,0
                99.6370647250001,16.669574664,0
                99.6370487200001,16.6695712870001,0
                99.6370318230001,16.6695662000001,0
                99.6370157950001,16.6695559720001,0
                99.6370033100001,16.669542307,0
                99.63699347,16.6695217810001,0
                99.6369474090001,16.6692958260001,0
                99.63694201,16.6692752870001,0
                99.6369268160001,16.669247931,0
                99.636910754,16.669227424,0
                99.6368911610001,16.6692137810001,0
                99.6368618240001,16.6692087320001,0
                99.63684227,16.669207079,0
                99.636794308,16.6692115120001,0
                99.636542105,16.6692516800001,0
                99.6365269920001,16.6692500130001,0
                99.6365145400001,16.6692449130001,0
                99.636505614,16.669232949,0
                99.636494853,16.6692030080001,0
                99.6364338760001,16.669033621,0
                99.6364240570001,16.669020806,0
                99.6364107030001,16.669012283,0
                99.6363884800001,16.6690089250001,0
                99.6363742660001,16.669009827,0
                99.6363520670001,16.669015034,0
                99.6363307700001,16.669021947,0
                99.6362748640001,16.669043533,0
                99.6362508930001,16.669048746,0
                99.636228691,16.669053094,0
                99.636204703,16.6690531680001,0
                99.6361744740001,16.669046408,0
                99.636149564,16.669037066,0
                99.635959073,16.668931452,0
                99.6359341660001,16.6689229630001,0
                99.6357794100001,16.6688754800001,0
                99.6357464850001,16.668860164,0
                99.6357266800001,16.6688476780001,0
                99.6356589710001,16.6687268310001,0
                99.6356429240001,16.6687106040001,0
                99.6356304450001,16.668698652,0
                99.6356126590001,16.668692713,0
                99.6355708830001,16.668687703,0
                99.635539791,16.668689511,0
                99.6354909300001,16.668691374,0
                99.635427882,16.6687026990001,0
                99.6352867320001,16.6687399580001,0
                99.6352352380001,16.668751253,0
                99.6352032560001,16.668753064,0
                99.635165048,16.668752322,0
                99.6351295010001,16.6687507180001,0
                99.6351019470001,16.668747377,0
                99.6350717180001,16.668740617,0
                99.635038803,16.668729586,0
                99.6349249290001,16.668684544,0
                99.6348653110001,16.668658178,0
                99.6348172610001,16.6686360570001,0
                99.634789663,16.668620725,0
                99.634770066,16.668604514,0
                99.6347575560001,16.668583142,0
                99.6346813860001,16.668387253,0
                99.6346653520001,16.668375311,0
                99.634648461,16.6683719370001,0
                99.6346306790001,16.668368566,0
                99.6345951590001,16.6683738130001,0
                99.6345720740001,16.6683790230001,0
                99.6342493530001,16.6685113940001,0
                99.6341692030001,16.668533559,0
                99.6341399040001,16.668539642,0
                99.6341212470001,16.668541412,0
                99.6340937050001,16.668541497,0
                99.6340519030001,16.66852878,0
                99.634030528,16.668513428,0
                99.633911944,16.668387895,0
                99.6338976930001,16.668377661,0
                99.6338816840001,16.6683717170001,0
                99.633863922,16.668374338,0
                99.6338514970001,16.6683786570001,0
                99.6338355390001,16.6683898420001,0
                99.633749902,16.6685553930001,0
                99.6337419480001,16.6685691210001,0
                99.63372689,16.6685828710001,0
                99.633611666,16.6686688670001,0
                99.633584146,16.668675803,0
                99.6335672770001,16.66867928,0
                99.633553055,16.6686776110001,0
                99.633530804,16.668665688,0
                99.633518322,16.6686528810001,0
                99.633509383,16.6686366330001,0
                99.633506663,16.6686195120001,0
                99.6335136930001,16.6685955140001,0
                99.6335676450001,16.668521696,0
                99.633576485,16.6685079650001,0
                99.6335799720001,16.6684873990001,0
                99.633571901,16.668464301,0
                99.6335576280001,16.6684472150001,0
                99.633542505,16.668441268,0
                99.633527395,16.6684404550001,0
                99.633508755,16.6684456510001,0
                99.6334732920001,16.668469741,0
                99.6334396140001,16.66849468,0
                99.6334191910001,16.668498168,0
                99.6334023060001,16.6684982200001,0
                99.633381855,16.668493143,0
                99.633366729,16.668486338,0
                99.6333604650001,16.668473512,0
                99.6333157710001,16.668121655,0
                99.6333100000001,16.6681106180001,0
                99.6333041490001,16.6680994220001,0
                99.633284539,16.66808064,0
                99.63325338,16.668061892,0
                99.633208933,16.668054322,0
                99.6331782770001,16.6680544160001,0
                99.6331698370001,16.668054442,0
                99.633143186,16.668056236,0
                99.633117455,16.6680665920001,0
                99.6330970710001,16.6680820710001,0
                99.6330820330001,16.6681018140001,0
                99.6330732040001,16.6681189710001,0
                99.6330478850001,16.668525851,0
                99.6330381700001,16.6685430110001,0
                99.633024871,16.6685524700001,0
                99.6330097840001,16.668557655,0
                99.6329893530001,16.6685585770001,0
                99.6329706720001,16.6685526360001,0
                99.632957306,16.668540686,0
                99.6328918900001,16.6683721700001,0
                99.632880302,16.6683602150001,0
                99.632862506,16.668352563,0
                99.632843849,16.6683526200001,0
                99.6328261040001,16.6683603810001,0
                99.6328057030001,16.668370721,0
                99.6326132560001,16.6684792200001,0
                99.6325804270001,16.668493024,0
                99.6325546850001,16.668501663,0
                99.632536036,16.668504292,0
                99.632504054,16.668506102,0
                99.6324702940001,16.668506205,0
                99.6324391670001,16.6684968810001,0
                99.6324035600001,16.6684772890001,0
                99.63236971,16.6684499890001,0
                99.6322376680001,16.6682850980001,0
                99.632210935,16.668262057,0
                99.632176223,16.66824332,0
                99.6321335040001,16.668221182,0
                99.632086341,16.668199062,0
                99.6318488700001,16.668126133,0
                99.6318052890001,16.668112562,0
                99.631759022,16.668092148,0
                99.631635299,16.6680248650001,0
                99.631603275,16.6680138310001,0
                99.6315694800001,16.6680045150001,0
                99.631523272,16.668002084,0
                99.6314948410001,16.668003029,0
                99.6314246850001,16.668012662,0
                99.6313190230001,16.668035253,0
                99.6311813900001,16.668059649,0
                99.6311494130001,16.6680631720001,0
                99.631128979,16.668063234,0
                99.631098744,16.6680556200001,0
                99.6310346860001,16.6680292670001,0
                99.6308967670001,16.6679680250001,0
                99.6308522560001,16.6679424660001,0
                99.6308255430001,16.667923704,0
                99.630643664,16.6677332740001,0
                99.6306187150001,16.6677119400001,0
                99.6305955710001,16.667699161,0
                99.6305689020001,16.667694103,0
                99.630424868,16.667665426,0
                99.630399971,16.6676586500001,0
                99.63037151,16.667650171,0
                99.6303421370001,16.6676339900001,0
                99.6303350620001,16.667628344,0
                99.6303154110001,16.6676126570001,0
                99.6302860070001,16.6675870560001,0
                99.630254838,16.6675648830001,0
                99.6302236820001,16.667546993,0
                99.6301978810001,16.667535935,0
                99.6301694360001,16.6675325960001,0
                99.630132126,16.667535281,0
                99.630103734,16.667546499,0
                99.630070947,16.667573148,0
                99.6299408410001,16.66771844,0
                99.629918677,16.6677431850001,0
                99.6299045470001,16.667768068,0
                99.6298922110001,16.667799793,0
                99.6298852030001,16.6678306430001,0
                99.6298800120001,16.6678734830001,0
                99.6298697920001,16.668008829,0
                99.629866297,16.668026824,0
                99.6298556900001,16.668043986,0
                99.6298432680001,16.668049162,0
                99.6298290670001,16.668052631,0
                99.6298068400001,16.6680492730001,0
                99.6297863890001,16.668044196,0
                99.6296787110001,16.66799228,0
                99.6296538180001,16.667988076,0
                99.6296253820001,16.6679873030001,0
                99.6296032020001,16.667996794,0
                99.6295890330001,16.6680113950001,0
                99.6295775710001,16.6680379790001,0
                99.629511753,16.668289117,0
                99.629472434,16.6684922110001,0
                99.6294627440001,16.6685170760001,0
                99.6294485780001,16.668532536,0
                99.6294308400001,16.668542867,0
                99.6294148580001,16.6685463420001,0
                99.6293864370001,16.668548995,0
                99.6293482150001,16.6685439720001,0
                99.6292370620001,16.6685160480001,0
                99.6292148430001,16.668515257,0
                99.6291926380001,16.6685170370001,0
                99.6291766750001,16.66852651,0
                99.629166942,16.66853853,0
                99.6291035560001,16.6687177160001,0
                99.6290867640001,16.668746028,0
                99.629069923,16.66875807,0
                99.6290530680001,16.6687658270001,0
                99.6290415230001,16.6687684340001,0
                99.6290193150001,16.668769356,0
                99.6289935330001,16.6687642950001,0
                99.6286827630001,16.6686478660001,0
                99.628608451,16.668887043,0
                99.6285557850001,16.6690668520001,0
                99.6284957010001,16.669691524,0
                99.6284015960001,16.670769702,0
                99.6283774250001,16.6715225840001,0
                99.6283100260001,16.672626343,0
                99.6283111430001,16.672968525,0
                99.6283835130001,16.673387484,0
                99.6285092370001,16.673920534,0
                99.628603394,16.6754912700001,0
                99.628621728,16.6756708630001,0
                99.6285778820001,16.6758335330001,0
                99.62849873,16.676056196,0
                99.6283403190001,16.676467299,0
                99.6282344300001,16.6766558250001,0
                99.6281819580001,16.676895514,0
                99.6281820190001,16.679633011,0
                99.6281739290001,16.679872566,0
                99.628156818,16.680069373,0
                99.6278759030001,16.6810197930001,0
                99.627832223,16.681233793,0
                99.6278325580001,16.681336447,0
                99.6278788910001,16.681935138,0
                99.6280215140001,16.6828441430001,0
                99.6280361780001,16.684110957,0
                99.6281111860001,16.6854585950001,0
                99.6281539660001,16.6859249870001,0
                99.628235745,16.6871225410001,0
                99.628286669,16.6878092110001,0
                99.6283083430001,16.6885053660001,0
                99.62846018,16.6898778720001,0
                99.6288416690001,16.6916791800001,0
                99.6297293970001,16.695195321,0
                99.6303639280001,16.6952304490001,0
                99.630803416,16.695287503,0
                99.631116058,16.695323096,0
                99.6314969200001,16.695405787,0
                99.6317299470001,16.695448921,0
                99.6320388130001,16.6955027710001,0
                99.6324782300001,16.695526896,0
                99.6328285330001,16.69553316,0
                99.633283018,16.6955463260001,0
                99.633663599,16.695541533,0
                99.634057554,16.6955476530001,0
                99.6342449380001,16.6955452610001,0
                99.6351612350001,16.695690627,0
                99.637052827,16.6959756700001,0
                99.6388200960001,16.6962439700001,0
                99.6395216560001,16.696344459,0
                99.6397967330001,16.696317938,0
                99.6399298440001,16.69630898,0
                99.64066697,16.696426462,0
                99.641448418,16.696526695,0
                99.6417948790001,16.6966111690001,0
                99.6419458270001,16.6966278090001,0
                99.6420966680001,16.6966102320001,0
                99.6427531310001,16.6964969790001,0
              </coordinates>
                
            </LinearRing>
            
          </outerBoundaryIs>
        
        </Polygon>
        
      <styleUrl>
        #tambonStyle</styleUrl>
    </Placemark>

  </Document>
</kml>