<?xml version="1.0" encoding="UTF-8"?>
<kml xmlns="http://www.opengis.net/kml/2.2">
  <Document id="tambon_doc">
    <name>เทพเสด็จ, ดอยสะเก็ด, Chiang Mai</name>
    <description>ข้อมูลขอบเขตตำบลเทพเสด็จ อำเภอดอยสะเก็ด จังหวัดChiang Mai</description>
    
    <!-- Schema สำหรับข้อมูลตำบล -->
    <Schema id="tambon.schema">
      <SimpleField name="ADM3_EN" type="string">
        <displayName>Subdistrict Name (English)</displayName>
      </SimpleField>
      <SimpleField name="ADM3_TH" type="string">
        <displayName>ชื่อตำบล</displayName>
      </SimpleField>
      <SimpleField name="ADM2_EN" type="string">
        <displayName>District Name (English)</displayName>
      </SimpleField>
      <SimpleField name="ADM2_TH" type="string">
        <displayName>ชื่ออำเภอ</displayName>
      </SimpleField>
      <SimpleField name="ADM1_EN" type="string">
        <displayName>Province Name (English)</displayName>
      </SimpleField>
      <SimpleField name="ADM1_TH" type="string">
        <displayName>ชื่อจังหวัด</displayName>
      </SimpleField>
      <SimpleField name="ADM0_EN" type="string">
        <displayName>Country Name (English)</displayName>
      </SimpleField>
      <SimpleField name="ADM0_TH" type="string">
        <displayName>ชื่อประเทศ</displayName>
      </SimpleField>
    </Schema>

    <!-- Style สำหรับตำบล -->
    <Style id="tambonStyle">
      <LineStyle>
        <color>ffff0000</color>
        <width>1.5</width>
      </LineStyle>
      <PolyStyle>
        <color>33ff0000</color>
        <fill>1</fill>
        <outline>1</outline>
      </PolyStyle>
    </Style>

    <Placemark id="Chiang_Mai.50">
        
        <ExtendedData>
            
          <SchemaData schemaUrl="#tambon.schema">
                
            <SimpleData name="Shape_Leng">
                0.54264044134</SimpleData>
                
            <SimpleData name="Shape_Area">
                0.0112233535427</SimpleData>
                
            <SimpleData name="ADM3_EN">
                Thep Sadet</SimpleData>
                
            <SimpleData name="ADM3_TH">
                เทพเสด็จ</SimpleData>
                
            <SimpleData name="ADM3_PCODE">
                TH500514</SimpleData>
                
            <SimpleData name="ADM2_EN">
                Doi Saket</SimpleData>
                
            <SimpleData name="ADM2_TH">
                ดอยสะเก็ด</SimpleData>
                
            <SimpleData name="ADM2_PCODE">
                TH5005</SimpleData>
                
            <SimpleData name="ADM1_EN">
                Chiang Mai</SimpleData>
                
            <SimpleData name="ADM1_TH">
                เชียงใหม่</SimpleData>
                
            <SimpleData name="ADM1_PCODE">
                TH50</SimpleData>
                
            <SimpleData name="ADM0_EN">
                Thailand</SimpleData>
                
            <SimpleData name="ADM0_TH">
                ประเทศไทย</SimpleData>
                
            <SimpleData name="ADM0_PCODE">
                TH</SimpleData>
            
          </SchemaData>
        
        </ExtendedData>
        
        <Polygon>
            
          <outerBoundaryIs>
                
            <LinearRing>
                    
              <coordinates>
                    
                99.3404780160001,19.0107719320001,0
                99.340631983,19.010720361,0
                99.3407783490001,19.0107200910001,0
                99.3408554090001,19.0107346030001,0
                99.341052151,19.010734241,0
                99.3411019210001,19.010734149,0
                99.34130221,19.0107337790001,0
                99.3414869980001,19.010689476,0
                99.3416485330001,19.010571941,0
                99.3417868610001,19.0104104920001,0
                99.3419712790001,19.010183006,0
                99.3422174450001,19.010014026,0
                99.342401872,19.0097938710001,0
                99.3425937200001,19.0094344890001,0
                99.342785721,19.0091483750001,0
                99.3429547850001,19.008950225,0
                99.3431316050001,19.0087740480001,0
                99.3434201810001,19.0086297170001,0
                99.3436973550001,19.008557765,0
                99.34411901,19.008507523,0
                99.3445812520001,19.008528642,0
                99.3453960430001,19.008609554,0
                99.3464306430001,19.00881644,0
                99.3465982580001,19.0088491000001,0
                99.3467139460001,19.008914825,0
                99.3468528530001,19.0090354640001,0
                99.3470150470001,19.009238485,0
                99.3472699070001,19.009551244,0
                99.3477617790001,19.0099294990001,0
                99.348363475,19.0103295260001,0
                99.3491271220001,19.0108116760001,0
                99.3495724520001,19.0110306490001,0
                99.3501220200001,19.011364827,0
                99.350295482,19.01143044,0
                99.350411136,19.011479679,0
                99.350590486,19.011594743,0
                99.3507147540001,19.011760537,0
                99.3507876140001,19.011924091,0
                99.350886098,19.0120502940001,0
                99.3510134380001,19.0121599610001,0
                99.351134926,19.0122366680001,0
                99.351227437,19.0122694610001,0
                99.3512968030001,19.0122858140001,0
                99.3514470420001,19.0122965240001,0
                99.3515683510001,19.0122852980001,0
                99.3516665700001,19.012285111,0
                99.351759013,19.012284935,0
                99.352117315,19.0123282210001,0
                99.3523255280001,19.0124322350001,0
                99.3524527760001,19.0124979350001,0
                99.3527302720001,19.012579838,0
                99.352967246,19.012623348,0
                99.353435313,19.0126609220001,0
                99.3536779490001,19.012649464,0
                99.3539320240001,19.012583035,0
                99.354018205,19.012517874,0
                99.3543473460001,19.0122690050001,0
                99.354433848,19.012191907,0
                99.3545549090001,19.0120652790001,0
                99.3547047790001,19.011900129,0
                99.3548372640001,19.011713038,0
                99.3550963850001,19.0113003880001,0
                99.3551717390001,19.0111600660001,0
                99.3554839700001,19.0110908980001,0
                99.355628225,19.0111287140001,0
                99.3560372970001,19.0114021900001,0
                99.3563103390001,19.01173687,0
                99.356832442,19.012429137,0
                99.3570809030001,19.0125048400001,0
                99.35733723,19.0125119630001,0
                99.3575693020001,19.0124124760001,0
                99.3577051720001,19.0122750830001,0
                99.3577068050001,19.012247669,0
                99.3577206350001,19.0120160270001,0
                99.357735645,19.0115436610001,0
                99.3577421480001,19.010510857,0
                99.3578132170001,19.010362663,0
                99.357941741,19.0103321510001,0
                99.3581735160001,19.01030102,0
                99.358391737,19.0103550530001,0
                99.3591922510001,19.010638811,0
                99.360042734,19.0109105820001,0
                99.3613735630001,19.0116020780001,0
                99.3623168030001,19.011876107,0
                99.3625944090001,19.0118209710001,0
                99.3628600370001,19.011599167,0
                99.362930706,19.0112853530001,0
                99.3630795010001,19.0107382140001,0
                99.363326111,19.009184342,0
                99.363474082,19.008264734,0
                99.363723323,19.007931378,0
                99.3639977160001,19.007669306,0
                99.3642472920001,19.0074904900001,0
                99.3645093920001,19.007323544,0
                99.364771804,19.007299248,0
                99.3651592990001,19.0073222620001,0
                99.366097628,19.007760262,0
                99.366356356,19.0079043330001,0
                99.3669485520001,19.008234094,0
                99.3672236720001,19.008304878,0
                99.3674486370001,19.0083044310001,0
                99.3675733850001,19.0081971920001,0
                99.367547921,19.007983257,0
                99.3674849860001,19.007781289,0
                99.367284284,19.0074488220001,0
                99.366958599,19.007116603,0
                99.3661695490001,19.0063573370001,0
                99.365843194,19.005716029,0
                99.3658053600001,19.0055615580001,0
                99.365855121,19.005454468,0
                99.3659548690001,19.005347279,0
                99.366242271,19.005322934,0
                99.366529858,19.005381804,0
                99.3668424900001,19.0054644000001,0
                99.3671924380001,19.0054637060001,0
                99.367617217,19.0053915340001,0
                99.3682293580001,19.005271437,0
                99.368804083,19.005187074,0
                99.3688683510001,19.005223024,0
                99.369079383,19.005341071,0
                99.3694051730001,19.0057208380001,0
                99.3697308580001,19.0060530480001,0
                99.3708691050001,19.007337465,0
                99.3721524310001,19.01029221,0
                99.3723786480001,19.0108504900001,0
                99.372541761,19.011135472,0
                99.3727670260001,19.011265786,0
                99.3731546340001,19.0113363340001,0
                99.373439653,19.0115387540001,0
                99.37352178,19.011678666,0
                99.3735431800001,19.0118229560001,0
                99.3736190710001,19.0122269930001,0
                99.373669626,19.012476543,0
                99.373820057,19.0126783310001,0
                99.3740656470001,19.0127837910001,0
                99.3744702770001,19.012807783,0
                99.3747906830001,19.012747835,0
                99.3754444470001,19.012484833,0
                99.3758775760001,19.012400789,0
                99.376806823,19.0124939500001,0
                99.3775442090001,19.012480558,0
                99.3785934420001,19.012193101,0
                99.379904847,19.011774329,0
                99.380805894,19.0113216890001,0
                99.3816120980001,19.0106390330001,0
                99.3858556960001,19.0080038420001,0
                99.3875203970001,19.0074262050001,0
                99.3904145600001,19.0060191630001,0
                99.3906195820001,19.005895319,0
                99.3908963360001,19.0055358500001,0
                99.3912215930001,19.004790697,0
                99.391469128,19.0037416370001,0
                99.391517337,19.002640765,0
                99.3914678660001,19.002135605,0
                99.3914817030001,19.0017594980001,0
                99.3916775310001,19.0011560410001,0
                99.391846183,19.000981467,0
                99.391999883,19.0009105950001,0
                99.3921474470001,19.0008835310001,0
                99.3924385750001,19.000916326,0
                99.392555293,19.0009294750001,0
                99.3930124120001,19.0010020620001,0
                99.3935044930001,19.000994329,0
                99.393750389,19.0009269350001,0
                99.394143403,19.000645245,0
                99.3942543890001,19.000601127,0
                99.394663011,19.000627057,0
                99.3951000630001,19.000760132,0
                99.395467243,19.0011345770001,0
                99.395678881,19.0012681320001,0
                99.3959186700001,19.00138823,0
                99.396625902,19.001503664,0
                99.3968911410001,19.0015469530001,0
                99.3978775450001,19.0016386450001,0
                99.3983846890001,19.0016241500001,0
                99.398806483,19.001568736,0
                99.3995302650001,19.0013375090001,0
                99.4005288640001,19.000815065,0
                99.401803435,19.00014822,0
                99.4014311770001,19.000033854,0
                99.400931992,18.9998270200001,0
                99.400883164,18.9997962750001,0
                99.400645581,18.9996466910001,0
                99.40058629,18.999597524,0
                99.400379253,18.9994258310001,0
                99.4002272690001,18.999351834,0
                99.399938809,18.999244623,0
                99.399660334,18.999146481,0
                99.3996486680001,18.999140487,0
                99.3994531810001,18.9991089170001,0
                99.399045388,18.9990178670001,0
                99.3989196040001,18.9989897790001,0
                99.398374962,18.99883406,0
                99.3978964620001,18.9987566630001,0
                99.3973793910001,18.9986322620001,0
                99.39680759,18.998617799,0
                99.396279742,18.9985875520001,0
                99.3958014660001,18.998604266,0
                99.3952789730001,18.9985164710001,0
                99.394392956,18.998136618,0
                99.3938424980001,18.9978501620001,0
                99.39349014,18.997636487,0
                99.3930611980001,18.9975798840001,0
                99.392549462,18.9973874770001,0
                99.3921420980001,18.9971582270001,0
                99.391784025,18.9968556690001,0
                99.391486576,18.996605291,0
                99.3913429790001,18.9963284130001,0
                99.391303194,18.995768948,0
                99.3912302420001,18.995131089,0
                99.3911355120001,18.9945926350001,0
                99.3909310290001,18.994132876,0
                99.390677628,18.9939137640001,0
                99.390242652,18.9936218290001,0
                99.389692283,18.9933615140001,0
                99.38952636,18.993303016,0
                99.3889549980001,18.993101574,0
                99.3880360700001,18.99273743,0
                99.3870235350001,18.992310737,0
                99.3864286770001,18.992118324,0
                99.3862203070001,18.992050923,0
                99.385350938,18.99172328,0
                99.3832878370001,18.991052949,0
                99.3823631110001,18.990552827,0
                99.3813057300001,18.989728724,0
                99.3806830240001,18.989071079,0
                99.380241948,18.9885071950001,0
                99.3800188120001,18.9881599240001,0
                99.379686189,18.9876422300001,0
                99.379213136,18.98691676,0
                99.3790442910001,18.986574025,0
                99.378808211,18.9858101510001,0
                99.378768451,18.984802889,0
                99.3787040330001,18.984154243,0
                99.378593354,18.983648357,0
                99.378585634,18.9836130630001,0
                99.3785688360001,18.9835865590001,0
                99.3783840470001,18.983294992,0
                99.3778308270001,18.9829298660001,0
                99.3776126810001,18.9826914490001,0
                99.3774782300001,18.9824528570001,0
                99.377474727,18.982432467,0
                99.377440139,18.982231212,0
                99.377393424,18.98195938,0
                99.377341845,18.9813543670001,0
                99.377456254,18.9801279700001,0
                99.3779801790001,18.9783021480001,0
                99.3780654060001,18.97757474,0
                99.3780819770001,18.977393701,0
                99.3778375840001,18.9766992130001,0
                99.3776459040001,18.975948777,0
                99.377247922,18.975483448,0
                99.37673885,18.974965753,0
                99.376733233,18.9749600440001,0
                99.3766071850001,18.97479437,0
                99.3765947410001,18.9747811780001,0
                99.3765784280001,18.974756574,0
                99.3762546390001,18.974268314,0
                99.3761031110001,18.973874494,0
                99.3760519320001,18.973444645,0
                99.3761760730001,18.972823346,0
                99.3771142080001,18.971316599,0
                99.3772139640001,18.9710178170001,0
                99.3774380150001,18.9701693980001,0
                99.3776734910001,18.968627762,0
                99.3776709160001,18.967484515,0
                99.377580885,18.9667175320001,0
                99.3774662420001,18.9659772860001,0
                99.3771381430001,18.965213589,0
                99.3767832950001,18.964614378,0
                99.376671914,18.9644262910001,0
                99.37649537,18.9640683540001,0
                99.3764819310001,18.9636742540001,0
                99.3765795400001,18.962420025,0
                99.3765018780001,18.961972186,0
                99.3764196640001,18.961842442,0
                99.3762373180001,18.961677208,0
                99.375911912,18.9613823220001,0
                99.3755524600001,18.9608350610001,0
                99.375168552,18.960153679,0
                99.3750656990001,18.9599428330001,0
                99.375017223,18.9598434640001,0
                99.375042093,18.9597359250001,0
                99.37504713,18.959724776,0
                99.3750949530001,18.959618931,0
                99.375213607,18.9594974560001,0
                99.375774171,18.958885421,0
                99.3760992140001,18.958587262,0
                99.3762877520001,18.958462506,0
                99.3770713430001,18.9578328430001,0
                99.3785573850001,18.9567104340001,0
                99.3790126960001,18.9564120040001,0
                99.3797417160001,18.956162593,0
                99.379946051,18.9560545200001,0
                99.380084562,18.955981249,0
                99.38041574,18.955806071,0
                99.3808217060001,18.955470559,0
                99.381540633,18.954987956,0
                99.3828732220001,18.95366735,0
                99.3833227520001,18.95315392,0
                99.3837612240001,18.9526195770001,0
                99.3842251620001,18.951870446,0
                99.3847746600001,18.9506511010001,0
                99.3849442960001,18.9501218890001,0
                99.3851909750001,18.9484539810001,0
                99.3854208020001,18.9477953360001,0
                99.3857203410001,18.9470542340001,0
                99.3861092690001,18.945952205,0
                99.3863223960001,18.9454287930001,0
                99.38658946,18.9444931900001,0
                99.3867196890001,18.944036942,0
                99.3867198240001,18.944035736,0
                99.38672332,18.9440045750001,0
                99.3867268370001,18.9439070920001,0
                99.386634841,18.9434743090001,0
                99.386372871,18.9428550390001,0
                99.3861211220001,18.9422814860001,0
                99.3860851140001,18.9419298450001,0
                99.3860765460001,18.9417938030001,0
                99.3860069510001,18.9406879150001,0
                99.3859962210001,18.939918108,0
                99.3859859180001,18.9391786150001,0
                99.3858377880001,18.93765454,0
                99.38564124,18.937196413,0
                99.385024759,18.9366283000001,0
                99.384605155,18.9362416110001,0
                99.384279587,18.9358862280001,0
                99.3842157730001,18.9357654360001,0
                99.3842224210001,18.935584034,0
                99.3842933760001,18.9353753730001,0
                99.3844903940001,18.9350219740001,0
                99.384911661,18.934440538,0
                99.3849396240001,18.934319553,0
                99.3849251670001,18.934171787,0
                99.384755054,18.9338765470001,0
                99.384665022,18.9337759370001,0
                99.3844495820001,18.933398256,0
                99.3842094970001,18.932943784,0
                99.3841807270001,18.932898724,0
                99.3841454320001,18.932789486,0
                99.38401745,18.9323933860001,0
                99.3838403760001,18.9321384620001,0
                99.383532341,18.931818537,0
                99.383268038,18.931645421,0
                99.383057804,18.931463804,0
                99.383055207,18.9314615640001,0
                99.3829065890001,18.9313006350001,0
                99.3827446600001,18.9310054320001,0
                99.3827151820001,18.9309516930001,0
                99.382545092,18.9306631650001,0
                99.3824234860001,18.930558918,0
                99.3821982320001,18.9304947370001,0
                99.3821340140001,18.93048143,0
                99.3819499310001,18.930413743,0
                99.3819373870001,18.930409132,0
                99.3819234260001,18.930399874,0
                99.3817959820001,18.930315368,0
                99.381776486,18.930294431,0
                99.38170297,18.9302154910001,0
                99.3816898310001,18.93020138,0
                99.3816703780001,18.9301562270001,0
                99.3816463900001,18.930100537,0
                99.381646635,18.929831974,0
                99.3816453690001,18.92927438,0
                99.381633659,18.9291386960001,0
                99.3816230630001,18.929028762,0
                99.3815396540001,18.928635269,0
                99.3814204860001,18.928157426,0
                99.3813681990001,18.928049867,0
                99.3807408640001,18.9271765410001,0
                99.3798775450001,18.9257673970001,0
                99.379747223,18.925554683,0
                99.3792235080001,18.92436572,0
                99.3788560120001,18.9231392520001,0
                99.3782286250001,18.922186035,0
                99.377641419,18.9217161720001,0
                99.376275111,18.9212586780001,0
                99.3752779100001,18.920526411,0
                99.3743284700001,18.9192322430001,0
                99.3734156260001,18.917955024,0
                99.3722793470001,18.9169180700001,0
                99.371237051,18.915129064,0
                99.3707754320001,18.91422973,0
                99.370158018,18.913578101,0
                99.3694153470001,18.913259812,0
                99.3691476420001,18.9132989720001,0
                99.368323746,18.9134218720001,0
                99.3677079130001,18.913489702,0
                99.3672596050001,18.913344034,0
                99.3666221660001,18.9130121480001,0
                99.3660544350001,18.912786822,0
                99.364934636,18.91285565,0
                99.3640527330001,18.9128840230001,0
                99.363100396,18.91271269,0
                99.362064117,18.9125681420001,0
                99.3611405410001,18.912743156,0
                99.360778827,18.9129414560001,0
                99.36039966,18.9132508820001,0
                99.3599100220001,18.9134117250001,0
                99.359154151,18.9134664750001,0
                99.3566867950001,18.9136505540001,0
                99.3555008290001,18.913726647,0
                99.3546465510001,18.913581725,0
                99.3543240430001,18.913329199,0
                99.3539576350001,18.912747385,0
                99.352948504,18.911626396,0
                99.3516861780001,18.910482964,0
                99.3504663040001,18.909552622,0
                99.3488269060001,18.908836239,0
                99.3477342850001,18.908505195,0
                99.3467546300001,18.908640259,0
                99.3461451760001,18.908993643,0
                99.3425863350001,18.910410777,0
                99.337985168,18.9116670970001,0
                99.3366460110001,18.9122518790001,0
                99.3352187710001,18.9125040390001,0
                99.3326548810001,18.912619573,0
                99.3317517780001,18.91270438,0
                99.3306742350001,18.9129836110001,0
                99.327413242,18.914237282,0
                99.325782969,18.914988882,0
                99.32525945,18.915488958,0
                99.3250021420001,18.9161731300001,0
                99.3249985470001,18.916182685,0
                99.3246781880001,18.9162664410001,0
                99.324357664,18.9162670010001,0
                99.3233956750001,18.9160468320001,0
                99.321559387,18.915744976,0
                99.3208886770001,18.9154688300001,0
                99.320304805,18.9148874860001,0
                99.319719938,18.913779258,0
                99.3193112210001,18.9133639950001,0
                99.3180854940001,18.912340052,0
                99.3175014830001,18.911675508,0
                99.3170920970001,18.910899742,0
                99.3169870200001,18.910763881,0
                99.316770805,18.9104843260001,0
                99.31634008,18.91030951,0
                99.3161666860001,18.9102391340001,0
                99.3161584520001,18.9102357900001,0
                99.3154022580001,18.910225278,0
                99.3146373340001,18.910214641,0
                99.314381025,18.9102110760001,0
                99.312633411,18.9105467960001,0
                99.3103905570001,18.9109387930001,0
                99.3092544520001,18.911079339,0
                99.307855858,18.9110816630001,0
                99.3071564090001,18.91099963,0
                99.3056982790001,18.910308759,0
                99.3049362880001,18.90977293,0
                99.304662046,18.9095800860001,0
                99.3044583750001,18.9094746440001,0
                99.3043517280001,18.9094280040001,0
                99.3041978810001,18.909368262,0
                99.3041290930001,18.9093383530001,0
                99.3040478010001,18.909303004,0
                99.3040467530001,18.9093009280001,0
                99.304044779,18.909301671,0
                99.3039602380001,18.9092649180001,0
                99.3038293540001,18.9092065310001,0
                99.303679791,18.909152857,0
                99.3035870780001,18.909113785,0
                99.3034744770001,18.909039679,0
                99.3033813230001,18.908958168,0
                99.3033055220001,18.908882122,0
                99.3031877770001,18.9087472190001,0
                99.303106411,18.9086180050001,0
                99.303051268,18.908454476,0
                99.3030174340001,18.9083438380001,0
                99.3029676560001,18.9082373110001,0
                99.302882276,18.9081049220001,0
                99.3027562550001,18.9079298510001,0
                99.3026153550001,18.90773971,0
                99.3025092,18.9075966720001,0
                99.3023982610001,18.907455504,0
                99.302341513,18.907402039,0
                99.3022271180001,18.9073228190001,0
                99.3021281160001,18.9072712490001,0
                99.3019443060001,18.907192685,0
                99.30172988,18.9071130140001,0
                99.3015700920001,18.907053696,0
                99.3014983630001,18.907023844,0
                99.301492233,18.907025844,0
                99.3014942950001,18.907021393,0
                99.301375244,18.906930215,0
                99.3011640550001,18.9067696870001,0
                99.300659834,18.90652692,0
                99.3005276980001,18.9064901520001,0
                99.3004248000001,18.9064897220001,0
                99.3003263310001,18.906481114,0
                99.3002594970001,18.90645805,0
                99.3001258190001,18.9064070580001,0
                99.299985656,18.906361427,0
                99.2998084640001,18.9063498560001,0
                99.2996973100001,18.9063315080001,0
                99.2996165630001,18.9062812450001,0
                99.2995194680001,18.9061689010001,0
                99.2993092500001,18.9059226000001,0
                99.299184219,18.905800088,0
                99.2991795290001,18.905800474,0
                99.299062839,18.905690024,0
                99.2989359460001,18.90560945,0
                99.2988192430001,18.905564285,0
                99.2985325750001,18.9055276190001,0
                99.2983420050001,18.905500976,0
                99.2981405450001,18.9054391190001,0
                99.297916339,18.905399695,0
                99.2977957910001,18.9053952420001,0
                99.297678686,18.9054139940001,0
                99.2975494140001,18.9054370310001,0
                99.2974004320001,18.905430546,0
                99.2972558640001,18.905371308,0
                99.2970958550001,18.9052517600001,0
                99.2969789220001,18.905121029,0
                99.296967613,18.9051164900001,0
                99.2969623070001,18.905090995,0
                99.2969194500001,18.905029788,0
                99.296854958,18.9048915060001,0
                99.296794946,18.904719706,0
                99.2967091230001,18.904384598,0
                99.2965909910001,18.904220428,0
                99.2963975220001,18.9041423260001,0
                99.2962367200001,18.90411762,0
                99.2959824530001,18.9041240450001,0
                99.2957486670001,18.9041436680001,0
                99.2955500910001,18.904175615,0
                99.29528809,18.9041876000001,0
                99.2951336850001,18.904174686,0
                99.295019397,18.9041431270001,0
                99.2948491010001,18.904120785,0
                99.2942515450001,18.904124859,0
                99.294120402,18.904096743,0
                99.2940150350001,18.904052897,0
                99.2938447350001,18.903950606,0
                99.2938040660001,18.903926196,0
                99.293668971,18.90381118,0
                99.2936326230001,18.9037690490001,0
                99.2935002340001,18.903615544,0
                99.2931962280001,18.903336543,0
                99.2930674150001,18.9032168890001,0
                99.292888888,18.903102248,0
                99.292418308,18.9028991530001,0
                99.29161931,18.902734964,0
                99.291307632,18.9027044370001,0
                99.29113076,18.902711961,0
                99.2910424,18.902726162,0
                99.29089715,18.9027456220001,0
                99.2908078500001,18.9027541140001,0
                99.290688103,18.902760265,0
                99.2905698850001,18.9027402770001,0
                99.2903518510001,18.9026441130001,0
                99.290117841,18.9025198860001,0
                99.2900103690001,18.902542811,0
                99.2895901080001,18.902484938,0
                99.288918493,18.902522171,0
                99.2887627650001,18.902577851,0
                99.2885718260001,18.9026539180001,0
                99.2884331060001,18.902759894,0
                99.2880948320001,18.903125287,0
                99.2877382020001,18.903417178,0
                99.287667635,18.9034749480001,0
                99.28748441,18.9035333800001,0
                99.2873343630001,18.9035124640001,0
                99.2872785690001,18.903380364,0
                99.2872555910001,18.9029362160001,0
                99.2871383950001,18.902624417,0
                99.286962648,18.9022220410001,0
                99.2869375970001,18.9021646910001,0
                99.2868520600001,18.9021193630001,0
                99.2867485410001,18.9020645200001,0
                99.2865707380001,18.902048924,0
                99.286343048,18.902112737,0
                99.2861871090001,18.90216451,0
                99.2861726420001,18.902169304,0
                99.2860709870001,18.902203045,0
                99.285737795,18.902298742,0
                99.2854711750001,18.902330874,0
                99.2853267020001,18.902315226,0
                99.2851266360001,18.9022732380001,0
                99.284832034,18.902189078,0
                99.2846820240001,18.9021893080001,0
                99.284548751,18.9022265300001,0
                99.28445429,18.902216101,0
                99.2843374830001,18.902131668,0
                99.2841373900001,18.9020843820001,0
                99.2838373430001,18.9020584140001,0
                99.2836372840001,18.9020322750001,0
                99.283438162,18.9019869750001,0
                99.2833371660001,18.901963994,0
                99.2831517370001,18.901963607,0
                99.2825769360001,18.9020874300001,0
                99.2819522360001,18.902278731,0
                99.2817524960001,18.902429747,0
                99.2814736610001,18.9026324330001,0
                99.2813861690001,18.902644459,0
                99.2811943670001,18.9025693940001,0
                99.281069405,18.9025933880001,0
                99.280852854,18.902665094,0
                99.2806571030001,18.9027169410001,0
                99.2804695890001,18.902705331,0
                99.280404876,18.9027134180001,0
                99.2803943760001,18.9027147350001,0
                99.2801487950001,18.902745472,0
                99.280036404,18.9028130630001,0
                99.2797659860001,18.9030633260001,0
                99.2795954900001,18.9032737630001,0
                99.2795024630001,18.90340703,0
                99.2794292180001,18.9035119750001,0
                99.279262767,18.903643092,0
                99.2791503550001,18.903698789,0
                99.279041986,18.9036830800001,0
                99.2789460930001,18.9036435680001,0
                99.278824424,18.903559032,0
                99.278725911,18.9034877080001,0
                99.2786163960001,18.903331882,0
                99.2784927380001,18.9031559590001,0
                99.278320453,18.902939621,0
                99.2782747200001,18.9028097450001,0
                99.278258968,18.902463228,0
                99.278349715,18.9022946270001,0
                99.2784059150001,18.902183397,0
                99.278475701,18.902029726,0
                99.2784398800001,18.9017746810001,0
                99.278241064,18.9013277940001,0
                99.2782216250001,18.90128408,0
                99.2780089190001,18.901087051,0
                99.277745737,18.9009575010001,0
                99.2775180990001,18.900904897,0
                99.277290587,18.9009389300001,0
                99.2771794280001,18.9009920400001,0
                99.2770835320001,18.901102875,0
                99.277007815,18.9011848160001,0
                99.2768815110001,18.9012571960001,0
                99.2766486240001,18.9013377630001,0
                99.2766439540001,18.9013393770001,0
                99.2764064240001,18.9014263670001,0
                99.2762799860001,18.9014169210001,0
                99.2761686690001,18.901373778,0
                99.2759762410001,18.9012056010001,0
                99.2756923110001,18.9007584030001,0
                99.2755554220001,18.9005372010001,0
                99.2753828500001,18.900152414,0
                99.2754129370001,18.8999935410001,0
                99.2753873490001,18.8998154810001,0
                99.2752556230001,18.899661657,0
                99.2751538840001,18.8992864000001,0
                99.275041968,18.8988774470001,0
                99.275016334,18.8986705200001,0
                99.2750413080001,18.898473155,0
                99.2749865800001,18.8981032880001,0
                99.2749850440001,18.898093004,0
                99.274939417,18.898016053,0
                99.2748837300001,18.897977634,0
                99.2747888000001,18.897945275,0
                99.2747572390001,18.8979345120001,0
                99.2746063290001,18.8978816650001,0
                99.274524489,18.897853029,0
                99.2742259670001,18.897742758,0
                99.2740944980001,18.8977573940001,0
                99.2740035240001,18.8977864130001,0
                99.273912474,18.897767296,0
                99.273796211,18.897791526,0
                99.2736395760001,18.897873584,0
                99.2735688060001,18.897878497,0
                99.2734777700001,18.897869013,0
                99.2733867860001,18.897893207,0
                99.2733160940001,18.8979558880001,0
                99.2732504690001,18.898032986,0
                99.2731393070001,18.898086092,0
                99.2729472670001,18.8981633920001,0
                99.2729380090001,18.898168721,0
                99.2724722030001,18.8983325340001,0
                99.2721992950001,18.898419588,0
                99.2718908890001,18.898468157,0
                99.2714864500001,18.898531325,0
                99.271111477,18.8985775850001,0
                99.270666539,18.8986231690001,0
                99.2705004840001,18.8986001480001,0
                99.2703435930001,18.8985233560001,0
                99.2702018480001,18.898427311,0
                99.2700904260001,18.898321588,0
                99.269963751,18.8981629240001,0
                99.2699130010001,18.898052304,0
                99.269900244,18.898032115,0
                99.2698065390001,18.8978839970001,0
                99.26970521,18.897759007,0
                99.2696037890001,18.897585883,0
                99.2695833860001,18.8974752190001,0
                99.2695881990001,18.8973260000001,0
                99.2695930690001,18.897200856,0
                99.2695675040001,18.8970324320001,0
                99.2694658720001,18.8967149210001,0
                99.2692729830001,18.8962627550001,0
                99.269186704,18.8960703590001,0
                99.269118221,18.8959252760001,0
                99.2689489850001,18.8955019590001,0
                99.268874328,18.895200443,0
                99.2688334800001,18.8949502300001,0
                99.268846726,18.894802607,0
                99.268860046,18.894699901,0
                99.2689404860001,18.8943981780001,0
                99.268967161,18.894218434,0
                99.2689467100001,18.8940772940001,0
                99.268845049,18.893811065,0
                99.268831606,18.893775836,0
                99.2686964590001,18.8935899270001,0
                99.26858172,18.893506657,0
                99.2684456680001,18.8934288400001,0
                99.2680563390001,18.8932213900001,0
                99.2679147030001,18.893192727,0
                99.2675304300001,18.8932125310001,0
                99.2672422150001,18.8932225620001,0
                99.2669488930001,18.893198926,0
                99.266610068,18.8931849680001,0
                99.266377321,18.8930986670001,0
                99.2661192300001,18.892969093,0
                99.265719344,18.892709757,0
                99.2653497840001,18.8924359370001,0
                99.2651321480001,18.8923062850001,0
                99.26437301,18.891903072,0
                99.2642666820001,18.891816589,0
                99.2639527700001,18.891557128,0
                99.2638748470001,18.8915140030001,0
                99.2638313,18.891489915,0
                99.2637576160001,18.891433222,0
                99.2636915690001,18.891406736,0
                99.26358508,18.8913951920001,0
                99.2635568210001,18.8914003840001,0
                99.2634563010001,18.8913876020001,0
                99.26329322,18.89132319,0
                99.2630865420001,18.8911735250001,0
                99.262787464,18.8909929590001,0
                99.2626515750001,18.8909466120001,0
                99.2625987490001,18.8909518740001,0
                99.2625541930001,18.890963098,0
                99.2624737190001,18.8910256990001,0
                99.2624215660001,18.8910662750001,0
                99.262333303,18.891234925,0
                99.2622746000001,18.891436302,0
                99.2622064320001,18.891876439,0
                99.2621772210001,18.892068409,0
                99.2621730000001,18.892373182,0
                99.2621154980001,18.892593493,0
                99.262090873,18.892699712,0
                99.2620487180001,18.8932932650001,0
                99.2619456960001,18.893758088,0
                99.2618726190001,18.8938569370001,0
                99.2617689720001,18.893915169,0
                99.26167136,18.8939327310001,0
                99.2616163820001,18.8938979590001,0
                99.2614696810001,18.893741334,0
                99.26125575,18.893520912,0
                99.2610418310001,18.893306298,0
                99.2608218920001,18.89314397,0
                99.2606264460001,18.893033884,0
                99.2603578100001,18.8929529390001,0
                99.2601320220001,18.8929532550001,0
                99.2599368140001,18.892999995,0
                99.2596928820001,18.8931048900001,0
                99.259455249,18.893343369,0
                99.2591628060001,18.893651629,0
                99.2589801290001,18.8939074580001,0
                99.258846266,18.894163217,0
                99.258675924,18.89450616,0
                99.2584751740001,18.8949188390001,0
                99.25823797,18.895436126,0
                99.2580782630001,18.8958432580001,0
                99.258013727,18.8961215950001,0
                99.2579683010001,18.896538175,0
                99.257945942,18.8969766430001,0
                99.257969443,18.8972835220001,0
                99.258052208,18.897441058,0
                99.2581861940001,18.897527176,0
                99.2582595750001,18.8975397720001,0
                99.2588249520001,18.8975537220001,0
                99.2613982840001,18.8974705430001,0
                99.2619909050001,18.8975371350001,0
                99.26239293,18.8976546820001,0
                99.262527477,18.897756546,0
                99.262660645,18.8978856410001,0
                99.2627594320001,18.89816653,0
                99.262664326,18.9002452880001,0
                99.262471363,18.901194049,0
                99.26217619,18.901740064,0
                99.2615742450001,18.9026064760001,0
                99.2611623010001,18.903416743,0
                99.2609444430001,18.903995394,0
                99.260970221,18.9049438430001,0
                99.261037086,18.905923301,0
                99.2610697090001,18.9064011350001,0
                99.2612655610001,18.907303078,0
                99.261690403,18.9083949560001,0
                99.2618566780001,18.909777666,0
                99.262049661,18.910174076,0
                99.2624993800001,18.9107226940001,0
                99.263077395,18.91130164,0
                99.2635819600001,18.911946814,0
                99.2636845530001,18.9121656200001,0
                99.2637353370001,18.9122739360001,0
                99.2638014610001,18.91241496,0
                99.2638016330001,18.912524718,0
                99.2638020320001,18.912779315,0
                99.2636897200001,18.913314697,0
                99.2632405520001,18.915122411,0
                99.2630953270001,18.915521676,0
                99.2628952220001,18.915799561,0
                99.262347828,18.916337481,0
                99.262220056,18.916642801,0
                99.262156878,18.91725317,0
                99.2620622100001,18.918229749,0
                99.2615507250001,18.91920692,0
                99.260814929,18.920275943,0
                99.2601758810001,18.9217109960001,0
                99.2596004790001,18.922840819,0
                99.2588655000001,18.924459085,0
                99.2583856640001,18.925192086,0
                99.2575850860001,18.9258645100001,0
                99.2561122130001,18.9272396750001,0
                99.2560150960001,18.9274042770001,0
                99.2548329130001,18.9294079270001,0
                99.253267054,18.9329496870001,0
                99.2526003230001,18.9373751150001,0
                99.252440816,18.937924583,0
                99.252409485,18.9384128500001,0
                99.2522419410001,18.9400399420001,0
                99.250374928,18.942326801,0
                99.2496944110001,18.9435081070001,0
                99.2488909770001,18.945456822,0
                99.2481486760001,18.9468152650001,0
                99.247003319,18.9482627680001,0
                99.2465390310001,18.948883091,0
                99.2464931220001,18.9490122770001,0
                99.246526353,18.949239888,0
                99.246683852,18.949555119,0
                99.247161254,18.950210197,0
                99.24731754,18.951036258,0
                99.2473182790001,18.951537925,0
                99.2474447380001,18.9518581730001,0
                99.2475980560001,18.951980194,0
                99.2510116700001,18.953362559,0
                99.2514777250001,18.9539226100001,0
                99.251944871,18.955042366,0
                99.252629389,18.9566654440001,0
                99.2529685540001,18.9586093190001,0
                99.253046779,18.959547254,0
                99.2531067520001,18.9602753680001,0
                99.253372487,18.9608071550001,0
                99.2547578090001,18.961981574,0
                99.2558485690001,18.963016356,0
                99.256055314,18.963464193,0
                99.2562920130001,18.9642480800001,0
                99.2563543090001,18.9645113030001,0
                99.256474918,18.964701921,0
                99.256764085,18.9649476160001,0
                99.257412447,18.965422846,0
                99.257825821,18.966234494,0
                99.257973442,18.966514365,0
                99.2582159790001,18.966759973,0
                99.2586440060001,18.9669120020001,0
                99.2598477290001,18.967266447,0
                99.2601687490001,18.9673804670001,0
                99.2603829050001,18.967545515,0
                99.2607727100001,18.968218908,0
                99.261038264,18.968610642,0
                99.2613035560001,18.96883433,0
                99.261842464,18.969069731,0
                99.2618870530001,18.969080069,0
                99.2625512690001,18.969234075,0
                99.2630706510001,18.9693359660001,0
                99.2636476040001,18.9692961120001,0
                99.2637782070001,18.96933496,0
                99.2639901410001,18.969397998,0
                99.2641157300001,18.9694353520001,0
                99.2644843190001,18.969726059,0
                99.264867683,18.970145626,0
                99.265281374,18.9711252980001,0
                99.26556315,18.9717050530001,0
                99.2657257970001,18.9720353290001,0
                99.2659602400001,18.97224463,0
                99.2662861320001,18.9723703230001,0
                99.2673442760001,18.9724947060001,0
                99.267873073,18.9727153000001,0
                99.2679332000001,18.972728666,0
                99.268135654,18.972773675,0
                99.2684599560001,18.97280993,0
                99.2692665050001,18.9728026270001,0
                99.2698096140001,18.9729074960001,0
                99.269826589,18.9729107690001,0
                99.270205215,18.973123216,0
                99.2706148240001,18.973394377,0
                99.271114643,18.9738335920001,0
                99.271822457,18.974616767,0
                99.2721323260001,18.9751214670001,0
                99.272317689,18.9752652990001,0
                99.2726039600001,18.9753609480001,0
                99.273024816,18.9754243730001,0
                99.273512893,18.9754236530001,0
                99.2739839020001,18.975278858,0
                99.274488461,18.97506996,0
                99.275077438,18.9750210510001,0
                99.2758183560001,18.975260119,0
                99.2767786810001,18.9758671280001,0
                99.277132378,18.9760267130001,0
                99.2777888630001,18.976089775,0
                99.278344233,18.976072931,0
                99.278462587,18.976072753,0
                99.279506181,18.9764714660001,0
                99.2806852890001,18.977062108,0
                99.2815448470001,18.977781323,0
                99.282117429,18.977988602,0
                99.2826226910001,18.978195982,0
                99.283145086,18.9785794590001,0
                99.2834151820001,18.97905939,0
                99.283803155,18.979571165,0
                99.2843425170001,18.980034673,0
                99.284949591,18.980722235,0
                99.285253276,18.981154077,0
                99.285338031,18.981506197,0
                99.2852042550001,18.9820187720001,0
                99.2852384910001,18.982354964,0
                99.2854243140001,18.9827549620001,0
                99.285761451,18.9830586630001,0
                99.2864183990001,18.9833778760001,0
                99.2878502670001,18.984096175,0
                99.2881704150001,18.9843038220001,0
                99.2883223090001,18.9845437600001,0
                99.288239144,18.9851203040001,0
                99.288187356,18.9852082250001,0
                99.2879370650001,18.9856331390001,0
                99.2873489350001,18.986194455,0
                99.2868114350001,18.986835749,0
                99.2865785820001,18.9872219210001,0
                99.2864258990001,18.987765015,0
                99.2863592310001,18.988149392,0
                99.286376669,18.9885016150001,0
                99.2866131010001,18.988965582,0
                99.286899813,18.9893013820001,0
                99.2873885600001,18.9896688900001,0
                99.2879616020001,18.990116318,0
                99.2890572000001,18.9910112530001,0
                99.2896472520001,18.9915547200001,0
                99.2898669250001,18.9920507350001,0
                99.2899518890001,18.992514935,0
                99.2899525540001,18.9928992100001,0
                99.2900205750001,18.993299386,0
                99.2902905480001,18.9936832390001,0
                99.2907457100001,18.9940828110001,0
                99.291235091,18.99480256,0
                99.2919097700001,18.9956020710001,0
                99.2926521740001,18.996625631,0
                99.293142076,18.9976335760001,0
                99.2938686210001,18.9992015500001,0
                99.2941722790001,18.9995853410001,0
                99.2947967740001,19.0005450350001,0
                99.2955389080001,19.0013924570001,0
                99.296010961,19.0018080020001,0
                99.296971338,19.002318829,0
                99.2973586460001,19.002447639,0
                99.29762779,19.002301763,0
                99.2981154280001,19.00201277,0
                99.299497735,19.000609965,0
                99.299889405,18.999952555,0
                99.3000718710001,18.999646292,0
                99.3004692960001,18.9985778230001,0
                99.300750679,18.9982708750001,0
                99.3010726100001,18.9981171060001,0
                99.3017168150001,18.9980011220001,0
                99.3030528640001,18.9979815310001,0
                99.3037856460001,18.997913931,0
                99.304582429,18.997659835,0
                99.3046227660001,18.9976469710001,0
                99.305654809,18.997031029,0
                99.3066916220001,18.9964122370001,0
                99.3075929080001,18.9957310730001,0
                99.3087189870001,18.994848034,0
                99.3094027390001,18.9943488440001,0
                99.309966231,18.994156344,0
                99.3109729560001,18.99407803,0
                99.311818368,18.993885053,0
                99.3124217760001,18.9935009210001,0
                99.3128644390001,18.9933086130001,0
                99.313387864,18.993231108,0
                99.3137102740001,18.9933454960001,0
                99.3156049080001,18.9942617450001,0
                99.319121914,18.9966597860001,0
                99.3224407550001,18.998396933,0
                99.322982347,18.9987279650001,0
                99.3239125420001,18.9999557840001,0
                99.3276647390001,19.0032822640001,0
                99.3285943440001,19.0049280040001,0
                99.3290245860001,19.005441992,0
                99.3294309560001,19.005764949,0
                99.329837006,19.005926066,0
                99.3311124360001,19.0061494770001,0
                99.3320614550001,19.006569197,0
                99.333943106,19.0080441280001,0
                99.3352564770001,19.0091468100001,0
                99.335972525,19.010329497,0
                99.3362994400001,19.011102581,0
                99.3363060520001,19.011118217,0
                99.3364730700001,19.0116388660001,0
                99.3367729660001,19.0122066370001,0
                99.3372884710001,19.0126950750001,0
                99.337868487,19.013108179,0
                99.337986201,19.012798794,0
                99.338093681,19.01261542,0
                99.3387244030001,19.012138002,0
                99.339347509,19.0117045580001,0
                99.3399395390001,19.0111466070001,0
                99.340231794,19.0109116030001,0
                99.3404780160001,19.0107719320001,0
              </coordinates>
                
            </LinearRing>
            
          </outerBoundaryIs>
        
        </Polygon>
        
      <styleUrl>
        #tambonStyle</styleUrl>
    </Placemark>

  </Document>
</kml>