<?xml version="1.0" encoding="UTF-8"?>
<kml xmlns="http://www.opengis.net/kml/2.2">
  <Document id="tambon_doc">
    <name>นาอุดม, โพนทอง, Roi Et</name>
    <description>ข้อมูลขอบเขตตำบลนาอุดม อำเภอโพนทอง จังหวัดRoi Et</description>
    
    <!-- Schema สำหรับข้อมูลตำบล -->
    <Schema id="tambon.schema">
      <SimpleField name="ADM3_EN" type="string">
        <displayName>Subdistrict Name (English)</displayName>
      </SimpleField>
      <SimpleField name="ADM3_TH" type="string">
        <displayName>ชื่อตำบล</displayName>
      </SimpleField>
      <SimpleField name="ADM2_EN" type="string">
        <displayName>District Name (English)</displayName>
      </SimpleField>
      <SimpleField name="ADM2_TH" type="string">
        <displayName>ชื่ออำเภอ</displayName>
      </SimpleField>
      <SimpleField name="ADM1_EN" type="string">
        <displayName>Province Name (English)</displayName>
      </SimpleField>
      <SimpleField name="ADM1_TH" type="string">
        <displayName>ชื่อจังหวัด</displayName>
      </SimpleField>
      <SimpleField name="ADM0_EN" type="string">
        <displayName>Country Name (English)</displayName>
      </SimpleField>
      <SimpleField name="ADM0_TH" type="string">
        <displayName>ชื่อประเทศ</displayName>
      </SimpleField>
    </Schema>

    <!-- Style สำหรับตำบล -->
    <Style id="tambonStyle">
      <LineStyle>
        <color>ffff0000</color>
        <width>1.5</width>
      </LineStyle>
      <PolyStyle>
        <color>33ff0000</color>
        <fill>1</fill>
        <outline>1</outline>
      </PolyStyle>
    </Style>

    <Placemark id="Roi_Et.76">
        
        <ExtendedData>
            
          <SchemaData schemaUrl="#tambon.schema">
                
            <SimpleData name="Shape_Leng">
                0.295323833909</SimpleData>
                
            <SimpleData name="Shape_Area">
                0.00309684129785</SimpleData>
                
            <SimpleData name="ADM3_EN">
                Na Udom</SimpleData>
                
            <SimpleData name="ADM3_TH">
                นาอุดม</SimpleData>
                
            <SimpleData name="ADM3_PCODE">
                TH450703</SimpleData>
                
            <SimpleData name="ADM2_EN">
                Phon Thong</SimpleData>
                
            <SimpleData name="ADM2_TH">
                โพนทอง</SimpleData>
                
            <SimpleData name="ADM2_PCODE">
                TH4507</SimpleData>
                
            <SimpleData name="ADM1_EN">
                Roi Et</SimpleData>
                
            <SimpleData name="ADM1_TH">
                ร้อยเอ็ด</SimpleData>
                
            <SimpleData name="ADM1_PCODE">
                TH45</SimpleData>
                
            <SimpleData name="ADM0_EN">
                Thailand</SimpleData>
                
            <SimpleData name="ADM0_TH">
                ประเทศไทย</SimpleData>
                
            <SimpleData name="ADM0_PCODE">
                TH</SimpleData>
            
          </SchemaData>
        
        </ExtendedData>
        
        <Polygon>
            
          <outerBoundaryIs>
                
            <LinearRing>
                    
              <coordinates>
                    
                103.882762916,16.357707272,0
                103.882867623,16.3553930300001,0
                103.883123197,16.3524428600001,0
                103.883083869,16.351744782,0
                103.882961585,16.3512392700001,0
                103.882757924,16.3509898200001,0
                103.877353274,16.346894681,0
                103.875790677,16.3456752980001,0
                103.875646586,16.3455628560001,0
                103.873924308,16.3445109830001,0
                103.872697149,16.343399447,0
                103.871792612,16.34261335,0
                103.871237399,16.34204292,0
                103.871018848,16.3416578580001,0
                103.870931448,16.3412969670001,0
                103.870951167,16.3411175470001,0
                103.871201822,16.340734949,0
                103.871204792,16.340730411,0
                103.872031317,16.3386778060001,0
                103.872799773,16.3360546480001,0
                103.873989666,16.3345020040001,0
                103.875480775,16.3335455710001,0
                103.876824818,16.3329141780001,0
                103.877935096,16.3325101240001,0
                103.880659026,16.3310007580001,0
                103.881392836,16.330517747,0
                103.88203053,16.329698062,0
                103.882716076,16.32815709,0
                103.885325757,16.320195858,0
                103.886355719,16.31681503,0
                103.887515837,16.3130069050001,0
                103.887755834,16.312372618,0
                103.888195002,16.311211911,0
                103.889159127,16.309410311,0
                103.8909988,16.3066564120001,0
                103.891542391,16.3055847320001,0
                103.892695318,16.3034398450001,0
                103.893643047,16.300981999,0
                103.894163962,16.2990000500001,0
                103.894627766,16.2960016710001,0
                103.889413099,16.29594917,0
                103.885258477,16.2959073010001,0
                103.885208316,16.2959069680001,0
                103.882520385,16.2958843060001,0
                103.88016038,16.2958643860001,0
                103.879080969,16.2958517970001,0
                103.874109392,16.29581498,0
                103.861240614,16.295691569,0
                103.860104145,16.295685446,0
                103.859977853,16.295685281,0
                103.853718662,16.2956313920001,0
                103.850119287,16.29559235,0
                103.848342863,16.2955735140001,0
                103.847792736,16.295567513,0
                103.840440348,16.2954848090001,0
                103.838166083,16.2954684870001,0
                103.837989312,16.2954631060001,0
                103.832654247,16.2954200030001,0
                103.82533907,16.295350995,0
                103.82358738,16.2953446450001,0
                103.821621633,16.295323529,0
                103.820371933,16.295319953,0
                103.81879641,16.2952989500001,0
                103.815297571,16.2973275840001,0
                103.807506706,16.30316258,0
                103.803212677,16.3057876840001,0
                103.809801316,16.3075146420001,0
                103.812552203,16.3088404150001,0
                103.815195629,16.3103638640001,0
                103.817647632,16.3123255720001,0
                103.818712959,16.3136246820001,0
                103.819578332,16.3150151360001,0
                103.820363483,16.316797949,0
                103.820989339,16.318497619,0
                103.822106802,16.322832948,0
                103.82296539,16.3262951950001,0
                103.824626896,16.326203637,0
                103.824849466,16.326191371,0
                103.82491566,16.3261702470001,0
                103.826147484,16.325777159,0
                103.827444151,16.325308051,0
                103.827794924,16.3251956610001,0
                103.828124608,16.3251881030001,0
                103.828570665,16.3252471220001,0
                103.829134458,16.3254280840001,0
                103.829672312,16.325720436,0
                103.830118371,16.3257794510001,0
                103.830721761,16.3258210070001,0
                103.831414906,16.3260128430001,0
                103.834008418,16.3262559240001,0
                103.835762194,16.3265046000001,0
                103.835900399,16.3265397100001,0
                103.837841042,16.327032677,0
                103.83974251,16.327684489,0
                103.839752652,16.3276879650001,0
                103.841329281,16.3285771500001,0
                103.841862506,16.329018825,0
                103.843286033,16.3301979230001,0
                103.846201687,16.332843382,0
                103.846509831,16.333484443,0
                103.846818244,16.3341359520001,0
                103.846997563,16.3343827200001,0
                103.847301964,16.3346527460001,0
                103.847559088,16.3347618170001,0
                103.848287931,16.334901842,0
                103.848831925,16.33500953,0
                103.849144054,16.3351539230001,0
                103.849459148,16.335418469,0
                103.849571616,16.3355883720001,0
                103.849790749,16.3359126240001,0
                103.849989006,16.3360491890001,0
                103.850412311,16.3363112390001,0
                103.851575564,16.3369430270001,0
                103.852365881,16.3373795580001,0
                103.852804647,16.3376098850001,0
                103.85344849,16.3378145720001,0
                103.853900517,16.337924365,0
                103.854135486,16.338013032,0
                103.854258517,16.338172233,0
                103.854577263,16.3388025740001,0
                103.854710342,16.338930179,0
                103.854867888,16.338952675,0
                103.85567982,16.338949622,0
                103.856000784,16.338990519,0
                103.856006635,16.3390189890001,0
                103.856049837,16.33915675,0
                103.856117243,16.3392896820001,0
                103.856211061,16.339417736,0
                103.85632255,16.3395453810001,0
                103.856400004,16.3396375240001,0
                103.85647703,16.3397125970001,0
                103.856514287,16.339788587,0
                103.856524394,16.339839586,0
                103.856536974,16.3399012040001,0
                103.856532826,16.340001633,0
                103.85650595,16.3400769690001,0
                103.856459248,16.340244554,0
                103.856444897,16.3403793750001,0
                103.85642366,16.3405036770001,0
                103.856399625,16.340604566,0
                103.856355134,16.340772101,0
                103.856308074,16.3410144150001,0
                103.856335653,16.3411461330001,0
                103.856373434,16.3412434590001,0
                103.856393384,16.3413347910001,0
                103.856362248,16.341416629,0
                103.856314321,16.341445489,0
                103.856245824,16.3414470700001,0
                103.856179006,16.341427265,0
                103.856078888,16.341401822,0
                103.856001447,16.341399343,0
                103.855917637,16.341407679,0
                103.855836883,16.341450105,0
                103.855780492,16.3414941,0
                103.855737775,16.3415548570001,0
                103.855670389,16.341601241,0
                103.855609207,16.341630407,0
                103.85556291,16.341635744,0
                103.855523137,16.341636662,0
                103.855478625,16.341624881,0
                103.855410074,16.341624328,0
                103.855362255,16.341657454,0
                103.855322172,16.34173523,0
                103.855304559,16.341827429,0
                103.855290993,16.341904593,0
                103.855257009,16.342197243,0
                103.855281837,16.3423535360001,0
                103.85531627,16.342474183,0
                103.855418291,16.34257303,0
                103.855555344,16.3426052900001,0
                103.855644509,16.3426082890001,0
                103.855734053,16.342626465,0
                103.855787929,16.342685944,0
                103.85578557,16.342802379,0
                103.855762513,16.342929412,0
                103.855669635,16.343199745,0
                103.855194109,16.3443138280001,0
                103.855099121,16.3447107110001,0
                103.855058598,16.344767307,0
                103.85499637,16.344794043,0
                103.854864802,16.34477178,0
                103.854811673,16.3447426440001,0
                103.85472351,16.3447801030001,0
                103.854682234,16.3448063550001,0
                103.8546694,16.344923034,0
                103.854693854,16.3450641540001,0
                103.854743251,16.3451540950001,0
                103.854780434,16.345386003,0
                103.854837945,16.345592143,0
                103.85495718,16.3457513110001,0
                103.855053342,16.345824996,0
                103.855150125,16.3459239650001,0
                103.855405795,16.3460901060001,0
                103.85556368,16.3461168210001,0
                103.855689635,16.3461240340001,0
                103.855742514,16.3461430560001,0
                103.855871348,16.346266583,0
                103.855946557,16.34634075,0
                103.855990211,16.346410581,0
                103.856002566,16.3464861960001,0
                103.855940715,16.3465281090001,0
                103.855891092,16.346640575,0
                103.855820271,16.346743412,0
                103.855792849,16.3469059710001,0
                103.855797358,16.3470880310001,0
                103.855821316,16.347208918,0
                103.855900029,16.347424688,0
                103.85595654,16.347590365,0
                103.855958795,16.3476813990001,0
                103.85589148,16.347925839,0
                103.85589411,16.348032038,0
                103.855917564,16.3481326990001,0
                103.855976308,16.3481768840001,0
                103.85607159,16.3482151640001,0
                103.856192938,16.3482477850001,0
                103.856289097,16.348321465,0
                103.856353205,16.348370586,0
                103.856411198,16.3483844300001,0
                103.856520938,16.348371774,0
                103.856605748,16.3484102960001,0
                103.856690929,16.348463989,0
                103.856755037,16.3485131100001,0
                103.856824504,16.348567169,0
                103.856920167,16.3486206220001,0
                103.857077551,16.3486271030001,0
                103.857183056,16.34865503,0
                103.857247039,16.3486990920001,0
                103.857394574,16.3487311050001,0
                103.857525894,16.348743255,0
                103.857657468,16.348765513,0
                103.85777408,16.348818481,0
                103.857838684,16.348887833,0
                103.85791377,16.348956937,0
                103.857916025,16.3490479660001,0
                103.857891965,16.349134543,0
                103.857880765,16.3493169700001,0
                103.857893873,16.3494229290001,0
                103.857896756,16.349539243,0
                103.857945647,16.349608957,0
                103.858047547,16.349702746,0
                103.858149197,16.3497864180001,0
                103.858239496,16.3498349330001,0
                103.858350615,16.3498779080001,0
                103.858415225,16.349947253,0
                103.858489809,16.3499961310001,0
                103.858590582,16.3500444040001,0
                103.858674009,16.3500272960001,0
                103.858907331,16.3499257620001,0
                103.859046624,16.349836523,0
                103.859202627,16.349787377,0
                103.859370741,16.349803734,0
                103.859481614,16.3498365930001,0
                103.859514794,16.3499066690001,0
                103.859507326,16.350028283,0
                103.859478909,16.3501503840001,0
                103.859527555,16.3502099770001,0
                103.859716366,16.3502157350001,0
                103.859852804,16.350222703,0
                103.859963296,16.350240387,0
                103.860022417,16.3502997420001,0
                103.860071312,16.3503694560001,0
                103.860113592,16.3503836570001,0
                103.860202638,16.3503815990001,0
                103.860288572,16.3504656380001,0
                103.860332858,16.350560752,0
                103.860355688,16.3506361280001,0
                103.860420173,16.3507004200001,0
                103.860462325,16.3507095620001,0
                103.860561469,16.350692092,0
                103.860676827,16.3506944870001,0
                103.860751539,16.3507484190001,0
                103.860801052,16.35082799,0
                103.860822353,16.3509354460001,0
                103.860898185,16.3509876640001,0
                103.861028769,16.3509936450001,0
                103.861224541,16.350998114,0
                103.861457332,16.3509927320001,0
                103.862002386,16.3509630830001,0
                103.862024138,16.3509619000001,0
                103.862219004,16.3509513000001,0
                103.86248823,16.350945075,0
                103.862494942,16.350944919,0
                103.862557279,16.350969026,0
                103.862571469,16.350974514,0
                103.86260422,16.3510132230001,0
                103.862696457,16.3511222380001,0
                103.862766666,16.3512052140001,0
                103.863022554,16.3514815520001,0
                103.863157332,16.3516770580001,0
                103.863198578,16.3518120050001,0
                103.863203821,16.351886345,0
                103.863211895,16.3520007430001,0
                103.863209232,16.3520224490001,0
                103.863114852,16.3522484310001,0
                103.863101899,16.3522794410001,0
                103.863114406,16.3523471030001,0
                103.863125802,16.352355829,0
                103.863180628,16.352397839,0
                103.863802498,16.3527055050001,0
                103.863899139,16.3527732380001,0
                103.864043592,16.352964721,0
                103.864050281,16.3529735970001,0
                103.86413559,16.3531388820001,0
                103.864141079,16.3532344720001,0
                103.864173173,16.353793621,0
                103.864174289,16.3538385950001,0
                103.864181429,16.3541262890001,0
                103.864224924,16.3543771610001,0
                103.864287934,16.354663568,0
                103.864426336,16.3549842090001,0
                103.865043496,16.3558245140001,0
                103.865704323,16.3565468690001,0
                103.86591901,16.356937707,0
                103.866103305,16.357230294,0
                103.866204237,16.357542805,0
                103.866288111,16.3579186810001,0
                103.86625026,16.3582703880001,0
                103.866282888,16.358458543,0
                103.866489165,16.358682781,0
                103.86666164,16.358874444,0
                103.866791541,16.3590401010001,0
                103.866811203,16.359269037,0
                103.866816228,16.359471323,0
                103.866835052,16.359666544,0
                103.866881311,16.359840885,0
                103.866996741,16.359986642,0
                103.867128989,16.3602467000001,0
                103.867302639,16.3604855620001,0
                103.867489417,16.3606903850001,0
                103.867555718,16.360766577,0
                103.867643939,16.3609633080001,0
                103.867708181,16.361106566,0
                103.867694032,16.361685401,0
                103.867903682,16.362658497,0
                103.868031401,16.363099204,0
                103.868507021,16.3639573950001,0
                103.869041025,16.3648381530001,0
                103.869402996,16.365443795,0
                103.86970647,16.366207144,0
                103.86997894,16.3676945010001,0
                103.873348088,16.366140138,0
                103.876674034,16.364349724,0
                103.876725751,16.3643218820001,0
                103.878788873,16.3629019320001,0
                103.880728254,16.3611286980001,0
                103.881826118,16.3595618300001,0
                103.882762916,16.357707272,0
              </coordinates>
                
            </LinearRing>
            
          </outerBoundaryIs>
        
        </Polygon>
        
      <styleUrl>
        #tambonStyle</styleUrl>
    </Placemark>

  </Document>
</kml>