<?xml version="1.0" encoding="UTF-8"?>
<kml xmlns="http://www.opengis.net/kml/2.2">
  <Document id="tambon_doc">
    <name>โนนชัยศรี, โพนทอง, Roi Et</name>
    <description>ข้อมูลขอบเขตตำบลโนนชัยศรี อำเภอโพนทอง จังหวัดRoi Et</description>
    
    <!-- Schema สำหรับข้อมูลตำบล -->
    <Schema id="tambon.schema">
      <SimpleField name="ADM3_EN" type="string">
        <displayName>Subdistrict Name (English)</displayName>
      </SimpleField>
      <SimpleField name="ADM3_TH" type="string">
        <displayName>ชื่อตำบล</displayName>
      </SimpleField>
      <SimpleField name="ADM2_EN" type="string">
        <displayName>District Name (English)</displayName>
      </SimpleField>
      <SimpleField name="ADM2_TH" type="string">
        <displayName>ชื่ออำเภอ</displayName>
      </SimpleField>
      <SimpleField name="ADM1_EN" type="string">
        <displayName>Province Name (English)</displayName>
      </SimpleField>
      <SimpleField name="ADM1_TH" type="string">
        <displayName>ชื่อจังหวัด</displayName>
      </SimpleField>
      <SimpleField name="ADM0_EN" type="string">
        <displayName>Country Name (English)</displayName>
      </SimpleField>
      <SimpleField name="ADM0_TH" type="string">
        <displayName>ชื่อประเทศ</displayName>
      </SimpleField>
    </Schema>

    <!-- Style สำหรับตำบล -->
    <Style id="tambonStyle">
      <LineStyle>
        <color>ffff0000</color>
        <width>1.5</width>
      </LineStyle>
      <PolyStyle>
        <color>33ff0000</color>
        <fill>1</fill>
        <outline>1</outline>
      </PolyStyle>
    </Style>

    <Placemark id="Roi_Et.80">
        
        <ExtendedData>
            
          <SchemaData schemaUrl="#tambon.schema">
                
            <SimpleData name="Shape_Leng">
                0.3266639605</SimpleData>
                
            <SimpleData name="Shape_Area">
                0.00379191727195</SimpleData>
                
            <SimpleData name="ADM3_EN">
                Non Chai Si</SimpleData>
                
            <SimpleData name="ADM3_TH">
                โนนชัยศรี</SimpleData>
                
            <SimpleData name="ADM3_PCODE">
                TH450707</SimpleData>
                
            <SimpleData name="ADM2_EN">
                Phon Thong</SimpleData>
                
            <SimpleData name="ADM2_TH">
                โพนทอง</SimpleData>
                
            <SimpleData name="ADM2_PCODE">
                TH4507</SimpleData>
                
            <SimpleData name="ADM1_EN">
                Roi Et</SimpleData>
                
            <SimpleData name="ADM1_TH">
                ร้อยเอ็ด</SimpleData>
                
            <SimpleData name="ADM1_PCODE">
                TH45</SimpleData>
                
            <SimpleData name="ADM0_EN">
                Thailand</SimpleData>
                
            <SimpleData name="ADM0_TH">
                ประเทศไทย</SimpleData>
                
            <SimpleData name="ADM0_PCODE">
                TH</SimpleData>
            
          </SchemaData>
        
        </ExtendedData>
        
        <Polygon>
            
          <outerBoundaryIs>
                
            <LinearRing>
                    
              <coordinates>
                    
                103.990182607,16.250833685,0
                103.990369802,16.2506658190001,0
                103.990492614,16.2505651500001,0
                103.990603735,16.250470063,0
                103.990679692,16.25041979,0
                103.990911743,16.2499489370001,0
                103.990958246,16.2496792320001,0
                103.990985894,16.249266462,0
                103.990856249,16.248261616,0
                103.99087757,16.24779828,0
                103.990984558,16.2476318020001,0
                103.991111896,16.247433646,0
                103.991120684,16.247423144,0
                103.991303616,16.247275104,0
                103.991683554,16.2469655560001,0
                103.991992732,16.246791038,0
                103.992371698,16.246671011,0
                103.992722353,16.2466049920001,0
                103.993128733,16.2466069220001,0
                103.993451305,16.246554313,0
                103.993802309,16.2464206080001,0
                103.994153307,16.246286888,0
                103.994462346,16.246139445,0
                103.994603159,16.246004746,0
                103.994744199,16.2458294420001,0
                103.994843235,16.245640381,0
                103.994872439,16.2454103860001,0
                103.994874433,16.245017831,0
                103.994862068,16.2446928730001,0
                103.994891752,16.2443681340001,0
                103.994893195,16.244083845,0
                103.994852452,16.243826456,0
                103.994714463,16.2434061550001,0
                103.994464705,16.2429176260001,0
                103.994228575,16.2425104000001,0
                103.993825509,16.2418587070001,0
                103.993714365,16.241668648,0
                103.993602823,16.2415598320001,0
                103.993477065,16.241491551,0
                103.993254868,16.2414608460001,0
                103.992832893,16.2414072670001,0
                103.992678966,16.2413659170001,0
                103.992511086,16.241310974,0
                103.992343416,16.2412154130001,0
                103.992161475,16.241173944,0
                103.991811426,16.2411181200001,0
                103.991264753,16.24115614,0
                103.990689683,16.2412616890001,0
                103.990072165,16.24144828,0
                103.989464741,16.241652146,0
                103.989117671,16.2417686100001,0
                103.988766933,16.241848163,0
                103.988514512,16.241887579,0
                103.988206101,16.2419131730001,0
                103.987841762,16.241911433,0
                103.987477513,16.2418961710001,0
                103.987155568,16.2418269500001,0
                103.986777717,16.241730379,0
                103.986428247,16.241566263,0
                103.986176779,16.2414161500001,0
                103.985967498,16.2412391610001,0
                103.985744691,16.240967359,0
                103.985480478,16.24057351,0
                103.985202231,16.240179615,0
                103.985077373,16.239935345,0
                103.984980533,16.2396912080001,0
                103.98482744,16.2394874240001,0
                103.984604563,16.2392291620001,0
                103.984339524,16.238997759,0
                103.984005029,16.238644197,0
                103.983739967,16.23841279,0
                103.983446758,16.238208318,0
                103.983125326,16.2380443430001,0
                103.982803599,16.237934495,0
                103.982271901,16.237783037,0
                103.981866103,16.2376728030001,0
                103.981628449,16.2375633570001,0
                103.981488752,16.23748146,0
                103.981363556,16.2373048860001,0
                103.981210676,16.237060479,0
                103.981085736,16.2368297460001,0
                103.98100266,16.236639838,0
                103.980947779,16.2364094380001,0
                103.980935229,16.2361251,0
                103.980938153,16.2355565460001,0
                103.980982777,16.2350558900001,0
                103.981026689,16.2346906,0
                103.981070197,16.2344065340001,0
                103.981057436,16.234162801,0
                103.981002302,16.2339865640001,0
                103.980932867,16.2338643850001,0
                103.980896332,16.2338153640001,0
                103.98082153,16.2337149420001,0
                103.980709864,16.23363318,0
                103.98059797,16.2335920360001,0
                103.98049988,16.233591565,0
                103.98037378,16.233590959,0
                103.980261398,16.2336445650001,0
                103.980148689,16.233765867,0
                103.979895213,16.2340083060001,0
                103.979515361,16.234304294,0
                103.978994621,16.234748516,0
                103.978600675,16.235057973,0
                103.978080702,16.2353532870001,0
                103.977116274,16.2358456740001,0
                103.976679416,16.236090023,0
                103.976353583,16.236236239,0
                103.976189264,16.236288288,0
                103.976066285,16.23632723,0
                103.975722,16.236344027,0
                103.975492817,16.236287509,0
                103.9753212,16.236194299,0
                103.975188306,16.2360089220001,0
                103.975182798,16.2359959670001,0
                103.975093836,16.235786794,0
                103.97503792,16.2355094210001,0
                103.9750969,16.2351956570001,0
                103.97517559,16.234771133,0
                103.975274636,16.2341065590001,0
                103.97541127,16.2335714970001,0
                103.975394252,16.2331649870001,0
                103.975340324,16.232499671,0
                103.975266715,16.2319451160001,0
                103.97523057,16.231538517,0
                103.975232581,16.2311505910001,0
                103.975272454,16.230836729,0
                103.975332194,16.2303751800001,0
                103.975449321,16.2299138920001,0
                103.975566143,16.2295080430001,0
                103.975759556,16.229084093,0
                103.976125724,16.22853164,0
                103.976491778,16.2279976670001,0
                103.976666443,16.22749972,0
                103.97680248,16.227075488,0
                103.976900098,16.2266880240001,0
                103.976959472,16.226300355,0
                103.976961188,16.2259678350001,0
                103.97688689,16.225542591,0
                103.976792916,16.2252280870001,0
                103.9766323,16.2249700090001,0
                103.976617958,16.224946946,0
                103.976515428,16.224846912,0
                103.976284197,16.224733805,0
                103.976073346,16.2246626420001,0
                103.975872792,16.224594949,0
                103.975461643,16.224406329,0
                103.974793246,16.224154238,0
                103.974240502,16.2239524770001,0
                103.973893613,16.223789056,0
                103.973688389,16.2236263020001,0
                103.97352195,16.2234388580001,0
                103.973445638,16.223251836,0
                103.973420903,16.22305264,0
                103.973435153,16.2227914100001,0
                103.973488145,16.222505476,0
                103.973593099,16.22213269,0
                103.97371198,16.2215608970001,0
                103.973739208,16.2212748540001,0
                103.973714491,16.2210756420001,0
                103.973689627,16.220901321,0
                103.973645343,16.220785483,0
                103.973613384,16.220701879,0
                103.973498009,16.2206017660001,0
                103.973382483,16.220526545,0
                103.973241144,16.2204636540001,0
                103.973060977,16.2204378920001,0
                103.972803339,16.2204491000001,0
                103.972597107,16.220485433,0
                103.972403594,16.2205467040001,0
                103.972184016,16.22067007,0
                103.972041777,16.2207813740001,0
                103.971886211,16.220979695,0
                103.971665146,16.221389247,0
                103.971457019,16.221786405,0
                103.971210203,16.222195814,0
                103.970821132,16.222716527,0
                103.970509975,16.2231131840001,0
                103.97033995,16.2232883340001,0
                103.970173333,16.2234599500001,0
                103.969953621,16.2236082090001,0
                103.969695395,16.2237313860001,0
                103.969424497,16.2238171720001,0
                103.969153916,16.223840733,0
                103.96889662,16.2237897110001,0
                103.968794031,16.223702114,0
                103.968717678,16.223527545,0
                103.968641892,16.223241004,0
                103.968566626,16.2228549070001,0
                103.968440171,16.222406339,0
                103.968249784,16.22187038,0
                103.968173355,16.221708248,0
                103.968122683,16.221546258,0
                103.968136402,16.2213845590001,0
                103.96817601,16.221198117,0
                103.968293152,16.220962263,0
                103.968488393,16.220565042,0
                103.968631801,16.2202297810001,0
                103.968724088,16.219819624,0
                103.968960444,16.218949778,0
                103.969131277,16.2182911200001,0
                103.969274942,16.217906107,0
                103.969548095,16.2173848350001,0
                103.96973007,16.2170621940001,0
                103.969898594,16.216851483,0
                103.970079854,16.2166657220001,0
                103.970273666,16.216542234,0
                103.970673791,16.2163699720001,0
                103.97094481,16.216259297,0
                103.971241337,16.216198525,0
                103.971550478,16.2161875840001,0
                103.972400235,16.2162290320001,0
                103.97317253,16.2163074110001,0
                103.973533115,16.216309154,0
                103.973816554,16.2162856510001,0
                103.974022935,16.216224422,0
                103.974203613,16.2161506510001,0
                103.974332846,16.216064176,0
                103.97443638,16.2159651220001,0
                103.974514811,16.215741528,0
                103.974606951,16.2153562450001,0
                103.974660652,16.214933461,0
                103.974675838,16.2144855810001,0
                103.974665287,16.2140375930001,0
                103.974666312,16.2138385050001,0
                103.974679897,16.213701701,0
                103.974745003,16.2135651460001,0
                103.974874281,16.2134662350001,0
                103.975184316,16.2132810750001,0
                103.975752812,16.2129229810001,0
                103.976527856,16.212466342,0
                103.977689943,16.211874677,0
                103.978129076,16.2116279310001,0
                103.9783232,16.211442225,0
                103.978478747,16.2112438830001,0
                103.978582809,16.2110453070001,0
                103.978619531,16.2109234000001,0
                103.978610952,16.2109073230001,0
                103.978622341,16.2108712950001,0
                103.978597735,16.21064719,0
                103.978572933,16.210460433,0
                103.978483491,16.2103231350001,0
                103.978368311,16.2101857110001,0
                103.97816335,16.209973195,0
                103.977983834,16.2098230080001,0
                103.97766279,16.209647261,0
                103.977418289,16.2095125600001,0
                103.976956506,16.2092581520001,0
                103.976725743,16.2090579430001,0
                103.976623368,16.208933019,0
                103.976546931,16.20877089,0
                103.976534895,16.208609085,0
                103.9765616,16.2084225610001,0
                103.976613897,16.208273508,0
                103.976730558,16.2081247620001,0
                103.97685991,16.2080133910001,0
                103.977299485,16.2076795470001,0
                103.977584066,16.2074320560001,0
                103.977675301,16.207220981,0
                103.977714898,16.2070345130001,0
                103.977690099,16.2068477600001,0
                103.977600725,16.206698024,0
                103.977408401,16.206535333,0
                103.976959103,16.206259435,0
                103.976381482,16.2058957950001,0
                103.976350778,16.205884747,0
                103.975995875,16.2057570710001,0
                103.97593991,16.2057400410001,0
                103.975455862,16.205592704,0
                103.974825499,16.2054652320001,0
                103.974465511,16.20535152,0
                103.97433714,16.2052762380001,0
                103.974234495,16.205201077,0
                103.97415795,16.2050638380001,0
                103.974056336,16.2047896130001,0
                103.973929298,16.2044530380001,0
                103.973789259,16.2041412940001,0
                103.973701179,16.203742699,0
                103.973664863,16.203294585,0
                103.973602738,16.202858787,0
                103.973553355,16.202447927,0
                103.973490185,16.2022112120001,0
                103.973375396,16.201999126,0
                103.973208888,16.201824125,0
                103.973016637,16.201648995,0
                103.972849748,16.20154863,0
                103.972682595,16.201498057,0
                103.972373739,16.2014592300001,0
                103.972129469,16.201383407,0
                103.971923813,16.201307747,0
                103.97175707,16.2011825110001,0
                103.971654623,16.2010700380001,0
                103.971565514,16.2008705170001,0
                103.971527737,16.2007085720001,0
                103.971541447,16.2005468940001,0
                103.971580983,16.200372886,0
                103.971697962,16.2001619170001,0
                103.971905808,16.1998145270001,0
                103.972398419,16.1991823180001,0
                103.973176184,16.198190644,0
                103.973708197,16.197409314,0
                103.974148695,16.19688884,0
                103.974782998,16.196244871,0
                103.975754543,16.1951296940001,0
                103.976026367,16.194857266,0
                103.976375773,16.1945229830001,0
                103.976854125,16.1941520140001,0
                103.977125686,16.193929353,0
                103.977384636,16.1936568420001,0
                103.977760679,16.1931484850001,0
                103.978331289,16.192367328,0
                103.978876071,16.1915985040001,0
                103.97921296,16.1911894940001,0
                103.979459224,16.1908796060001,0
                103.980261784,16.1900622270001,0
                103.981065018,16.1891079760001,0
                103.981505051,16.1886745800001,0
                103.981725228,16.1884267730001,0
                103.981868075,16.1881910490001,0
                103.981959617,16.187917752,0
                103.982025792,16.187569667,0
                103.982053256,16.1872338320001,0
                103.982054467,16.1869974160001,0
                103.981991309,16.186760705,0
                103.981876946,16.186461524,0
                103.98168502,16.1862242020001,0
                103.981493476,16.185912193,0
                103.981404495,16.1856878,0
                103.981341445,16.185426196,0
                103.981329466,16.1852519390001,0
                103.981343485,16.185028038,0
                103.981409407,16.184729723,0
                103.981565893,16.184344739,0
                103.981657489,16.184059,0
                103.981710521,16.1837606230001,0
                103.9817774,16.183275673,0
                103.981806394,16.1826412140001,0
                103.981848979,16.1818699560001,0
                103.981852806,16.1811234040001,0
                103.981906853,16.180625955,0
                103.9819481,16.1801159880001,0
                103.982041289,16.179519172,0
                103.982096426,16.1788101940001,0
                103.982150283,16.1783500550001,0
                103.982191076,16.1779271890001,0
                103.982231238,16.177628768,0
                103.982271716,16.1772681040001,0
                103.982222384,16.1768448190001,0
                103.982159905,16.1764712290001,0
                103.981996361,16.175723873,0
                103.981870981,16.1750638030001,0
                103.981757963,16.1745033280001,0
                103.981683894,16.173880818,0
                103.98163569,16.1736746770001,0
                103.981305923,16.1737534650001,0
                103.980863094,16.1738535160001,0
                103.980336588,16.1739465640001,0
                103.979503408,16.174019905,0
                103.977797039,16.174050956,0
                103.976161246,16.1739368790001,0
                103.975297099,16.1738854020001,0
                103.974107734,16.1738146430001,0
                103.973019468,16.1737056440001,0
                103.971734904,16.173538475,0
                103.970758583,16.173453738,0
                103.969857791,16.1734210330001,0
                103.968985265,16.1734055910001,0
                103.968539502,16.173389124,0
                103.967936782,16.173403229,0
                103.967372049,16.173452308,0
                103.966779943,16.1735199570001,0
                103.966151647,16.1736243180001,0
                103.965459108,16.17375708,0
                103.964453318,16.1739778580001,0
                103.96392657,16.1740619060001,0
                103.962934834,16.174103025,0
                103.962248202,16.174101142,0
                103.961699312,16.1740422400001,0
                103.960777944,16.173929274,0
                103.960108959,16.173891112,0
                103.959283233,16.1738924690001,0
                103.958262999,16.1739073320001,0
                103.956695441,16.1739260030001,0
                103.955703693,16.173967089,0
                103.954323602,16.174062065,0
                103.953157685,16.174187896,0
                103.952418535,16.174312738,0
                103.951679163,16.1744286160001,0
                103.949421483,16.174678527,0
                103.948485806,16.174736205,0
                103.94776162,16.1747172180001,0
                103.947036539,16.1746623830001,0
                103.946135242,16.174650405,0
                103.945117287,16.1748519020001,0
                103.944506416,16.175053658,0
                103.944174009,16.1752570840001,0
                103.943936184,16.1755316840001,0
                103.943174041,16.1767724430001,0
                103.942013238,16.1775903560001,0
                103.941307265,16.1780389200001,0
                103.940090877,16.178319989,0
                103.938072807,16.178595248,0
                103.93656026,16.17884242,0
                103.934756225,16.179243125,0
                103.933792787,16.179518285,0
                103.933308776,16.1797333750001,0
                103.932727431,16.1801056420001,0
                103.932149525,16.1806164330001,0
                103.931674838,16.181206365,0
                103.931188353,16.182000408,0
                103.930698413,16.1826559250001,0
                103.929972358,16.1833169230001,0
                103.929157716,16.1838087520001,0
                103.928310072,16.183991512,0
                103.926669341,16.1841763790001,0
                103.925291237,16.1844040560001,0
                103.923876557,16.184518424,0
                103.922317912,16.1846116630001,0
                103.918666523,16.184663814,0
                103.918972431,16.187264826,0
                103.919293809,16.188756121,0
                103.919918396,16.189965611,0
                103.920884432,16.1913919840001,0
                103.921175039,16.1926841490001,0
                103.921070294,16.1975958080001,0
                103.921208279,16.198561585,0
                103.921527798,16.199665424,0
                103.921972405,16.2006605230001,0
                103.928046426,16.2124492560001,0
                103.929580365,16.215397336,0
                103.930677738,16.2183830920001,0
                103.931420252,16.221238118,0
                103.933658194,16.227006461,0
                103.935746845,16.23332844,0
                103.936446284,16.235690832,0
                103.936649119,16.2371794520001,0
                103.936928082,16.237738285,0
                103.936933146,16.2379408370001,0
                103.936605082,16.2389511750001,0
                103.936602844,16.2393032300001,0
                103.936764264,16.2395768050001,0
                103.937005866,16.239965839,0
                103.937091909,16.2403158330001,0
                103.937137914,16.240807556,0
                103.937210061,16.2408404600001,0
                103.937297436,16.2408638260001,0
                103.937346939,16.240889994,0
                103.93740829,16.2409270640001,0
                103.937458014,16.240961918,0
                103.937578703,16.241058455,0
                103.93771546,16.2411807020001,0
                103.93786138,16.2412580230001,0
                103.938053212,16.2413206090001,0
                103.938103975,16.241345503,0
                103.93813305,16.24137712,0
                103.938146827,16.2414140550001,0
                103.938162155,16.2416670550001,0
                103.938158813,16.241893169,0
                103.938185307,16.2419757590001,0
                103.938246209,16.2420463730001,0
                103.938352797,16.242144479,0
                103.938469198,16.242223731,0
                103.938593338,16.2423040420001,0
                103.938640774,16.2423501280001,0
                103.938688206,16.2423962140001,0
                103.938709128,16.242461554,0
                103.938712968,16.2425123840001,0
                103.938700077,16.2425623620001,0
                103.938701009,16.2425996000001,0
                103.938718456,16.2426289970001,0
                103.938750827,16.242638178,0
                103.938799961,16.2426494480001,0
                103.938894824,16.2426385410001,0
                103.938963492,16.2426083720001,0
                103.939082681,16.2425422490001,0
                103.939190157,16.2424701910001,0
                103.939266654,16.2424448090001,0
                103.939313158,16.2424536570001,0
                103.939371626,16.2424783720001,0
                103.939418691,16.242509565,0
                103.939495117,16.2425326170001,0
                103.939558106,16.2425323900001,0
                103.939614994,16.2424938030001,0
                103.939690093,16.242412561,0
                103.939739084,16.2423667100001,0
                103.939840876,16.242324592,0
                103.940053708,16.242250069,0
                103.940233443,16.2421887410001,0
                103.940460466,16.2421163720001,0
                103.94057927,16.242086274,0
                103.940728945,16.2420566980001,0
                103.94082594,16.242028351,0
                103.940981479,16.2419762810001,0
                103.941112638,16.241926028,0
                103.941212306,16.241850421,0
                103.941292081,16.2417504430001,0
                103.941334534,16.2416488580001,0
                103.941358996,16.2415476840001,0
                103.941377184,16.2415037920001,0
                103.941418648,16.2414655640001,0
                103.941518909,16.2414135450001,0
                103.941785645,16.241284363,0
                103.941819684,16.241257487,0
                103.941856107,16.241223104,0
                103.941894443,16.2411625930001,0
                103.94192003,16.2411061080001,0
                103.941927157,16.2410314250001,0
                103.94195136,16.2409712460001,0
                103.94200721,16.2409426180001,0
                103.942158769,16.240885674,0
                103.942348809,16.240825348,0
                103.942474414,16.2408099900001,0
                103.942578483,16.2408075590001,0
                103.942681578,16.240817572,0
                103.942828538,16.240884925,0
                103.942898,16.2409379480001,0
                103.943204483,16.24106119,0
                103.943381995,16.2411166590001,0
                103.943512294,16.2411347230001,0
                103.943622848,16.2411346260001,0
                103.943715075,16.2411212910001,0
                103.943836265,16.2410836830001,0
                103.944039879,16.241000684,0
                103.944124243,16.2409813250001,0
                103.944219162,16.2409728970001,0
                103.944471177,16.2409744550001,0
                103.944714629,16.240993605,0
                103.944948084,16.241024162,0
                103.945265653,16.2410254330001,0
                103.945544461,16.2410189140001,0
                103.945730757,16.2410145590001,0
                103.945877756,16.2410322320001,0
                103.946128161,16.241072332,0
                103.946239941,16.2410697180001,0
                103.946371844,16.2410492450001,0
                103.946462134,16.2410098770001,0
                103.946514745,16.2410061630001,0
                103.946585848,16.2410218840001,0
                103.946675587,16.2410632570001,0
                103.946780727,16.241206101,0
                103.946872463,16.241326911,0
                103.946927293,16.2413604000001,0
                103.94700169,16.2413536940001,0
                103.947095265,16.2413428130001,0
                103.947237321,16.241317135,0
                103.947318988,16.2412928700001,0
                103.947387745,16.241266421,0
                103.947600193,16.2411770000001,0
                103.947688382,16.2411563090001,0
                103.947752682,16.2411572890001,0
                103.947792099,16.241191143,0
                103.947820109,16.241231472,0
                103.947829089,16.2412821780001,0
                103.947910332,16.2415485390001,0
                103.947936804,16.241578964,0
                103.947982243,16.2415965340001,0
                103.948320566,16.241707842,0
                103.948362519,16.241740393,0
                103.948435935,16.241797048,0
                103.948527396,16.241855764,0
                103.948742634,16.241928967,0
                103.949102205,16.242067105,0
                103.949318314,16.242175063,0
                103.949570176,16.242324411,0
                103.950035968,16.242699752,0
                103.95011568,16.2427512890001,0
                103.950216394,16.2427688020001,0
                103.950279318,16.24276609,0
                103.950443529,16.2427523120001,0
                103.950501377,16.2427521980001,0
                103.950583068,16.2427800890001,0
                103.950626744,16.242829989,0
                103.950665622,16.24289366,0
                103.950683273,16.2430335830001,0
                103.950674987,16.24311326,0
                103.950614106,16.243453733,0
                103.950618441,16.2434932360001,0
                103.950644224,16.24353674,0
                103.950660279,16.243552009,0
                103.95081459,16.243707364,0
                103.950879139,16.24375766,0
                103.950932313,16.2437756250001,0
                103.951004354,16.243789857,0
                103.951178989,16.2438329620001,0
                103.951292077,16.243882474,0
                103.951621567,16.244000197,0
                103.951867649,16.2440726770001,0
                103.952161043,16.244186273,0
                103.952535037,16.2442843200001,0
                103.95262594,16.2443206930001,0
                103.952752147,16.2444319900001,0
                103.952994372,16.2447094790001,0
                103.953069274,16.244876628,0
                103.953100874,16.2450087730001,0
                103.953209278,16.245383781,0
                103.953318094,16.2457240040001,0
                103.95336677,16.245870654,0
                103.953534096,16.2461859090001,0
                103.953587318,16.246308856,0
                103.953635749,16.2464455750001,0
                103.95373513,16.246819551,0
                103.953922863,16.24738839,0
                103.953964929,16.247607209,0
                103.953928356,16.2477689940001,0
                103.953940219,16.24791787,0
                103.954038245,16.2481000540001,0
                103.954213036,16.2482647350001,0
                103.954344951,16.248340147,0
                103.954575505,16.248460349,0
                103.954657903,16.2485055170001,0
                103.954668486,16.2486034,0
                103.954670653,16.248689697,0
                103.954614371,16.248875495,0
                103.954619888,16.249095176,0
                103.954640857,16.2492830890001,0
                103.954686218,16.249309501,0
                103.954767826,16.249323287,0
                103.954937272,16.2494370700001,0
                103.955174749,16.249670936,0
                103.955296356,16.249821163,0
                103.955419851,16.2498849950001,0
                103.955682799,16.2500005100001,0
                103.955932968,16.2500927720001,0
                103.956016255,16.250173245,0
                103.956122309,16.250351317,0
                103.956205102,16.250412177,0
                103.956254321,16.250430647,0
                103.956315727,16.2504488330001,0
                103.956367317,16.2505614520001,0
                103.956395916,16.250729559,0
                103.956387086,16.250863221,0
                103.956329229,16.250986251,0
                103.956309989,16.251190808,0
                103.956291638,16.25143067,0
                103.956322702,16.251696845,0
                103.956418151,16.2519379660001,0
                103.956504496,16.252140045,0
                103.956588628,16.252577681,0
                103.956660407,16.253655399,0
                103.956742297,16.254068003,0
                103.956817771,16.254535377,0
                103.957045669,16.255946598,0
                103.957869121,16.2595364850001,0
                103.958019656,16.2599307410001,0
                103.958079294,16.2600566350001,0
                103.95809193,16.2600833000001,0
                103.958144904,16.2601437590001,0
                103.95832811,16.2602145700001,0
                103.958347172,16.2602202160001,0
                103.958458965,16.2602121800001,0
                103.958693612,16.260171348,0
                103.958790582,16.260126273,0
                103.95884497,16.260124997,0
                103.958896165,16.2601469680001,0
                103.959031761,16.2602065880001,0
                103.959145153,16.2602649150001,0
                103.959207717,16.2603657770001,0
                103.959214021,16.260368639,0
                103.959223175,16.260372794,0
                103.95926381,16.2603912430001,0
                103.959314612,16.2603900510001,0
                103.959387492,16.260348165,0
                103.959445959,16.260284304,0
                103.959556124,16.2602549370001,0
                103.959713143,16.260251252,0
                103.96011438,16.260309229,0
                103.960265224,16.2603310280001,0
                103.960412576,16.2603390310001,0
                103.960542359,16.2603487540001,0
                103.960735931,16.2603344950001,0
                103.960964176,16.260298606,0
                103.961057578,16.260296413,0
                103.961261815,16.260338716,0
                103.961282035,16.2603391110001,0
                103.961890481,16.2603248230001,0
                103.962166716,16.260289992,0
                103.962418004,16.2602644670001,0
                103.962583811,16.260233096,0
                103.962794691,16.260147623,0
                103.96288862,16.260135426,0
                103.963034379,16.260214666,0
                103.963185031,16.260226824,0
                103.963330337,16.2601880870001,0
                103.963520215,16.2601443770001,0
                103.963726432,16.260104207,0
                103.963859851,16.2600775230001,0
                103.963888672,16.2600925450001,0
                103.963918088,16.2601311060001,0
                103.963931953,16.260197507,0
                103.96393868,16.2603033230001,0
                103.964000877,16.260352889,0
                103.964135975,16.2603928880001,0
                103.964496104,16.26049433,0
                103.964652198,16.260561313,0
                103.964791454,16.2606051430001,0
                103.964901695,16.260626103,0
                103.965040655,16.2606581590001,0
                103.965316802,16.2606516700001,0
                103.96555273,16.260661827,0
                103.965687042,16.260670448,0
                103.965931486,16.260696103,0
                103.966205745,16.260776005,0
                103.96638729,16.2608855660001,0
                103.966606779,16.260888256,0
                103.966732275,16.2608696070001,0
                103.966833204,16.2608436830001,0
                103.966929579,16.2607982440001,0
                103.967052306,16.2606697580001,0
                103.967138386,16.260538205,0
                103.967221593,16.2604538260001,0
                103.967281912,16.260428857,0
                103.967375315,16.260426662,0
                103.967460788,16.2604325020001,0
                103.967561228,16.2603869650001,0
                103.967620859,16.2603345360001,0
                103.967693262,16.260305359,0
                103.967757842,16.260288143,0
                103.967846689,16.2602664290001,0
                103.967907998,16.2602806890001,0
                103.967962962,16.260365743,0
                103.968004562,16.2604040190001,0
                103.968078054,16.2604179890001,0
                103.968210284,16.26034423,0
                103.968338453,16.2602705670001,0
                103.968474547,16.260188865,0
                103.968594398,16.2601075490001,0
                103.968762187,16.259993701,0
                103.968849452,16.259909222,0
                103.968879472,16.2598103920001,0
                103.968901066,16.259699981,0
                103.968968816,16.259647366,0
                103.96905202,16.259562982,0
                103.969080349,16.259558391,0
                103.969157503,16.2595565770001,0
                103.969222478,16.259555049,0
                103.969282996,16.259537924,0
                103.969359663,16.259516498,0
                103.969383336,16.2594884650001,0
                103.969430284,16.2594167130001,0
                103.969514379,16.2593676330001,0
                103.969604016,16.259377301,0
                103.969670078,16.2594189230001,0
                103.969752679,16.259471927,0
                103.969827063,16.2595212040001,0
                103.969888071,16.2595236930001,0
                103.969945814,16.2595576630001,0
                103.970045252,16.2596338220001,0
                103.970095469,16.259691516,0
                103.970140929,16.259721848,0
                103.970189563,16.259716779,0
                103.970237203,16.259672482,0
                103.97029614,16.2595925970001,0
                103.970331599,16.2595485890001,0
                103.970349334,16.2594461190001,0
                103.970366376,16.2593161930001,0
                103.97037658,16.259237452,0
                103.970403524,16.2591779420001,0
                103.970459093,16.259125613,0
                103.970496436,16.258995209,0
                103.970566763,16.2588836530001,0
                103.970645806,16.2587954420001,0
                103.970742475,16.2587617670001,0
                103.970773974,16.2587217780001,0
                103.970816466,16.258634429,0
                103.970883325,16.258546503,0
                103.970990795,16.2584576290001,0
                103.971086377,16.258380802,0
                103.971218506,16.258303122,0
                103.971294873,16.258269925,0
                103.971317949,16.2582183550001,0
                103.971340831,16.258158941,0
                103.971350743,16.2580684330001,0
                103.97139769,16.257996679,0
                103.971469202,16.2579321960001,0
                103.971656633,16.257818539,0
                103.97191389,16.2577078200001,0
                103.971915314,16.2577076960001,0
                103.972568178,16.257410749,0
                103.973558076,16.257034721,0
                103.973875169,16.256914265,0
                103.975083811,16.256207654,0
                103.975204885,16.256132897,0
                103.980120712,16.2538331690001,0
                103.983470937,16.2524869530001,0
                103.986052926,16.2514717070001,0
                103.987741655,16.251023345,0
                103.989402548,16.2508125700001,0
                103.990182607,16.250833685,0
              </coordinates>
                
            </LinearRing>
            
          </outerBoundaryIs>
        
        </Polygon>
        
      <styleUrl>
        #tambonStyle</styleUrl>
    </Placemark>

  </Document>
</kml>