<?xml version="1.0" encoding="UTF-8"?>
<kml xmlns="http://www.opengis.net/kml/2.2">
  <Document id="tambon_doc">
    <name>โพงาม, สรรคบุรี, Chai Nat</name>
    <description>ข้อมูลขอบเขตตำบลโพงาม อำเภอสรรคบุรี จังหวัดChai Nat</description>
    
    <!-- Schema สำหรับข้อมูลตำบล -->
    <Schema id="tambon.schema">
      <SimpleField name="ADM3_EN" type="string">
        <displayName>Subdistrict Name (English)</displayName>
      </SimpleField>
      <SimpleField name="ADM3_TH" type="string">
        <displayName>ชื่อตำบล</displayName>
      </SimpleField>
      <SimpleField name="ADM2_EN" type="string">
        <displayName>District Name (English)</displayName>
      </SimpleField>
      <SimpleField name="ADM2_TH" type="string">
        <displayName>ชื่ออำเภอ</displayName>
      </SimpleField>
      <SimpleField name="ADM1_EN" type="string">
        <displayName>Province Name (English)</displayName>
      </SimpleField>
      <SimpleField name="ADM1_TH" type="string">
        <displayName>ชื่อจังหวัด</displayName>
      </SimpleField>
      <SimpleField name="ADM0_EN" type="string">
        <displayName>Country Name (English)</displayName>
      </SimpleField>
      <SimpleField name="ADM0_TH" type="string">
        <displayName>ชื่อประเทศ</displayName>
      </SimpleField>
    </Schema>

    <!-- Style สำหรับตำบล -->
    <Style id="tambonStyle">
      <LineStyle>
        <color>ffff0000</color>
        <width>1.5</width>
      </LineStyle>
      <PolyStyle>
        <color>33ff0000</color>
        <fill>1</fill>
        <outline>1</outline>
      </PolyStyle>
    </Style>

    <Placemark id="Chai_Nat.34">
        
        <ExtendedData>
            
          <SchemaData schemaUrl="#tambon.schema">
                
            <SimpleData name="Shape_Leng">
                0.445392246491</SimpleData>
                
            <SimpleData name="Shape_Area">
                0.00348384849069</SimpleData>
                
            <SimpleData name="ADM3_EN">
                Pho Ngam</SimpleData>
                
            <SimpleData name="ADM3_TH">
                โพงาม</SimpleData>
                
            <SimpleData name="ADM3_PCODE">
                TH180504</SimpleData>
                
            <SimpleData name="ADM2_EN">
                Sankhaburi</SimpleData>
                
            <SimpleData name="ADM2_TH">
                สรรคบุรี</SimpleData>
                
            <SimpleData name="ADM2_PCODE">
                TH1805</SimpleData>
                
            <SimpleData name="ADM1_EN">
                Chai Nat</SimpleData>
                
            <SimpleData name="ADM1_TH">
                ชัยนาท</SimpleData>
                
            <SimpleData name="ADM1_PCODE">
                TH18</SimpleData>
                
            <SimpleData name="ADM0_EN">
                Thailand</SimpleData>
                
            <SimpleData name="ADM0_TH">
                ประเทศไทย</SimpleData>
                
            <SimpleData name="ADM0_PCODE">
                TH</SimpleData>
            
          </SchemaData>
        
        </ExtendedData>
        
        <Polygon>
            
          <outerBoundaryIs>
                
            <LinearRing>
                    
              <coordinates>
                    
                100.229855998,15.049090791,0
                100.229885016,15.0490380310001,0
                100.230015453,15.048800876,0
                100.230283977,15.0483026360001,0
                100.230551986,15.0478094910001,0
                100.230860504,15.0472589250001,0
                100.231271515,15.046529046,0
                100.231668508,15.045830273,0
                100.232132465,15.0450518260001,0
                100.232294388,15.0448233400001,0
                100.23244236,15.0446363130001,0
                100.232611464,15.044421582,0
                100.232770136,15.0442448420001,0
                100.232932459,15.044085329,0
                100.233119662,15.0439325730001,0
                100.233374126,15.0437518640001,0
                100.234010447,15.0433276790001,0
                100.234614988,15.0429312540001,0
                100.235445635,15.042361171,0
                100.23640357,15.0417110720001,0
                100.237269616,15.041126992,0
                100.238107331,15.040553414,0
                100.238662332,15.040184837,0
                100.239135558,15.0398571690001,0
                100.239639148,15.039517061,0
                100.239800627,15.039408,0
                100.240500185,15.0389212900001,0
                100.240788809,15.038723615,0
                100.23661968,15.040109451,0
                100.236620895,15.039786619,0
                100.23662652,15.0382921130001,0
                100.23451438,15.0383372530001,0
                100.234559369,15.0401374850001,0
                100.218742945,15.044283996,0
                100.218742955,15.0442668380001,0
                100.218744,15.0424810370001,0
                100.218676172,15.0406102690001,0
                100.2196531,15.0406002990001,0
                100.219782168,15.0405989810001,0
                100.21971632,15.0387676330001,0
                100.222255277,15.038703965,0
                100.222244527,15.036816614,0
                100.222351324,15.0368123320001,0
                100.222287122,15.035111973,0
                100.223397257,15.035044327,0
                100.223279149,15.0332137350001,0
                100.221937659,15.033261861,0
                100.221887714,15.033235083,0
                100.221265688,15.032703693,0
                100.222249771,15.0310570680001,0
                100.222349451,15.0311159460001,0
                100.224795833,15.028093132,0
                100.225597286,15.0271028120001,0
                100.22414514,15.0251915470001,0
                100.223943972,15.024909168,0
                100.224728734,15.0249091790001,0
                100.225388229,15.0249153020001,0
                100.226167147,15.024915939,0
                100.226786827,15.0249222730001,0
                100.227627965,15.0249249880001,0
                100.228389489,15.0249305470001,0
                100.228936988,15.0249348470001,0
                100.229713416,15.0249354860001,0
                100.230186276,15.024942604,0
                100.230614277,15.0249378670001,0
                100.231064575,15.024916079,0
                100.231417773,15.024885145,0
                100.231708751,15.02485455,0
                100.232076697,15.0247920910001,0
                100.232585041,15.0246784180001,0
                100.232630929,15.0246681580001,0
                100.233125408,15.024539711,0
                100.233394861,15.024452721,0
                100.233689252,15.0243576770001,0
                100.234064259,15.024225041,0
                100.234801812,15.0239574130001,0
                100.235173346,15.0237372120001,0
                100.23528621,15.0235835290001,0
                100.235402619,15.023285259,0
                100.235545935,15.0231016450001,0
                100.23568908,15.0228882690001,0
                100.235788893,15.0227474110001,0
                100.236015306,15.0225590950001,0
                100.236150704,15.0225200900001,0
                100.236307634,15.0224214420001,0
                100.236516596,15.022241724,0
                100.236768962,15.0220022410001,0
                100.236968585,15.021720526,0
                100.237124827,15.021502825,0
                100.237181185,15.021413228,0
                100.237219677,15.021259947,0
                100.237232066,15.021132321,0
                100.237253254,15.021013151,0
                100.237283682,15.0209789690001,0
                100.23735358,15.0209615810001,0
                100.237861663,15.021065116,0
                100.238172834,15.021161217,0
                100.238470611,15.021210619,0
                100.238768291,15.0212430130001,0
                100.239074965,15.021317878,0
                100.239412238,15.0213883230001,0
                100.239618293,15.021463736,0
                100.239806874,15.0215434950001,0
                100.239956033,15.021614965,0
                100.240021974,15.021669881,0
                100.24005321,15.0217760100001,0
                100.240132889,15.02193715,0
                100.240216802,15.0220397570001,0
                100.240326754,15.022174202,0
                100.240353469,15.022254844,0
                100.240394585,15.022556509,0
                100.240409404,15.022849814,0
                100.240385512,15.0232581330001,0
                100.24034417,15.0236750500001,0
                100.240324088,15.023985553,0
                100.24032947,15.0241598540001,0
                100.240348147,15.024363846,0
                100.240397424,15.02456342,0
                100.240463563,15.0246523500001,0
                100.240678297,15.0247149580001,0
                100.241072572,15.0248063490001,0
                100.241335356,15.024855938,0
                100.241527897,15.0248633900001,0
                100.241737914,15.0248664960001,0
                100.242004507,15.024818268,0
                100.242318953,15.024723007,0
                100.242707353,15.024555059,0
                100.243392549,15.0242664310001,0
                100.243850895,15.024089594,0
                100.244453459,15.023886455,0
                100.244911753,15.0237011130001,0
                100.245195203,15.0235422390001,0
                100.245417084,15.023328426,0
                100.24558632,15.0230893890001,0
                100.245741889,15.022756885,0
                100.245901709,15.0224030970001,0
                100.246005297,15.022160168,0
                100.246039432,15.0220111630001,0
                100.246038051,15.02177306,0
                100.245991961,15.021369378,0
                100.245946264,15.0210337230001,0
                100.245875578,15.020915056,0
                100.245774269,15.0207965560001,0
                100.245620291,15.020648581,0
                100.245308403,15.020429188,0
                100.245132847,15.0203323540001,0
                100.244677088,15.020198786,0
                100.244300024,15.020056282,0
                100.243988853,15.0199601900001,0
                100.243725681,15.0198425740001,0
                100.243488536,15.019686548,0
                100.243145979,15.0194588160001,0
                100.242877843,15.0192391790001,0
                100.242688624,15.0190488740001,0
                100.242573677,15.0188411570001,0
                100.242502526,15.0186417030001,0
                100.242505868,15.0184631020001,0
                100.242544306,15.0183013180001,0
                100.242630914,15.0181477740001,0
                100.242782995,15.017968361,0
                100.242956925,15.0177845760001,0
                100.243222624,15.017583283,0
                100.243501545,15.0173989240001,0
                100.243724161,15.0173126670001,0
                100.244077992,15.0172214410001,0
                100.244536863,15.0171381440001,0
                100.244886516,15.017080955,0
                100.245275688,15.0170490620001,0
                100.245678132,15.0170426070001,0
                100.246163669,15.0170314430001,0
                100.246675331,15.0169988760001,0
                100.247073301,15.0169754350001,0
                100.247296384,15.0169699590001,0
                100.247427722,15.016986248,0
                100.247519936,15.0170452690001,0
                100.247661035,15.0172358340001,0
                100.247917161,15.017646868,0
                100.248102304,15.017888213,0
                100.248547457,15.0184555320001,0
                100.248815992,15.0187431900001,0
                100.249009635,15.0188866870001,0
                100.249123555,15.018971107,0
                100.249334554,15.0191442780001,0
                100.249461791,15.0192073580001,0
                100.249602028,15.0192491080001,0
                100.249724496,15.0192441830001,0
                100.249881836,15.019217806,0
                100.250052078,15.0191530910001,0
                100.250300743,15.0190326700001,0
                100.25051431,15.0188954340001,0
                100.250714679,15.018745514,0
                100.25087538,15.018544789,0
                100.250976607,15.018390663,0
                100.251062523,15.0182484810001,0
                100.251144504,15.0180877450001,0
                100.251176498,15.018027105,0
                100.251208313,15.017935027,0
                100.251249193,15.0176905270001,0
                100.251270489,15.017501764,0
                100.251271879,15.01731311,0
                100.251264728,15.017217036,0
                100.251252983,15.017059268,0
                100.251222098,15.0168315380001,0
                100.251213983,15.016771674,0
                100.25120196,15.016714415,0
                100.251157678,15.0165035260001,0
                100.251088872,15.0162257690001,0
                100.251015411,15.0160036680001,0
                100.250828885,15.0155935390001,0
                100.250634906,15.015185871,0
                100.250499004,15.0149229940001,0
                100.250375764,15.014734216,0
                100.250250436,15.0145422310001,0
                100.25016711,15.014414646,0
                100.250144985,15.0143807650001,0
                100.250139383,15.014370028,0
                100.250088027,15.014271599,0
                100.250084588,15.0142650060001,0
                100.250046593,15.0141491260001,0
                100.250046076,15.0141459600001,0
                100.249994981,15.013832581,0
                100.249966081,15.0135696900001,0
                100.249947687,15.013402339,0
                100.249923265,15.013207009,0
                100.249918983,15.0131727350001,0
                100.249907759,15.012955123,0
                100.249909459,15.0128196790001,0
                100.249931123,15.0126937950001,0
                100.249962669,15.0126040160001,0
                100.24997029,15.0125823220001,0
                100.249991387,15.0125473900001,0
                100.250024516,15.012492539,0
                100.250113473,15.012385636,0
                100.250331386,15.0122030480001,0
                100.250715185,15.011876849,0
                100.250939702,15.0116929000001,0
                100.250967794,15.0116698840001,0
                100.250995372,15.0116514600001,0
                100.251168571,15.0115357610001,0
                100.251595261,15.0113109070001,0
                100.251964943,15.0111250620001,0
                100.252391458,15.010871185,0
                100.252605447,15.0107406010001,0
                100.252887366,15.010568558,0
                100.253405693,15.0102706430001,0
                100.253872033,15.010018964,0
                100.254179508,15.0098334580001,0
                100.254360471,15.00971637,0
                100.25448668,15.0095971640001,0
                100.254585406,15.0094587670001,0
                100.254661696,15.0093132330001,0
                100.254730238,15.009119367,0
                100.254847258,15.008705148,0
                100.254908196,15.0084871490001,0
                100.254984287,15.0083077530001,0
                100.255053249,15.008186445,0
                100.255152146,15.0080770660001,0
                100.255352745,15.0079139160001,0
                100.255608143,15.0077601420001,0
                100.255957954,15.007581655,0
                100.256176408,15.0074933820001,0
                100.256345369,15.0074513330001,0
                100.256559228,15.0074283860001,0
                100.256837952,15.0074341050001,0
                100.257094437,15.007466546,0
                100.257378475,15.0075302770001,0
                100.257610308,15.0076015550001,0
                100.257809929,15.007697196,0
                100.258012239,15.0078266780001,0
                100.258199694,15.007968336,0
                100.258362233,15.008105291,0
                100.258542308,15.008261503,0
                100.258649968,15.008374578,0
                100.258737694,15.008482929,0
                100.258802925,15.008574471,0
                100.258868258,15.0086829430001,0
                100.258953834,15.00884935,0
                100.259034881,15.00899006,0
                100.25909964,15.009102494,0
                100.259180097,15.0092447440001,0
                100.259282937,15.009384449,0
                100.259430891,15.009579532,0
                100.259641463,15.009844408,0
                100.259821836,15.010051404,0
                100.26004202,15.010258182,0
                100.260269487,15.010433472,0
                100.260494341,15.010587017,0
                100.260696931,15.010716674,0
                100.26074161,15.0107452670001,0
                100.260928799,15.0108409710001,0
                100.261085996,15.010915078,0
                100.261320375,15.0109960090001,0
                100.261549725,15.0110672910001,0
                100.261756506,15.0111096790001,0
                100.262050358,15.0111491660001,0
                100.26224712,15.0111795180001,0
                100.262406567,15.0112124890001,0
                100.262556162,15.0112624510001,0
                100.262695847,15.011319724,0
                100.262717318,15.01132841,0
                100.262890399,15.0113984550001,0
                100.263059943,15.0114555550001,0
                100.263193779,15.0114965500001,0
                100.263199538,15.011498315,0
                100.263364022,15.011540939,0
                100.263525917,15.0115666410001,0
                100.263814766,15.011601317,0
                100.264180754,15.011635561,0
                100.264531789,15.011665054,0
                100.264912608,15.011682283,0
                100.265191306,15.011683152,0
                100.26541765,15.0116673810001,0
                100.265760774,15.011621941,0
                100.266096209,15.0115378420001,0
                100.266605249,15.011356038,0
                100.266989985,15.011194274,0
                100.267314894,15.0110134930001,0
                100.267691627,15.0107598660001,0
                100.267971556,15.010547896,0
                100.268152259,15.010387263,0
                100.268169629,15.010365211,0
                100.268288099,15.010214789,0
                100.268381669,15.0100473910001,0
                100.268455214,15.0098607520001,0
                100.26849929,15.009694876,0
                100.268511206,15.0096500280001,0
                100.268530521,15.0094880790001,0
                100.268544402,15.009371709,0
                100.268561529,15.009074674,0
                100.268569232,15.008941071,0
                100.268595244,15.0087111660001,0
                100.268635932,15.008437644,0
                100.268703288,15.0080454650001,0
                100.268758237,15.007658196,0
                100.268800643,15.0072540620001,0
                100.268835424,15.0068233690001,0
                100.26885163,15.0066177,0
                100.268897692,15.006411868,0
                100.26896356,15.0061889990001,0
                100.269019238,15.0060421260001,0
                100.269147323,15.005704264,0
                100.26932606,15.005212306,0
                100.269328125,15.005206511,0
                100.269414183,15.004965123,0
                100.269489287,15.0046212710001,0
                100.26956877,15.0041758190001,0
                100.26962646,15.0038320640001,0
                100.269650514,15.003691654,0
                100.269672519,15.0036262290001,0
                100.269709402,15.003551052,0
                100.269770965,15.0034418720001,0
                100.269821966,15.003353755,0
                100.269931064,15.0031652660001,0
                100.270179884,15.0027430550001,0
                100.270342433,15.002459177,0
                100.270374348,15.002394823,0
                100.270453085,15.002236053,0
                100.270537667,15.002027045,0
                100.270546276,15.0020057730001,0
                100.270636781,15.0017416490001,0
                100.270768541,15.001300739,0
                100.270836896,15.0010778540001,0
                100.270925069,15.000840344,0
                100.271062689,15.00054935,0
                100.271153691,15.0003698680001,0
                100.271269177,15.000122537,0
                100.271387064,14.999860676,0
                100.271446164,14.9997563490001,0
                100.271520307,14.9996712880001,0
                100.27166392,14.999551974,0
                100.272043041,14.9992862340001,0
                100.272575887,14.998927732,0
                100.27289811,14.9987179390001,0
                100.273083856,14.9985717870001,0
                100.273170486,14.99849391,0
                100.273266848,14.9983797030001,0
                100.273368087,14.9982485350001,0
                100.273489203,14.9981124190001,0
                100.273769084,14.997895606,0
                100.274046708,14.9977175,0
                100.274215181,14.9975956260001,0
                100.274366166,14.9974617660001,0
                100.274502109,14.997308638,0
                100.274672453,14.9970827610001,0
                100.274825327,14.9968473060001,0
                100.274950109,14.996574523,0
                100.275006981,14.9964310290001,0
                100.275055772,14.9962662940001,0
                100.275067151,14.996171423,0
                100.275062656,14.996084382,0
                100.275046294,14.9960109510001,0
                100.275017972,14.995933714,0
                100.275013832,14.9959066530001,0
                100.275027636,14.995885292,0
                100.275061395,14.9958715600001,0
                100.275123049,14.995862506,0
                100.275205302,14.9958594670001,0
                100.275332693,14.995858754,0
                100.275419353,14.9958406380001,0
                100.275372075,14.9956336390001,0
                100.275276853,14.9952241550001,0
                100.27518411,14.994813596,0
                100.275104753,14.994443861,0
                100.275048618,14.9941244680001,0
                100.275020432,14.993930983,0
                100.274994563,14.993537928,0
                100.274982112,14.993269716,0
                100.27496783,14.993089372,0
                100.274969693,14.9929933540001,0
                100.274977501,14.992901929,0
                100.274997473,14.992801114,0
                100.275020953,14.9927013830001,0
                100.27503982,14.992639259,0
                100.275070775,14.9925722940001,0
                100.275114965,14.992497112,0
                100.27514481,14.992448843,0
                100.275258383,14.99231237,0
                100.275369796,14.9922028170001,0
                100.275455008,14.992146093,0
                100.275589597,14.9920704100001,0
                100.275903171,14.9919139940001,0
                100.276183072,14.9917742120001,0
                100.276365448,14.991677376,0
                100.276613148,14.9915504300001,0
                100.276716582,14.991507643,0
                100.276870412,14.9914482140001,0
                100.276997992,14.9914124360001,0
                100.277147192,14.99137405,0
                100.277278305,14.9913428850001,0
                100.277408369,14.991322268,0
                100.277522783,14.9913075920001,0
                100.277658839,14.99129391,0
                100.277790148,14.9912849560001,0
                100.27791665,14.9912854340001,0
                100.278220479,14.991308313,0
                100.278350808,14.991311916,0
                100.278952147,14.991353453,0
                100.279282524,14.991377368,0
                100.279400393,14.99138522,0
                100.279588661,14.9913979,0
                100.279940702,14.991425211,0
                100.280445841,14.991456246,0
                100.280783827,14.991473404,0
                100.28111928,14.991513594,0
                100.281367528,14.991544349,0
                100.281599478,14.9916153830001,0
                100.281890121,14.9918227250001,0
                100.282081304,14.9919904400001,0
                100.282298345,14.9923348350001,0
                100.282881887,14.9931272740001,0
                100.283156812,14.9934713430001,0
                100.283422174,14.993598449,0
                100.283679077,14.993693453,0
                100.283943577,14.9936758870001,0
                100.284199712,14.9936422930001,0
                100.284570841,14.9934794490001,0
                100.28513181,14.9932592690001,0
                100.285610381,14.9930877790001,0
                100.286188079,14.992899654,0
                100.286077571,14.9910114410001,0
                100.285906535,14.9900639680001,0
                100.285811694,14.9894134580001,0
                100.28565835,14.9886587880001,0
                100.28563951,14.9882730890001,0
                100.285671432,14.9880800070001,0
                100.286894679,14.986029789,0
                100.287520522,14.98498332,0
                100.28811917,14.9840294200001,0
                100.288253752,14.9838149730001,0
                100.288681675,14.983052587,0
                100.288272271,14.982739596,0
                100.28867679,14.9822360540001,0
                100.288799557,14.9819038860001,0
                100.288151003,14.981931806,0
                100.288256847,14.981551224,0
                100.288280733,14.981373224,0
                100.288230012,14.98123607,0
                100.288162802,14.981123263,0
                100.288519063,14.979504299,0
                100.288585016,14.979406908,0
                100.288751153,14.979373631,0
                100.289158761,14.9793874960001,0
                100.289291826,14.9793867430001,0
                100.289457771,14.979321127,0
                100.28970596,14.9791014350001,0
                100.289821279,14.978914833,0
                100.28991097,14.97861519,0
                100.289941623,14.97817844,0
                100.290171144,14.977619293,0
                100.290460236,14.977286183,0
                100.291180088,14.976667666,0
                100.291179846,14.976627244,0
                100.290754206,14.9763790260001,0
                100.290287227,14.976171465,0
                100.289462497,14.975941672,0
                100.289320876,14.9759020490001,0
                100.288762322,14.9756788330001,0
                100.288119976,14.9753509870001,0
                100.287844375,14.97515851,0
                100.287510946,14.9750310360001,0
                100.28724487,14.975040623,0
                100.287203288,14.9750408580001,0
                100.287202853,14.974968097,0
                100.287166884,14.9745155530001,0
                100.287097311,14.974006606,0
                100.287143588,14.9733999870001,0
                100.287164144,14.972664158,0
                100.287205532,14.972631585,0
                100.287380465,14.972679106,0
                100.287430362,14.9726788240001,0
                100.287480018,14.972638121,0
                100.287633489,14.971877287,0
                100.287927368,14.970953964,0
                100.287951545,14.9708244710001,0
                100.287967211,14.9706626870001,0
                100.28820471,14.9700469050001,0
                100.288319204,14.9697228680001,0
                100.288302282,14.969674454,0
                100.288060629,14.969594972,0
                100.287133799,14.969253366,0
                100.287097984,14.9691762350001,0
                100.287134602,14.9690594190001,0
                100.287241689,14.968452207,0
                100.287373051,14.967698097,0
                100.287445495,14.967188923,0
                100.287473763,14.9668658900001,0
                100.287457232,14.9666262750001,0
                100.287394837,14.966289079,0
                100.287358354,14.9660789270001,0
                100.287362537,14.9659370370001,0
                100.28740183,14.965775378,0
                100.28744098,14.965589261,0
                100.287453093,14.9654508240001,0
                100.287464534,14.965320069,0
                100.287482964,14.965036227,0
                100.28751149,14.964757224,0
                100.287525158,14.9645174390001,0
                100.287502955,14.9641702340001,0
                100.287496232,14.963886533,0
                100.287519931,14.963641802,0
                100.287613315,14.963269482,0
                100.287687218,14.963004896,0
                100.287704217,14.9629628700001,0
                100.287756639,14.9628332840001,0
                100.287811294,14.962715567,0
                100.287820857,14.962632349,0
                100.287830365,14.9625393490001,0
                100.287809016,14.962334006,0
                100.287761565,14.961972266,0
                100.287745009,14.961727755,0
                100.287754023,14.9615515940001,0
                100.287812756,14.961327915,0
                100.28786545,14.961146001,0
                100.287909389,14.960920109,0
                100.287931524,14.960834676,0
                100.287970755,14.9607684150001,0
                100.288004393,14.960713189,0
                100.288032135,14.960619477,0
                100.288059406,14.9604459600001,0
                100.288089241,14.960228403,0
                100.288085571,14.960088086,0
                100.288065184,14.959991889,0
                100.288036356,14.9599039940001,0
                100.288001997,14.9598381480001,0
                100.287950657,14.959772398,0
                100.287885292,14.959728736,0
                100.287814353,14.959698868,0
                100.287669806,14.9596666620001,0
                100.287613016,14.9596367140001,0
                100.287570214,14.9595791680001,0
                100.287535858,14.9595133220001,0
                100.287515323,14.959392356,0
                100.287494002,14.9591393160001,0
                100.287472942,14.958930304,0
                100.287444874,14.9587804920001,0
                100.287403037,14.958600215,0
                100.287297491,14.95836746,0
                100.28719664,14.958163299,0
                100.287164548,14.9580974350001,0
                100.287143602,14.958002891,0
                100.28714088,14.9579258570001,0
                100.287158372,14.957822295,0
                100.287198307,14.957683381,0
                100.28727429,14.9575156450001,0
                100.287381875,14.957330122,0
                100.287442564,14.957254934,0
                100.28750116,14.9572083730001,0
                100.287613941,14.9571350910001,0
                100.287798995,14.95703058,0
                100.287956953,14.956939434,0
                100.288101396,14.9568593660001,0
                100.288173575,14.9568127310001,0
                100.288223113,14.9567662210001,0
                100.288279249,14.9566866530001,0
                100.288344229,14.956571813,0
                100.288458369,14.9563466280001,0
                100.288341832,14.9562984630001,0
                100.288181826,14.956218946,0
                100.287959531,14.956096702,0
                100.287657333,14.955951928,0
                100.287177428,14.95573061,0
                100.28703812,14.9556538470001,0
                100.286966878,14.9555968020001,0
                100.286925246,14.955551088,0
                100.286874804,14.955514033,0
                100.286590506,14.9553978770001,0
                100.286173119,14.9552566250001,0
                100.28582388,14.955149455,0
                100.285542813,14.9550792310001,0
                100.285131674,14.9549953800001,0
                100.284572784,14.9549037470001,0
                100.284215009,14.954851192,0
                100.283981394,14.954812292,0
                100.283535029,14.954765976,0
                100.282990927,14.9546771290001,0
                100.282831112,14.954629201,0
                100.282671116,14.954549682,0
                100.282089958,14.954191058,0
                100.281731038,14.9539460670001,0
                100.28136904,14.9536781250001,0
                100.280992209,14.953401641,0
                100.280686729,14.9531994320001,0
                100.2803751,14.952957054,0
                100.280131688,14.952760241,0
                100.279760691,14.9524693660001,0
                100.279662795,14.952400981,0
                100.279487957,14.9523100500001,0
                100.278785851,14.951977948,0
                100.278427642,14.9518212880001,0
                100.278306029,14.9517680970001,0
                100.27778804,14.951598667,0
                100.277201992,14.951409513,0
                100.27630421,14.950957864,0
                100.275726567,14.950691111,0
                100.275537084,14.950620368,0
                100.27516419,14.950507567,0
                100.275013347,14.950476811,0
                100.274859731,14.9504776680001,0
                100.274623608,14.9505134550001,0
                100.274405349,14.950572116,0
                100.274119038,14.9506139210001,0
                100.273918435,14.950660995,0
                100.273803517,14.9507104620001,0
                100.273691463,14.950745555,0
                100.273552689,14.950757814,0
                100.273283884,14.950762185,0
                100.273080018,14.9507575800001,0
                100.272938412,14.9507899610001,0
                100.27283232,14.9508336320001,0
                100.272735102,14.95088013,0
                100.272622948,14.9508975090001,0
                100.272394678,14.9509294150001,0
                100.272146649,14.9509499490001,0
                100.271981352,14.9509738410001,0
                100.271831954,14.951020629,0
                100.271741474,14.951040284,0
                100.271662696,14.9510407230001,0
                100.271508743,14.9509841330001,0
                100.271287568,14.950881969,0
                100.271070122,14.9507453140001,0
                100.270722608,14.95059407,0
                100.270525308,14.9505338980001,0
                100.270154747,14.9504823410001,0
                100.269886576,14.9504263920001,0
                100.269650114,14.9504047290001,0
                100.26939799,14.950398469,0
                100.26908293,14.950407881,0
                100.26886045,14.950414148,0
                100.268744241,14.950417424,0
                100.268618331,14.950441099,0
                100.268535663,14.950449216,0
                100.268444916,14.950422917,0
                100.268362135,14.9504118850001,0
                100.268161347,14.950428317,0
                100.26787404,14.9504682100001,0
                100.26770474,14.9504806370001,0
                100.267625876,14.9504657580001,0
                100.267523105,14.950405056,0
                100.267361033,14.950306385,0
                100.267210889,14.9502267990001,0
                100.267013342,14.950124499,0
                100.266906771,14.9500867960001,0
                100.266725452,14.950064823,0
                100.266445668,14.9500433970001,0
                100.266099102,14.9500529800001,0
                100.265902095,14.950042581,0
                100.265689155,14.950001641,0
                100.265322377,14.9499232540001,0
                100.264928185,14.949871821,0
                100.264459359,14.9498552700001,0
                100.263994538,14.949850181,0
                100.26387889,14.949853267,0
                100.263632218,14.9498598480001,0
                100.263200096,14.949859738,0
                100.263150133,14.950225614,0
                100.263102113,14.950529562,0
                100.263045249,14.950868761,0
                100.262961325,14.951225719,0
                100.262832755,14.951688549,0
                100.262690101,14.952106413,0
                100.262628024,14.95228824,0
                100.262485458,14.9526807300001,0
                100.26229845,14.953214299,0
                100.262116093,14.953769853,0
                100.261862055,14.9544534340001,0
                100.261770509,14.954698251,0
                100.261697134,14.9548944580001,0
                100.261581033,14.9551679750001,0
                100.261455669,14.9554063260001,0
                100.261312101,14.9556271770001,0
                100.261203528,14.9557644880001,0
                100.26112336,14.9558658830001,0
                100.260862115,14.956091782,0
                100.260443046,14.956424186,0
                100.259874798,14.956792616,0
                100.259373986,14.9570814520001,0
                100.258836954,14.9573704910001,0
                100.258159694,14.9576779020001,0
                100.257595269,14.9579274750001,0
                100.257053504,14.958181328,0
                100.255957286,14.958843131,0
                100.255758794,14.958963055,0
                100.255641633,14.959056122,0
                100.255556312,14.959175423,0
                100.255502963,14.959342958,0
                100.255454548,14.9595808870001,0
                100.255385294,14.9601270110001,0
                100.255343558,14.9607346,0
                100.255322373,14.961063112,0
                100.255310339,14.961249719,0
                100.255284994,14.961562341,0
                100.255220242,14.9621040370001,0
                100.255207606,14.9622669510001,0
                100.255217661,14.9624385400001,0
                100.255236716,14.9626012790001,0
                100.255269432,14.9627771450001,0
                100.255371305,14.9631682880001,0
                100.255466799,14.963523294,0
                100.255533259,14.9637703540001,0
                100.255565766,14.963911013,0
                100.255611806,14.964042793,0
                100.255693959,14.96415677,0
                100.255790101,14.9642522660001,0
                100.255830563,14.964292454,0
                100.256048654,14.96442769,0
                100.25639358,14.964575428,0
                100.25676562,14.9647142170001,0
                100.25708305,14.9648048920001,0
                100.257472757,14.9648687640001,0
                100.257880242,14.9648753220001,0
                100.258242225,14.964842516,0
                100.258680961,14.9647740780001,0
                100.259155686,14.9646658340001,0
                100.259802122,14.9645038240001,0
                100.260073437,14.964449514,0
                100.260304158,14.964421831,0
                100.260575756,14.964415929,0
                100.260824791,14.964423358,0
                100.261141892,14.9644568140001,0
                100.261608557,14.964520253,0
                100.26203909,14.9645970930001,0
                100.262451695,14.964704838,0
                100.262764701,14.9648131330001,0
                100.263050858,14.964974393,0
                100.263305427,14.965153432,0
                100.263519309,14.9653414950001,0
                100.263724672,14.965622033,0
                100.264040187,14.966157222,0
                100.264227939,14.966521475,0
                100.264342714,14.9667937090001,0
                100.264430613,14.9671145070001,0
                100.264481931,14.967373891,0
                100.264548227,14.9678708500001,0
                100.264600867,14.968354682,0
                100.26462042,14.9686010400001,0
                100.264608488,14.968882776,0
                100.264564872,14.969164693,0
                100.264503169,14.9694511070001,0
                100.264396427,14.969777386,0
                100.264284799,14.97004207,0
                100.264177307,14.9702407180001,0
                100.264028998,14.9704263900001,0
                100.26385779,14.970568171,0
                100.263609522,14.97069278,0
                100.263401658,14.9707599500001,0
                100.263039873,14.970827967,0
                100.262428938,14.9708709600001,0
                100.261813324,14.970887572,0
                100.261025495,14.9708743200001,0
                100.260264728,14.9708433160001,0
                100.259816569,14.970850194,0
                100.259477208,14.970882874,0
                100.259384753,14.9708995010001,0
                100.259174201,14.9709373630001,0
                100.258844179,14.971018406,0
                100.258537024,14.971138932,0
                100.258266218,14.971281259,0
                100.258054209,14.9714144660001,0
                100.257725166,14.971662743,0
                100.257445469,14.9719037780001,0
                100.257324249,14.972008241,0
                100.257031627,14.9722915290001,0
                100.256775164,14.9725658130001,0
                100.256514638,14.97291934,0
                100.256254219,14.973290471,0
                100.256011749,14.973635093,0
                100.255869303,14.973805714,0
                100.255661059,14.9740551350001,0
                100.255372883,14.974325191,0
                100.255084342,14.9745336350001,0
                100.254831587,14.9746670590001,0
                100.254619291,14.9747518510001,0
                100.254406819,14.9748058320001,0
                100.25418964,14.9748290320001,0
                100.25395422,14.9748303270001,0
                100.253591763,14.974783905,0
                100.253192747,14.974680473,0
                100.25267567,14.974516067,0
                100.252149205,14.9742945020001,0
                100.25165886,14.974055128,0
                100.251241329,14.973881373,0
                100.250905676,14.9737731870001,0
                100.250279922,14.9736049740001,0
                100.249980768,14.973544997,0
                100.249763309,14.9735197800001,0
                100.249546105,14.973538574,0
                100.249315469,14.9735838500001,0
                100.249075985,14.973664383,0
                100.248800513,14.9737847230001,0
                100.248313023,14.9740382570001,0
                100.247739899,14.9743582780001,0
                100.247144285,14.9747048240001,0
                100.246729077,14.9749315560001,0
                100.246372467,14.975113949,0
                100.245794351,14.9753547710001,0
                100.245369702,14.9755155330001,0
                100.245076244,14.9756579740001,0
                100.244837112,14.9758001170001,0
                100.244616342,14.9759861690001,0
                100.244377794,14.9762295360001,0
                100.244071994,14.9765877,0
                100.244005552,14.976668653,0
                100.243865185,14.976839694,0
                100.243600261,14.977219636,0
                100.243294941,14.9776614200001,0
                100.243102172,14.977992558,0
                100.243026219,14.9781690180001,0
                100.242950575,14.97839829,0
                100.242835403,14.9788390370001,0
                100.242720434,14.9793149860001,0
                100.24257438,14.979896739,0
                100.242463913,14.980368266,0
                100.242397345,14.980601891,0
                100.242308145,14.980835638,0
                100.242151564,14.9811621760001,0
                100.241993218,14.9814970850001,0
                100.241796996,14.982015731,0
                100.241557676,14.982597992,0
                100.241414583,14.98290861,0
                100.241213641,14.9832371520001,0
                100.24077537,14.9838662660001,0
                100.240304503,14.984495553,0
                100.239991781,14.9849127270001,0
                100.23977574,14.9851357200001,0
                100.239584646,14.98528816,0
                100.239443894,14.9853769470001,0
                100.2393971,14.985399452,0
                100.239295796,14.9854481690001,0
                100.23911852,14.985484346,0
                100.238908465,14.985489009,0
                100.238676436,14.985451536,0
                100.23843692,14.9853718580001,0
                100.238131739,14.9852115530001,0
                100.237659097,14.9849042760001,0
                100.237233647,14.9846143520001,0
                100.236862829,14.984376937,0
                100.236626653,14.984247947,0
                100.236394241,14.984143578,0
                100.236201933,14.9840847670001,0
                100.236006124,14.9840471000001,0
                100.235810493,14.984041119,0
                100.235542589,14.984063696,0
                100.235253091,14.9841110360001,0
                100.23476109,14.9842158070001,0
                100.234117444,14.9844059070001,0
                100.23356793,14.9845884490001,0
                100.233228168,14.984713518,0
                100.232733207,14.984934493,0
                100.232429804,14.9850840140001,0
                100.232144691,14.985265123,0
                100.231917473,14.985435357,0
                100.231773377,14.985573453,0
                100.23163671,14.985743198,0
                100.231507191,14.9859218170001,0
                100.23146001,14.9860532970001,0
                100.231445548,14.9861710870001,0
                100.2314613,14.9862789040001,0
                100.231492244,14.98639645,0
                100.231574123,14.9865970980001,0
                100.231666036,14.986787882,0
                100.231951698,14.987330759,0
                100.232267608,14.987868565,0
                100.232623717,14.98837673,0
                100.232984559,14.988830912,0
                100.233634748,14.9895876210001,0
                100.234416998,14.990495653,0
                100.234777735,14.990930217,0
                100.234900011,14.991135548,0
                100.234976878,14.99134113,0
                100.235018624,14.9915812310001,0
                100.235025104,14.9918313370001,0
                100.234996321,14.9920914420001,0
                100.234927593,14.992425331,0
                100.234828961,14.9928231420001,0
                100.234700193,14.9932456450001,0
                100.234565649,14.9935406550001,0
                100.234405683,14.9938014700001,0
                100.234220313,14.9940329940001,0
                100.234019638,14.9942351720001,0
                100.233771843,14.994447538,0
                100.233647487,14.9945401750001,0
                100.233145344,14.9948775140001,0
                100.232833691,14.9950852000001,0
                100.232491989,14.9953322860001,0
                100.232190536,14.99555953,0
                100.232014585,14.995673289,0
                100.231833418,14.9957576480001,0
                100.231662143,14.995807621,0
                100.231324445,14.995873207,0
                100.230306276,14.996065087,0
                100.229918115,14.9961309440001,0
                100.229711437,14.996166397,0
                100.229505696,14.9961885970001,0
                100.229317984,14.9961881360001,0
                100.229126188,14.9961793630001,0
                100.228924192,14.9961510250001,0
                100.228691837,14.9961081330001,0
                100.228449191,14.9960309690001,0
                100.228231639,14.995929146,0
                100.227963292,14.995768737,0
                100.227522012,14.9954561110001,0
                100.227127085,14.995130728,0
                100.22677568,14.9948168500001,0
                100.22633855,14.99447894,0
                100.225915927,14.994196129,0
                100.22563111,14.994022935,0
                100.225431784,14.993909054,0
                100.225246829,14.993827283,0
                100.224990923,14.9937458910001,0
                100.22462629,14.9936788800001,0
                100.224380132,14.993648013,0
                100.224138912,14.99365391,0
                100.22393564,14.993677995,0
                100.223727739,14.993720495,0
                100.223520025,14.993795178,0
                100.223345574,14.9938972740001,0
                100.223117287,14.9940475240001,0
                100.223015915,14.994114242,0
                100.222690488,14.994328422,0
                100.221997556,14.9947597670001,0
                100.221427192,14.995116883,0
                100.221183138,14.9952568050001,0
                100.220998111,14.9953628870001,0
                100.220729186,14.9954884810001,0
                100.220469509,14.995577236,0
                100.220204898,14.9956292310001,0
                100.219883365,14.9956539460001,0
                100.219112518,14.995694859,0
                100.21832273,14.99573127,0
                100.217452652,14.995791103,0
                100.216875878,14.9958539580001,0
                100.216730816,14.995871697,0
                100.216010794,14.9959597390001,0
                100.215266308,14.9960620000001,0
                100.214716953,14.9961626420001,0
                100.214356845,14.996268017,0
                100.213931952,14.996419723,0
                100.213595719,14.9965652070001,0
                100.213424596,14.9966610010001,0
                100.213295094,14.996733496,0
                100.213083169,14.996901307,0
                100.212965585,14.997022633,0
                100.212842386,14.9971957240001,0
                100.212731269,14.9974147240001,0
                100.212474202,14.9979678760001,0
                100.212105599,14.9986653120001,0
                100.211514624,14.9997777620001,0
                100.21115826,15.000549854,0
                100.210825972,15.001396533,0
                100.210441943,15.002507883,0
                100.209999912,15.0038207100001,0
                100.20961727,15.005179205,0
                100.209530414,15.005507285,0
                100.209502076,15.0057258530001,0
                100.209514902,15.0059039610001,0
                100.209575135,15.006099062,0
                100.209694632,15.0063168400001,0
                100.2100229,15.00685538,0
                100.210255139,15.007141533,0
                100.210469309,15.0073703,0
                100.210748469,15.0075872310001,0
                100.211496653,15.008135027,0
                100.212422635,15.0087508510001,0
                100.212826719,15.0090993060001,0
                100.213058798,15.009356715,0
                100.213196005,15.0095686500001,0
                100.213321772,15.0098496160001,0
                100.213514282,15.010429109,0
                100.213677835,15.011117961,0
                100.213781447,15.0116634410001,0
                100.213825143,15.012071292,0
                100.213821209,15.012421923,0
                100.213775236,15.012657829,0
                100.213693549,15.0128536820001,0
                100.213570374,15.013032518,0
                100.213405672,15.013188583,0
                100.213258483,15.0133043230001,0
                100.213093326,15.013379925,0
                100.21301044,15.013400532,0
                100.212857115,15.0134386610001,0
                100.212614788,15.013462943,0
                100.212301378,15.013464614,0
                100.211928601,15.0134263640001,0
                100.211520117,15.013348072,0
                100.210975169,15.0131900380001,0
                100.210442212,15.013060674,0
                100.209950977,15.0129885690001,0
                100.209519163,15.012967874,0
                100.209176247,15.012981193,0
                100.208833425,15.013011751,0
                100.208496712,15.013076767,0
                100.208381311,15.013110528,0
                100.208136574,15.013182135,0
                100.207640875,15.0133686940001,0
                100.207204376,15.0135664360001,0
                100.206862521,15.0137694160001,0
                100.20659176,15.0139950120001,0
                100.206397806,15.014208707,0
                100.206263119,15.0144450780001,0
                100.206169857,15.0146869750001,0
                100.206129819,15.014928593,0
                100.206096691,15.015348354,0
                100.206100175,15.015969087,0
                100.206125861,15.0163310560001,0
                100.206187026,15.0166928360001,0
                100.206277443,15.016996987,0
                100.206433295,15.017369763,0
                100.20668431,15.0178397390001,0
                100.206958598,15.018240626,0
                100.20720852,15.018515189,0
                100.207654239,15.0189036670001,0
                100.208206563,15.019320318,0
                100.208942897,15.01985669,0
                100.20941218,15.020227796,0
                100.20962029,15.0204278580001,0
                100.209757307,15.0206053090001,0
                100.20996626,15.0209548080001,0
                100.210204621,15.021275412,0
                100.210472422,15.021572866,0
                100.210775865,15.0218988680001,0
                100.210954608,15.022133576,0
                100.211216986,15.0225172730001,0
                100.211753368,15.023250123,0
                100.211920476,15.023519369,0
                100.211992513,15.023708662,0
                100.212041216,15.023955555,0
                100.212054476,15.0242083790001,0
                100.21201431,15.0244270110001,0
                100.211944281,15.0245940670001,0
                100.211844562,15.024738289,0
                100.211726996,15.0248653630001,0
                100.211544576,15.0250272750001,0
                100.210920536,15.025530647,0
                100.210202414,15.0261322310001,0
                100.209631267,15.0265778420001,0
                100.209342784,15.0268092860001,0
                100.209225251,15.0269421090001,0
                100.209137417,15.0270977600001,0
                100.209085006,15.0272417350001,0
                100.209015558,15.027512244,0
                100.208923327,15.027938067,0
                100.208820118,15.028513386,0
                100.208723721,15.0292496010001,0
                100.20862629,15.029801902,0
                100.20850417,15.0301704010001,0
                100.208376006,15.0305159480001,0
                100.208182622,15.0308330990001,0
                100.207830239,15.031271799,0
                100.207394872,15.031676448,0
                100.206929699,15.0320410260001,0
                100.206576186,15.032278557,0
                100.206432861,15.032370762,0
                100.205792433,15.0327827690001,0
                100.205468388,15.033002902,0
                100.205221156,15.033211131,0
                100.205027191,15.0334248200001,0
                100.20475708,15.0337711180001,0
                100.204569477,15.034065244,0
                100.204521265,15.034155567,0
                100.204329512,15.0345148380001,0
                100.203873761,15.035505858,0
                100.203754403,15.0357125410001,0
                100.203557463,15.0360535660001,0
                100.203275874,15.036463145,0
                100.202940861,15.036838521,0
                100.202646633,15.037104474,0
                100.202234126,15.0373710490001,0
                100.201936268,15.0375422170001,0
                100.201833187,15.0375915820001,0
                100.201077185,15.0379236220001,0
                100.201250327,15.038278067,0
                100.201412634,15.0385347070001,0
                100.201608399,15.0388509470001,0
                100.201703721,15.0389745910001,0
                100.20179876,15.039047661,0
                100.201924908,15.039134007,0
                100.202178736,15.039307745,0
                100.202397202,15.0394537290001,0
                100.2027013,15.0396820290001,0
                100.203014703,15.0398826900001,0
                100.203266499,15.040065283,0
                100.203452004,15.040239028,0
                100.203556792,15.040362626,0
                100.203666877,15.0405873510001,0
                100.203748498,15.040798437,0
                100.203910604,15.0410182900001,0
                100.204229751,15.041398244,0
                100.204501093,15.041691089,0
                100.204848812,15.042103076,0
                100.20528751,15.042707707,0
                100.205516247,15.042996176,0
                100.205654492,15.0431793720001,0
                100.205763965,15.0432937410001,0
                100.205944353,15.0433985450001,0
                100.206210246,15.043562664,0
                100.206414525,15.0437087230001,0
                100.206519223,15.043815646,0
                100.206612047,15.043915165,0
                100.206694055,15.0439837000001,0
                100.206754613,15.0440247610001,0
                100.206825642,15.044034729,0
                100.206900107,15.044023988,0
                100.206981588,15.043999415,0
                100.207052364,15.043964553,0
                100.207119694,15.043946953,0
                100.207194252,15.0439534540001,0
                100.20732578,15.043994137,0
                100.207756112,15.044160832,0
                100.208022917,15.0442766640001,0
                100.208207795,15.044337759,0
                100.208385342,15.044357506,0
                100.208569909,15.0443634210001,0
                100.208687147,15.0443869370001,0
                100.208850675,15.044437794,0
                100.208982287,15.044492271,0
                100.209056942,15.044516017,0
                100.20913499,15.044512153,0
                100.209326499,15.044490438,0
                100.209447095,15.04447945,0
                100.209550022,15.0444823500001,0
                100.209667342,15.0445196640001,0
                100.209802536,15.044581018,0
                100.210012663,15.0447143920001,0
                100.210190561,15.044796213,0
                100.21038979,15.0448848140001,0
                100.210535883,15.0449909440001,0
                100.210617777,15.0450387870001,0
                100.210663986,15.045052335,0
                100.210717077,15.045027912,0
                100.210823305,15.044985964,0
                100.210947445,15.044974956,0
                100.211213726,15.044997676,0
                100.2117926,15.045073904,0
                100.212170765,15.0451330820001,0
                100.21219801,15.0450970790001,0
                100.212196129,15.044972853,0
                100.212205086,15.044702844,0
                100.212220523,15.0446518270001,0
                100.21280383,15.0439916390001,0
                100.212845701,15.0439812290001,0
                100.214186249,15.0450322180001,0
                100.214504109,15.0452814180001,0
                100.214551453,15.045311726,0
                100.214598624,15.0453114740001,0
                100.21460717,15.045307263,0
                100.215020197,15.0447845800001,0
                100.215040685,15.044776488,0
                100.215046345,15.044774252,0
                100.215523073,15.0451836500001,0
                100.215925285,15.045529054,0
                100.219144087,15.0482770460001,0
                100.219796303,15.0488376380001,0
                100.22120043,15.0500444950001,0
                100.221232211,15.0500718100001,0
                100.228849588,15.0491995530001,0
                100.229474029,15.0491280370001,0
                100.22972674,15.049099094,0
                100.229855998,15.049090791,0
              </coordinates>
                
            </LinearRing>
            
          </outerBoundaryIs>
        
        </Polygon>
        
      <styleUrl>
        #tambonStyle</styleUrl>
    </Placemark>

  </Document>
</kml>