<?xml version="1.0" encoding="UTF-8"?>
<kml xmlns="http://www.opengis.net/kml/2.2">
  <Document id="tambon_doc">
    <name>ดงเมืองแอม, เขาสวนกวาง, Khon Kaen</name>
    <description>ข้อมูลขอบเขตตำบลดงเมืองแอม อำเภอเขาสวนกวาง จังหวัดKhon Kaen</description>
    
    <!-- Schema สำหรับข้อมูลตำบล -->
    <Schema id="tambon.schema">
      <SimpleField name="ADM3_EN" type="string">
        <displayName>Subdistrict Name (English)</displayName>
      </SimpleField>
      <SimpleField name="ADM3_TH" type="string">
        <displayName>ชื่อตำบล</displayName>
      </SimpleField>
      <SimpleField name="ADM2_EN" type="string">
        <displayName>District Name (English)</displayName>
      </SimpleField>
      <SimpleField name="ADM2_TH" type="string">
        <displayName>ชื่ออำเภอ</displayName>
      </SimpleField>
      <SimpleField name="ADM1_EN" type="string">
        <displayName>Province Name (English)</displayName>
      </SimpleField>
      <SimpleField name="ADM1_TH" type="string">
        <displayName>ชื่อจังหวัด</displayName>
      </SimpleField>
      <SimpleField name="ADM0_EN" type="string">
        <displayName>Country Name (English)</displayName>
      </SimpleField>
      <SimpleField name="ADM0_TH" type="string">
        <displayName>ชื่อประเทศ</displayName>
      </SimpleField>
    </Schema>

    <!-- Style สำหรับตำบล -->
    <Style id="tambonStyle">
      <LineStyle>
        <color>ffff0000</color>
        <width>1.5</width>
      </LineStyle>
      <PolyStyle>
        <color>33ff0000</color>
        <fill>1</fill>
        <outline>1</outline>
      </PolyStyle>
    </Style>

    <Placemark id="Khon_Kaen.167">
        
        <ExtendedData>
            
          <SchemaData schemaUrl="#tambon.schema">
                
            <SimpleData name="Shape_Leng">
                0.42995876036</SimpleData>
                
            <SimpleData name="Shape_Area">
                0.00588261944339</SimpleData>
                
            <SimpleData name="ADM3_EN">
                Dong Mueang Am</SimpleData>
                
            <SimpleData name="ADM3_TH">
                ดงเมืองแอม</SimpleData>
                
            <SimpleData name="ADM3_PCODE">
                TH401902</SimpleData>
                
            <SimpleData name="ADM2_EN">
                Khao Suan Kwang</SimpleData>
                
            <SimpleData name="ADM2_TH">
                เขาสวนกวาง</SimpleData>
                
            <SimpleData name="ADM2_PCODE">
                TH4019</SimpleData>
                
            <SimpleData name="ADM1_EN">
                Khon Kaen</SimpleData>
                
            <SimpleData name="ADM1_TH">
                ขอนแก่น</SimpleData>
                
            <SimpleData name="ADM1_PCODE">
                TH40</SimpleData>
                
            <SimpleData name="ADM0_EN">
                Thailand</SimpleData>
                
            <SimpleData name="ADM0_TH">
                ประเทศไทย</SimpleData>
                
            <SimpleData name="ADM0_PCODE">
                TH</SimpleData>
            
          </SchemaData>
        
        </ExtendedData>
        
        <Polygon>
            
          <outerBoundaryIs>
                
            <LinearRing>
                    
              <coordinates>
                    
                102.789549812,16.885385989,0
                102.788927048,16.885027011,0
                102.788791508,16.885045599,0
                102.788656359,16.885024088,0
                102.788616022,16.8849134600001,0
                102.788114805,16.8841367900001,0
                102.787842923,16.88391103,0
                102.787453128,16.8837315050001,0
                102.786866586,16.8834653100001,0
                102.786977139,16.883160946,0
                102.786211855,16.8829625500001,0
                102.786263997,16.8828437070001,0
                102.785874764,16.8828286610001,0
                102.785536535,16.882792399,0
                102.784929099,16.882606631,0
                102.785059216,16.882097721,0
                102.785278129,16.88130571,0
                102.785353908,16.8810374610001,0
                102.785394307,16.8809303250001,0
                102.785473989,16.880818194,0
                102.785570383,16.8807062440001,0
                102.785666275,16.8806372820001,0
                102.785784523,16.88056865,0
                102.785948714,16.8805343870001,0
                102.786828463,16.8804611530001,0
                102.788484751,16.8803411280001,0
                102.788669582,16.8803216270001,0
                102.788770352,16.880311965,0
                102.788848892,16.8802913170001,0
                102.788916417,16.8802597110001,0
                102.789000839,16.88021221,0
                102.789119398,16.8801166640001,0
                102.789277931,16.87995697,0
                102.789996815,16.8792221910001,0
                102.790856255,16.878275946,0
                102.790964174,16.8781372020001,0
                102.791072141,16.877987708,0
                102.791447931,16.8774213770001,0
                102.792657452,16.8755095600001,0
                102.79265793,16.875508827,0
                102.792663131,16.875500851,0
                102.793586875,16.874084171,0
                102.793655522,16.8739557500001,0
                102.793695788,16.8738593570001,0
                102.793730674,16.8737467400001,0
                102.793788479,16.873585958,0
                102.793841385,16.87336054,0
                102.793970958,16.8728023,0
                102.794244942,16.871433887,0
                102.794310625,16.8710741190001,0
                102.794369864,16.87078961,0
                102.794416777,16.870607122,0
                102.794469245,16.870419365,0
                102.794585342,16.8701686150001,0
                102.79469887,16.8700191790001,0
                102.794817935,16.86988597,0
                102.795003989,16.8697534830001,0
                102.795336739,16.8695202370001,0
                102.795894374,16.869172513,0
                102.796863449,16.8685682190001,0
                102.797623805,16.8681135780001,0
                102.798472394,16.8676286310001,0
                102.79912496,16.8673020790001,0
                102.799895961,16.866896046,0
                102.80082376,16.866464777,0
                102.801793516,16.8660576180001,0
                102.802641796,16.8657384800001,0
                102.802911336,16.8656445440001,0
                102.803300105,16.8654293160001,0
                102.803305811,16.8654219420001,0
                102.803486796,16.865188044,0
                102.803532656,16.8651287770001,0
                102.804919381,16.8496633820001,0
                102.805774222,16.846406991,0
                102.805957392,16.846099322,0
                102.806058181,16.8457979090001,0
                102.806069669,16.845452365,0
                102.806057983,16.8451642000001,0
                102.805896794,16.8448672110001,0
                102.805578026,16.8445973500001,0
                102.805281104,16.8443853480001,0
                102.804959016,16.84440349,0
                102.804767729,16.8441206310001,0
                102.804629892,16.843737452,0
                102.804382253,16.8430957680001,0
                102.804295052,16.842614769,0
                102.804286158,16.8420849300001,0
                102.804107994,16.8399337000001,0
                102.804318083,16.839008602,0
                102.805401082,16.8358704400001,0
                102.805420225,16.8358679350001,0
                102.805577247,16.835847394,0
                102.805735242,16.8358438440001,0
                102.805851531,16.8358682090001,0
                102.805972241,16.8358579380001,0
                102.806153815,16.8358018910001,0
                102.806278861,16.835764478,0
                102.806352012,16.835699505,0
                102.806376944,16.8356301320001,0
                102.80638208,16.8355335410001,0
                102.806391104,16.835448463,0
                102.806411524,16.835421674,0
                102.806488085,16.8354030720001,0
                102.806693389,16.835382053,0
                102.807091806,16.835343767,0
                102.80747457,16.8352744220001,0
                102.807655433,16.8352801460001,0
                102.808000708,16.8353225820001,0
                102.808447522,16.8352731580001,0
                102.809042932,16.8352369690001,0
                102.809492591,16.8352496260001,0
                102.810141523,16.8352476970001,0
                102.810271609,16.835202387,0
                102.810443478,16.835048321,0
                102.810589449,16.8350342520001,0
                102.810760063,16.834989374,0
                102.810882286,16.834928265,0
                102.810882811,16.834918702,0
                102.810892557,16.834741314,0
                102.811000687,16.834493084,0
                102.811060423,16.834228803,0
                102.811095517,16.8339953300001,0
                102.811089291,16.833887889,0
                102.81108874,16.8338783790001,0
                102.811048436,16.83385844,0
                102.81091279,16.8338761430001,0
                102.810785286,16.8338785770001,0
                102.810685978,16.8338506910001,0
                102.810563464,16.833768908,0
                102.810516813,16.833668694,0
                102.810506059,16.833561274,0
                102.810550925,16.833473597,0
                102.810659312,16.8333980690001,0
                102.810743613,16.8333453160001,0
                102.810867393,16.8333236030001,0
                102.810951396,16.833289995,0
                102.81099591,16.833232933,0
                102.811114312,16.833086969,0
                102.811239233,16.8328717050001,0
                102.811387393,16.832687127,0
                102.811394144,16.8326907360001,0
                102.811844364,16.832931445,0
                102.812207326,16.833178102,0
                102.812432374,16.8333503970001,0
                102.812592998,16.8335824320001,0
                102.812648017,16.833654645,0
                102.812677866,16.8337563960001,0
                102.812670924,16.833821987,0
                102.812645686,16.8338575770001,0
                102.812608142,16.8338869840001,0
                102.812563715,16.8339700600001,0
                102.812525828,16.83402936,0
                102.812487941,16.8340886610001,0
                102.812456036,16.834165908,0
                102.812448955,16.83424351,0
                102.81247296,16.8343153930001,0
                102.812516007,16.8343456590001,0
                102.812608777,16.8343704920001,0
                102.812726577,16.834377798,0
                102.81286308,16.8343732010001,0
                102.81300557,16.8343926920001,0
                102.813122962,16.834435673,0
                102.813272284,16.8344933540001,0
                102.813376743,16.834578105,0
                102.813462023,16.8347163060001,0
                102.813507065,16.8348086440001,0
                102.813591021,16.835028483,0
                102.813751381,16.835256811,0
                102.813893387,16.8355139390001,0
                102.81395193,16.835663234,0
                102.813993676,16.8357125430001,0
                102.814052532,16.835753906,0
                102.814149672,16.8357753540001,0
                102.814246768,16.8358007750001,0
                102.814339796,16.835809984,0
                102.814390659,16.835798287,0
                102.814407735,16.835794359,0
                102.814497288,16.835742383,0
                102.814600086,16.8356415920001,0
                102.814660173,16.8355688890001,0
                102.814699237,16.8354878330001,0
                102.814717298,16.8353902060001,0
                102.814697415,16.8352759150001,0
                102.814677532,16.8351616250001,0
                102.814619831,16.8350265190001,0
                102.814612444,16.834928711,0
                102.814698118,16.8348439960001,0
                102.814889999,16.8347319600001,0
                102.815061833,16.834641296,0
                102.815195912,16.834551316,0
                102.815310675,16.834493013,0
                102.815467606,16.834481044,0
                102.815595762,16.834496046,0
                102.815785793,16.8344980680001,0
                102.815966573,16.83447714,0
                102.816118839,16.8344605140001,0
                102.816354285,16.8344482050001,0
                102.81657789,16.8344231240001,0
                102.816792476,16.8343614570001,0
                102.81702664,16.8342450810001,0
                102.817312774,16.834156625,0
                102.817398658,16.834120957,0
                102.817487433,16.834089383,0
                102.817677647,16.8339337,0
                102.817906716,16.833809592,0
                102.818161189,16.8336759970001,0
                102.818304363,16.833541311,0
                102.81849918,16.83331459,0
                102.818602538,16.833130795,0
                102.81873653,16.8329131840001,0
                102.818890388,16.832736971,0
                102.819043638,16.8326072680001,0
                102.819100473,16.832500748,0
                102.819091958,16.832359571,0
                102.819089377,16.832241589,0
                102.819088991,16.832223947,0
                102.819088826,16.8322164300001,0
                102.819083018,16.832216052,0
                102.819088657,16.8322086950001,0
                102.819136161,16.8320388490001,0
                102.819235832,16.8313259,0
                102.819273818,16.8311023900001,0
                102.81936858,16.830777418,0
                102.819523429,16.830068485,0
                102.819562807,16.829723415,0
                102.81960515,16.829558391,0
                102.81976428,16.8293605550001,0
                102.820039484,16.8284353990001,0
                102.82023828,16.8273328500001,0
                102.820270754,16.82703639,0
                102.820306668,16.8267503540001,0
                102.820283858,16.826526561,0
                102.820258284,16.8263550350001,0
                102.820108594,16.825829388,0
                102.820204571,16.824146951,0
                102.820293296,16.822956069,0
                102.82038096,16.8211816830001,0
                102.820344209,16.8204589740001,0
                102.820305426,16.819987569,0
                102.820265096,16.819497359,0
                102.820145745,16.8187403530001,0
                102.81998873,16.8180235940001,0
                102.819874573,16.817502298,0
                102.819525617,16.816817013,0
                102.819262281,16.8164225740001,0
                102.818945549,16.8160172730001,0
                102.818412067,16.815601089,0
                102.818411316,16.8156005070001,0
                102.818314686,16.815525633,0
                102.817977674,16.815264498,0
                102.817695062,16.8151521230001,0
                102.817130777,16.8148453480001,0
                102.816115132,16.814287684,0
                102.815577987,16.8140905700001,0
                102.815126314,16.8138670180001,0
                102.814787873,16.8136720150001,0
                102.814391408,16.8135857680001,0
                102.814258522,16.8134694450001,0
                102.81413844,16.813364329,0
                102.813941618,16.813198173,0
                102.813517709,16.813029601,0
                102.813207344,16.812862238,0
                102.812867966,16.8127492520001,0
                102.812527648,16.8127182870001,0
                102.811761543,16.8126827890001,0
                102.811307681,16.8126506140001,0
                102.810682564,16.8126986450001,0
                102.810256148,16.8127487900001,0
                102.809858118,16.812799237,0
                102.809289143,16.8129025480001,0
                102.808662769,16.8130599350001,0
                102.808291867,16.8132200420001,0
                102.807721948,16.8134053700001,0
                102.80737943,16.813565779,0
                102.8071323,16.8136278710001,0
                102.807127093,16.8136291800001,0
                102.807122875,16.8136302390001,0
                102.807066241,16.8136444690001,0
                102.806837897,16.813751407,0
                102.80658085,16.8138853830001,0
                102.806323174,16.8140740370001,0
                102.806064869,16.8143173730001,0
                102.805834634,16.814588352,0
                102.805547627,16.814858724,0
                102.805173887,16.815264889,0
                102.804887821,16.815453238,0
                102.804573684,16.8156139450001,0
                102.804229272,16.8159383880001,0
                102.803741666,16.8163706760001,0
                102.803483984,16.816559327,0
                102.803140513,16.816801748,0
                102.802939603,16.816991006,0
                102.802452938,16.8173412690001,0
                102.802052691,16.8175830800001,0
                102.801708585,16.817880179,0
                102.801507043,16.818124115,0
                102.80119448,16.8182569370001,0
                102.801193215,16.8182574740001,0
                102.800621698,16.8185794820001,0
                102.800251094,16.818712233,0
                102.800051442,16.8187921250001,0
                102.799795332,16.8188440710001,0
                102.799424097,16.8190315000001,0
                102.798825452,16.819243837,0
                102.798197156,16.8195652270001,0
                102.79791171,16.819698886,0
                102.797711425,16.8198334570001,0
                102.79734001,16.8199525310001,0
                102.77961007,16.8212872570001,0
                102.779486399,16.821220528,0
                102.779373765,16.821175775,0
                102.779238547,16.8211307780001,0
                102.779128255,16.8211039350001,0
                102.779056307,16.8210656740001,0
                102.778940388,16.8209841240001,0
                102.778846807,16.8208973980001,0
                102.778742025,16.820815969,0
                102.778636681,16.820782675,0
                102.778520015,16.8207653370001,0
                102.778314446,16.82073096,0
                102.778030826,16.820717234,0
                102.777630714,16.820664676,0
                102.777163112,16.820675694,0
                102.777024048,16.820668862,0
                102.776963063,16.820652124,0
                102.776934221,16.820538819,0
                102.776880864,16.8203454960001,0
                102.776826744,16.820211054,0
                102.776755623,16.8201084930001,0
                102.776695186,16.8200382000001,0
                102.776622878,16.820037418,0
                102.77649464,16.8200574360001,0
                102.776310983,16.8200608670001,0
                102.7759768,16.8200786580001,0
                102.77565427,16.8200590880001,0
                102.775471051,16.8200249510001,0
                102.775182038,16.8199897580001,0
                102.774982429,16.8199286180001,0
                102.774760109,16.819904804,0
                102.774617652,16.819950227,0
                102.774522133,16.82002958,0
                102.774449248,16.820071602,0
                102.774371433,16.8200654300001,0
                102.774310623,16.8200272890001,0
                102.774244882,16.8199408610001,0
                102.774179441,16.819822373,0
                102.774053781,16.819628175,0
                102.773795925,16.8193094370001,0
                102.773741181,16.8192285480001,0
                102.77373092,16.8191534700001,0
                102.773737802,16.819041095,0
                102.773716342,16.8189712240001,0
                102.773578609,16.8188572810001,0
                102.773494315,16.8188116110001,0
                102.773490426,16.8188076340001,0
                102.773473896,16.8188005480001,0
                102.773353992,16.818749155,0
                102.773352143,16.8187483620001,0
                102.773339019,16.818744865,0
                102.773234141,16.818716921,0
                102.773135124,16.818690539,0
                102.772982984,16.8186680480001,0
                102.772693949,16.818645283,0
                102.772693914,16.8186452840001,0
                102.772545224,16.818651259,0
                102.772354736,16.818656963,0
                102.772204489,16.818667437,0
                102.772131281,16.8186775720001,0
                102.771968144,16.818718796,0
                102.771835949,16.818759813,0
                102.77172601,16.81878906,0
                102.771589904,16.818827055,0
                102.771464033,16.818862902,0
                102.771429299,16.8188701120001,0
                102.771337613,16.818872911,0
                102.771287832,16.818883842,0
                102.771239427,16.818909058,0
                102.771203648,16.818932967,0
                102.771181349,16.8189547640001,0
                102.771171625,16.818972812,0
                102.771161828,16.819010281,0
                102.771156405,16.819083833,0
                102.771154525,16.819152095,0
                102.771147228,16.8192007000001,0
                102.771127592,16.819239505,0
                102.771097939,16.8192684480001,0
                102.77106848,16.819287639,0
                102.771029254,16.8193085290001,0
                102.770955427,16.819331753,0
                102.770845019,16.819361536,0
                102.770752773,16.81937914,0
                102.770686309,16.8193879950001,0
                102.770643489,16.8193854520001,0
                102.77060655,16.8193761100001,0
                102.770566817,16.8193544530001,0
                102.770522699,16.819324078,0
                102.770450897,16.819266848,0
                102.770384786,16.8192256670001,0
                102.770357666,16.8192167020001,0
                102.77033832,16.8192174860001,0
                102.770321777,16.819223358,0
                102.770292068,16.8192439900001,0
                102.770239614,16.8192782850001,0
                102.770173063,16.8193143230001,0
                102.77006596,16.8193590440001,0
                102.769993075,16.8194009750001,0
                102.769964922,16.819427494,0
                102.769946866,16.8194634280001,0
                102.769936888,16.819522932,0
                102.769928474,16.819627251,0
                102.769920439,16.819679551,0
                102.769903392,16.819721907,0
                102.769870567,16.819764181,0
                102.769820379,16.8197965140001,0
                102.769774008,16.819819855,0
                102.76972116,16.819841501,0
                102.769419534,16.8199261090001,0
                102.769306354,16.819967784,0
                102.769221713,16.8199964,0
                102.769118154,16.820002683,0
                102.768884199,16.8200148650001,0
                102.768745803,16.8200502130001,0
                102.768653645,16.8200603220001,0
                102.76857326,16.820055745,0
                102.768523725,16.820025673,0
                102.768497701,16.8199627070001,0
                102.768483088,16.8198961620001,0
                102.768464557,16.819840594,0
                102.768442236,16.819785075,0
                102.768373556,16.8197584970001,0
                102.768308916,16.819717241,0
                102.768217665,16.819649864,0
                102.768146017,16.8195531640001,0
                102.768078546,16.8194233620001,0
                102.767568238,16.8196933890001,0
                102.766115601,16.820250689,0
                102.765563074,16.8204996580001,0
                102.765351897,16.8205745860001,0
                102.765118951,16.8206325670001,0
                102.764879819,16.820690482,0
                102.764636551,16.8207316410001,0
                102.76446071,16.8207546560001,0
                102.764227067,16.8207599720001,0
                102.763970107,16.8207750600001,0
                102.763728151,16.820823005,0
                102.763331256,16.820899071,0
                102.763182103,16.820948028,0
                102.763082737,16.8209856030001,0
                102.762967478,16.8210528110001,0
                102.762852265,16.821129323,0
                102.76267411,16.8212504910001,0
                102.762547344,16.8213491860001,0
                102.762447988,16.8214519740001,0
                102.762395971,16.8215344120001,0
                102.762301729,16.8216824150001,0
                102.762271294,16.821771411,0
                102.762248825,16.8218538100001,0
                102.762236706,16.8219835580001,0
                102.762236778,16.822128886,0
                102.762220639,16.822291288,0
                102.762223204,16.82236276,0
                102.762241092,16.8224530050001,0
                102.762255156,16.8225266790001,0
                102.76225002,16.8226082740001,0
                102.762234912,16.822682984,0
                102.762199709,16.8227958630001,0
                102.76214976,16.822919601,0
                102.762090123,16.8230450400001,0
                102.762055308,16.8231316390001,0
                102.76204069,16.823217195,0
                102.762042273,16.8232799840001,0
                102.762053817,16.8233704310001,0
                102.762065007,16.8234450680001,0
                102.762080936,16.8235442340001,0
                102.762094924,16.8236374160001,0
                102.76209921,16.8237071,0
                102.762097591,16.823759378,0
                102.762089819,16.8238218860001,0
                102.762065552,16.823932084,0
                102.762041169,16.824052307,0
                102.762011018,16.8241762590001,0
                102.761988432,16.8242685920001,0
                102.761964782,16.8243263200001,0
                102.761902517,16.824444956,0
                102.761874493,16.8244997460001,0
                102.761839098,16.824569721,0
                102.761805433,16.8246437780001,0
                102.76179058,16.824676945,0
                102.761764774,16.824707462,0
                102.761732655,16.824735564,0
                102.761694607,16.8247680260001,0
                102.7616538,16.824798201,0
                102.761640659,16.824810703,0
                102.761630025,16.8248336180001,0
                102.761574559,16.8249331800001,0
                102.761537452,16.8250039480001,0
                102.761502328,16.8250903640001,0
                102.761474087,16.825156985,0
                102.761441467,16.825214524,0
                102.761415604,16.825249919,0
                102.761356363,16.825328395,0
                102.761264445,16.8254626930001,0
                102.761232606,16.8254997400001,0
                102.761195462,16.8255276040001,0
                102.761141637,16.8255533020001,0
                102.76110884,16.825573176,0
                102.761076061,16.825598198,0
                102.761035296,16.825638037,0
                102.76098686,16.8256920630001,0
                102.760926467,16.825756707,0
                102.760908206,16.825783604,0
                102.760886347,16.8258206690001,0
                102.760874223,16.825851877,0
                102.760868868,16.8258797280001,0
                102.760868663,16.825897157,0
                102.760872775,16.825928995,0
                102.760885772,16.8259880270001,0
                102.760891805,16.8260274720001,0
                102.760890885,16.8260532030001,0
                102.760886387,16.826087025,0
                102.760872297,16.826134198,0
                102.760845138,16.826187825,0
                102.76082278,16.826221091,0
                102.760776178,16.826270439,0
                102.760731262,16.8263146580001,0
                102.760660233,16.8263825270001,0
                102.760563894,16.8264848960001,0
                102.760482629,16.8265879680001,0
                102.760401285,16.826697724,0
                102.760347413,16.8267602720001,0
                102.76029641,16.826835223,0
                102.760253015,16.8269145030001,0
                102.760202703,16.827009785,0
                102.760174948,16.8270744230001,0
                102.760144112,16.827157814,0
                102.760132787,16.82721983,0
                102.760126124,16.827293099,0
                102.760127674,16.8273455020001,0
                102.760134975,16.827382432,0
                102.760147598,16.8274336910001,0
                102.760173001,16.827509838,0
                102.760201693,16.8275956850001,0
                102.760213262,16.82763799,0
                102.760211581,16.8276822290001,0
                102.760205727,16.8277131460001,0
                102.76018999,16.827748921,0
                102.760169845,16.8277782370001,0
                102.760131961,16.827829487,0
                102.760104026,16.827883194,0
                102.760078976,16.8279546360001,0
                102.760050694,16.8280313710001,0
                102.760005093,16.8281600330001,0
                102.759978949,16.8282390480001,0
                102.759966011,16.828267087,0
                102.75994619,16.8282950510001,0
                102.759913576,16.8283323590001,0
                102.759878237,16.828370992,0
                102.759832291,16.8285224110001,0
                102.759814427,16.828627349,0
                102.759813101,16.828740146,0
                102.759837953,16.828850066,0
                102.759841864,16.828918662,0
                102.759852934,16.8290756700001,0
                102.75989382,16.8292164740001,0
                102.759904312,16.8293569480001,0
                102.759920707,16.8295150060001,0
                102.759895809,16.8296392880001,0
                102.759859291,16.829699314,0
                102.759828582,16.8297651840001,0
                102.759819137,16.829805364,0
                102.759833355,16.829865854,0
                102.759838371,16.829952254,0
                102.759907831,16.830017953,0
                102.760208907,16.8301924850001,0
                102.760483089,16.8304109800001,0
                102.760633439,16.8305109780001,0
                102.760741208,16.830594526,0
                102.760786631,16.830652104,0
                102.760785684,16.8306603780001,0
                102.760764517,16.8306870480001,0
                102.760723012,16.8307393440001,0
                102.760617327,16.830784937,0
                102.760533833,16.830820944,0
                102.760436862,16.830854055,0
                102.760425472,16.8308579440001,0
                102.76039137,16.830869588,0
                102.760216602,16.8308992360001,0
                102.760128786,16.830914133,0
                102.759858815,16.8309711480001,0
                102.759603289,16.831031108,0
                102.759449688,16.8310419810001,0
                102.759227983,16.831057688,0
                102.759200319,16.831062983,0
                102.758952271,16.831110455,0
                102.758768303,16.831146781,0
                102.758711369,16.831158024,0
                102.758610887,16.831173753,0
                102.75852496,16.8311872040001,0
                102.758486538,16.8311932190001,0
                102.758472319,16.831198961,0
                102.758431099,16.831215613,0
                102.758389068,16.831232592,0
                102.758370172,16.831256508,0
                102.758304644,16.83133945,0
                102.758270018,16.8313832800001,0
                102.758264174,16.831398038,0
                102.758207345,16.831541556,0
                102.758160285,16.8317264950001,0
                102.758162282,16.8319259140001,0
                102.758175134,16.8320640970001,0
                102.758178346,16.832071769,0
                102.758187719,16.8320941430001,0
                102.758210341,16.8321481450001,0
                102.75824698,16.8322336030001,0
                102.758237062,16.8323380730001,0
                102.758222631,16.832413918,0
                102.758183047,16.8326219370001,0
                102.758127762,16.83289045,0
                102.758083092,16.8330848090001,0
                102.758046883,16.8332423460001,0
                102.757992383,16.83332123,0
                102.757846615,16.8334046960001,0
                102.757806405,16.833422448,0
                102.757532241,16.8335434910001,0
                102.757309251,16.8336679440001,0
                102.757227617,16.8337311490001,0
                102.757193818,16.833757318,0
                102.757131897,16.8338514590001,0
                102.75713417,16.833904471,0
                102.757174064,16.833959287,0
                102.757279978,16.8340636290001,0
                102.757401849,16.834165355,0
                102.757483496,16.834240149,0
                102.75737535,16.83432542,0
                102.757233497,16.834445182,0
                102.757123342,16.8345778390001,0
                102.757022479,16.834678791,0
                102.756984154,16.8347171510001,0
                102.756954135,16.8347520030001,0
                102.756871122,16.8348483820001,0
                102.756742955,16.835035224,0
                102.756706122,16.8350892030001,0
                102.756666788,16.835109689,0
                102.756639745,16.8351179540001,0
                102.756525837,16.8351527680001,0
                102.75638069,16.8351832540001,0
                102.756124022,16.8352167030001,0
                102.755992215,16.83522084,0
                102.755882289,16.835211271,0
                102.755808571,16.835200704,0
                102.755732354,16.835156646,0
                102.755663719,16.835083388,0
                102.755570933,16.834970823,0
                102.75550355,16.834914312,0
                102.755441841,16.834867622,0
                102.755341078,16.834817717,0
                102.755217294,16.834728458,0
                102.755207561,16.8347214400001,0
                102.755134847,16.834625827,0
                102.755059634,16.8345039930001,0
                102.755048182,16.834485441,0
                102.754976602,16.834416333,0
                102.754891288,16.834407034,0
                102.754753511,16.834426444,0
                102.754531078,16.8345034910001,0
                102.754289732,16.8346075800001,0
                102.754190544,16.834650359,0
                102.753992845,16.8347532080001,0
                102.753925404,16.834788292,0
                102.753528843,16.8350051370001,0
                102.753313418,16.8350932910001,0
                102.753312504,16.835075331,0
                102.75322557,16.835081475,0
                102.753136542,16.8351206030001,0
                102.753062842,16.8351850080001,0
                102.753029,16.8349589270001,0
                102.753026777,16.8347081740001,0
                102.753036986,16.834282063,0
                102.75289142,16.834255361,0
                102.752652141,16.83421264,0
                102.752288888,16.8340833,0
                102.751786772,16.8337920290001,0
                102.750478708,16.833197034,0
                102.750499845,16.83307732,0
                102.750551272,16.832541201,0
                102.750443603,16.832010745,0
                102.750540047,16.8319657380001,0
                102.750188464,16.830993021,0
                102.749943902,16.830238969,0
                102.749631085,16.829278328,0
                102.749593963,16.8292044680001,0
                102.749592644,16.8292018450001,0
                102.749525136,16.8290675330001,0
                102.749465273,16.828962377,0
                102.749451211,16.82890216,0
                102.749475022,16.8288638540001,0
                102.74954547,16.8288389750001,0
                102.749612554,16.8288108080001,0
                102.749619622,16.82877548,0
                102.749600124,16.8287302860001,0
                102.749333207,16.8284349960001,0
                102.749142896,16.8281502080001,0
                102.749077102,16.8280691910001,0
                102.748888143,16.82795142,0
                102.748805342,16.827895959,0
                102.748708483,16.8278126160001,0
                102.74858657,16.8276698390001,0
                102.748467339,16.827588237,0
                102.748361259,16.8275260180001,0
                102.748274714,16.8275058300001,0
                102.748177851,16.8275079310001,0
                102.748094822,16.8274717050001,0
                102.748005786,16.827374358,0
                102.747873974,16.827225148,0
                102.747857992,16.8271703290001,0
                102.747839442,16.8270448530001,0
                102.747839974,16.826999879,0
                102.747787332,16.8269318320001,0
                102.747698487,16.8268184090001,0
                102.747581332,16.8267575130001,0
                102.747391732,16.8267007910001,0
                102.747218415,16.8266731480001,0
                102.746968306,16.826651167,0
                102.746851641,16.826633811,0
                102.746791779,16.8266139150001,0
                102.746208681,16.8264884770001,0
                102.746101948,16.8264161340001,0
                102.745608579,16.8260417610001,0
                102.74520619,16.8259402520001,0
                102.74488839,16.8258934090001,0
                102.74488287,16.8257977910001,0
                102.744513031,16.8258085420001,0
                102.744448067,16.825670723,0
                102.744106909,16.825584604,0
                102.743848969,16.825512045,0
                102.743811433,16.8255206640001,0
                102.74376435,16.825551669,0
                102.743731531,16.82556025,0
                102.743673435,16.8255283620001,0
                102.743634954,16.825518635,0
                102.743567253,16.8255271960001,0
                102.743496047,16.8255573920001,0
                102.74343104,16.825606264,0
                102.74339518,16.825642992,0
                102.743317555,16.8256731180001,0
                102.7432431,16.82570337,0
                102.743155808,16.8257333920001,0
                102.74301369,16.825768951,0
                102.742878838,16.82573956,0
                102.742824193,16.8257297480001,0
                102.742753612,16.8257072050001,0
                102.742686938,16.8256290680001,0
                102.742559125,16.825540866,0
                102.74245043,16.8254777110001,0
                102.742277388,16.825407619,0
                102.742117073,16.8253469680001,0
                102.742004615,16.8253272170001,0
                102.741856224,16.825350332,0
                102.741730668,16.825345882,0
                102.741646912,16.8253386390001,0
                102.741606758,16.825306948,0
                102.74161622,16.82519388,0
                102.741609625,16.8250651020001,0
                102.741569981,16.824990514,0
                102.741502277,16.82488834,0
                102.741475282,16.8247709890001,0
                102.741484419,16.824685285,0
                102.741481939,16.824548694,0
                102.741438135,16.824485711,0
                102.741427487,16.824353005,0
                102.741412619,16.8242435550001,0
                102.741348521,16.8241765560001,0
                102.74129601,16.8241564680001,0
                102.74126333,16.824179502,0
                102.741218245,16.8242180250001,0
                102.741181651,16.82422539,0
                102.741129494,16.8241819140001,0
                102.741105874,16.824119244,0
                102.74108233,16.8240565740001,0
                102.741022161,16.8239973840001,0
                102.740990637,16.823922886,0
                102.740982458,16.823869057,0
                102.740966819,16.8238181250001,0
                102.740938607,16.8238100460001,0
                102.740869302,16.8238365610001,0
                102.740808563,16.8238320090001,0
                102.740759688,16.82385098,0
                102.740682015,16.8239047700001,0
                102.740641399,16.8239120910001,0
                102.740540337,16.823883703,0
                102.740428012,16.8237810370001,0
                102.740327644,16.8236940400001,0
                102.7401668,16.8235869580001,0
                102.740009438,16.8235188420001,0
                102.739807161,16.823481573,0
                102.739653666,16.8234330070001,0
                102.739516566,16.823365204,0
                102.739407924,16.823297714,0
                102.739339898,16.8232228140001,0
                102.739156144,16.8229866830001,0
                102.739092557,16.822876696,0
                102.73902065,16.8227901010001,0
                102.738931915,16.822746223,0
                102.738630578,16.8226553870001,0
                102.738521613,16.8226151690001,0
                102.738473587,16.8225561130001,0
                102.738319127,16.822250125,0
                102.738052255,16.82184915,0
                102.737957081,16.821806915,0
                102.737861796,16.821663432,0
                102.7377361,16.821494957,0
                102.737665111,16.821454886,0
                102.737585787,16.821387176,0
                102.737542994,16.821369454,0
                102.737482173,16.821365352,0
                102.737439008,16.8213855600001,0
                102.737359674,16.8214294850001,0
                102.737302042,16.8214563970001,0
                102.7372375,16.8214660730001,0
                102.737159021,16.8214445260001,0
                102.737102411,16.8213852860001,0
                102.73699651,16.8212566770001,0
                102.736890648,16.8211245480001,0
                102.73682807,16.82096878,0
                102.736734145,16.82073689,0
                102.736721724,16.820571377,0
                102.736655139,16.8204535,0
                102.736587537,16.8204148200001,0
                102.736547929,16.8204350680001,0
                102.736487273,16.820417148,0
                102.736377035,16.820353975,0
                102.736313357,16.820284359,0
                102.736253152,16.82022851,0
                102.73600481,16.8201823310001,0
                102.735657673,16.8201647770001,0
                102.735471701,16.820142044,0
                102.735143731,16.8200212840001,0
                102.734689958,16.8199369820001,0
                102.734150424,16.819844958,0
                102.733703689,16.8196761930001,0
                102.733552934,16.819703433,0
                102.733437631,16.8197021600001,0
                102.733332935,16.819647988,0
                102.733198291,16.8195886080001,0
                102.733123792,16.819525013,0
                102.733080314,16.819389416,0
                102.733006697,16.8192583640001,0
                102.732942653,16.819161196,0
                102.732908806,16.8190546060001,0
                102.732765314,16.8188938810001,0
                102.732434434,16.8184656390001,0
                102.732149735,16.8187650680001,0
                102.731421075,16.819410125,0
                102.73111064,16.819785315,0
                102.730800831,16.820101621,0
                102.730428044,16.8205686100001,0
                102.729650922,16.821216287,0
                102.729394919,16.821423807,0
                102.729149055,16.821513671,0
                102.728670221,16.8220720570001,0
                102.728238951,16.823296278,0
                102.728237941,16.8232991420001,0
                102.725942138,16.8286719810001,0
                102.724001616,16.833213066,0
                102.723631142,16.834079995,0
                102.723810891,16.8342811410001,0
                102.723982462,16.834474248,0
                102.724104971,16.8346109940001,0
                102.724128512,16.8346864000001,0
                102.724155452,16.834820461,0
                102.72417119,16.8349921510001,0
                102.724208434,16.835157124,0
                102.724234842,16.835335706,0
                102.724282633,16.835511184,0
                102.724334435,16.835648952,0
                102.724474389,16.835866546,0
                102.724534003,16.835946055,0
                102.724762408,16.8362896310001,0
                102.724887517,16.836558541,0
                102.725013452,16.8367519560001,0
                102.725239373,16.836986398,0
                102.725436408,16.837197759,0
                102.725844544,16.8376412310001,0
                102.72625663,16.8381103950001,0
                102.726435879,16.8383215590001,0
                102.726576369,16.838494632,0
                102.72681131,16.838816149,0
                102.72701171,16.839091517,0
                102.726988536,16.839125869,0
                102.727033298,16.8391352090001,0
                102.727045414,16.8391378310001,0
                102.727447446,16.8396902550001,0
                102.727616026,16.8399013000001,0
                102.727724709,16.840049903,0
                102.727777082,16.840146583,0
                102.727843116,16.84031043,0
                102.728034715,16.8406862900001,0
                102.728234251,16.8409869130001,0
                102.728307407,16.8412087340001,0
                102.728506945,16.8415093560001,0
                102.728542587,16.8415625860001,0
                102.728682465,16.841819647,0
                102.72872514,16.841938257,0
                102.728821083,16.8420785910001,0
                102.728964054,16.842225587,0
                102.729019842,16.842301891,0
                102.729066479,16.842347837,0
                102.729110347,16.842366477,0
                102.729154539,16.8423579340001,0
                102.729236801,16.842322446,0
                102.729401286,16.842254629,0
                102.729597538,16.8421629590001,0
                102.729964575,16.8420004710001,0
                102.730436102,16.8417936160001,0
                102.730685277,16.8416747110001,0
                102.730855954,16.8416130140001,0
                102.731029873,16.8415453010001,0
                102.731188058,16.841480394,0
                102.73135218,16.8414428290001,0
                102.731516267,16.8414083340001,0
                102.731696096,16.841376993,0
                102.731929224,16.841358346,0
                102.732165016,16.841382175,0
                102.732563924,16.841453148,0
                102.732798671,16.841480308,0
                102.7329902,16.8415187320001,0
                102.733125186,16.841550571,0
                102.733322661,16.8416223880001,0
                102.733501258,16.841687945,0
                102.733670605,16.841744368,0
                102.733811822,16.8417792550001,0
                102.733871462,16.8417920160001,0
                102.733943494,16.8418230680001,0
                102.734121772,16.841921949,0
                102.734220272,16.8419908660001,0
                102.734228837,16.8422655320001,0
                102.734259945,16.842381393,0
                102.734513273,16.8427322800001,0
                102.73465771,16.842958047,0
                102.734801024,16.8432780950001,0
                102.735022457,16.843728884,0
                102.735064201,16.843854617,0
                102.735071969,16.8439688670001,0
                102.735087616,16.844194477,0
                102.735127054,16.844455483,0
                102.735124036,16.8446830550001,0
                102.735110849,16.844770699,0
                102.735097756,16.844843804,0
                102.735048064,16.8449310460001,0
                102.734991807,16.845056331,0
                102.734954116,16.845155446,0
                102.734938581,16.8452778380001,0
                102.734934246,16.8454405460001,0
                102.73493016,16.845582302,0
                102.734942271,16.8457801440001,0
                102.734960141,16.8459035380001,0
                102.734980874,16.846189356,0
                102.734982635,16.8462428440001,0
                102.734967456,16.8462962360001,0
                102.73494528,16.846333202,0
                102.734894073,16.846372107,0
                102.734801463,16.846438553,0
                102.734764608,16.846486918,0
                102.734739508,16.8465680190001,0
                102.734726143,16.846677158,0
                102.734726325,16.8468632180001,0
                102.734741686,16.8469958860001,0
                102.734764545,16.8471030760001,0
                102.734784998,16.847217286,0
                102.734788195,16.847267177,0
                102.734837818,16.8474524270001,0
                102.734853834,16.8475560200001,0
                102.73487385,16.8476485470001,0
                102.734834037,16.8477699480001,0
                102.734789923,16.8479147850001,0
                102.734731597,16.8481356940001,0
                102.73467836,16.84826065,0
                102.734656344,16.848336095,0
                102.734655552,16.8484025610001,0
                102.734666461,16.8484544340001,0
                102.73469442,16.848523024,0
                102.734718341,16.848618846,0
                102.734733391,16.8488037160001,0
                102.73472983,16.8489402390001,0
                102.734702969,16.8491043230001,0
                102.734677904,16.8492733960001,0
                102.734685978,16.8494009250001,0
                102.734701928,16.8495100260001,0
                102.734753595,16.8496859970001,0
                102.734771413,16.849800718,0
                102.734783025,16.849955924,0
                102.734791494,16.8500502210001,0
                102.734827177,16.85021075,0
                102.734873447,16.850417732,0
                102.734903453,16.850561219,0
                102.734916341,16.850706776,0
                102.734930893,16.85092045,0
                102.734933727,16.8512931390001,0
                102.734922932,16.851790409,0
                102.734905531,16.8518160470001,0
                102.734861264,16.8518436480001,0
                102.734819164,16.8518971940001,0
                102.734776751,16.8519835220001,0
                102.73475131,16.8520671480001,0
                102.734737239,16.852228844,0
                102.734713178,16.8524046110001,0
                102.734709467,16.85251485,0
                102.734716039,16.85257354,0
                102.734708154,16.852625115,0
                102.734685545,16.8526787870001,0
                102.734658063,16.8527324930001,0
                102.734516403,16.852922587,0
                102.734493989,16.8529599120001,0
                102.734483796,16.8529973720001,0
                102.73448825,16.8530325560001,0
                102.734495151,16.8530702040001,0
                102.734484147,16.853175666,0
                102.734473787,16.8532271240001,0
                102.734433748,16.8533088720001,0
                102.734396467,16.853367077,0
                102.734349716,16.8534017860001,0
                102.73426908,16.853417333,0
                102.734207686,16.853454137,0
                102.734194408,16.8534762460001,0
                102.734185271,16.853491466,0
                102.734157618,16.8535340920001,0
                102.734143714,16.8535782050001,0
                102.734142137,16.8536232760001,0
                102.734149431,16.853681227,0
                102.734162066,16.853760417,0
                102.734165375,16.853775506,0
                102.734157653,16.853887749,0
                102.734106423,16.8542659820001,0
                102.734038263,16.8545913720001,0
                102.734022672,16.854659842,0
                102.733987238,16.8547446210001,0
                102.733936889,16.8548411580001,0
                102.733864314,16.854939798,0
                102.733756753,16.855085377,0
                102.733634307,16.855240367,0
                102.733450907,16.855505324,0
                102.733353219,16.8556533620001,0
                102.73326778,16.855799276,0
                102.733191959,16.85596887,0
                102.733125094,16.8562048580001,0
                102.733090976,16.856386834,0
                102.733069898,16.8565002240001,0
                102.733057176,16.856535577,0
                102.7330222,16.8565818870001,0
                102.732976865,16.8566665560001,0
                102.732956429,16.8567326250001,0
                102.732963099,16.8567895100001,0
                102.732996666,16.8568680060001,0
                102.733090233,16.857065575,0
                102.733162239,16.857222623,0
                102.733176192,16.85729151,0
                102.733170169,16.8573814010001,0
                102.733142304,16.8574348340001,0
                102.733099922,16.857479343,0
                102.733052838,16.8575095320001,0
                102.732969005,16.8575205280001,0
                102.732904785,16.857541133,0
                102.732822949,16.8575922520001,0
                102.732775582,16.8576461910001,0
                102.732722869,16.857733217,0
                102.732696923,16.8578395070001,0
                102.732708426,16.8579129730001,0
                102.732734545,16.8579866910001,0
                102.732738253,16.858090869,0
                102.73272013,16.8581640990001,0
                102.732662336,16.8582554060001,0
                102.732639123,16.858340319,0
                102.732630899,16.8584136580001,0
                102.732632301,16.8585036310001,0
                102.732631115,16.8586030590001,0
                102.732629987,16.8586977910001,0
                102.732616418,16.858804128,0
                102.732590918,16.8588796240001,0
                102.732493438,16.85900996,0
                102.732371998,16.859119257,0
                102.732225649,16.85922837,0
                102.732094113,16.8593472210001,0
                102.731914964,16.859560108,0
                102.731850134,16.8596122280001,0
                102.73174429,16.859678435,0
                102.73170671,16.8597419650001,0
                102.731691888,16.859810714,0
                102.731686299,16.8599484800001,0
                102.731694633,16.8600863990001,0
                102.731715517,16.860170898,0
                102.731740483,16.8602439700001,0
                102.731793304,16.8603230420001,0
                102.731838013,16.8604077140001,0
                102.731876351,16.8605076700001,0
                102.731898876,16.860655771,0
                102.731924724,16.860862345,0
                102.731926749,16.8610298190001,0
                102.731905029,16.861158013,0
                102.731850759,16.8612974980001,0
                102.731788973,16.8613863210001,0
                102.731737214,16.8615618700001,0
                102.73171757,16.861755929,0
                102.731612736,16.8623208880001,0
                102.731570442,16.8625588630001,0
                102.731560706,16.862689721,0
                102.731580523,16.8629197070001,0
                102.731596566,16.863193202,0
                102.731616717,16.863327704,0
                102.731656625,16.8634281290001,0
                102.731714862,16.863570366,0
                102.731730217,16.863610179,0
                102.731804818,16.863903054,0
                102.731835418,16.863983686,0
                102.731839258,16.86403792,0
                102.731818372,16.8640897130001,0
                102.731757005,16.8641367230001,0
                102.731366169,16.864403355,0
                102.731325481,16.86441591,0
                102.731278143,16.8644153870001,0
                102.731255505,16.864425974,0
                102.731232711,16.8644495660001,0
                102.73121657,16.864479734,0
                102.731220719,16.8645079610001,0
                102.731231027,16.8645582,0
                102.731237702,16.8647134140001,0
                102.731258244,16.865007013,0
                102.731266212,16.8651698530001,0
                102.731258901,16.8652626360001,0
                102.731243766,16.865376993,0
                102.731200485,16.8655484820001,0
                102.731176064,16.865676013,0
                102.731157635,16.865826461,0
                102.731155384,16.8660150220001,0
                102.731146633,16.866197189,0
                102.731150583,16.866417158,0
                102.731148825,16.866436881,0
                102.730391656,16.874934228,0
                102.730594668,16.8751021210001,0
                102.73084617,16.8753298010001,0
                102.731085233,16.8755690840001,0
                102.73136897,16.8758897860001,0
                102.731541765,16.876081965,0
                102.731587486,16.8761328160001,0
                102.73176122,16.8763556600001,0
                102.731846751,16.8764039340001,0
                102.731952969,16.8764367210001,0
                102.73207163,16.876457724,0
                102.732258245,16.8765217490001,0
                102.732176155,16.8765869530001,0
                102.730511082,16.8799020920001,0
                102.73243671,16.882840276,0
                102.732439316,16.882844253,0
                102.731829361,16.885717589,0
                102.73182834,16.8857224000001,0
                102.733428833,16.885812565,0
                102.734779984,16.886415588,0
                102.734784831,16.886422983,0
                102.734791852,16.8864147730001,0
                102.735070096,16.886089446,0
                102.735071457,16.88608971,0
                102.735690757,16.8862099030001,0
                102.735692088,16.8862101620001,0
                102.735575678,16.8868052490001,0
                102.735574519,16.8868075460001,0
                102.73507753,16.8877924660001,0
                102.735275637,16.8878690710001,0
                102.735274555,16.8878717100001,0
                102.735911439,16.888141885,0
                102.73681541,16.888457934,0
                102.737997536,16.889381697,0
                102.738250175,16.8898294900001,0
                102.738091692,16.8905004150001,0
                102.737824813,16.891061103,0
                102.737703368,16.8913843290001,0
                102.737702211,16.891387407,0
                102.738211365,16.8916508520001,0
                102.738219392,16.8916630950001,0
                102.73829279,16.8920483950001,0
                102.738330507,16.8921357470001,0
                102.738339774,16.892157207,0
                102.738419047,16.89225084,0
                102.738522733,16.8923216220001,0
                102.738642605,16.8923848150001,0
                102.738851177,16.892425775,0
                102.739091748,16.892482623,0
                102.739155745,16.8925142200001,0
                102.739219664,16.8925459060001,0
                102.739274986,16.89262383,0
                102.739263699,16.8929021600001,0
                102.739285415,16.893766047,0
                102.739285484,16.893768741,0
                102.740969505,16.8946360200001,0
                102.740970294,16.894636426,0
                102.739875024,16.8955269910001,0
                102.739781187,16.895603292,0
                102.739778598,16.8956053950001,0
                102.739635068,16.8957202620001,0
                102.739603416,16.8957455940001,0
                102.739893247,16.896032415,0
                102.740771363,16.897147246,0
                102.740774521,16.8971512540001,0
                102.740330773,16.897647293,0
                102.740327737,16.8976506860001,0
                102.740333434,16.8976719,0
                102.740266959,16.8977485090001,0
                102.740508321,16.8988395260001,0
                102.739264002,16.8989146750001,0
                102.738684096,16.899047459,0
                102.738681936,16.899047953,0
                102.738792941,16.8992044120001,0
                102.738103179,16.8997539320001,0
                102.738101081,16.8997556040001,0
                102.738280872,16.90018324,0
                102.738281397,16.900184487,0
                102.738146708,16.900296278,0
                102.738142969,16.900299381,0
                102.739073532,16.9006899870001,0
                102.74005339,16.9010035160001,0
                102.740280157,16.9011618230001,0
                102.740143652,16.901547829,0
                102.739129578,16.9041958870001,0
                102.739128441,16.904198857,0
                102.740108411,16.9045046270001,0
                102.740495172,16.9045244220001,0
                102.741020362,16.9044293210001,0
                102.741495584,16.9043250570001,0
                102.741495494,16.9043273730001,0
                102.741455895,16.9053543650001,0
                102.74145418,16.905495452,0
                102.741637742,16.9054939920001,0
                102.738497875,16.914742249,0
                102.738492138,16.914759141,0
                102.734338186,16.9269925420001,0
                102.747089884,16.918955216,0
                102.766297494,16.9068456860001,0
                102.769385644,16.9048984140001,0
                102.769437213,16.9048658950001,0
                102.774499938,16.9016733280001,0
                102.774815607,16.9019660600001,0
                102.775037163,16.9021028670001,0
                102.775380038,16.90227965,0
                102.775813461,16.902409366,0
                102.776699747,16.902284423,0
                102.777742864,16.9020946090001,0
                102.778548686,16.9021207910001,0
                102.779275714,16.9019108310001,0
                102.77992543,16.9015962460001,0
                102.780965349,16.9008459390001,0
                102.781731209,16.899915532,0
                102.782010232,16.898766976,0
                102.782276055,16.897345203,0
                102.782629349,16.897047989,0
                102.783334976,16.896541975,0
                102.783931363,16.895928558,0
                102.784964648,16.8947418990001,0
                102.787057936,16.893159165,0
                102.788009734,16.8910081450001,0
                102.789549812,16.885385989,0
              </coordinates>
                
            </LinearRing>
            
          </outerBoundaryIs>
        
        </Polygon>
        
      <styleUrl>
        #tambonStyle</styleUrl>
    </Placemark>

  </Document>
</kml>