<?xml version="1.0" encoding="UTF-8"?>
<kml xmlns="http://www.opengis.net/kml/2.2">
  <Document id="tambon_doc">
    <name>ตะปอเยาะ, ยี่งอ, Narathiwat</name>
    <description>ข้อมูลขอบเขตตำบลตะปอเยาะ อำเภอยี่งอ จังหวัดNarathiwat</description>
    
    <!-- Schema สำหรับข้อมูลตำบล -->
    <Schema id="tambon.schema">
      <SimpleField name="ADM3_EN" type="string">
        <displayName>Subdistrict Name (English)</displayName>
      </SimpleField>
      <SimpleField name="ADM3_TH" type="string">
        <displayName>ชื่อตำบล</displayName>
      </SimpleField>
      <SimpleField name="ADM2_EN" type="string">
        <displayName>District Name (English)</displayName>
      </SimpleField>
      <SimpleField name="ADM2_TH" type="string">
        <displayName>ชื่ออำเภอ</displayName>
      </SimpleField>
      <SimpleField name="ADM1_EN" type="string">
        <displayName>Province Name (English)</displayName>
      </SimpleField>
      <SimpleField name="ADM1_TH" type="string">
        <displayName>ชื่อจังหวัด</displayName>
      </SimpleField>
      <SimpleField name="ADM0_EN" type="string">
        <displayName>Country Name (English)</displayName>
      </SimpleField>
      <SimpleField name="ADM0_TH" type="string">
        <displayName>ชื่อประเทศ</displayName>
      </SimpleField>
    </Schema>

    <!-- Style สำหรับตำบล -->
    <Style id="tambonStyle">
      <LineStyle>
        <color>ffff0000</color>
        <width>1.5</width>
      </LineStyle>
      <PolyStyle>
        <color>33ff0000</color>
        <fill>1</fill>
        <outline>1</outline>
      </PolyStyle>
    </Style>

    <Placemark id="Narathiwat.27">
        
        <ExtendedData>
            
          <SchemaData schemaUrl="#tambon.schema">
                
            <SimpleData name="Shape_Leng">
                0.26302212042</SimpleData>
                
            <SimpleData name="Shape_Area">
                0.00323283191398</SimpleData>
                
            <SimpleData name="ADM3_EN">
                Tapo Yo</SimpleData>
                
            <SimpleData name="ADM3_TH">
                ตะปอเยาะ</SimpleData>
                
            <SimpleData name="ADM3_PCODE">
                TH960406</SimpleData>
                
            <SimpleData name="ADM2_EN">
                Yi-Ngo</SimpleData>
                
            <SimpleData name="ADM2_TH">
                ยี่งอ</SimpleData>
                
            <SimpleData name="ADM2_PCODE">
                TH9604</SimpleData>
                
            <SimpleData name="ADM1_EN">
                Narathiwat</SimpleData>
                
            <SimpleData name="ADM1_TH">
                นราธิวาส</SimpleData>
                
            <SimpleData name="ADM1_PCODE">
                TH96</SimpleData>
                
            <SimpleData name="ADM0_EN">
                Thailand</SimpleData>
                
            <SimpleData name="ADM0_TH">
                ประเทศไทย</SimpleData>
                
            <SimpleData name="ADM0_PCODE">
                TH</SimpleData>
            
          </SchemaData>
        
        </ExtendedData>
        
        <Polygon>
            
          <outerBoundaryIs>
                
            <LinearRing>
                    
              <coordinates>
                    
                101.731666432,6.47400064500005,0
                101.731069761,6.47307988800003,0
                101.730268566,6.47276285200007,0
                101.729520936,6.47233426900004,0
                101.728872525,6.47176847600002,0
                101.728293183,6.47113172100006,0
                101.727713247,6.47048649100003,0
                101.727103097,6.46989224000004,0
                101.726370696,6.46945846200003,0
                101.725577192,6.46910522000007,0
                101.724944065,6.46853822000003,0
                101.724310836,6.46795992900007,0
                101.723555442,6.46754884100005,0
                101.722777622,6.46717407900007,0
                101.722014982,6.46677887100003,0
                101.721305495,6.46630373000005,0
                101.7206571,6.46573173900003,0
                101.72003116,6.46514432800006,0
                101.719420947,6.46453651700006,0
                101.718780431,6.46396273000005,0
                101.718109036,6.46342696800002,0
                101.717429855,6.46290254300004,0
                101.716743311,6.46238548300005,0
                101.716056821,6.46186956400004,0
                101.71537027,6.46134972300007,0
                101.714691591,6.46082018300007,0
                101.713982148,6.46033713400004,0
                101.713218923,6.45994135600006,0
                101.712441181,6.45957841200004,0
                101.711685816,6.45916959600004,0
                101.710991452,6.45866159800005,0
                101.710312766,6.45813096500007,0
                101.709618446,6.45763084100003,0
                101.70891683,6.45713479500006,0
                101.708214609,6.45663812300006,0
                101.707520826,6.45613351100008,0
                101.70683431,6.45561080400006,0
                101.706162947,6.45506995100004,0
                101.70547647,6.45456078300003,0
                101.704705967,6.45417175800003,0
                101.703912529,6.45382583400004,0
                101.703134242,6.45346171600005,0
                101.702409738,6.45301660100006,0
                101.701822555,6.45237698300002,0
                101.701242652,6.45173565700003,0
                101.700525529,6.45129271400003,0
                101.699747247,6.45092859500005,0
                101.698946577,6.45059849400008,0
                101.698145309,6.45026839900004,0
                101.697367068,6.44991163700007,0
                101.696588827,6.44954751100005,0
                101.695818342,6.44916584000003,0
                101.695063551,6.44875020700005,0
                101.694323206,6.44830400600006,0
                101.693591346,6.44785039200002,0
                101.692851083,6.44741150900006,0
                101.692095746,6.44701168000006,0
                101.69131034,6.44668374100007,0
                101.690478654,6.44646956800005,0
                101.689631917,6.44628652200004,0
                101.688800685,6.44605483600003,0
                101.687983977,6.44578350200004,0
                101.687175595,6.44549069500005,0
                101.686374516,6.44518766900006,0
                101.685573324,6.44486827700007,0
                101.684802888,6.44448827700006,0
                101.684086175,6.44401424000006,0
                101.683399665,6.44349430000005,0
                101.68272835,6.44295676100006,0
                101.682072166,6.44240334400007,0
                101.681400856,6.44186640000004,0
                101.68084875,6.44145189900007,0
                101.67959309,6.44103264800003,0
                101.678769248,6.44080485800004,0
                101.67790721,6.44072184700002,0
                101.677121285,6.44039950900003,0
                101.676342968,6.44002464400006,0
                101.675557473,6.43967801700006,0
                101.674741271,6.43940158500004,0
                101.673917276,6.43914384400006,0
                101.673116224,6.43884248500007,0
                101.672337993,6.43848341700004,0
                101.671560273,6.43811472500005,0
                101.670766974,6.43778226400002,0
                101.669957989,6.43747924500008,0
                101.669156926,6.43718184400007,0
                101.668356357,6.43686633300007,0
                101.667563007,6.43653050700004,0
                101.666776957,6.43618331300007,0
                101.66599877,6.43583096500004,0
                101.665213246,6.43547588000007,0
                101.664434963,6.43510602100002,0
                101.663672341,6.43470958100005,0
                101.662917037,6.43430176600003,0
                101.662161722,6.43389399700004,0
                101.661406323,6.43347655800005,0
                101.660643809,6.43309140500003,0
                101.659819817,6.43283082000005,0
                101.658965548,6.43283300700006,0
                101.658095824,6.43289401300007,0
                101.65724142,6.43286965800007,0
                101.656432653,6.43260725200003,0
                101.655647027,6.43223123200005,0
                101.654823254,6.43201357700002,0
                101.6539691,6.43192366000005,0
                101.653107132,6.43186151300006,0
                101.652252223,6.43173321300003,0
                101.651405909,6.43163536900005,0
                101.650559126,6.43176853900007,0
                101.649712394,6.43191865700004,0
                101.648842771,6.43200111500005,0
                101.648011013,6.43187776300005,0
                101.64739089,6.43162793800008,0
                101.646268805,6.43279216100007,0
                101.644676138,6.43347422400007,0
                101.643255531,6.43412148900006,0
                101.641697218,6.43501060700004,0
                101.640403416,6.43594529500007,0
                101.639305433,6.43729405000005,0
                101.638002643,6.43944931700003,0
                101.637581532,6.44088944600003,0
                101.63719617,6.44280104300003,0
                101.637006151,6.44503524500004,0
                101.636942516,6.44725754300003,0
                101.636085586,6.44860620500003,0
                101.635217444,6.45018478800006,0
                101.634658468,6.45161379700005,0
                101.634112668,6.45351437400006,0
                101.634460724,6.45519453300005,0
                101.635048878,6.45657526400004,0
                101.634776927,6.45814177200003,0
                101.633586598,6.45934136700004,0
                101.633200534,6.46089599700002,0
                101.633892579,6.46259924800006,0
                101.63489358,6.46377225500004,0
                101.635974841,6.46507135500002,0
                101.636873477,6.46696948700003,0
                101.636797352,6.46873153100006,0
                101.636537736,6.47038999500006,0
                101.636343556,6.47203627900006,0
                101.638561065,6.47226310500002,0
                101.640717372,6.47223664800003,0
                101.642793594,6.47233656400005,0
                101.644479997,6.47228821700003,0
                101.646418095,6.47221545600007,0
                101.648287438,6.47205151300005,0
                101.649961518,6.47180670500006,0
                101.652025629,6.47153839200007,0
                101.654044323,6.47154650200002,0
                101.65565079,6.47176289000004,0
                101.657475511,6.47203573400003,0
                101.659219938,6.47240163100003,0
                101.661216277,6.47255892800007,0
                101.662866349,6.47183072600006,0
                101.664724639,6.47194297200002,0
                101.666503305,6.47226233000004,0
                101.668029399,6.47255930800003,0
                101.66959072,6.47289056200003,0
                101.671232057,6.47340549700004,0
                101.673321617,6.47421964800003,0
                101.675353684,6.47505666900003,0
                101.676743388,6.47560681200002,0
                101.678293361,6.47624866800004,0
                101.679900612,6.47693660400006,0
                101.681829439,6.47768152600003,0
                101.68371242,6.47840407600006,0
                101.685515363,6.47914909300005,0
                101.687191908,6.48002128500002,0
                101.688925972,6.48088183900006,0
                101.690442553,6.48182318800002,0
                101.6924874,6.48314351600004,0
                101.694509621,6.48434872800004,0
                101.696577889,6.48581860000007,0
                101.698473297,6.48707020900002,0
                101.70009396,6.48825325000007,0
                101.701598812,6.48932167500004,0
                101.703219054,6.49042394000003,0
                101.705895896,6.49218079000002,0
                101.707546199,6.49351838200005,0
                101.708819888,6.49454226300003,0
                101.710471739,6.49595778000003,0
                101.711722683,6.49705068500003,0
                101.71288125,6.49808590000004,0
                101.715930867,6.49994962600005,0
                101.715692942,6.49718244600007,0
                101.716801468,6.49551100100007,0
                101.717841853,6.49419684400004,0
                101.718893142,6.49260592100006,0
                101.719887386,6.49100397700005,0
                101.720938396,6.48925208500003,0
                101.721851656,6.48771890000006,0
                101.722868946,6.48610502900004,0
                101.723816935,6.48461855600004,0
                101.725017037,6.48298105400005,0
                101.726115268,6.48162087100008,0
                101.72740705,6.47991455400006,0
                101.728686942,6.47800102600007,0
                101.730012444,6.47606412300007,0
                101.730915678,6.47487665100005,0
                101.731666432,6.47400064500005,0
              </coordinates>
                
            </LinearRing>
            
          </outerBoundaryIs>
        
        </Polygon>
        
      <styleUrl>
        #tambonStyle</styleUrl>
    </Placemark>

  </Document>
</kml>