<?xml version="1.0" encoding="UTF-8"?>
<kml xmlns="http://www.opengis.net/kml/2.2">
  <Document id="tambon_doc">
    <name>กาเกาะ, เมืองสุรินทร์, Surin</name>
    <description>ข้อมูลขอบเขตตำบลกาเกาะ อำเภอเมืองสุรินทร์ จังหวัดSurin</description>
    
    <!-- Schema สำหรับข้อมูลตำบล -->
    <Schema id="tambon.schema">
      <SimpleField name="ADM3_EN" type="string">
        <displayName>Subdistrict Name (English)</displayName>
      </SimpleField>
      <SimpleField name="ADM3_TH" type="string">
        <displayName>ชื่อตำบล</displayName>
      </SimpleField>
      <SimpleField name="ADM2_EN" type="string">
        <displayName>District Name (English)</displayName>
      </SimpleField>
      <SimpleField name="ADM2_TH" type="string">
        <displayName>ชื่ออำเภอ</displayName>
      </SimpleField>
      <SimpleField name="ADM1_EN" type="string">
        <displayName>Province Name (English)</displayName>
      </SimpleField>
      <SimpleField name="ADM1_TH" type="string">
        <displayName>ชื่อจังหวัด</displayName>
      </SimpleField>
      <SimpleField name="ADM0_EN" type="string">
        <displayName>Country Name (English)</displayName>
      </SimpleField>
      <SimpleField name="ADM0_TH" type="string">
        <displayName>ชื่อประเทศ</displayName>
      </SimpleField>
    </Schema>

    <!-- Style สำหรับตำบล -->
    <Style id="tambonStyle">
      <LineStyle>
        <color>ffff0000</color>
        <width>1.5</width>
      </LineStyle>
      <PolyStyle>
        <color>33ff0000</color>
        <fill>1</fill>
        <outline>1</outline>
      </PolyStyle>
    </Style>

    <Placemark id="Surin.21">
        
        <ExtendedData>
            
          <SchemaData schemaUrl="#tambon.schema">
                
            <SimpleData name="Shape_Leng">
                0.308623222501</SimpleData>
                
            <SimpleData name="Shape_Area">
                0.00352127109762</SimpleData>
                
            <SimpleData name="ADM3_EN">
                Ka Ko</SimpleData>
                
            <SimpleData name="ADM3_TH">
                กาเกาะ</SimpleData>
                
            <SimpleData name="ADM3_PCODE">
                TH320126</SimpleData>
                
            <SimpleData name="ADM2_EN">
                Mueang Surin</SimpleData>
                
            <SimpleData name="ADM2_TH">
                เมืองสุรินทร์</SimpleData>
                
            <SimpleData name="ADM2_PCODE">
                TH3201</SimpleData>
                
            <SimpleData name="ADM1_EN">
                Surin</SimpleData>
                
            <SimpleData name="ADM1_TH">
                สุรินทร์</SimpleData>
                
            <SimpleData name="ADM1_PCODE">
                TH32</SimpleData>
                
            <SimpleData name="ADM0_EN">
                Thailand</SimpleData>
                
            <SimpleData name="ADM0_TH">
                ประเทศไทย</SimpleData>
                
            <SimpleData name="ADM0_PCODE">
                TH</SimpleData>
            
          </SchemaData>
        
        </ExtendedData>
        
        <Polygon>
            
          <outerBoundaryIs>
                
            <LinearRing>
                    
              <coordinates>
                    
                103.503404356,15.125290046,0
                103.503871154,15.1244992380001,0
                103.504357703,15.1233003510001,0
                103.504669016,15.1222346870001,0
                103.504805543,15.121323865,0
                103.50514687,15.120625165,0
                103.505623055,15.119988639,0
                103.506342588,15.1192823870001,0
                103.507173807,15.118595525,0
                103.508136674,15.117819546,0
                103.509307533,15.1174069730001,0
                103.51027954,15.1170632290001,0
                103.511099019,15.1168738810001,0
                103.512478786,15.1168679190001,0
                103.514084685,15.117030394,0
                103.514826166,15.117361498,0
                103.51561288,15.117415137,0
                103.515806862,15.1174283610001,0
                103.516270838,15.1172677280001,0
                103.5168183,15.11684597,0
                103.517008437,15.1163665020001,0
                103.516998354,15.115891042,0
                103.516828876,15.1152458010001,0
                103.51654863,15.1146244010001,0
                103.516384656,15.114238502,0
                103.516307293,15.1140192930001,0
                103.516382896,15.1137108610001,0
                103.516549489,15.113507532,0
                103.517245007,15.1126586710001,0
                103.5183123,15.1114872520001,0
                103.519124561,15.1102371690001,0
                103.521429802,15.1070255390001,0
                103.522086145,15.106276962,0
                103.52301683,15.105762375,0
                103.523037796,15.1057562710001,0
                103.523557368,15.1055979230001,0
                103.523791331,15.1055206570001,0
                103.523879184,15.10546307,0
                103.523874828,15.105393373,0
                103.523855346,15.1052876910001,0
                103.523634248,15.10480821,0
                103.52352724,15.104633334,0
                103.523430325,15.104355277,0
                103.523244276,15.1039869000001,0
                103.523098005,15.103706147,0
                103.522934425,15.103503108,0
                103.522859123,15.103349877,0
                103.522752208,15.1029578100001,0
                103.522637086,15.102536432,0
                103.522600943,15.1024413660001,0
                103.522550883,15.102405526,0
                103.522509344,15.102413728,0
                103.522442131,15.1024629660001,0
                103.52231536,15.1025649760001,0
                103.522139152,15.10266061,0
                103.521906014,15.1027537000001,0
                103.521672249,15.102817326,0
                103.521555211,15.1028417740001,0
                103.521415034,15.1028482670001,0
                103.521230002,15.102885126,0
                103.520867664,15.102966066,0
                103.520633508,15.103011279,0
                103.52061553,15.1030129820001,0
                103.520485909,15.1030252840001,0
                103.520034638,15.1028464190001,0
                103.519919749,15.102793456,0
                103.51985375,15.102721092,0
                103.5197516,15.102553663,0
                103.519661609,15.102422834,0
                103.519499126,15.102271349,0
                103.519365873,15.102067694,0
                103.519258841,15.1018487870001,0
                103.519201796,15.1016620300001,0
                103.519111341,15.1011517370001,0
                103.519058362,15.1007991120001,0
                103.518998815,15.10049451,0
                103.518953218,15.1003112110001,0
                103.518746199,15.0998474570001,0
                103.518557662,15.0993612300001,0
                103.51837889,15.0990342970001,0
                103.518364359,15.0990077230001,0
                103.518214622,15.098741772,0
                103.518040737,15.098409986,0
                103.517932814,15.098207474,0
                103.517799842,15.0979579580001,0
                103.517696687,15.097742655,0
                103.517588182,15.097453769,0
                103.517506811,15.0971579210001,0
                103.517481361,15.097065377,0
                103.51741491,15.096613543,0
                103.517298802,15.096040359,0
                103.516154885,15.0960357070001,0
                103.515805956,15.096013726,0
                103.515519839,15.0959923360001,0
                103.515268619,15.0959763560001,0
                103.515083173,15.095955315,0
                103.514863173,15.0959298970001,0
                103.51460289,15.0958989810001,0
                103.514420728,15.0958630320001,0
                103.514250402,15.0958229890001,0
                103.514172572,15.0958280190001,0
                103.514072487,15.0958127640001,0
                103.513967387,15.095797471,0
                103.513793882,15.0957516830001,0
                103.513568171,15.0957111660001,0
                103.513422266,15.0956673470001,0
                103.513238766,15.0956182370001,0
                103.512679227,15.0955730480001,0
                103.511299086,15.0957098480001,0
                103.510463659,15.0958273790001,0
                103.510253114,15.0958702770001,0
                103.510107424,15.096017751,0
                103.507661099,15.0915395170001,0
                103.507636497,15.0914661680001,0
                103.507234556,15.090053396,0
                103.507202475,15.089987321,0
                103.50716299,15.0899543890001,0
                103.507111509,15.089933596,0
                103.507036006,15.089935101,0
                103.506908751,15.089963422,0
                103.505418994,15.0904268890001,0
                103.505358525,15.0904505410001,0
                103.505323747,15.090447268,0
                103.505288554,15.0904241690001,0
                103.505244314,15.0903595930001,0
                103.505214161,15.090274272,0
                103.505113137,15.0896392940001,0
                103.505212195,15.0884006060001,0
                103.505216096,15.0882493340001,0
                103.50521219,15.088064278,0
                103.505188233,15.0878320210001,0
                103.505154949,15.087673554,0
                103.505136785,15.0875870840001,0
                103.505133505,15.087569742,0
                103.50511534,15.087473791,0
                103.505088674,15.0873711780001,0
                103.505016871,15.087322359,0
                103.50492114,15.087300461,0
                103.504714185,15.08729665,0
                103.504521112,15.087305789,0
                103.50435003,15.087325068,0
                103.504184445,15.0873468790001,0
                103.503957173,15.087412235,0
                103.50369506,15.0874705790001,0
                103.503317772,15.087554562,0
                103.503315747,15.087538039,0
                103.503204281,15.0875578640001,0
                103.502525149,15.08772415,0
                103.5019567,15.087861887,0
                103.501725259,15.087923785,0
                103.501237983,15.0879449610001,0
                103.500922506,15.087816016,0
                103.500778054,15.0874960090001,0
                103.500000744,15.0875407840001,0
                103.499383482,15.08750317,0
                103.498817027,15.0874509720001,0
                103.49767872,15.0873669380001,0
                103.496396427,15.0872335,0
                103.495593584,15.0870774370001,0
                103.494886878,15.0868441710001,0
                103.494035123,15.0866501150001,0
                103.493627558,15.08652182,0
                103.492868885,15.086325882,0
                103.491993251,15.086219581,0
                103.491272793,15.0861042650001,0
                103.490394708,15.0859778440001,0
                103.490056544,15.0859077700001,0
                103.489782051,15.0858654580001,0
                103.489611586,15.0858271340001,0
                103.489410567,15.085789931,0
                103.489351652,15.085788811,0
                103.489300184,15.085805852,0
                103.489268226,15.0858545520001,0
                103.489253429,15.0859349570001,0
                103.489248914,15.0860563520001,0
                103.489263766,15.0862025440001,0
                103.489260358,15.0862644050001,0
                103.489251804,15.086305775,0
                103.489214997,15.086347705,0
                103.489165981,15.086369276,0
                103.489114416,15.0863817470001,0
                103.488956699,15.086387164,0
                103.488820123,15.0863898760001,0
                103.488665288,15.0864204160001,0
                103.488501512,15.0864740220001,0
                103.488356339,15.0865158130001,0
                103.488064738,15.0865399140001,0
                103.487730844,15.0865694290001,0
                103.487342215,15.086572565,0
                103.486826096,15.086562209,0
                103.486343612,15.0865832260001,0
                103.486042446,15.086600649,0
                103.485658764,15.0866151280001,0
                103.485072771,15.0866427720001,0
                103.484726671,15.086651928,0
                103.484354669,15.0866615960001,0
                103.483934511,15.0866218630001,0
                103.483479612,15.0866102850001,0
                103.483163068,15.086568497,0
                103.48284897,15.0865312350001,0
                103.482587016,15.086508962,0
                103.482447509,15.0864842620001,0
                103.482357022,15.08643799,0
                103.48226384,15.086375752,0
                103.482152206,15.086332187,0
                103.482029229,15.08630945,0
                103.481809756,15.086290908,0
                103.48156933,15.086284231,0
                103.481406563,15.0862737250001,0
                103.48123164,15.08624515,0
                103.481023026,15.086182906,0
                103.480880587,15.0861307960001,0
                103.48073863,15.0861015680001,0
                103.480549914,15.086089282,0
                103.480363603,15.086079243,0
                103.480123417,15.0860840020001,0
                103.479765585,15.0860956720001,0
                103.479480662,15.086101317,0
                103.479294734,15.0861095760001,0
                103.479108466,15.086101824,0
                103.479044984,15.0861076570001,0
                103.473432648,15.0876112830001,0
                103.469941116,15.089202449,0
                103.466452177,15.0909203640001,0
                103.463999216,15.092237256,0
                103.461856809,15.094181108,0
                103.461022704,15.094963992,0
                103.460528565,15.095500659,0
                103.460318583,15.0957080690001,0
                103.459977445,15.0959818330001,0
                103.459881159,15.0960674,0
                103.459789218,15.0961319670001,0
                103.459669901,15.096198096,0
                103.459654428,15.096206674,0
                103.459535505,15.0962392340001,0
                103.459418631,15.0962554820001,0
                103.459237052,15.0962660390001,0
                103.459180327,15.096268197,0
                103.45911037,15.096270862,0
                103.459048591,15.096290675,0
                103.45902526,15.0963190210001,0
                103.459014713,15.0963866290001,0
                103.459014114,15.096990141,0
                103.459013951,15.0971512620001,0
                103.458998477,15.097211992,0
                103.458968364,15.0972590710001,0
                103.458923661,15.0972948150001,0
                103.458871495,15.0973167600001,0
                103.458758949,15.0973299400001,0
                103.458618249,15.0973464190001,0
                103.458537416,15.0973558900001,0
                103.458350711,15.097350277,0
                103.458240137,15.097324569,0
                103.458219157,15.0973119610001,0
                103.458157769,15.0972750660001,0
                103.45809209,15.0972229060001,0
                103.458019339,15.0971755350001,0
                103.457961122,15.0971371750001,0
                103.457677562,15.0970753730001,0
                103.457229205,15.097026113,0
                103.457143027,15.0970231650001,0
                103.457069,15.097029273,0
                103.456995115,15.097042355,0
                103.456914155,15.0970602190001,0
                103.456852327,15.097077707,0
                103.456755398,15.097081813,0
                103.456572524,15.0970812900001,0
                103.456324845,15.097032459,0
                103.455826108,15.096976188,0
                103.455647743,15.0969879680001,0
                103.455558904,15.09701038,0
                103.45548759,15.097057234,0
                103.455472223,15.097136042,0
                103.455479516,15.097201666,0
                103.455508884,15.0974658550001,0
                103.455577886,15.09791898,0
                103.455571284,15.098010005,0
                103.455525642,15.098064617,0
                103.455486945,15.0980813730001,0
                103.455162665,15.098221774,0
                103.45466617,15.0984163300001,0
                103.454621663,15.0984328920001,0
                103.454562263,15.0984236080001,0
                103.454470331,15.0984027600001,0
                103.454405803,15.0984057740001,0
                103.454330809,15.0984229420001,0
                103.45422203,15.098454718,0
                103.454108057,15.098495311,0
                103.453996056,15.0985445800001,0
                103.453836289,15.0986261670001,0
                103.453774468,15.098672707,0
                103.453748258,15.09870634,0
                103.453736614,15.098750146,0
                103.453737561,15.098795449,0
                103.453746188,15.0988650030001,0
                103.453763932,15.098941349,0
                103.453757705,15.098986789,0
                103.453709201,15.0990696690001,0
                103.453660624,15.0991490640001,0
                103.453623941,15.0991968490001,0
                103.453594147,15.0992305570001,0
                103.453591757,15.0992316690001,0
                103.453555057,15.09924876,0
                103.453491076,15.0992779060001,0
                103.453434162,15.0993016890001,0
                103.453388078,15.099328744,0
                103.453319557,15.099398072,0
                103.453218123,15.0995238310001,0
                103.453184451,15.099543668,0
                103.453139689,15.099548038,0
                103.453060595,15.0995408810001,0
                103.453028278,15.099533186,0
                103.452790136,15.099476489,0
                103.452669611,15.099461433,0
                103.452614092,15.0994660120001,0
                103.452597306,15.0994797700001,0
                103.452577047,15.0994963740001,0
                103.452486157,15.0996114650001,0
                103.452333394,15.099856764,0
                103.452289097,15.0999691910001,0
                103.452268809,15.100028858,0
                103.452229107,15.100290252,0
                103.452216762,15.100371522,0
                103.452196066,15.1004974300001,0
                103.452178786,15.100529147,0
                103.452150454,15.100547136,0
                103.452107414,15.100547985,0
                103.452024188,15.100514762,0
                103.45161254,15.1003006940001,0
                103.451494551,15.1002393380001,0
                103.451409426,15.100200924,0
                103.451371655,15.1001964380001,0
                103.451312512,15.100199348,0
                103.451255919,15.1002388100001,0
                103.451204786,15.1002816490001,0
                103.451099836,15.100410961,0
                103.450970061,15.1006401180001,0
                103.450958744,15.1006996030001,0
                103.450961843,15.100762294,0
                103.45098094,15.100817695,0
                103.451012306,15.100858913,0
                103.451234215,15.101089852,0
                103.451256171,15.1011103380001,0
                103.451262389,15.1011503080001,0
                103.451227131,15.1012660420001,0
                103.451202675,15.1012979010001,0
                103.451174165,15.1013071780001,0
                103.451131122,15.101308026,0
                103.450981686,15.1012830780001,0
                103.45094044,15.101283891,0
                103.45090515,15.1013124780001,0
                103.450880699,15.1013443360001,0
                103.450850526,15.101446025,0
                103.450826694,15.1015075060001,0
                103.450800628,15.101548107,0
                103.450765378,15.101578434,0
                103.450712411,15.101619568,0
                103.450664682,15.1016536290001,0
                103.450606153,15.101686154,0
                103.450494404,15.1017476230001,0
                103.450428811,15.101785518,0
                103.450393634,15.1018193300001,0
                103.450376537,15.101859759,0
                103.450351054,15.1019282390001,0
                103.45033677,15.102017419,0
                103.450328749,15.102062894,0
                103.450323379,15.102075777,0
                103.450313369,15.1020998020001,0
                103.450279914,15.1021300940001,0
                103.450233938,15.102162376,0
                103.450169887,15.1021880390001,0
                103.450052393,15.1022321900001,0
                103.449830919,15.1022801290001,0
                103.449760973,15.102281507,0
                103.449677934,15.1022569960001,0
                103.449608837,15.102213035,0
                103.44954644,15.102146287,0
                103.449359265,15.101845145,0
                103.449336661,15.101808776,0
                103.449268225,15.1016881350001,0
                103.449258426,15.1016708710001,0
                103.449257263,15.1016694360001,0
                103.449206867,15.1016073920001,0
                103.449121161,15.101541103,0
                103.449034057,15.101494012,0
                103.44895625,15.101462423,0
                103.44887716,15.101455265,0
                103.448771491,15.101464321,0
                103.448490689,15.1015064530001,0
                103.448102419,15.1015668370001,0
                103.448040082,15.101569661,0
                103.447970947,15.1015614500001,0
                103.447916351,15.1015417850001,0
                103.447839916,15.1014986220001,0
                103.447699912,15.101399282,0
                103.447558168,15.1012951860001,0
                103.447307903,15.101105488,0
                103.44718606,15.101010574,0
                103.447087654,15.1009375310001,0
                103.447052787,15.100919074,0
                103.446966904,15.1008952390001,0
                103.44685174,15.1008847470001,0
                103.446739965,15.100878972,0
                103.446701527,15.1008716850001,0
                103.446678967,15.1008674080001,0
                103.446629093,15.100838077,0
                103.446602281,15.1008110610001,0
                103.446587163,15.100795831,0
                103.446518037,15.100709452,0
                103.446434886,15.1005802720001,0
                103.446349693,15.100431993,0
                103.446302438,15.100370706,0
                103.446257425,15.100338091,0
                103.446186243,15.1003107770001,0
                103.446126891,15.100299185,0
                103.446057887,15.100297352,0
                103.445961448,15.1003183930001,0
                103.445862256,15.100365013,0
                103.445707753,15.100436648,0
                103.445640794,15.1004539190001,0
                103.445583277,15.100451864,0
                103.445530257,15.1004289740001,0
                103.445493183,15.10038344,0
                103.445431732,15.1002713830001,0
                103.445385921,15.100200498,0
                103.445338866,15.10014878,0
                103.445283804,15.10010679,0
                103.445235673,15.1000822130001,0
                103.445174607,15.1000674630001,0
                103.445142508,15.10006406,0
                103.445085744,15.100058043,0
                103.444916848,15.1000693440001,0
                103.444767554,15.1000754720001,0
                103.444652592,15.1000745420001,0
                103.444527517,15.10006105,0
                103.444425283,15.1000407240001,0
                103.444248062,15.0999676390001,0
                103.443922459,15.099865564,0
                103.443773973,15.099831792,0
                103.443704867,15.099825176,0
                103.443647552,15.0998326820001,0
                103.443554426,15.099855255,0
                103.443485757,15.0998693660001,0
                103.443439766,15.0998686780001,0
                103.443408146,15.0998485590001,0
                103.443383061,15.0998267160001,0
                103.443354163,15.0997794300001,0
                103.443346447,15.0997578880001,0
                103.443280937,15.0995750720001,0
                103.443233265,15.0994148880001,0
                103.443212738,15.099375407,0
                103.443185978,15.0993520060001,0
                103.443157676,15.0993334180001,0
                103.443113228,15.0993279080001,0
                103.443067436,15.0993367890001,0
                103.443000604,15.0993604350001,0
                103.442878901,15.0994298320001,0
                103.442774577,15.099492947,0
                103.442678877,15.099523192,0
                103.442591512,15.099533416,0
                103.442509512,15.0995208460001,0
                103.442415312,15.0994829950001,0
                103.442282763,15.0994260460001,0
                103.442165338,15.099394321,0
                103.442057313,15.0993936090001,0
                103.441918303,15.0994207140001,0
                103.441836769,15.09944784,0
                103.441738885,15.0994784800001,0
                103.441589141,15.099542044,0
                103.441426467,15.099615439,0
                103.441260442,15.099685704,0
                103.441122155,15.099747446,0
                103.440988594,15.0997995270001,0
                103.440820594,15.099853879,0
                103.440704624,15.09988328,0
                103.440567077,15.0999019340001,0
                103.440392927,15.0999069760001,0
                103.440027882,15.09990721,0
                103.440108842,15.1011996870001,0
                103.439993023,15.1018358970001,0
                103.439897258,15.1024020520001,0
                103.439876995,15.102806495,0
                103.439904444,15.103091572,0
                103.439960419,15.103369124,0
                103.440081047,15.1036523700001,0
                103.440228603,15.103851493,0
                103.440448124,15.104063131,0
                103.440782622,15.104286442,0
                103.441015463,15.104449055,0
                103.441198863,15.1046474720001,0
                103.441347727,15.104909263,0
                103.441499058,15.1052894320001,0
                103.441613102,15.105600671,0
                103.441661765,15.105871403,0
                103.441667859,15.106163866,0
                103.441664466,15.106345054,0
                103.441625525,15.106540878,0
                103.441495432,15.1068360200001,0
                103.441302426,15.107209029,0
                103.441143229,15.1074838440001,0
                103.440954057,15.107696552,0
                103.440699792,15.1078826780001,0
                103.440351908,15.108049742,0
                103.439810064,15.1081997200001,0
                103.438610526,15.1084462260001,0
                103.437132602,15.108753925,0
                103.436233665,15.1089736120001,0
                103.435684063,15.1090958660001,0
                103.435383887,15.109143564,0
                103.435147495,15.109155174,0
                103.434860202,15.109132951,0
                103.43456487,15.109069085,0
                103.434225088,15.1089364330001,0
                103.433790675,15.108735971,0
                103.433152953,15.1084141100001,0
                103.432609575,15.108146119,0
                103.431562787,15.1074630630001,0
                103.430588843,15.106834301,0
                103.429595428,15.106303446,0
                103.429088039,15.1060417080001,0
                103.428543803,15.105731925,0
                103.428034393,15.1053726980001,0
                103.427649728,15.1051503480001,0
                103.427381195,15.104995381,0
                103.427164576,15.1049229990001,0
                103.426906537,15.1049280570001,0
                103.426627862,15.104975316,0
                103.426350056,15.10506436,0
                103.426212182,15.105117207,0
                103.426101063,15.105159803,0
                103.425953285,15.105295057,0
                103.425878924,15.1055124750001,0
                103.425842135,15.1058127530001,0
                103.425750459,15.1062325340001,0
                103.425620344,15.106527672,0
                103.425455687,15.1068861860001,0
                103.425437804,15.107060695,0
                103.425456038,15.107248434,0
                103.425547115,15.1074904710001,0
                103.425785451,15.10791772,0
                103.426114284,15.1085591500001,0
                103.426399391,15.1091666070001,0
                103.426670536,15.109769472,0
                103.42687303,15.1102196950001,0
                103.427223809,15.1108815900001,0
                103.427473807,15.1115245620001,0
                103.42762556,15.1119256420001,0
                103.427711496,15.112265307,0
                103.427753272,15.112550109,0
                103.427746316,15.112905531,0
                103.427726324,15.1133239070001,0
                103.42768954,15.113624182,0
                103.427610473,15.113960123,0
                103.42750331,15.1143244780001,0
                103.427398705,15.114784951,0
                103.427341119,15.1150711560001,0
                103.427243981,15.1155891970001,0
                103.427220287,15.1157468810001,0
                103.427229351,15.116182978,0
                103.427268645,15.116557248,0
                103.427322735,15.116885306,0
                103.427423924,15.117204787,0
                103.427532509,15.1175011600001,0
                103.427689301,15.117842513,0
                103.427844346,15.118099704,0
                103.428014031,15.118303032,0
                103.428247675,15.1185510230001,0
                103.428616319,15.118849948,0
                103.428856406,15.1190289310001,0
                103.429119167,15.1191615450001,0
                103.429627343,15.119350572,0
                103.430244349,15.119468576,0
                103.431074159,15.1195900550001,0
                103.431508275,15.119627452,0
                103.431738582,15.119714775,0
                103.432001818,15.119870339,0
                103.43248264,15.1202588960001,0
                103.432844687,15.1206191700001,0
                103.433190986,15.1209797540001,0
                103.433339438,15.121298301,0
                103.433391789,15.1215421960001,0
                103.433389809,15.121825428,0
                103.433301834,15.1221409660001,0
                103.433064217,15.122459442,0
                103.432639174,15.122858142,0
                103.4322236,15.1233331940001,0
                103.43173953,15.1239244,0
                103.431332462,15.1244298990001,0
                103.430957692,15.1249730330001,0
                103.430592075,15.1255772170001,0
                103.430230434,15.126372675,0
                103.429914611,15.127098346,0
                103.429703958,15.1275770230001,0
                103.429515018,15.127963429,0
                103.429376912,15.128142183,0
                103.429136581,15.1283305970001,0
                103.428693698,15.12863014,0
                103.428383114,15.1288505520001,0
                103.428148267,15.1289240460001,0
                103.42787921,15.1288680970001,0
                103.427606967,15.128659133,0
                103.427226928,15.128192047,0
                103.426876163,15.1276172340001,0
                103.426626919,15.1273772010001,0
                103.426419752,15.1272664570001,0
                103.426206465,15.127240027,0
                103.426042345,15.127304478,0
                103.425809725,15.127485086,0
                103.425655257,15.1277416630001,0
                103.425581236,15.1278646110001,0
                103.425078122,15.1286781480001,0
                103.424437689,15.1297086880001,0
                103.424295203,15.1300559110001,0
                103.424259797,15.1302479560001,0
                103.424279844,15.130454217,0
                103.424385415,15.1306052250001,0
                103.42461987,15.1308914790001,0
                103.424813351,15.131101992,0
                103.425129908,15.131547364,0
                103.42515807,15.1316190740001,0
                103.425287986,15.131949918,0
                103.425720114,15.131699822,0
                103.42595886,15.131518452,0
                103.426260165,15.131430086,0
                103.426536988,15.1313304170001,0
                103.426973091,15.1313100790001,0
                103.427216489,15.1313524170001,0
                103.427425238,15.1314778870001,0
                103.427721774,15.131742978,0
                103.428225231,15.132628292,0
                103.428416442,15.132785025,0
                103.4286641,15.132886167,0
                103.428900827,15.132899186,0
                103.429298792,15.1327941960001,0
                103.429731285,15.1326001790001,0
                103.430147247,15.1324859960001,0
                103.430500314,15.132408389,0
                103.430899747,15.132374037,0
                103.431262641,15.132331569,0
                103.431653169,15.132306225,0
                103.432235335,15.1323124520001,0
                103.432582068,15.1323674760001,0
                103.432836791,15.1323713,0
                103.433209135,15.132346311,0
                103.433418219,15.1323422,0
                103.433583876,15.1324361210001,0
                103.433633375,15.1326295000001,0
                103.43365616,15.1328499000001,0
                103.4336704,15.133096978,0
                103.43363065,15.13337162,0
                103.433585306,15.1335342570001,0
                103.43352911,15.133735813,0
                103.433530138,15.134221671,0
                103.433543648,15.134433422,0
                103.433631353,15.1347143900001,0
                103.433781222,15.134923461,0
                103.433975807,15.135096317,0
                103.43404294,15.1352628440001,0
                103.434192625,15.135463084,0
                103.434405945,15.135662074,0
                103.434662692,15.135763034,0
                103.434948005,15.135925269,0
                103.435206046,15.136088043,0
                103.43544682,15.136295322,0
                103.435630296,15.136371221,0
                103.435774828,15.1363242040001,0
                103.435857058,15.136284636,0
                103.435970614,15.1362645460001,0
                103.436146726,15.1362467920001,0
                103.436414191,15.1362022440001,0
                103.436828446,15.136144093,0
                103.437048732,15.1361290410001,0
                103.437214266,15.136132929,0
                103.437287467,15.1361172000001,0
                103.43736383,15.136076412,0
                103.437429314,15.1360429800001,0
                103.437502514,15.136027256,0
                103.437586972,15.136022021,0
                103.437657544,15.136056346,0
                103.437706735,15.1361232350001,0
                103.437778873,15.136232529,0
                103.437876887,15.136348454,0
                103.43798518,15.136428466,0
                103.438073753,15.1364445780001,0
                103.438202536,15.136449186,0
                103.438330716,15.136425235,0
                103.438451181,15.136383579,0
                103.438596997,15.1363235630001,0
                103.438811596,15.1362121970001,0
                103.438916612,15.136135129,0
                103.439032278,15.1360399930001,0
                103.439162648,15.135944572,0
                103.439271487,15.1358745690001,0
                103.439442207,15.1357747820001,0
                103.439573394,15.135718625,0
                103.439788079,15.135665008,0
                103.439944529,15.135644998,0
                103.440093332,15.135675927,0
                103.440139009,15.1357766140001,0
                103.440159965,15.1359455140001,0
                103.440191223,15.1361903970001,0
                103.440238665,15.1363757070001,0
                103.440318445,15.13659662,0
                103.440435026,15.1367800360001,0
                103.440511708,15.136930907,0
                103.44055869,15.137068073,0
                103.440602165,15.137271981,0
                103.440650247,15.1374615070001,0
                103.440777549,15.137454237,0
                103.440959156,15.1374649430001,0
                103.441062459,15.137481957,0
                103.441114816,15.1374994710001,0
                103.441172156,15.1375246220001,0
                103.441221275,15.137544679,0
                103.441261039,15.137570177,0
                103.441297018,15.137608888,0
                103.441345171,15.1376473600001,0
                103.441383873,15.1376793490001,0
                103.441405736,15.137697417,0
                103.441448288,15.137726801,0
                103.441471876,15.137755242,0
                103.441484896,15.137795722,0
                103.441494931,15.1378875070001,0
                103.441501412,15.137938627,0
                103.441503694,15.1379832590001,0
                103.441511113,15.138014651,0
                103.441525352,15.1380485330001,0
                103.44155289,15.138071643,0
                103.441594032,15.138098427,0
                103.44165118,15.1381143850001,0
                103.441651942,15.138114479,0
                103.441773236,15.1381290630001,0
                103.441824896,15.1381411850001,0
                103.441868634,15.1381626620001,0
                103.441926112,15.1381943800001,0
                103.441977935,15.138214384,0
                103.442004042,15.138233578,0
                103.442018277,15.138267464,0
                103.442020492,15.1383022050001,0
                103.442024306,15.1383619580001,0
                103.442028245,15.138421007,0
                103.442029095,15.138461727,0
                103.442039056,15.138485184,0
                103.44206091,15.1384952670001,0
                103.442121679,15.138490125,0
                103.442631968,15.138424123,0
                103.44283924,15.138397309,0
                103.442875601,15.138383882,0
                103.44289885,15.1383694420001,0
                103.442938711,15.138335607,0
                103.443030342,15.138211776,0
                103.44305472,15.1381884140001,0
                103.443090975,15.1381699040001,0
                103.443147032,15.138159903,0
                103.443547428,15.138158364,0
                103.444027831,15.138165417,0
                103.444366879,15.1381714460001,0
                103.444707698,15.138136758,0
                103.4450443,15.138088177,0
                103.445194353,15.1380674210001,0
                103.445344919,15.1380085210001,0
                103.445582297,15.137908506,0
                103.445796398,15.137821661,0
                103.445893678,15.1377803400001,0
                103.445995924,15.1377262070001,0
                103.446204959,15.137584803,0
                103.446419065,15.137435673,0
                103.446490291,15.137399949,0
                103.44688448,15.1372892150001,0
                103.446954818,15.137273846,0
                103.446999295,15.137272968,0
                103.447030767,15.137276162,0
                103.447067818,15.137295765,0
                103.447181604,15.1374180920001,0
                103.44741156,15.1376938820001,0
                103.447550717,15.1378607820001,0
                103.447576184,15.1378895120001,0
                103.447610485,15.1379028170001,0
                103.447625324,15.137904581,0
                103.447647218,15.137907178,0
                103.447690382,15.1379063260001,0
                103.448001515,15.137829003,0
                103.448326934,15.1377463160001,0
                103.448920449,15.137593512,0
                103.449183394,15.137527307,0
                103.449408174,15.1374504190001,0
                103.449754627,15.137310112,0
                103.449985781,15.137225471,0
                103.450231697,15.1371583330001,0
                103.450508818,15.137081677,0
                103.450801348,15.1369907370001,0
                103.450988611,15.1369349280001,0
                103.45128608,15.136829908,0
                103.451426414,15.136782646,0
                103.451470486,15.1367627130001,0
                103.451496277,15.136744407,0
                103.451523292,15.136722263,0
                103.451523196,15.1365926130001,0
                103.451501304,15.1362968780001,0
                103.451496699,15.136139353,0
                103.451472042,15.1360241690001,0
                103.451424122,15.135838779,0
                103.451358897,15.1356062630001,0
                103.451325756,15.1354494060001,0
                103.451348822,15.135439911,0
                103.451418308,15.135424981,0
                103.451592165,15.1353944270001,0
                103.451661529,15.135373847,0
                103.451742549,15.1353541670001,0
                103.451828147,15.1353310060001,0
                103.451888404,15.1353196490001,0
                103.451959263,15.1353148600001,0
                103.452016266,15.135314861,0
                103.452083778,15.1353169180001,0
                103.452148044,15.1353303400001,0
                103.452219424,15.1353504,0
                103.452310905,15.1353858840001,0
                103.452392823,15.135409124,0
                103.452441849,15.135417198,0
                103.452488362,15.1354162800001,0
                103.452547643,15.1354139790001,0
                103.452590618,15.13541087,0
                103.4526265,15.135402249,0
                103.452664566,15.135386807,0
                103.452724369,15.1353539900001,0
                103.452754226,15.13533532,0
                103.452806245,15.135319603,0
                103.452871008,15.135301371,0
                103.452958887,15.1352759050001,0
                103.453027257,15.1352632570001,0
                103.453116486,15.1352468050001,0
                103.453177997,15.1352399370001,0
                103.453291784,15.135229779,0
                103.45337323,15.13523043,0
                103.453482748,15.135238439,0
                103.453594543,15.1352441380001,0
                103.453660897,15.1352462180001,0
                103.45369101,15.1352399730001,0
                103.453709331,15.135226054,0
                103.453718279,15.135208924,0
                103.453715032,15.1351649210001,0
                103.453708131,15.1350577050001,0
                103.453699151,15.1349064610001,0
                103.453700675,15.1348680140001,0
                103.453703685,15.1348453570001,0
                103.453720941,15.134835976,0
                103.453748684,15.134827515,0
                103.453792776,15.1348221260001,0
                103.453885873,15.134823678,0
                103.454114206,15.134839506,0
                103.454223866,15.1348542870001,0
                103.454238106,15.1348675690001,0
                103.454259744,15.134901041,0
                103.454287698,15.134958114,0
                103.454316552,15.1350027450001,0
                103.454388092,15.1350860850001,0
                103.454482037,15.1351836640001,0
                103.454542638,15.1352446170001,0
                103.454576832,15.135266545,0
                103.454655641,15.135307923,0
                103.454715657,15.135340639,0
                103.454730059,15.135361824,0
                103.454759031,15.135412101,0
                103.454817783,15.13549569,0
                103.4548571,15.135540113,0
                103.454912631,15.135580824,0
                103.454980971,15.1356224140001,0
                103.455152519,15.135703774,0
                103.455223161,15.1357441860001,0
                103.455253985,15.1357718290001,0
                103.455341071,15.1358751970001,0
                103.455394439,15.1359238650001,0
                103.455433239,15.135943436,0
                103.455482477,15.13596167,0
                103.455523685,15.135966925,0
                103.455589552,15.135971817,0
                103.455609726,15.1359742810001,0
                103.45562258,15.135978794,0
                103.455636554,15.1359899550001,0
                103.455653812,15.1360172650001,0
                103.455679149,15.136055377,0
                103.45568736,15.1360723810001,0
                103.455692734,15.136094676,0
                103.455702292,15.136129291,0
                103.455708488,15.136143948,0
                103.455717527,15.136153779,0
                103.455731504,15.1361649410001,0
                103.45574736,15.1361722570001,0
                103.455766013,15.136172365,0
                103.455810113,15.1361691070001,0
                103.455861512,15.136162848,0
                103.455917275,15.136154118,0
                103.455956804,15.1361433270001,0
                103.455983503,15.1361294540001,0
                103.456022789,15.136107225,0
                103.456061074,15.136084059,0
                103.456093145,15.13606865,0
                103.456123298,15.1360556550001,0
                103.456143773,15.136049057,0
                103.456170192,15.136045198,0
                103.456225071,15.136041119,0
                103.456286172,15.1360424550001,0
                103.456356121,15.1360495480001,0
                103.45641667,15.1360661460001,0
                103.456507102,15.1360931740001,0
                103.456656386,15.1361393770001,0
                103.456762909,15.136184729,0
                103.456826483,15.136220763,0
                103.456871687,15.1362546180001,0
                103.456901211,15.1362896260001,0
                103.456928617,15.1363484140001,0
                103.456959065,15.1364274760001,0
                103.457016313,15.136578043,0
                103.45706157,15.136697494,0
                103.457080682,15.136735254,0
                103.457093248,15.136751953,0
                103.457110954,15.1367643140001,0
                103.457139022,15.1367713880001,0
                103.457166074,15.1367717000001,0
                103.457211214,15.13676064,0
                103.457291965,15.136742091,0
                103.457363691,15.1367093150001,0
                103.457460359,15.1366590970001,0
                103.4575373,15.136625371,0
                103.4575771,15.136609331,0
                103.457600574,15.136605477,0
                103.457633822,15.1366099050001,0
                103.457680433,15.136627628,0
                103.457769369,15.136666549,0
                103.457828369,15.1366925030001,0
                103.457857362,15.136702096,0
                103.457894063,15.136704761,0
                103.458003111,15.1367043000001,0
                103.458074194,15.136724079,0
                103.458218752,15.136794104,0
                103.45834328,15.1368662240001,0
                103.458391016,15.13689579,0
                103.458440652,15.136932943,0
                103.458512338,15.1369815260001,0
                103.458559077,15.137005183,0
                103.45860115,15.137014516,0
                103.458639703,15.1370222300001,0
                103.458671437,15.137037708,0
                103.458682329,15.137057832,0
                103.458689051,15.1370873610001,0
                103.458695864,15.137204178,0
                103.458705757,15.137301445,0
                103.458710757,15.1373318560001,0
                103.458719153,15.1373579610001,0
                103.458746049,15.137392178,0
                103.458855412,15.137531547,0
                103.45893678,15.137625701,0
                103.458945884,15.137632906,0
                103.458983799,15.1376629110001,0
                103.459023455,15.1376816160001,0
                103.459064677,15.13769182,0
                103.459109082,15.137687552,0
                103.459151582,15.1376756920001,0
                103.459188993,15.137655495,0
                103.459210248,15.137644021,0
                103.459237127,15.13763586,0
                103.459286017,15.137637436,0
                103.459451538,15.137667215,0
                103.459791963,15.1377164140001,0
                103.460047508,15.1377537340001,0
                103.460120619,15.137758456,0
                103.460127888,15.1377589200001,0
                103.46017418,15.137761395,0
                103.460201232,15.137761707,0
                103.460221254,15.137759617,0
                103.460255925,15.137748763,0
                103.460337265,15.137716643,0
                103.460437633,15.137676518,0
                103.460532728,15.137634808,0
                103.460551501,15.1376283130001,0
                103.460563912,15.137624019,0
                103.460596963,15.1376191260001,0
                103.460628359,15.137618504,0
                103.460696457,15.1376205490001,0
                103.460822375,15.1376341600001,0
                103.460837781,15.1376368360001,0
                103.460850616,15.1376390670001,0
                103.460879293,15.137644048,0
                103.460916993,15.137652627,0
                103.460929478,15.137659274,0
                103.460952286,15.1376714200001,0
                103.460975404,15.137692149,0
                103.460998683,15.137720502,0
                103.461021074,15.1377480260001,0
                103.461042162,15.1377967620001,0
                103.461076298,15.1378850740001,0
                103.461080786,15.1379013980001,0
                103.461101798,15.137977795,0
                103.461113398,15.138031804,0
                103.461119432,15.1380698240001,0
                103.461119287,15.1381045700001,0
                103.461109037,15.1381564700001,0
                103.461076104,15.138291875,0
                103.461070019,15.138317746,0
                103.461065689,15.1383361490001,0
                103.461066186,15.1383598690001,0
                103.461070191,15.138384366,0
                103.461077577,15.138403716,0
                103.461094678,15.138428801,0
                103.461119595,15.138452038,0
                103.461185075,15.138495656,0
                103.461271693,15.1385457650001,0
                103.461478295,15.1386652840001,0
                103.461565684,15.138713555,0
                103.461728841,15.1387967700001,0
                103.461921531,15.1388774380001,0
                103.461926008,15.138879312,0
                103.461968098,15.138889498,0
                103.462000438,15.138892248,0
                103.462024821,15.138890066,0
                103.46205871,15.138883465,0
                103.462114062,15.138860332,0
                103.462190047,15.1388223870001,0
                103.462223629,15.138801385,0
                103.4622425,15.138785753,0
                103.462254368,15.1387694200001,0
                103.462259247,15.138752373,0
                103.462256745,15.1385083440001,0
                103.462266391,15.1383649860001,0
                103.462268053,15.138340316,0
                103.462273285,15.1382986880001,0
                103.462277183,15.1382765770001,0
                103.462288078,15.138255171,0
                103.462302439,15.138232853,0
                103.462325667,15.138217141,0
                103.462348199,15.1382099140001,0
                103.462383991,15.1382108990001,0
                103.4623969,15.138212052,0
                103.46260951,15.1382310120001,0
                103.463071963,15.1382743990001,0
                103.463315835,15.138295843,0
                103.463390268,15.1383015870001,0
                103.463446916,15.13830596,0
                103.46348456,15.1383119920001,0
                103.46352229,15.1383222640001,0
                103.46356458,15.1383417650001,0
                103.463626305,15.1383727480001,0
                103.463720011,15.1384310660001,0
                103.46381297,15.1384953260001,0
                103.463867876,15.138534072,0
                103.463890977,15.1385539520001,0
                103.4639186,15.138581373,0
                103.463949051,15.1386189080001,0
                103.463977919,15.138664099,0
                103.464002372,15.1387068380001,0
                103.464068207,15.1388504560001,0
                103.464131709,15.1389661470001,0
                103.464155023,15.1389961950001,0
                103.464174546,15.139011915,0
                103.464214967,15.139025518,0
                103.464298102,15.139037434,0
                103.46434717,15.1390474770001,0
                103.464373516,15.139055431,0
                103.464388607,15.139067842,0
                103.464431253,15.1391042880001,0
                103.464558721,15.1392288500001,0
                103.464598712,15.1392679260001,0
                103.464723579,15.13939766,0
                103.464746738,15.1394200870001,0
                103.46478294,15.1394405570001,0
                103.464882501,15.1394868890001,0
                103.464924877,15.139513133,0
                103.464940843,15.1395230250001,0
                103.464959512,15.1395396020001,0
                103.464975657,15.139560472,0
                103.46498737,15.139578036,0
                103.464993346,15.1396135090001,0
                103.465001622,15.1397167420001,0
                103.465020005,15.140051983,0
                103.465021437,15.140107126,0
                103.465024109,15.1402098560001,0
                103.465024538,15.1402264710001,0
                103.465023878,15.1402324640001,0
                103.465005474,15.140398889,0
                103.464987888,15.1405585640001,0
                103.464977958,15.1406257140001,0
                103.464975822,15.140648636,0
                103.464978741,15.140662988,0
                103.464991216,15.140675452,0
                103.465052958,15.1407072810001,0
                103.465118826,15.1407366990001,0
                103.465225583,15.140784372,0
                103.465288198,15.1408161840001,0
                103.465340311,15.140846508,0
                103.465429961,15.1409193110001,0
                103.465480879,15.140975929,0
                103.465517688,15.1410252050001,0
                103.465550027,15.141069481,0
                103.465574374,15.1411071360001,0
                103.465605201,15.141162455,0
                103.465639993,15.1412209910001,0
                103.465659467,15.1412537570001,0
                103.465704409,15.141316429,0
                103.46572827,15.141345254,0
                103.465737748,15.141356697,0
                103.465761702,15.1413856340001,0
                103.465792013,15.1414163900001,0
                103.465802897,15.1414250330001,0
                103.465807406,15.1414286140001,0
                103.465815968,15.141435411,0
                103.465844179,15.141449257,0
                103.465855707,15.1414529740001,0
                103.46587141,15.1414580420001,0
                103.465886604,15.141462505,0
                103.465906526,15.14146836,0
                103.465961613,15.1414740490001,0
                103.466069405,15.14147359,0
                103.466070663,15.141473584,0
                103.466185713,15.1414679120001,0
                103.466435868,15.141456174,0
                103.46660068,15.1414520600001,0
                103.466603866,15.141452181,0
                103.466617806,15.1414526990001,0
                103.466778806,15.1414587,0
                103.466840303,15.1414631210001,0
                103.466843469,15.141463351,0
                103.466866161,15.1414637500001,0
                103.466886099,15.141457422,0
                103.466904179,15.1414460440001,0
                103.466914363,15.1414322850001,0
                103.466918189,15.1414219960001,0
                103.466922618,15.141410088,0
                103.466932035,15.141359896,0
                103.466961687,15.1411932020001,0
                103.46696893,15.1411227190001,0
                103.466973681,15.141099743,0
                103.466981283,15.1410877270001,0
                103.466993209,15.141073933,0
                103.467008639,15.1410609120001,0
                103.467032774,15.1410468760001,0
                103.467063191,15.141041188,0
                103.467162437,15.141030744,0
                103.467327995,15.141020681,0
                103.467357435,15.1410189750001,0
                103.467372436,15.1410181050001,0
                103.467395897,15.141013403,0
                103.467420922,15.141000196,0
                103.46746134,15.1409722760001,0
                103.467467622,15.140967727,0
                103.467533529,15.140919996,0
                103.467556776,15.1409051270001,0
                103.467583598,15.140894427,0
                103.46762723,15.1408832500001,0
                103.467637401,15.140880646,0
                103.467687788,15.140870324,0
                103.467719131,15.140867164,0
                103.467719336,15.1408671770001,0
                103.467750599,15.1408699310001,0
                103.467773487,15.1408796440001,0
                103.467872874,15.140959031,0
                103.46791966,15.1409956520001,0
                103.467939402,15.141011104,0
                103.467964056,15.1410216350001,0
                103.467984985,15.14102122,0
                103.468020673,15.1410171200001,0
                103.468246663,15.1409800070001,0
                103.468278908,15.14097471,0
                103.468298872,15.1409734260001,0
                103.468373878,15.140968593,0
                103.468470021,15.140963415,0
                103.468498502,15.140961885,0
                103.468550938,15.1409655520001,0
                103.468592871,15.140968485,0
                103.468712722,15.1409839080001,0
                103.468839702,15.1410029470001,0
                103.468847511,15.1410041180001,0
                103.46887825,15.141013678,0
                103.468895136,15.1410285970001,0
                103.468942521,15.1410827440001,0
                103.468948227,15.1410906470001,0
                103.468984753,15.1411412300001,0
                103.46901072,15.14117292,0
                103.469019341,15.141178934,0
                103.469020467,15.14117972,0
                103.469035514,15.141190223,0
                103.469061925,15.141201563,0
                103.469070918,15.1412029850001,0
                103.469104821,15.14120834,0
                103.469240168,15.1412377880001,0
                103.469251196,15.1412401860001,0
                103.469301242,15.141255293,0
                103.469357522,15.1412762150001,0
                103.469483006,15.14134023,0
                103.469587858,15.141388884,0
                103.469673753,15.14140861,0
                103.469748398,15.1414178420001,0
                103.469838964,15.1413972980001,0
                103.469973406,15.14136517,0
                103.470077693,15.14134167,0
                103.470184907,15.1413261540001,0
                103.470289366,15.1413106910001,0
                103.470348879,15.141307947,0
                103.470391294,15.14130599,0
                103.470534736,15.1413085020001,0
                103.470656688,15.14133822,0
                103.47074,15.14136603,0
                103.470820945,15.1414126400001,0
                103.470930584,15.1415037250001,0
                103.470950043,15.1415198940001,0
                103.471191309,15.141715993,0
                103.471350004,15.14183731,0
                103.471373987,15.1418714860001,0
                103.471389084,15.1419254210001,0
                103.471463854,15.1421619870001,0
                103.471477179,15.142205415,0
                103.471491669,15.142230742,0
                103.471516762,15.1422438010001,0
                103.471555586,15.142246046,0
                103.471671637,15.1422231620001,0
                103.47186143,15.1421857340001,0
                103.472111431,15.1421250290001,0
                103.4722778,15.142070506,0
                103.472279187,15.14206999,0
                103.472414775,15.142019571,0
                103.472454957,15.142012751,0
                103.472481316,15.1420122270001,0
                103.47248521,15.142013304,0
                103.472501597,15.142017847,0
                103.472556559,15.142049904,0
                103.472800233,15.1422047730001,0
                103.472932055,15.142277485,0
                103.473039148,15.1423223470001,0
                103.473055682,15.1423292700001,0
                103.47307707,15.142335202,0
                103.473088303,15.1423383160001,0
                103.473136808,15.142351767,0
                103.473181961,15.142359911,0
                103.4732099,15.142360861,0
                103.473265305,15.1423401760001,0
                103.473439665,15.142243282,0
                103.473450433,15.1422372980001,0
                103.473465067,15.142230651,0
                103.473554828,15.142189864,0
                103.473594757,15.14217172,0
                103.47362069,15.14216019,0
                103.473640694,15.14215725,0
                103.473661698,15.1421602230001,0
                103.473679317,15.1421683450001,0
                103.4737671,15.1422352500001,0
                103.473784359,15.142247662,0
                103.473786589,15.1422492680001,0
                103.473804033,15.142248922,0
                103.473823912,15.1422400550001,0
                103.473894013,15.1421916620001,0
                103.473906027,15.142183366,0
                103.473907331,15.1421824670001,0
                103.473922689,15.1421660560001,0
                103.473933601,15.1421455020001,0
                103.473937373,15.1421174590001,0
                103.473941551,15.1420634,0
                103.473944914,15.142019852,0
                103.473949616,15.14199433,0
                103.473968178,15.1419643040001,0
                103.473991973,15.141934169,0
                103.474006936,15.1419226470001,0
                103.474013435,15.14191764,0
                103.474095467,15.141877026,0
                103.474306177,15.14177369,0
                103.474350208,15.1417516290001,0
                103.47437767,15.1417298980001,0
                103.474394705,15.1417100640001,0
                103.474403747,15.1416836130001,0
                103.474413796,15.141625988,0
                103.474419472,15.141593404,0
                103.474425545,15.1415586050001,0
                103.474479029,15.1413560770001,0
                103.474482916,15.141341358,0
                103.474499541,15.1413020430001,0
                103.474508708,15.141281523,0
                103.474524101,15.1412668080001,0
                103.474542181,15.1412554300001,0
                103.474563041,15.1412516290001,0
                103.474596162,15.1412501250001,0
                103.474699181,15.141253165,0
                103.474812111,15.1412712600001,0
                103.474988245,15.141307592,0
                103.475042512,15.141315838,0
                103.475043898,15.141315811,0
                103.475066057,15.1413153710001,0
                103.475087824,15.1413132440001,0
                103.475104983,15.141299341,0
                103.475118418,15.141274498,0
                103.475124316,15.1412583900001,0
                103.475180297,15.141105469,0
                103.475198776,15.141055905,0
                103.47524141,15.1409415410001,0
                103.475281224,15.1408499250001,0
                103.475303819,15.1407979260001,0
                103.475318914,15.1407688150001,0
                103.475335927,15.140748135,0
                103.475352214,15.1407342540001,0
                103.475375386,15.1407159950001,0
                103.475399573,15.140704498,0
                103.475439384,15.140689298,0
                103.475529567,15.1406629310001,0
                103.475595349,15.140637897,0
                103.475639325,15.140613295,0
                103.475691885,15.1405817420001,0
                103.475783149,15.1405239960001,0
                103.475823443,15.140490143,0
                103.475853326,15.1404590400001,0
                103.475873809,15.1404374480001,0
                103.475892839,15.140429442,0
                103.475924217,15.1404279700001,0
                103.47601335,15.140434676,0
                103.476203949,15.140453773,0
                103.47626633,15.140457579,0
                103.476287814,15.140458887,0
                103.47631136,15.140458419,0
                103.47633649,15.140450292,0
                103.476352809,15.140438106,0
                103.476364664,15.1404209180001,0
                103.47637189,15.140391112,0
                103.47637899,15.1403458230001,0
                103.476448812,15.139900594,0
                103.476498196,15.13953008,0
                103.476503058,15.139493574,0
                103.476531215,15.1392597230001,0
                103.476537219,15.1392098380001,0
                103.476541812,15.1391792430001,0
                103.476545869,15.1391647510001,0
                103.476560156,15.139139044,0
                103.476581357,15.139109809,0
                103.476609459,15.1390770460001,0
                103.476881579,15.13882418,0
                103.476906459,15.138804195,0
                103.476935842,15.138790897,0
                103.476957573,15.138787074,0
                103.476988148,15.138789011,0
                103.477093871,15.138796234,0
                103.477185927,15.138807264,0
                103.477190959,15.138807862,0
                103.477221517,15.138808952,0
                103.477243194,15.1388025900001,0
                103.477257861,15.1387946720001,0
                103.477270726,15.1387842450001,0
                103.477291285,15.138766042,0
                103.477304755,15.138742892,0
                103.47747391,15.1384064760001,0
                103.477621198,15.138145867,0
                103.47768337,15.1380783430001,0
                103.477747282,15.138019822,0
                103.477809865,15.1379718740001,0
                103.477888016,15.13792663,0
                103.478041472,15.1378482480001,0
                103.478159063,15.1377922510001,0
                103.478173533,15.137785358,0
                103.478396567,15.1376965590001,0
                103.478461334,15.1376786970001,0
                103.47852322,15.137671445,0
                103.478580646,15.1376733170001,0
                103.478650511,15.1376764460001,0
                103.478723664,15.1376885550001,0
                103.478822239,15.137735026,0
                103.478867677,15.137756444,0
                103.478867793,15.1377565020001,0
                103.478915129,15.137794731,0
                103.478926225,15.1378159990001,0
                103.478928531,15.137820415,0
                103.47893614,15.1378349940001,0
                103.4789368,15.137866343,0
                103.478937408,15.13789523,0
                103.478940104,15.1380970660001,0
                103.478941024,15.1381407390001,0
                103.47894951,15.1381752240001,0
                103.47897169,15.1381973800001,0
                103.47900754,15.138205708,0
                103.479041549,15.1382005150001,0
                103.479078601,15.138192244,0
                103.47915517,15.138145523,0
                103.479229545,15.138095444,0
                103.479309635,15.1380415130001,0
                103.479369433,15.1380086830001,0
                103.479411104,15.1379988150001,0
                103.479452993,15.137999488,0
                103.479513779,15.1380133490001,0
                103.479914514,15.1381876840001,0
                103.47997153,15.1382024650001,0
                103.479984697,15.1382058730001,0
                103.480020356,15.1382051640001,0
                103.480052626,15.138190966,0
                103.480089201,15.138160107,0
                103.480119413,15.138121842,0
                103.480144502,15.138061078,0
                103.48015283,15.138023935,0
                103.480186244,15.1378749460001,0
                103.480197568,15.137824456,0
                103.480208307,15.137776565,0
                103.480227509,15.1377309850001,0
                103.480263957,15.1376941020001,0
                103.480302144,15.1376662230001,0
                103.480352929,15.1376471360001,0
                103.480399282,15.1376386800001,0
                103.480430287,15.137638064,0
                103.480503726,15.1376637230001,0
                103.480727716,15.1377677460001,0
                103.480801853,15.1378265380001,0
                103.480839918,15.1378664580001,0
                103.480893171,15.1378910120001,0
                103.480949018,15.137891412,0
                103.48126643,15.1378655120001,0
                103.481311489,15.137869139,0
                103.481344396,15.1378850580001,0
                103.481377619,15.137916035,0
                103.481570201,15.1381487460001,0
                103.481598934,15.138179762,0
                103.481630511,15.138213837,0
                103.481682468,15.138250468,0
                103.481754385,15.1382776620001,0
                103.481819755,15.1382884170001,0
                103.481910974,15.138274548,0
                103.482049905,15.138243162,0
                103.482073455,15.138242694,0
                103.482093317,15.1382422990001,0
                103.482134106,15.138264087,0
                103.482346165,15.138390944,0
                103.482473176,15.1384562170001,0
                103.482509023,15.138464544,0
                103.482540883,15.1384598610001,0
                103.482544586,15.138459314,0
                103.482547331,15.13845788,0
                103.482601351,15.1384295610001,0
                103.482626977,15.1383944020001,0
                103.482650734,15.1383442100001,0
                103.482682435,15.1383028990001,0
                103.482716228,15.1382871640001,0
                103.482750462,15.1382925070001,0
                103.482800806,15.138326159,0
                103.482882349,15.138383071,0
                103.48288266,15.13838329,0
                103.482910568,15.1383827350001,0
                103.482942937,15.138373051,0
                103.482982546,15.138339117,0
                103.483077858,15.138249939,0
                103.483143777,15.138188261,0
                103.483171398,15.1381741540001,0
                103.483194588,15.13817068,0
                103.483225725,15.1381760840001,0
                103.483367703,15.13828927,0
                103.483372269,15.1382918420001,0
                103.483411655,15.1383140090001,0
                103.483444401,15.138322397,0
                103.483490913,15.138321472,0
                103.483534166,15.1383130770001,0
                103.48357406,15.138292699,0
                103.483602982,15.1382665100001,0
                103.483625505,15.1382314100001,0
                103.483635403,15.138186015,0
                103.483650842,15.1379881120001,0
                103.483661571,15.1378505920001,0
                103.483668789,15.1377830860001,0
                103.483682232,15.1377587170001,0
                103.483697325,15.1377388270001,0
                103.483720011,15.137711256,0
                103.483728774,15.137685473,0
                103.483732787,15.1376552580001,0
                103.483734173,15.1375738730001,0
                103.483735864,15.1375581360001,0
                103.483741951,15.1375014020001,0
                103.483753468,15.1374589870001,0
                103.483769825,15.13742552,0
                103.48377877,15.1374143620001,0
                103.48378947,15.1374010210001,0
                103.48382304,15.137374741,0
                103.483882741,15.137337395,0
                103.483936432,15.137309207,0
                103.483959113,15.137281639,0
                103.483982873,15.1372314500001,0
                103.483994757,15.137191677,0
                103.484026337,15.1370859470001,0
                103.484071483,15.136978062,0
                103.484072111,15.136976562,0
                103.484138107,15.1368697890001,0
                103.484175849,15.136820824,0
                103.484300979,15.1367234210001,0
                103.48461635,15.1364534890001,0
                103.484708039,15.1363883870001,0
                103.4847491,15.1363499060001,0
                103.484779123,15.136305711,0
                103.484779191,15.136305615,0
                103.484793802,15.1362631380001,0
                103.484800571,15.1362163000001,0
                103.484799364,15.136159074,0
                103.484777589,15.1360826690001,0
                103.484729105,15.1359164030001,0
                103.484726507,15.135866734,0
                103.484730331,15.1358274890001,0
                103.484746813,15.135800042,0
                103.484830531,15.135724548,0
                103.484953272,15.1356169150001,0
                103.485069539,15.1355149660001,0
                103.485069617,15.1355148970001,0
                103.485104577,15.1354810550001,0
                103.485122483,15.1354475530001,0
                103.485136749,15.13538851,0
                103.485175367,15.135234068,0
                103.48521121,15.1351685720001,0
                103.48523673,15.1351296870001,0
                103.48523826,15.135127358,0
                103.485239204,15.1351264,0
                103.485270151,15.1350950820001,0
                103.485301972,15.135075667,0
                103.485323743,15.1350623760001,0
                103.485368004,15.135046356,0
                103.485671614,15.1349364340001,0
                103.48570035,15.134927476,0
                103.485774855,15.13490425,0
                103.485830446,15.134892597,0
                103.485875279,15.1348856770001,0
                103.485900305,15.134895725,0
                103.485917994,15.134925503,0
                103.485923574,15.134938746,0
                103.485942883,15.134984575,0
                103.485970243,15.1350495130001,0
                103.485999378,15.135077688,0
                103.48601299,15.1350908480001,0
                103.486050548,15.135106674,0
                103.486091114,15.135117918,0
                103.486134647,15.135123079,0
                103.486176477,15.135120742,0
                103.486229,15.1351106560001,0
                103.486274907,15.1350811190001,0
                103.486414811,15.1349675010001,0
                103.486444167,15.1349436620001,0
                103.486581441,15.134833961,0
                103.486585631,15.13483096,0
                103.486696036,15.13475183,0
                103.486745263,15.1347327710001,0
                103.486805466,15.1347245900001,0
                103.486810219,15.134723944,0
                103.486915773,15.134727873,0
                103.487153326,15.1347397170001,0
                103.487319436,15.134746955,0
                103.487384803,15.1347577060001,0
                103.487486338,15.1347918440001,0
                103.487540597,15.1347907630001,0
                103.487599291,15.134779049,0
                103.487907446,15.134661825,0
                103.48790856,15.1346614030001,0
                103.488837663,15.134282721,0
                103.488979427,15.1338912910001,0
                103.489533148,15.1329816140001,0
                103.490380017,15.1323890360001,0
                103.49131635,15.1318234610001,0
                103.492533711,15.1313676660001,0
                103.493560854,15.131462104,0
                103.494569781,15.131528351,0
                103.495726206,15.131562869,0
                103.49667042,15.131371326,0
                103.497194472,15.130929096,0
                103.498120429,15.129874353,0
                103.498861971,15.1285066510001,0
                103.500253823,15.1270926870001,0
                103.503404356,15.125290046,0
              </coordinates>
                
            </LinearRing>
            
          </outerBoundaryIs>
        
        </Polygon>
        
      <styleUrl>
        #tambonStyle</styleUrl>
    </Placemark>

  </Document>
</kml>