<?xml version="1.0" encoding="UTF-8"?>
<kml xmlns="http://www.opengis.net/kml/2.2">
  <Document id="tambon_doc">
    <name>ตลุก, สรรพยา, Chai Nat</name>
    <description>ข้อมูลขอบเขตตำบลตลุก อำเภอสรรพยา จังหวัดChai Nat</description>
    
    <!-- Schema สำหรับข้อมูลตำบล -->
    <Schema id="tambon.schema">
      <SimpleField name="ADM3_EN" type="string">
        <displayName>Subdistrict Name (English)</displayName>
      </SimpleField>
      <SimpleField name="ADM3_TH" type="string">
        <displayName>ชื่อตำบล</displayName>
      </SimpleField>
      <SimpleField name="ADM2_EN" type="string">
        <displayName>District Name (English)</displayName>
      </SimpleField>
      <SimpleField name="ADM2_TH" type="string">
        <displayName>ชื่ออำเภอ</displayName>
      </SimpleField>
      <SimpleField name="ADM1_EN" type="string">
        <displayName>Province Name (English)</displayName>
      </SimpleField>
      <SimpleField name="ADM1_TH" type="string">
        <displayName>ชื่อจังหวัด</displayName>
      </SimpleField>
      <SimpleField name="ADM0_EN" type="string">
        <displayName>Country Name (English)</displayName>
      </SimpleField>
      <SimpleField name="ADM0_TH" type="string">
        <displayName>ชื่อประเทศ</displayName>
      </SimpleField>
    </Schema>

    <!-- Style สำหรับตำบล -->
    <Style id="tambonStyle">
      <LineStyle>
        <color>ffff0000</color>
        <width>1.5</width>
      </LineStyle>
      <PolyStyle>
        <color>33ff0000</color>
        <fill>1</fill>
        <outline>1</outline>
      </PolyStyle>
    </Style>

    <Placemark id="Chai_Nat.25">
        
        <ExtendedData>
            
          <SchemaData schemaUrl="#tambon.schema">
                
            <SimpleData name="Shape_Leng">
                0.335758974972</SimpleData>
                
            <SimpleData name="Shape_Area">
                0.00402237686619</SimpleData>
                
            <SimpleData name="ADM3_EN">
                Taluk</SimpleData>
                
            <SimpleData name="ADM3_TH">
                ตลุก</SimpleData>
                
            <SimpleData name="ADM3_PCODE">
                TH180402</SimpleData>
                
            <SimpleData name="ADM2_EN">
                Sapphaya</SimpleData>
                
            <SimpleData name="ADM2_TH">
                สรรพยา</SimpleData>
                
            <SimpleData name="ADM2_PCODE">
                TH1804</SimpleData>
                
            <SimpleData name="ADM1_EN">
                Chai Nat</SimpleData>
                
            <SimpleData name="ADM1_TH">
                ชัยนาท</SimpleData>
                
            <SimpleData name="ADM1_PCODE">
                TH18</SimpleData>
                
            <SimpleData name="ADM0_EN">
                Thailand</SimpleData>
                
            <SimpleData name="ADM0_TH">
                ประเทศไทย</SimpleData>
                
            <SimpleData name="ADM0_PCODE">
                TH</SimpleData>
            
          </SchemaData>
        
        </ExtendedData>
        
        <Polygon>
            
          <outerBoundaryIs>
                
            <LinearRing>
                    
              <coordinates>
                    
                100.274199406,15.209949291,0
                100.267752828,15.210054809,0
                100.262461595,15.210096122,0
                100.26231416,15.2101256170001,0
                100.262123553,15.210341687,0
                100.261022622,15.208020278,0
                100.255988503,15.1974046030001,0
                100.255900719,15.197313396,0
                100.255455654,15.196837241,0
                100.255177152,15.196553581,0
                100.254959432,15.196272859,0
                100.254718216,15.196015217,0
                100.254426249,15.195738185,0
                100.254307459,15.1956306610001,0
                100.254276705,15.195568543,0
                100.254259384,15.1954932400001,0
                100.25426208,15.195378485,0
                100.25424809,15.1952966050001,0
                100.254220758,15.1952410260001,0
                100.254159565,15.1951692440001,0
                100.254003467,15.195032424,0
                100.25370853,15.194824254,0
                100.253535495,15.1946776890001,0
                100.253447068,15.194566719,0
                100.253300319,15.1942987150001,0
                100.253140128,15.1940406160001,0
                100.252898263,15.193671513,0
                100.252609076,15.193292835,0
                100.252561564,15.193250479,0
                100.252493914,15.1932279100001,0
                100.252433133,15.193224967,0
                100.252352248,15.193248367,0
                100.252284733,15.193248743,0
                100.252196825,15.1932262820001,0
                100.25208857,15.1931875450001,0
                100.251949679,15.1931063590001,0
                100.251620915,15.1928852630001,0
                100.250926143,15.192423601,0
                100.250559995,15.1921600910001,0
                100.250502492,15.192140737,0
                100.25044844,15.1921344840001,0
                100.250387732,15.192144655,0
                100.25029352,15.192197633,0
                100.250222844,15.1922340880001,0
                100.250175565,15.1922310690001,0
                100.250118119,15.192221553,0
                100.250005932,15.1921620790001,0
                100.249713771,15.1919940450001,0
                100.249418938,15.191801442,0
                100.249152085,15.191630807,0
                100.24903756,15.1915306380001,0
                100.248958773,15.191479438,0
                100.248821578,15.1913990630001,0
                100.248699531,15.1913112240001,0
                100.248437453,15.1910913890001,0
                100.248182971,15.1908715110001,0
                100.248009895,15.1907175700001,0
                100.247826986,15.1906128570001,0
                100.247743088,15.1905543140001,0
                100.247646435,15.1904786260001,0
                100.247542226,15.190410361,0
                100.247481085,15.1903467700001,0
                100.247338221,15.190163157,0
                100.247200566,15.190004097,0
                100.247073153,15.1898646540001,0
                100.246872075,15.1896838220001,0
                100.246734709,15.189573938,0
                100.246493091,15.1893884130001,0
                100.24622607,15.189188271,0
                100.246037706,15.189017203,0
                100.246004548,15.188975584,0
                100.245994148,15.1889289270001,0
                100.245996362,15.18887482,0
                100.246018685,15.1887960190001,0
                100.246045942,15.1886950580001,0
                100.246048229,15.188653248,0
                100.246032851,15.1886213660001,0
                100.245997162,15.188579766,0
                100.245869838,15.188455074,0
                100.245579471,15.188159172,0
                100.245418999,15.18799532,0
                100.245334719,15.1878703900001,0
                100.24523776,15.1877430710001,0
                100.245176553,15.1876671900001,0
                100.245120592,15.1876232390001,0
                100.244970541,15.187508512,0
                100.244527753,15.18712493,0
                100.24410756,15.186709265,0
                100.243763688,15.1863546430001,0
                100.243511374,15.186070822,0
                100.24350722,15.1860640530001,0
                100.243441787,15.1860093390001,0
                100.243407352,15.186009529,0
                100.243370641,15.186022833,0
                100.243289095,15.186069633,0
                100.243159512,15.1861558090001,0
                100.243033711,15.1862345330001,0
                100.242953865,15.186320434,0
                100.242897041,15.186417356,0
                100.242839695,15.186425103,0
                100.242793653,15.186403064,0
                100.242178408,15.1858788320001,0
                100.241506124,15.1854143630001,0
                100.240499964,15.1847770950001,0
                100.240192759,15.1845855710001,0
                100.239793818,15.1844094150001,0
                100.239475223,15.1842328160001,0
                100.239072153,15.1840046610001,0
                100.238423055,15.183577212,0
                100.238422795,15.183532626,0
                100.238582097,15.183293946,0
                100.238589576,15.183264179,0
                100.238178186,15.1829208830001,0
                100.238008914,15.182762038,0
                100.237846991,15.1825511340001,0
                100.237623312,15.1822476770001,0
                100.237522886,15.1820847380001,0
                100.237307508,15.181892706,0
                100.237034873,15.1817232820001,0
                100.236608878,15.181498963,0
                100.236079388,15.181241771,0
                100.235707108,15.181043167,0
                100.235542011,15.1809437490001,0
                100.235318726,15.1807071690001,0
                100.235118656,15.180515051,0
                100.234896106,15.1804048000001,0
                100.234109553,15.1800226780001,0
                100.233662383,15.179728949,0
                100.233503805,15.1796717940001,0
                100.232962955,15.1793179850001,0
                100.232209598,15.1786254410001,0
                100.232025747,15.1785333170001,0
                100.231708255,15.178357368,0
                100.231470214,15.1782386140001,0
                100.231316237,15.1781193960001,0
                100.231142116,15.1779378630001,0
                100.230803708,15.1775651340001,0
                100.230664507,15.1774362300001,0
                100.230510582,15.17732662,0
                100.230326995,15.177217167,0
                100.230242654,15.1771696060001,0
                100.230113926,15.177141497,0
                100.229995115,15.177118132,0
                100.229910751,15.177065767,0
                100.229786443,15.1769463910001,0
                100.229696854,15.1768460280001,0
                100.229602463,15.17676971,0
                100.229339589,15.176631876,0
                100.229022079,15.176451123,0
                100.228689956,15.1763088660001,0
                100.228352693,15.1761330200001,0
                100.228193856,15.176028235,0
                100.228025074,15.175913899,0
                100.227895959,15.175818556,0
                100.227836066,15.175722835,0
                100.227776095,15.175612711,0
                100.22770151,15.175541084,0
                100.227612145,15.175479141,0
                100.227508747,15.175365248,0
                100.227101085,15.1747954630001,0
                100.226533132,15.173867978,0
                100.226042002,15.174067011,0
                100.22560332,15.1742145320001,0
                100.225000675,15.1743938990001,0
                100.224896776,15.1744157320001,0
                100.224376066,15.174525154,0
                100.223742993,15.1746165000001,0
                100.222848199,15.1747238730001,0
                100.22014738,15.175103461,0
                100.219025053,15.1753217150001,0
                100.218505704,15.1754659760001,0
                100.218049405,15.1757210380001,0
                100.217676455,15.1759958550001,0
                100.217324884,15.176371599,0
                100.217046542,15.1768176690001,0
                100.216789637,15.1773747670001,0
                100.216749148,15.177476863,0
                100.21612302,15.179055598,0
                100.215292019,15.181101052,0
                100.214809696,15.18226559,0
                100.214483086,15.182915258,0
                100.213811758,15.183777703,0
                100.213165354,15.1844505610001,0
                100.212582455,15.184857853,0
                100.211830128,15.185202906,0
                100.211115881,15.185383567,0
                100.210388193,15.1854885160001,0
                100.20952981,15.1854805,0
                100.209214119,15.185432642,0
                100.208644703,15.185346322,0
                100.207771809,15.1850731500001,0
                100.20705461,15.18473599,0
                100.206284035,15.1841591520001,0
                100.205616071,15.1833291610001,0
                100.205195195,15.182497846,0
                100.204851058,15.181438784,0
                100.204502133,15.17953355,0
                100.204298259,15.177981174,0
                100.204079245,15.176049984,0
                100.203878031,15.174964894,0
                100.203624944,15.1739053420001,0
                100.20333478,15.1731869930001,0
                100.202954238,15.172582791,0
                100.202457228,15.1720802510001,0
                100.201686427,15.171452872,0
                100.200747296,15.1709526810001,0
                100.199456851,15.1704164710001,0
                100.198180268,15.1700317340001,0
                100.195822958,15.1694001330001,0
                100.193777604,15.168741589,0
                100.192474181,15.168205406,0
                100.19154809,15.1677051090001,0
                100.190777901,15.167178719,0
                100.190124675,15.166639086,0
                100.188503897,15.1651573090001,0
                100.18680561,15.163764337,0
                100.184768979,15.162322606,0
                100.182832077,15.161040561,0
                100.181525539,15.162537307,0
                100.180318119,15.163957313,0
                100.178984492,15.165556399,0
                100.178492258,15.1659844500001,0
                100.178154174,15.166178368,0
                100.177885984,15.1662346700001,0
                100.177532627,15.1662227910001,0
                100.177235415,15.1661419930001,0
                100.17701794,15.1660588190001,0
                100.176897826,15.165981441,0
                100.176810111,15.165897161,0
                100.176695922,15.165691881,0
                100.176552788,15.1653632260001,0
                100.176348651,15.164225108,0
                100.17617439,15.160507438,0
                100.173096314,15.160144084,0
                100.173084409,15.1601961980001,0
                100.172688999,15.1617681130001,0
                100.172425908,15.1629105320001,0
                100.172304793,15.1635080360001,0
                100.172278445,15.163818873,0
                100.172302696,15.164145799,0
                100.172394987,15.164597744,0
                100.172537722,15.1650385240001,0
                100.172725209,15.1654518180001,0
                100.173122267,15.1662128770001,0
                100.173508049,15.1669630910001,0
                100.173643973,15.1671858710001,0
                100.173847759,15.16750096,0
                100.174197977,15.167907954,0
                100.174517823,15.168251039,0
                100.175069907,15.168791427,0
                100.174731955,15.169093285,0
                100.174575637,15.169245442,0
                100.174402209,15.169435198,0
                100.174251233,15.169589913,0
                100.174142517,15.1696797340001,0
                100.174052489,15.1697772150001,0
                100.173963865,15.169887627,0
                100.173884425,15.169973414,0
                100.173830099,15.170024142,0
                100.173762411,15.1700671830001,0
                100.17369335,15.1701024660001,0
                100.173597659,15.170139181,0
                100.173480687,15.170181186,0
                100.173362399,15.1702257790001,0
                100.173268067,15.1702676620001,0
                100.173145874,15.170329097,0
                100.173022379,15.17039571,0
                100.172942725,15.1704426910001,0
                100.172855209,15.170512994,0
                100.172778435,15.1705987670001,0
                100.172728701,15.170652702,0
                100.172664575,15.170722241,0
                100.17257318,15.170813265,0
                100.17249768,15.1708886810001,0
                100.172407481,15.17095512,0
                100.172303972,15.1710242180001,0
                100.172192507,15.1710985280001,0
                100.172104983,15.1711675380001,0
                100.172014912,15.171257257,0
                100.171927466,15.1713405,0
                100.171854642,15.1714184910001,0
                100.171799077,15.1714860430001,0
                100.171751494,15.1715522600001,0
                100.171705229,15.171615881,0
                100.171664313,15.1716833560001,0
                100.171599854,15.171828566,0
                100.171557649,15.171903808,0
                100.171488967,15.172008942,0
                100.171433401,15.1720764930001,0
                100.171376455,15.172134999,0
                100.171350039,15.1721752350001,0
                100.171344888,15.1722076,0
                100.17135973,15.172242447,0
                100.171387905,15.172279814,0
                100.171451468,15.172367176,0
                100.17145635,15.1723738850001,0
                100.171545015,15.1725118310001,0
                100.171730714,15.17272309,0
                100.171887547,15.1728973090001,0
                100.171975956,15.1730293140001,0
                100.172066977,15.1731944160001,0
                100.17215769,15.173302752,0
                100.172307218,15.1734770100001,0
                100.172442055,15.173637156,0
                100.172566801,15.173733487,0
                100.172696348,15.173817964,0
                100.17284296,15.173904721,0
                100.172967583,15.173979764,0
                100.173089917,15.1740808390001,0
                100.173180526,15.1741702510001,0
                100.173254154,15.17427158,0
                100.173305912,15.1743824820001,0
                100.173345712,15.174533658,0
                100.173373639,15.1747393000001,0
                100.173440519,15.174942371,0
                100.173554588,15.1753107760001,0
                100.173685261,15.175598671,0
                100.173724923,15.1757238280001,0
                100.173725458,15.1758208090001,0
                100.173711199,15.1758847470001,0
                100.173682404,15.1759629520001,0
                100.173663337,15.176038743,0
                100.173661361,15.176121541,0
                100.173671663,15.1762232,0
                100.173719324,15.176473683,0
                100.173754697,15.176705306,0
                100.173795117,15.1769676500001,0
                100.173823071,15.17717802,0
                100.173863618,15.1774640200001,0
                100.173909376,15.177811492,0
                100.173925693,15.1781189060001,0
                100.173949323,15.178428646,0
                100.173974264,15.178534956,0
                100.174142457,15.179000058,0
                100.174308368,15.179493555,0
                100.174385016,15.1797013070001,0
                100.17440229,15.179741429,0
                100.174431607,15.179757836,0
                100.17452659,15.179757341,0
                100.174628702,15.179723692,0
                100.174694407,15.1797138900001,0
                100.174738403,15.179742044,0
                100.174782673,15.179819869,0
                100.174901359,15.180140941,0
                100.175053917,15.1804216240001,0
                100.175209463,15.180801635,0
                100.175325515,15.1810872410001,0
                100.175377725,15.181278563,0
                100.175398161,15.181451128,0
                100.175418759,15.181652076,0
                100.175451427,15.1818340410001,0
                100.175491523,15.1820372550001,0
                100.175521979,15.1822594390001,0
                100.175537561,15.1824343920001,0
                100.175528868,15.1826236690001,0
                100.175507838,15.182784622,0
                100.17548673,15.182931388,0
                100.17546088,15.1831018300001,0
                100.175427973,15.183317249,0
                100.175429111,15.1835230300001,0
                100.175457723,15.1838516670001,0
                100.175443067,15.1842846060001,0
                100.175420402,15.185029813,0
                100.175398557,15.185484081,0
                100.175393345,15.1858625670001,0
                100.175399343,15.1860659540001,0
                100.175432247,15.1862904930001,0
                100.175512229,15.186659074,0
                100.175578095,15.1871176130001,0
                100.175649881,15.187765347,0
                100.175725999,15.1883160780001,0
                100.175790873,15.189034812,0
                100.175774122,15.189089304,0
                100.175716048,15.189158202,0
                100.175667702,15.189224687,0
                100.175646083,15.1892792030001,0
                100.175651427,15.189364327,0
                100.175695922,15.189482362,0
                100.175867922,15.1897534830001,0
                100.176088977,15.190085846,0
                100.176282938,15.190363943,0
                100.176395961,15.1905407560001,0
                100.176472346,15.190698836,0
                100.176504859,15.1908524180001,0
                100.176520815,15.190972048,0
                100.177007672,15.191275955,0
                100.177056429,15.1913227970001,0
                100.176855201,15.191766554,0
                100.176640099,15.192352397,0
                100.176551534,15.1927790130001,0
                100.176599447,15.1955971130001,0
                100.177064454,15.2229353660001,0
                100.177058273,15.222962281,0
                100.177060048,15.2229968390001,0
                100.177064248,15.2230405940001,0
                100.1770845,15.2231265180001,0
                100.17819598,15.223080677,0
                100.179474608,15.223007608,0
                100.18027557,15.2229618320001,0
                100.181127472,15.22290596,0
                100.183127689,15.222792645,0
                100.183632168,15.2230829440001,0
                100.184505304,15.2235953270001,0
                100.184890801,15.2238215470001,0
                100.185740461,15.2243104630001,0
                100.186462427,15.2246818400001,0
                100.187051577,15.2249665430001,0
                100.187213743,15.2250006350001,0
                100.187282843,15.224993012,0
                100.187707293,15.224850007,0
                100.18817257,15.224755035,0
                100.188421462,15.2247742770001,0
                100.189108176,15.2248816740001,0
                100.189209965,15.2247392670001,0
                100.189307729,15.2245254000001,0
                100.189335423,15.224412547,0
                100.189349396,15.224316668,0
                100.18939596,15.223997114,0
                100.18937382,15.2238011170001,0
                100.189318341,15.223662495,0
                100.189267388,15.223581048,0
                100.189195398,15.2234997210001,0
                100.189077118,15.22341863,0
                100.188853416,15.223297238,0
                100.188353544,15.223041965,0
                100.188148681,15.222937341,0
                100.18794584,15.2227831540001,0
                100.187852395,15.2226283910001,0
                100.187809425,15.2224692730001,0
                100.187793799,15.222325461,0
                100.187791679,15.222305942,0
                100.187836934,15.2221218440001,0
                100.187977359,15.22165124,0
                100.188008363,15.221541055,0
                100.188518997,15.2214464420001,0
                100.188914804,15.221371865,0
                100.189293572,15.2213308300001,0
                100.189540489,15.2213295230001,0
                100.19004072,15.2214439640001,0
                100.190655676,15.2213090590001,0
                100.19127811,15.221256198,0
                100.192279259,15.2213797490001,0
                100.193032194,15.221480195,0
                100.195538804,15.221802332,0
                100.195656797,15.221939483,0
                100.195958008,15.221746189,0
                100.196228779,15.22162494,0
                100.19674588,15.2214245060001,0
                100.197374127,15.2212414480001,0
                100.198101623,15.2211537060001,0
                100.198706072,15.221126521,0
                100.198872438,15.2210896920001,0
                100.199655286,15.220971697,0
                100.199686098,15.220965542,0
                100.199678572,15.2207259690001,0
                100.199701951,15.2204813860001,0
                100.199713518,15.220360371,0
                100.199811649,15.2202580110001,0
                100.199928593,15.220209464,0
                100.200416095,15.2202308220001,0
                100.201126164,15.220334855,0
                100.201591115,15.2204015950001,0
                100.202373397,15.2205138850001,0
                100.202738392,15.220549217,0
                100.204132641,15.2206841760001,0
                100.204151021,15.2213120590001,0
                100.204178577,15.2222533990001,0
                100.204326333,15.222198694,0
                100.204838684,15.223334111,0
                100.205438094,15.224588865,0
                100.205793803,15.2252998070001,0
                100.205963206,15.2257960950001,0
                100.205951413,15.2258920040001,0
                100.205872745,15.226161991,0
                100.205525865,15.227002499,0
                100.206891007,15.2272946860001,0
                100.207830463,15.2275891530001,0
                100.208436021,15.227753625,0
                100.209066736,15.228001824,0
                100.209400808,15.228161765,0
                100.209685251,15.228274049,0
                100.210130407,15.228439381,0
                100.210139727,15.228443434,0
                100.210424141,15.2286110110001,0
                100.210481645,15.228664183,0
                100.210501976,15.2286829820001,0
                100.210518109,15.2287017890001,0
                100.210543536,15.228731431,0
                100.210631765,15.2288342840001,0
                100.210664795,15.228851951,0
                100.210691274,15.228842607,0
                100.210701895,15.228830653,0
                100.210851733,15.2275448730001,0
                100.21093119,15.2271578740001,0
                100.210986372,15.226989071,0
                100.211025511,15.2269303580001,0
                100.211053274,15.226915428,0
                100.211631946,15.226773157,0
                100.212251706,15.2265737010001,0
                100.213147588,15.2262565350001,0
                100.214521004,15.225726148,0
                100.215566192,15.2253573260001,0
                100.216592319,15.224945067,0
                100.220856148,15.2226129690001,0
                100.222478896,15.221720851,0
                100.224977398,15.223241386,0
                100.227698469,15.2246057150001,0
                100.229154103,15.2251711230001,0
                100.230225089,15.225459691,0
                100.231296174,15.225763752,0
                100.232240487,15.2262234610001,0
                100.233089316,15.226730187,0
                100.23435301,15.2272191270001,0
                100.237135128,15.2280871140001,0
                100.238846427,15.2286975390001,0
                100.241524989,15.2294771480001,0
                100.241720032,15.2294444770001,0
                100.241865341,15.229254113,0
                100.242121753,15.2285892350001,0
                100.242266691,15.228335686,0
                100.242461362,15.2282398300001,0
                100.246497711,15.229422936,0
                100.248279599,15.2299452030001,0
                100.249622354,15.230285064,0
                100.274199406,15.209949291,0
              </coordinates>
                
            </LinearRing>
            
          </outerBoundaryIs>
        
        </Polygon>
        
      <styleUrl>
        #tambonStyle</styleUrl>
    </Placemark>

  </Document>
</kml>