<?xml version="1.0" encoding="UTF-8"?>
<kml xmlns="http://www.opengis.net/kml/2.2">
  <Document id="tambon_doc">
    <name>ทุ่งงาม, เสริมงาม, Lampang</name>
    <description>ข้อมูลขอบเขตตำบลทุ่งงาม อำเภอเสริมงาม จังหวัดLampang</description>
    
    <!-- Schema สำหรับข้อมูลตำบล -->
    <Schema id="tambon.schema">
      <SimpleField name="ADM3_EN" type="string">
        <displayName>Subdistrict Name (English)</displayName>
      </SimpleField>
      <SimpleField name="ADM3_TH" type="string">
        <displayName>ชื่อตำบล</displayName>
      </SimpleField>
      <SimpleField name="ADM2_EN" type="string">
        <displayName>District Name (English)</displayName>
      </SimpleField>
      <SimpleField name="ADM2_TH" type="string">
        <displayName>ชื่ออำเภอ</displayName>
      </SimpleField>
      <SimpleField name="ADM1_EN" type="string">
        <displayName>Province Name (English)</displayName>
      </SimpleField>
      <SimpleField name="ADM1_TH" type="string">
        <displayName>ชื่อจังหวัด</displayName>
      </SimpleField>
      <SimpleField name="ADM0_EN" type="string">
        <displayName>Country Name (English)</displayName>
      </SimpleField>
      <SimpleField name="ADM0_TH" type="string">
        <displayName>ชื่อประเทศ</displayName>
      </SimpleField>
    </Schema>

    <!-- Style สำหรับตำบล -->
    <Style id="tambonStyle">
      <LineStyle>
        <color>ffff0000</color>
        <width>1.5</width>
      </LineStyle>
      <PolyStyle>
        <color>33ff0000</color>
        <fill>1</fill>
        <outline>1</outline>
      </PolyStyle>
    </Style>

    <Placemark id="Lampang.34">
        
        <ExtendedData>
            
          <SchemaData schemaUrl="#tambon.schema">
                
            <SimpleData name="Shape_Leng">
                0.574438955705</SimpleData>
                
            <SimpleData name="Shape_Area">
                0.00752418699157</SimpleData>
                
            <SimpleData name="ADM3_EN">
                Thung Ngam</SimpleData>
                
            <SimpleData name="ADM3_TH">
                ทุ่งงาม</SimpleData>
                
            <SimpleData name="ADM3_PCODE">
                TH520401</SimpleData>
                
            <SimpleData name="ADM2_EN">
                Soem Ngam</SimpleData>
                
            <SimpleData name="ADM2_TH">
                เสริมงาม</SimpleData>
                
            <SimpleData name="ADM2_PCODE">
                TH5204</SimpleData>
                
            <SimpleData name="ADM1_EN">
                Lampang</SimpleData>
                
            <SimpleData name="ADM1_TH">
                ลำปาง</SimpleData>
                
            <SimpleData name="ADM1_PCODE">
                TH52</SimpleData>
                
            <SimpleData name="ADM0_EN">
                Thailand</SimpleData>
                
            <SimpleData name="ADM0_TH">
                ประเทศไทย</SimpleData>
                
            <SimpleData name="ADM0_PCODE">
                TH</SimpleData>
            
          </SchemaData>
        
        </ExtendedData>
        
        <Polygon>
            
          <outerBoundaryIs>
                
            <LinearRing>
                    
              <coordinates>
                    
                99.262302338,18.142112239,0
                99.2626908780001,18.1420615050001,0
                99.2629641120001,18.142161549,0
                99.2636892200001,18.1424216400001,0
                99.2643898270001,18.1425851340001,0
                99.264698809,18.1427581030001,0
                99.2647067950001,18.1427625750001,0
                99.2647381510001,18.142780121,0
                99.2652068400001,18.143263032,0
                99.2655190980001,18.143437874,0
                99.2658024820001,18.1435176210001,0
                99.2662885940001,18.14358466,0
                99.266740729,18.1436552220001,0
                99.267093033,18.143756416,0
                99.2673335950001,18.143818212,0
                99.267561916,18.143974945,0
                99.268042467,18.1444804290001,0
                99.2688357710001,18.145490486,0
                99.269676841,18.1460417930001,0
                99.2705179150001,18.1466043930001,0
                99.270749096,18.14669897,0
                99.270992649,18.146772055,0
                99.2712562570001,18.146816878,0
                99.2715393180001,18.146844732,0
                99.272008525,18.146875703,0
                99.2723246480001,18.146875256,0
                99.2728857750001,18.1467513040001,0
                99.2730971600001,18.146650461,0
                99.273355177,18.146528075,0
                99.273641475,18.14634012,0
                99.2740687180001,18.146072523,0
                99.2742164420001,18.145940104,0
                99.2742709460001,18.1458324180001,0
                99.274321087,18.145667513,0
                99.274622004,18.145405666,0
                99.2751970750001,18.144811874,0
                99.2752954470001,18.1446598430001,0
                99.275338408,18.1446160720001,0
                99.2753698010001,18.1445633640001,0
                99.2753854540001,18.1445106850001,0
                99.275391191,18.144454986,0
                99.275365293,18.144322366,0
                99.2753537820001,18.144306692,0
                99.2753378900001,18.144285058,0
                99.275337784,18.1442173520001,0
                99.2753454300001,18.144074403,0
                99.275392148,18.143758366,0
                99.2756664350001,18.143043284,0
                99.275831205,18.142742126,0
                99.2761847560001,18.1423955560001,0
                99.2763751200001,18.142249506,0
                99.276670268,18.1418513200001,0
                99.2767430600001,18.1415359100001,0
                99.2767417650001,18.1407126140001,0
                99.2767410760001,18.1402746910001,0
                99.276795378,18.1398542100001,0
                99.2768674230001,18.139065841,0
                99.2769945430001,18.138347466,0
                99.2769753960001,18.137821982,0
                99.2768647220001,18.137349182,0
                99.2766623900001,18.136841485,0
                99.276501006,18.136513592,0
                99.2764794390001,18.1362535280001,0
                99.27662754,18.1357918950001,0
                99.2772312390001,18.134746407,0
                99.2780711650001,18.1337005780001,0
                99.278577554,18.133275026,0
                99.2789676730001,18.133139473,0
                99.2792831470001,18.133067548,0
                99.2799806570001,18.1330030130001,0
                99.280620152,18.1330100230001,0
                99.2811269140001,18.1331125070001,0
                99.2813261850001,18.1331992560001,0
                99.281417789,18.1332391350001,0
                99.281933102,18.133492475,0
                99.28224055,18.133595251,0
                99.282805415,18.1336738310001,0
                99.2830628550001,18.1336655110001,0
                99.2834446890001,18.1335458400001,0
                99.2837350720001,18.1333627830001,0
                99.28403337,18.1329414910001,0
                99.284174002,18.1325998450001,0
                99.2842031710001,18.1321534740001,0
                99.284403147,18.131189751,0
                99.2841092800001,18.1307347420001,0
                99.2823203730001,18.1296819250001,0
                99.279744894,18.1281661370001,0
                99.2796164000001,18.128008676,0
                99.2798533420001,18.1272375840001,0
                99.2800906960001,18.1267292470001,0
                99.2815793390001,18.12619864,0
                99.2818930870001,18.1261012840001,0
                99.282200693,18.1259765560001,0
                99.282409622,18.1258372930001,0
                99.282638391,18.1255465880001,0
                99.2828050780001,18.125240175,0
                99.282948489,18.12488569,0
                99.2830054760001,18.1240603700001,0
                99.282863761,18.12241556,0
                99.2829566620001,18.122134112,0
                99.2830673540001,18.121898951,0
                99.2832583810001,18.1216580130001,0
                99.2835799210001,18.121422141,0
                99.2842720610001,18.1211590300001,0
                99.2854809870001,18.1206017530001,0
                99.286657468,18.119648711,0
                99.2873773480001,18.1187539530001,0
                99.288742825,18.1164240040001,0
                99.289743044,18.114749728,0
                99.2910337180001,18.112417051,0
                99.2914920970001,18.111590452,0
                99.2921757340001,18.1106030890001,0
                99.2924874060001,18.1099502930001,0
                99.292991434,18.1087433110001,0
                99.293303123,18.1079045220001,0
                99.293939026,18.1069974490001,0
                99.2942356710001,18.106561507,0
                99.2944546620001,18.106239692,0
                99.2945911910001,18.1057316960001,0
                99.2945622760001,18.1052419000001,0
                99.2941146900001,18.1003968380001,0
                99.2938218780001,18.0989525460001,0
                99.2933526610001,18.097291636,0
                99.2930124480001,18.0960654510001,0
                99.2927294870001,18.094713739,0
                99.2926945200001,18.094295765,0
                99.2927771830001,18.0939103850001,0
                99.2929085100001,18.0936797050001,0
                99.2931372450001,18.0934059430001,0
                99.293530747,18.0931059370001,0
                99.293869467,18.0928997980001,0
                99.2947454390001,18.0925324030001,0
                99.2954658800001,18.0920624390001,0
                99.2965940430001,18.0913274540001,0
                99.297294928,18.090828674,0
                99.298214564,18.0899016540001,0
                99.298750334,18.089532811,0
                99.2993794820001,18.089219583,0
                99.299822566,18.0892077460001,0
                99.3002309180001,18.089340931,0
                99.3010301240001,18.0896029940001,0
                99.301341043,18.0895826870001,0
                99.3018794830001,18.0892646350001,0
                99.3025503420001,18.0887239580001,0
                99.3026198090001,18.0884339,0
                99.3025611410001,18.088222107,0
                99.3017791380001,18.0877884110001,0
                99.3014172220001,18.0875324830001,0
                99.3011296450001,18.087184125,0
                99.3009837960001,18.0867481920001,0
                99.3011074950001,18.0863514870001,0
                99.3018315790001,18.0854978580001,0
                99.3021126180001,18.08505568,0
                99.3024496820001,18.0844195,0
                99.302658609,18.0838615760001,0
                99.302669086,18.083170146,0
                99.3024350590001,18.082690982,0
                99.301722924,18.082190263,0
                99.3008636170001,18.081473186,0
                99.3000412840001,18.081059731,0
                99.2992736680001,18.0806842380001,0
                99.2982985300001,18.080170282,0
                99.2941061830001,18.077123584,0
                99.293109632,18.0761734710001,0
                99.2925691790001,18.075262314,0
                99.292175355,18.0743373240001,0
                99.2916344280001,18.072959756,0
                99.290936845,18.0711339150001,0
                99.2907845920001,18.070412891,0
                99.2905636150001,18.0693663160001,0
                99.290226525,18.068022349,0
                99.2896728970001,18.0664391670001,0
                99.2893203260001,18.065733289,0
                99.2892883200001,18.065669213,0
                99.2889758640001,18.0652900640001,0
                99.2886944400001,18.0651074560001,0
                99.2884592410001,18.0650151630001,0
                99.288187399,18.0649138850001,0
                99.287895028,18.0649007650001,0
                99.2873559350001,18.064971615,0
                99.2838251480001,18.065967689,0
                99.2834908730001,18.066012937,0
                99.2829730890001,18.0660830410001,0
                99.2821084830001,18.06610578,0
                99.281725679,18.0660464490001,0
                99.2813398590001,18.065945329,0
                99.281037123,18.065739023,0
                99.280823464,18.065451223,0
                99.2807151470001,18.064923767,0
                99.280750663,18.0638673340001,0
                99.2808057410001,18.063164095,0
                99.2809808200001,18.0616822600001,0
                99.281034118,18.06123116,0
                99.2809514460001,18.060562165,0
                99.2808337740001,18.059882069,0
                99.2806104730001,18.058756052,0
                99.2804113540001,18.058176444,0
                99.2802709010001,18.057830935,0
                99.2798853040001,18.057285053,0
                99.2796629410001,18.056750084,0
                99.2796040140001,18.056348701,0
                99.279650121,18.056014073,0
                99.279649469,18.0556014530001,0
                99.2795091080001,18.055311707,0
                99.2791821960001,18.05501108,0
                99.278668806,18.054744177,0
                99.278271805,18.05435443,0
                99.2780384610001,18.0542432450001,0
                99.2773738800001,18.0542107430001,0
                99.276814087,18.054088875,0
                99.276545561,18.0538439200001,0
                99.276486956,18.0536432660001,0
                99.2764865720001,18.053397927,0
                99.276602735,18.053130117,0
                99.2770560810001,18.052281921,0
                99.2771254880001,18.0519361090001,0
                99.2771019100001,18.051768866,0
                99.276926792,18.0516129910001,0
                99.2766817460001,18.0514683640001,0
                99.2764015810001,18.0512345760001,0
                99.2761562700001,18.050922675,0
                99.2758684220001,18.0502208660001,0
                99.2758637030001,18.050209367,0
                99.27568833,18.0498862150001,0
                99.275618034,18.049663277,0
                99.275605941,18.0493844960001,0
                99.2756751410001,18.0489048640001,0
                99.2758259290001,18.0484139610001,0
                99.2761401050001,18.0480343470001,0
                99.2765360240001,18.0477438350001,0
                99.2774098420001,18.0474080230001,0
                99.2776242770001,18.0473548590001,0
                99.278948095,18.047026644,0
                99.2805562840001,18.0466451510001,0
                99.2819662790001,18.046263934,0
                99.282257637,18.0462077510001,0
                99.282455891,18.0462520670001,0
                99.2828641310001,18.0463852940001,0
                99.283318841,18.046418084,0
                99.2839132670001,18.046339151,0
                99.284391079,18.0462380810001,0
                99.2846653440001,18.046194653,0
                99.2851020260001,18.0461255120001,0
                99.2853235220001,18.046125186,0
                99.2855452730001,18.0462809850001,0
                99.285825587,18.0466039780001,0
                99.286304138,18.046960133,0
                99.2865844310001,18.0472719700001,0
                99.286841538,18.0476619080001,0
                99.2870402460001,18.0479850150001,0
                99.287320493,18.048263396,0
                99.287787193,18.048496893,0
                99.2885686960001,18.0487522220001,0
                99.2893619330001,18.0490521410001,0
                99.289735136,18.0491407970001,0
                99.29006158,18.0491514570001,0
                99.2903180540001,18.049151072,0
                99.29053974,18.04926226,0
                99.2905994230001,18.0492621700001,0
                99.290761241,18.049261927,0
                99.2909127250001,18.0492170900001,0
                99.291052435,18.049105362,0
                99.2910987010001,18.048882254,0
                99.2910664930001,18.048536241,0
                99.291053209,18.0483934980001,0
                99.2911149670001,18.048140624,0
                99.291472039,18.0478724430001,0
                99.2919535810001,18.0476784150001,0
                99.2921709510001,18.047529394,0
                99.292310479,18.0473061440001,0
                99.2925276720001,18.0470530420001,0
                99.2929934950001,18.04675495,0
                99.2931637130001,18.046293748,0
                99.29325636,18.045921875,0
                99.293255743,18.045550147,0
                99.2930686770001,18.0452233090001,0
                99.2925083440001,18.044763211,0
                99.291014439,18.04372462,0
                99.2909813650001,18.043693811,0
                99.2896756520001,18.042477616,0
                99.2893534660001,18.0420812130001,0
                99.2891928290001,18.0418835680001,0
                99.288611141,18.0405216980001,0
                99.2884438880001,18.040130119,0
                99.2878194240001,18.038450825,0
                99.2875215480001,18.0368751290001,0
                99.287332786,18.0354925710001,0
                99.287331555,18.03473424,0
                99.287423704,18.034050119,0
                99.287516284,18.0336336440001,0
                99.2879566110001,18.0328135450001,0
                99.2880276430001,18.0326812500001,0
                99.2885167060001,18.032203066,0
                99.2888500880001,18.031877088,0
                99.2894087940001,18.0313706970001,0
                99.289467384,18.031319153,0
                99.2898436290001,18.0309881640001,0
                99.2899675230001,18.0308791780001,0
                99.290079958,18.030663196,0
                99.2901379530001,18.0305517960001,0
                99.2901995390001,18.0301948440001,0
                99.290142454,18.029790104,0
                99.290136638,18.02974886,0
                99.2900273260001,18.0294367710001,0
                99.2898093940001,18.0292289270001,0
                99.289436235,18.02914027,0
                99.2884489140001,18.028993196,0
                99.288052635,18.0289341650001,0
                99.286886457,18.028623644,0
                99.2858912230001,18.0282979940001,0
                99.2853311760001,18.027971699,0
                99.285039204,18.0276781690001,0
                99.2848049400001,18.027442668,0
                99.2847551840001,18.0273926450001,0
                99.2841786700001,18.0264864660001,0
                99.2840399,18.0261853220001,0
                99.2838979360001,18.0258772390001,0
                99.283679136,18.0251192280001,0
                99.2835379950001,18.0243313670001,0
                99.28348987,18.0233946710001,0
                99.283480674,18.0232684420001,0
                99.283469982,18.023121749,0
                99.2834422000001,18.0227404950001,0
                99.2832085510001,18.022413714,0
                99.282881677,18.022101938,0
                99.2825860760001,18.0219090680001,0
                99.2822129090001,18.0218055290001,0
                99.281808519,18.021612814,0
                99.281497212,18.0213158830001,0
                99.2810773080001,18.021138063,0
                99.280673156,18.02109404,0
                99.280206955,18.021124453,0
                99.2798960530001,18.021080297,0
                99.2796160710001,18.020932008,0
                99.2794137690001,18.0207687390001,0
                99.2793665120001,18.020367338,0
                99.279272302,18.0197578340001,0
                99.2791785370001,18.0194308420001,0
                99.2789448770001,18.0190891880001,0
                99.2788125260001,18.018808918,0
                99.2788045410001,18.018792003,0
                99.2785864460001,18.0184651970001,0
                99.2785391880001,18.018063795,0
                99.2785385330001,18.0176474530001,0
                99.278693386,18.0172903660001,0
                99.2789569320001,18.016873649,0
                99.2791573530001,18.0158473770001,0
                99.2792374750001,18.015693486,0
                99.2793742740001,18.0154307280001,0
                99.2796999320001,18.0149841780001,0
                99.28001012,18.014582262,0
                99.2804126340001,18.0136003060001,0
                99.280536135,18.0130797,0
                99.2805446740001,18.0129155340001,0
                99.2805663010001,18.012499754,0
                99.2806437470001,18.0123360800001,0
                99.2808145540001,18.0122466170001,0
                99.2813273290001,18.012201265,0
                99.2816691100001,18.0121264250001,0
                99.2819644790001,18.012185473,0
                99.282213158,18.012199976,0
                99.28247716,18.0120806370001,0
                99.28283429,18.011886814,0
                99.2835327220001,18.011320762,0
                99.2840603210001,18.0108293050001,0
                99.2843708020001,18.0106206780001,0
                99.284790135,18.010456501,0
                99.2852562350001,18.010381468,0
                99.285489226,18.0103067790001,0
                99.2857065810001,18.010172633,0
                99.2860944450001,18.0097705910001,0
                99.2865133720001,18.009353629,0
                99.2867516160001,18.0091154420001,0
                99.286885741,18.008981346,0
                99.2871182950001,18.0086390110001,0
                99.2871949620001,18.0079995200001,0
                99.2871323410001,18.007717095,0
                99.28691437,18.0074646410001,0
                99.286729827,18.0072048530001,0
                99.2865872740001,18.007004174,0
                99.2864625430001,18.0067515810001,0
                99.286477388,18.0063203490001,0
                99.2865386610001,18.005770096,0
                99.2867088340001,18.005294028,0
                99.286879415,18.0050707360001,0
                99.2871589220001,18.0049364970001,0
                99.287264646,18.0048045670001,0
                99.287314011,18.0047429690001,0
                99.2873913500001,18.004519815,0
                99.2873908440001,18.004207562,0
                99.2871092680001,18.0030630430001,0
                99.2869790400001,18.0025697450001,0
                99.2867605800001,18.0021910740001,0
                99.285935179,18.002059644,0
                99.2856379410001,18.0019527000001,0
                99.2853538520001,18.001814155,0
                99.2849125910001,18.001609633,0
                99.2846271530001,18.001480444,0
                99.2841648120001,18.0013295260001,0
                99.283699299,18.0012931630001,0
                99.283345329,18.001318315,0
                99.2831072700001,18.0013740910001,0
                99.2828307240001,18.0015161480001,0
                99.2825863950001,18.0016766310001,0
                99.2821813930001,18.0019913200001,0
                99.2817632850001,18.0021582150001,0
                99.2812776170001,18.002342657,0
                99.280196941,18.0027630180001,0
                99.2790903150001,18.0030602360001,0
                99.2777362420001,18.003357119,0
                99.2762886340001,18.0037595060001,0
                99.275435766,18.003976962,0
                99.274706704,18.004248983,0
                99.2740978630001,18.004570099,0
                99.27287189,18.005401212,0
                99.272256154,18.005889989,0
                99.271941268,18.006223005,0
                99.2717358370001,18.006533184,0
                99.2715303830001,18.0069195180001,0
                99.2713401230001,18.007374848,0
                99.2710662110001,18.007846036,0
                99.270837127,18.0081707190001,0
                99.2706507650001,18.0083680600001,0
                99.270303508,18.0085841010001,0
                99.2698082030001,18.008800346,0
                99.2692052500001,18.0090081880001,0
                99.2685824770001,18.009119227,0
                99.268215635,18.009156686,0
                99.2679324010001,18.0091447620001,0
                99.2677005990001,18.0090958120001,0
                99.267455865,18.0090037690001,0
                99.2672112180001,18.008973312,0
                99.2669923600001,18.008967458,0
                99.2667477970001,18.00899243,0
                99.2664583000001,18.0090975250001,0
                99.2661623290001,18.0091779970001,0
                99.2658920200001,18.009203003,0
                99.26561523,18.0091972220001,0
                99.2653254450001,18.009111396,0
                99.265106454,18.0090193180001,0
                99.2645963830001,18.008778632,0
                99.2644687640001,18.0087184070001,0
                99.2640887460001,18.008552642,0
                99.2637410500001,18.0084792070001,0
                99.2631294000001,18.008375341,0
                99.2620027680001,18.0082413760001,0
                99.2619817770001,18.0082403060001,0
                99.261532849,18.0082173770001,0
                99.2611981380001,18.0082178280001,0
                99.2610115150001,18.008248875,0
                99.260850578,18.008364284,0
                99.2606698110001,18.008545736,0
                99.2605551390001,18.0086806,0
                99.260465239,18.008828533,0
                99.2603560510001,18.008988808,0
                99.260145401,18.00927897,0
                99.2598094420001,18.009891413,0
                99.259726142,18.0101501940001,0
                99.2596685,18.0103473520001,0
                99.2595786370001,18.010519921,0
                99.2594694530001,18.010686353,0
                99.25934084,18.010772748,0
                99.259083591,18.0109270610001,0
                99.2588842820001,18.0110874530001,0
                99.2586338930001,18.011531221,0
                99.258422039,18.011919505,0
                99.258222855,18.0121661210001,0
                99.2579785140001,18.012345049,0
                99.2578176430001,18.012382216,0
                99.2576953170001,18.012363905,0
                99.257508483,18.012253296,0
                99.257308788,18.012148858,0
                99.2571349990001,18.01215525,0
                99.2570063490001,18.0122170080001,0
                99.2569099770001,18.012340313,0
                99.256697923,18.012593101,0
                99.2566071520001,18.0126971510001,0
                99.2564986100001,18.0127534920001,0
                99.2563465220001,18.0127436880001,0
                99.2560285790001,18.0126617350001,0
                99.2555906690001,18.0125206600001,0
                99.2554619540001,18.0125393070001,0
                99.2553462220001,18.012631841,0
                99.255320661,18.0127612090001,0
                99.2553595510001,18.012945922,0
                99.25547578,18.013198275,0
                99.255482466,18.013370712,0
                99.2554183080001,18.0135186100001,0
                99.2553218670001,18.0135988000001,0
                99.2551384290001,18.0136094320001,0
                99.254706217,18.0135172350001,0
                99.2537212020001,18.01340767,0
                99.2532962650001,18.01333894,0
                99.2531949020001,18.013352933,0
                99.2531322410001,18.0134222990001,0
                99.2531420600001,18.013537764,0
                99.2531761930001,18.0137732910001,0
                99.2532086610001,18.013971482,0
                99.2532347860001,18.0142362780001,0
                99.25322857,18.014390253,0
                99.253206214,18.014512304,0
                99.2531339230001,18.014600162,0
                99.252984423,18.014711215,0
                99.2527238330001,18.014790078,0
                99.252546785,18.01476683,0
                99.2523664760001,18.0147166410001,0
                99.252192558,18.0146337200001,0
                99.2520718120001,18.014596929,0
                99.251954363,18.01461363,0
                99.251893297,18.0146756830001,0
                99.251870941,18.014798501,0
                99.2518792020001,18.014948228,0
                99.2518894620001,18.0153731670001,0
                99.251884971,18.0156114430001,0
                99.2518406940001,18.0161596290001,0
                99.2517800090001,18.0164911250001,0
                99.25159719,18.016939414,0
                99.2514871070001,18.017221437,0
                99.2513999270001,18.0174154310001,0
                99.251294079,18.017674239,0
                99.251217205,18.017937627,0
                99.251144932,18.01803934,0
                99.2510533170001,18.018117981,0
                99.2509617030001,18.0182012430001,0
                99.2509038810001,18.0182798450001,0
                99.25087025,18.0183953640001,0
                99.2508322150001,18.018811127,0
                99.2507890190001,18.018991327,0
                99.2507215850001,18.0191022720001,0
                99.25061543,18.0191439810001,0
                99.2504464670001,18.019153438,0
                99.250074585,18.0190569220001,0
                99.2498330610001,18.0189648510001,0
                99.249688119,18.0188911340001,0
                99.2495722450001,18.018886665,0
                99.2494322960001,18.0189284140001,0
                99.2491089540001,18.019016594,0
                99.2488049170001,18.0191001270001,0
                99.2485829170001,18.019160458,0
                99.2484816080001,18.0192160180001,0
                99.2484092820001,18.0192807770001,0
                99.2483756340001,18.0193870590001,0
                99.2483709240001,18.0194702110001,0
                99.248404915,18.019608738,0
                99.248491931,18.0196917710001,0
                99.2486224190001,18.0197886060001,0
                99.2487046580001,18.0199039730001,0
                99.2487096470001,18.020019447,0
                99.24866151,18.0201211290001,0
                99.2484974770001,18.0202044820001,0
                99.248159645,18.020288055,0
                99.2480921470001,18.020357431,0
                99.2480777800001,18.0204405920001,0
                99.2480827950001,18.020574536,0
                99.2480781030001,18.020671543,0
                99.248049242,18.020745484,0
                99.2479527460001,18.0207917990001,0
                99.2477886350001,18.0208197270001,0
                99.247668021,18.0208799270001,0
                99.2476246700001,18.020949269,0
                99.2475910080001,18.0210463130001,0
                99.247551845,18.0210908190001,0
                99.247417913,18.021122169,0
                99.247298463,18.0211535,0
                99.2471537380001,18.0212333640001,0
                99.2470959230001,18.021320046,0
                99.2469983190001,18.0214344950001,0
                99.2469187360001,18.021493487,0
                99.2468173830001,18.0215178660001,0
                99.246607398,18.021538924,0
                99.2464735090001,18.021601451,0
                99.2463107890001,18.0217610170001,0
                99.2461552990001,18.021913639,0
                99.2459454510001,18.022035159,0
                99.245746502,18.022180914,0
                99.245493282,18.0223613790001,0
                99.2454173980001,18.0224723320001,0
                99.2453668860001,18.0226040380001,0
                99.245367102,18.0227599310001,0
                99.245386399,18.022817897,0
                99.245414371,18.0229019070001,0
                99.2454543170001,18.0229850010001,0
                99.2454834050001,18.023071572,0
                99.245490767,18.02315817,0
                99.2454766010001,18.023390298,0
                99.2454625990001,18.0237367460001,0
                99.245459172,18.0238787860001,0
                99.2454955190001,18.0239757370001,0
                99.245539126,18.02408654,0
                99.245528343,18.0241454490001,0
                99.2454704510001,18.024176701,0
                99.245401653,18.024176788,0
                99.2452930320001,18.0241838530001,0
                99.245191672,18.024204766,0
                99.2451084420001,18.024242983,0
                99.245043336,18.0242950270001,0
                99.245014455,18.024360889,0
                99.2450001350001,18.0244786920001,0
                99.244935092,18.0245757760001,0
                99.2447795910001,18.02472147,0
                99.2446169720001,18.024829358,0
                99.244439523,18.024947078,0
                99.244381715,18.0250406910001,0
                99.244352909,18.0251550470001,0
                99.2443422680001,18.025317885,0
                99.244342621,18.0255742410001,0
                99.2443574960001,18.025858295,0
                99.24441612,18.02635708,0
                99.244460034,18.026689597,0
                99.2444602690001,18.026859346,0
                99.244456846,18.0270048520001,0
                99.2444353500001,18.0271711670001,0
                99.244446128,18.0273227920001,0
                99.2444464310001,18.027327045,0
                99.244522814,18.0275763820001,0
                99.2446716430001,18.027836015,0
                99.244831176,18.027988239,0
                99.2450739350001,18.0280918610001,0
                99.2451969640001,18.0281371740001,0
                99.2452784960001,18.028178644,0
                99.2453383420001,18.02824872,0
                99.2453874660001,18.028420141,0
                99.2453985450001,18.028578619,0
                99.245404148,18.0287007270001,0
                99.245428652,18.0287474670001,0
                99.245477576,18.028773385,0
                99.2455563660001,18.0287940690001,0
                99.2456053010001,18.0288329810001,0
                99.245621686,18.028895317,0
                99.245621779,18.028962872,0
                99.2456055390001,18.0290044650001,0
                99.2455540120001,18.029056493,0
                99.245342339,18.0291736840001,0
                99.245231086,18.0292439780001,0
                99.2451822790001,18.029301199,0
                99.2451552240001,18.029376583,0
                99.2451743250001,18.0294389160001,0
                99.2452151630001,18.029511617,0
                99.245212516,18.0295609840001,0
                99.2451800090001,18.029620783,0
                99.2451040320001,18.0296702470001,0
                99.2449139670001,18.029704264,0
                99.2448053410001,18.0297096,0
                99.2447471240001,18.0297400750001,0
                99.2447456370001,18.0297408540001,0
                99.2447131110001,18.0297876610001,0
                99.244656353,18.029985197,0
                99.2446492540001,18.0300879530001,0
                99.2446403760001,18.030216459,0
                99.2446513940001,18.0303281710001,0
                99.244711507,18.0305931140001,0
                99.244776975,18.03080089,0
                99.2448042120001,18.0308554170001,0
                99.244809735,18.030920367,0
                99.2447935420001,18.0309957330001,0
                99.244704132,18.0311491430001,0
                99.2446011230001,18.0312895750001,0
                99.2445224620001,18.0313624250001,0
                99.244473596,18.031378079,0
                99.2444138420001,18.031372956,0
                99.2442780160001,18.0313497450001,0
                99.2442236970001,18.0313498140001,0
                99.244191146,18.0313784360001,0
                99.2441857860001,18.031427809,0
                99.2441886920001,18.0315655090001,0
                99.2441888600001,18.031687628,0
                99.244167238,18.031765598,0
                99.244172738,18.0318149610001,0
                99.2442271,18.03184867,0
                99.2443058760001,18.031858959,0
                99.2443575340001,18.031897869,0
                99.2443521880001,18.0319602330001,0
                99.2443305190001,18.0320044320001,0
                99.2442301130001,18.0320643160001,0
                99.2441622890001,18.0321163680001,0
                99.2441027020001,18.0322333620001,0
                99.244037715,18.0323737480001,0
                99.24396175,18.0324336030001,0
                99.2438803050001,18.032457089,0
                99.2436738550001,18.032423571,0
                99.2434429780001,18.0324056760001,0
                99.24330445,18.032392857,0
                99.2432148560001,18.0324137550001,0
                99.243138861,18.032450227,0
                99.243022275,18.032595875,0
                99.2429381850001,18.0326687310001,0
                99.2428703750001,18.0327311730001,0
                99.2427727100001,18.0328092400001,0
                99.2427374740001,18.032861252,0
                99.2427212900001,18.0329444170001,0
                99.2426942330001,18.033017198,0
                99.2426508300001,18.033056227,0
                99.2425585300001,18.033084923,0
                99.2425232790001,18.033126539,0
                99.242509785,18.033186315,0
                99.2424720110001,18.0333708380001,0
                99.2424233230001,18.033513799,0
                99.2422960260001,18.033768583,0
                99.2422500210001,18.0338907600001,0
                99.2422174700001,18.033919381,0
                99.242168581,18.0339194430001,0
                99.2420998490001,18.0338726050001,0
                99.2420924670001,18.033867571,0
                99.2420245740001,18.0338702540001,0
                99.2419703200001,18.0339196910001,0
                99.2419433300001,18.0340418390001,0
                99.2419109420001,18.0341899810001,0
                99.2418079670001,18.034358991,0
                99.2416176880001,18.034569252,0
                99.241567133,18.034673244,0
                99.2415672180001,18.034735601,0
                99.2416071490001,18.034808303,0
                99.2416144530001,18.034853329,0
                99.2415747000001,18.0349122750001,0
                99.2415385670001,18.0349712080001,0
                99.241542284,18.03504049,0
                99.2416111430001,18.0350819760001,0
                99.2416872310001,18.035113059,0
                99.241709008,18.035147678,0
                99.2417199590001,18.0352134880001,0
                99.2417202290001,18.0354109520001,0
                99.2417637940001,18.035490576,0
                99.2418689740001,18.035611692,0
                99.2421952080001,18.035900192,0
                99.2423149270001,18.036006064,0
                99.2425833140001,18.036307123,0
                99.242670294,18.03635898,0
                99.2428151760001,18.036379583,0
                99.2429673180001,18.036417498,0
                99.243057949,18.03648667,0
                99.2430725660001,18.036583653,0
                99.2430764980001,18.0368122900001,0
                99.2431817660001,18.0369957680001,0
                99.243261605,18.0371169160001,0
                99.2433262980001,18.037173889,0
                99.2434200640001,18.0372205370001,0
                99.2436503700001,18.037315731,0
                99.2437482700001,18.037403297,0
                99.2437972880001,18.037500671,0
                99.2438279960001,18.037611708,0
                99.2438548480001,18.0378786410001,0
                99.243903914,18.038011087,0
                99.2439263900001,18.038061725,0
                99.2439546950001,18.0381518660001,0
                99.2439476040001,18.0382627330001,0
                99.2439152520001,18.0384359880001,0
                99.2439299120001,18.038564152,0
                99.244009856,18.038764981,0
                99.2441987560001,18.0391908500001,0
                99.244215307,18.039377706,0
                99.2441704060001,18.03949478,0
                99.2437810430001,18.039913063,0
                99.2436882750001,18.0400127240001,0
                99.2428909760001,18.04074662,0
                99.2421332950001,18.041564695,0
                99.2420602080001,18.041643605,0
                99.2417145620001,18.042016792,0
                99.240942858,18.042645947,0
                99.2405371680001,18.042924848,0
                99.240171015,18.0431765610001,0
                99.239893108,18.043301937,0
                99.2398585760001,18.0433175110001,0
                99.239527605,18.0434668230001,0
                99.2391732040001,18.043506402,0
                99.2389761580001,18.0435284070001,0
                99.2385832640001,18.043399559,0
                99.238061401,18.043116899,0
                99.2376878210001,18.0429880250001,0
                99.237443086,18.0429205790001,0
                99.2372177510001,18.042920855,0
                99.23683801,18.0429952280001,0
                99.2364134050001,18.0432236180001,0
                99.236002124,18.0437907250001,0
                99.2353977400001,18.0443888630001,0
                99.2348816780001,18.0447126870001,0
                99.2345421840001,18.0449257110001,0
                99.233827987,18.0452529940001,0
                99.2330878510001,18.0454448040001,0
                99.2329723430001,18.0454735640001,0
                99.2323670160001,18.045624278,0
                99.23218045,18.0457292,0
                99.2318524730001,18.046012896,0
                99.231409146,18.0467032080001,0
                99.230791965,18.047774976,0
                99.2307667790001,18.0478187090001,0
                99.230104957,18.048829535,0
                99.2296678310001,18.049347389,0
                99.228690407,18.0502723590001,0
                99.2275714020001,18.051252919,0
                99.227095445,18.0516291650001,0
                99.225004546,18.0528633590001,0
                99.2230229630001,18.0540111820001,0
                99.2199538410001,18.055634449,0
                99.2192139650001,18.0560787200001,0
                99.218628354,18.056319575,0
                99.217521247,18.056579492,0
                99.216233833,18.056821127,0
                99.2151007890001,18.0569394090001,0
                99.2147910910001,18.05706651,0
                99.2144144960001,18.0572210670001,0
                99.213275749,18.057884125,0
                99.212564114,18.0583715280001,0
                99.2110595540001,18.0594437350001,0
                99.2099414030001,18.0603403270001,0
                99.2087214030001,18.061159167,0
                99.207359189,18.0618800280001,0
                99.2056680630001,18.062693863,0
                99.205493022,18.062799678,0
                99.2049588610001,18.0630219600001,0
                99.204398939,18.06323811,0
                99.2036716900001,18.063528336,0
                99.203188971,18.06369513,0
                99.2029507680001,18.063726176,0
                99.2027962080001,18.063701704,0
                99.2026030160001,18.0636772720001,0
                99.202454952,18.0637020620001,0
                99.2023262700001,18.063782259,0
                99.202210484,18.063880919,0
                99.2020819300001,18.0640781340001,0
                99.2019983800001,18.0642137140001,0
                99.2018569160001,18.0643801480001,0
                99.201618856,18.0645343640001,0
                99.2013034710001,18.064639395,0
                99.2011168240001,18.0647073330001,0
                99.200981605,18.064707474,0
                99.2008528300001,18.064707608,0
                99.2007562750001,18.0647323430001,0
                99.2006790870001,18.0648001710001,0
                99.200595514,18.0649172760001,0
                99.2005634530001,18.0650343250001,0
                99.2005757300001,18.0651158910001,0
                99.2006731640001,18.065255924,0
                99.2008675490001,18.065447641,0
                99.200967312,18.0655889990001,0
                99.2009782550001,18.0656582730001,0
                99.2009674660001,18.0657241070001,0
                99.200953111,18.065841907,0
                99.200982272,18.066004698,0
                99.201084128,18.066396055,0
                99.2011349730001,18.066517253,0
                99.2012111390001,18.066610709,0
                99.2013198870001,18.066690275,0
                99.201363433,18.0667629810001,0
                99.2013743950001,18.066849576,0
                99.201345674,18.0670713210001,0
                99.201345808,18.067189107,0
                99.201364061,18.0673138020001,0
                99.2013424100001,18.0673865750001,0
                99.2012989890001,18.067421267,0
                99.201201208,18.0674317560001,0
                99.200940378,18.0673835330001,0
                99.200603474,18.0673249870001,0
                99.200462208,18.06731474,0
                99.2003752830001,18.06731483,0
                99.2002847940001,18.0673703520001,0
                99.2002341660001,18.0674396900001,0
                99.2001935220001,18.067631417,0
                99.2000534750001,18.0677967,0
                99.1999728330001,18.067969469,0
                99.199926819,18.068115021,0
                99.199894311,18.068193002,0
                99.1998356560001,18.0682553610001,0
                99.1996374720001,18.0683568960001,0
                99.1994762130001,18.0684012890001,0
                99.1993594090001,18.0684040090001,0
                99.199169204,18.068360034,0
                99.198981673,18.068271887,0
                99.1988919610001,18.0682096240001,0
                99.198807732,18.0681941230001,0
                99.198582296,18.068217738,0
                99.1984654820001,18.0682126610001,0
                99.1982725560001,18.0681582980001,0
                99.19819376,18.0681427870001,0
                99.198109554,18.068148072,0
                99.1979031550001,18.0681898550001,0
                99.1977483690001,18.0682367800001,0
                99.1974822600001,18.068327992,0
                99.1973138960001,18.068377529,0
                99.1971455660001,18.0684608460001,0
                99.1969148760001,18.068648152,0
                99.196800984,18.0688275430001,0
                99.196684356,18.068986157,0
                99.1965948050001,18.06906679,0
                99.1965215210001,18.069121426,0
                99.1963938740001,18.0691475410001,0
                99.196160316,18.069199741,0
                99.195880619,18.0692883620001,0
                99.1954673810001,18.0693948750001,0
                99.1951379070001,18.069506066,0
                99.1949243110001,18.069596356,0
                99.1947830860001,18.0696242110001,0
                99.1946671760001,18.0696174010001,0
                99.1944824010001,18.0695656230001,0
                99.194235979,18.0694480870001,0
                99.1940802020001,18.069420526,0
                99.1937360580001,18.0693654410001,0
                99.1935005880001,18.0693241060001,0
                99.193381055,18.0693172960001,0
                99.1932543,18.069331285,0
                99.193000855,18.06941468,0
                99.192808971,18.0694876220001,0
                99.1926786340001,18.069536253,0
                99.1925917830001,18.069602162,0
                99.1924542450001,18.0696958350001,0
                99.1923456920001,18.0697929410001,0
                99.1922697560001,18.069903874,0
                99.192154041,18.070077204,0
                99.1920382970001,18.07022282,0
                99.1919297260001,18.070306069,0
                99.1918138830001,18.070361614,0
                99.1915929830001,18.070396477,0
                99.191263426,18.0704349100001,0
                99.1910968710001,18.070487041,0
                99.190886907,18.0705911750001,0
                99.1906479620001,18.070688412,0
                99.1904922620001,18.070730139,0
                99.190318382,18.070706059,0
                99.1902383620001,18.0706917950001,0
                99.1901708710001,18.0706878130001,0
                99.1901698940001,18.070687772,0
                99.1900938570001,18.070712096,0
                99.1900287140001,18.0707606610001,0
                99.1898954100001,18.0708599110001,0
                99.1897731940001,18.070977047,0
                99.189670203,18.071007938,0
                99.189380456,18.0710205410001,0
                99.1891293150001,18.0710023140001,0
                99.1889039480001,18.0710025340001,0
                99.1885433560001,18.0710028870001,0
                99.188285787,18.070996979,0
                99.188073333,18.0710279790001,0
                99.187944556,18.07103426,0
                99.1876805470001,18.071028362,0
                99.187216945,18.0710411270001,0
                99.1870045110001,18.071090601,0
                99.1868565030001,18.0711769690001,0
                99.1867729250001,18.0713002260001,0
                99.1866187690001,18.0716637370001,0
                99.1865031440001,18.0719286780001,0
                99.186439126,18.0722797880001,0
                99.18641368,18.0725754310001,0
                99.186413992,18.0728710490001,0
                99.1863949340001,18.073117418,0
                99.186375866,18.073351471,0
                99.1863244890001,18.073480852,0
                99.1861379260001,18.073647319,0
                99.1858612710001,18.0738631450001,0
                99.1855130050001,18.0741059810001,0
                99.185411742,18.074253884,0
                99.1853587790001,18.0744063650001,0
                99.185363893,18.0746788860001,0
                99.185388247,18.0748774790001,0
                99.1854125570001,18.075029885,0
                99.185383695,18.0751407710001,0
                99.1853113660001,18.0752470800001,0
                99.185277698,18.075376444,0
                99.1852971690001,18.0755242380001,0
                99.1853262650001,18.075639686,0
                99.1853264010001,18.075769017,0
                99.185316969,18.0759861240001,0
                99.1853172020001,18.0762078390001,0
                99.185341484,18.0763325290001,0
                99.1853609410001,18.076466462,0
                99.1853610810001,18.0766004170001,0
                99.1853321790001,18.0766697280001,0
                99.1852470690001,18.076780393,0
                99.1852020310001,18.076910044,0
                99.185197358,18.07705786,0
                99.185255628,18.0773580420001,0
                99.185531752,18.0781614960001,0
                99.1871167880001,18.0785320960001,0
                99.1891534640001,18.078911953,0
                99.1910884520001,18.079205664,0
                99.1946721130001,18.0796619380001,0
                99.2006602980001,18.0805207660001,0
                99.2026423520001,18.080645975,0
                99.203345309,18.080685117,0
                99.204668757,18.080758803,0
                99.2056389360001,18.080733138,0
                99.207304477,18.0806246020001,0
                99.208514914,18.0804754910001,0
                99.2120429620001,18.0798475600001,0
                99.21316733,18.0795342810001,0
                99.2137939390001,18.0794022000001,0
                99.214386291,18.079344061,0
                99.215098954,18.0793761150001,0
                99.2157172830001,18.079498599,0
                99.2172634720001,18.080096317,0
                99.219093269,18.080907198,0
                99.220330274,18.0814149120001,0
                99.2219195770001,18.0821357200001,0
                99.224101788,18.0832171330001,0
                99.225657061,18.084159657,0
                99.2283463670001,18.085601744,0
                99.229102659,18.0861510240001,0
                99.2293466470001,18.0864007170001,0
                99.229604566,18.0867331360001,0
                99.2296908260001,18.0868332380001,0
                99.229785065,18.0868781610001,0
                99.2299698590001,18.0869229780001,0
                99.2301220830001,18.086988616,0
                99.2301764790001,18.087033589,0
                99.2301801660001,18.0870855480001,0
                99.2301548870001,18.0871444740001,0
                99.2301223860001,18.087220723,0
                99.230118856,18.087293479,0
                99.230155171,18.08736272,0
                99.2303654940001,18.0875356820001,0
                99.2304851900001,18.087660258,0
                99.2306266430001,18.0877986580001,0
                99.230717358,18.0879198010001,0
                99.2307210870001,18.087999471,0
                99.2307139280001,18.0880687690001,0
                99.230682212,18.0881279550001,0
                99.230514891,18.0882110420001,0
                99.2304569870001,18.088252679,0
                99.2304208350001,18.088308155,0
                99.2304210920001,18.088505615,0
                99.2303922340001,18.088595723,0
                99.2303343580001,18.088661615,0
                99.230120803,18.0887865830001,0
                99.230084649,18.088838588,0
                99.2300956000001,18.0889009320001,0
                99.2301536160001,18.088949363,0
                99.2304253950001,18.0890252560001,0
                99.230559499,18.0890874520001,0
                99.230642935,18.0891808870001,0
                99.2307373140001,18.0893297370001,0
                99.2308677610001,18.089643935,0
                99.23086813,18.0896448300001,0
                99.2309021140001,18.089932517,0
                99.2309314230001,18.090186531,0
                99.23097025,18.090329673,0
                99.2310476650001,18.0904358180001,0
                99.2311201950001,18.09049578,0
                99.2312216830001,18.090541848,0
                99.231308041,18.090563107,0
                99.2314130780001,18.090552588,0
                99.2315578810001,18.0904831290001,0
                99.231641187,18.090476101,0
                99.231753515,18.0905036830001,0
                99.231851405,18.0905693830001,0
                99.2318985900001,18.090638616,0
                99.2318950800001,18.0907252280001,0
                99.2318408690001,18.0908188280001,0
                99.2318083810001,18.0909054730001,0
                99.2317977370001,18.091075233,0
                99.231783588,18.0913350750001,0
                99.2318384450001,18.091428029,0
                99.231936331,18.0914868020001,0
                99.232048273,18.091525287,0
                99.23214289,18.091552376,0
                99.2321932730001,18.091604794,0
                99.232222339,18.0916705810001,0
                99.2322260970001,18.091774505,0
                99.232215743,18.091857147,0
                99.2321791890001,18.0919131310001,0
                99.2320525170001,18.0919998910001,0
                99.2320167880001,18.0920687060001,0
                99.2320060120001,18.092138004,0
                99.2320133640001,18.092221141,0
                99.232058367,18.09231571,0
                99.2321550820001,18.0924033590001,0
                99.2322517750001,18.092477144,0
                99.2322904750001,18.092523289,0
                99.2322953840001,18.0925833310001,0
                99.2322471800001,18.0926572920001,0
                99.232044456,18.0927545370001,0
                99.2318030760001,18.0928425870001,0
                99.2317065880001,18.0929258470001,0
                99.231648755,18.093022918,0
                99.2316537410001,18.093143007,0
                99.2316636140001,18.093304662,0
                99.231649265,18.0934109140001,0
                99.2315866700001,18.093558799,0
                99.23140334,18.0937160670001,0
                99.2310704550001,18.0940074640001,0
                99.2308168630001,18.0941417870001,0
                99.230602247,18.0942297390001,0
                99.230360825,18.0942900740001,0
                99.2301774030001,18.0943780580001,0
                99.2299747280001,18.0945168700001,0
                99.2298465690001,18.094596059,0
                99.2297887550001,18.0947069850001,0
                99.2297551360001,18.0948548320001,0
                99.2297553760001,18.095039596,0
                99.2297120600001,18.095155124,0
                99.2296542160001,18.0952475730001,0
                99.2294418690001,18.0953771600001,0
                99.2290074490001,18.0955901520001,0
                99.2288144460001,18.095742806,0
                99.2287518540001,18.0958953090001,0
                99.2287472620001,18.0960800760001,0
                99.2287669300001,18.096347958,0
                99.2288298660001,18.0964587400001,0
                99.2289217480001,18.0965463900001,0
                99.2291295690001,18.0966477630001,0
                99.22954989,18.0967304100001,0
                99.22968517,18.096762579,0
                99.2297770150001,18.096817898,0
                99.2298979930001,18.096993281,0
                99.2299948190001,18.0971686870001,0
                99.230115713,18.0972794,0
                99.23023656,18.0973531600001,0
                99.2303526800001,18.0975054470001,0
                99.2305220630001,18.0977592940001,0
                99.2308218570001,18.098012984,0
                99.2310782820001,18.098340625,0
                99.2311605250001,18.098442146,0
                99.2311751350001,18.098534511,0
                99.2311608030001,18.0986546230001,0
                99.231054939,18.0989596040001,0
                99.2310068790001,18.0991444270001,0
                99.2309152760001,18.0992692500001,0
                99.2307705570001,18.0994126100001,0
                99.230693429,18.0995281780001,0
                99.2305971010001,18.0997361510001,0
                99.2303897680001,18.1000135420001,0
                99.2301823500001,18.100226266,0
                99.2299363530001,18.1004852240001,0
                99.229810994,18.100656277,0
                99.229733894,18.100794944,0
                99.2297195850001,18.100933528,0
                99.2297487920001,18.10110902,0
                99.2298408610001,18.10133524,0
                99.2300052800001,18.1014874740001,0
                99.230285742,18.101727327,0
                99.230706291,18.1019762560001,0
                99.230958006,18.1021902250001,0
                99.2311473080001,18.102485616,0
                99.2312529610001,18.102949285,0
                99.231399234,18.103170823,0
                99.2316485140001,18.103367603,0
                99.232593884,18.1039741280001,0
                99.234200963,18.1049575760001,0
                99.2353183800001,18.1057773740001,0
                99.2367709750001,18.1068020500001,0
                99.237468456,18.10716387,0
                99.238270399,18.1075132440001,0
                99.239221338,18.107971917,0
                99.239441255,18.1080802010001,0
                99.2409513970001,18.1088237660001,0
                99.2422918340001,18.10942427,0
                99.2438385250001,18.1101339960001,0
                99.244365595,18.1104070440001,0
                99.2447897200001,18.11075687,0
                99.2450535400001,18.111095946,0
                99.2451685560001,18.111468062,0
                99.2451575910001,18.111818439,0
                99.245181088,18.112245408,0
                99.2453533520001,18.112617453,0
                99.245617145,18.1129346280001,0
                99.2457890430001,18.1130438980001,0
                99.2462148050001,18.113191165,0
                99.2464591740001,18.1132638460001,0
                99.2465358110001,18.1134827230001,0
                99.2465209750001,18.1137893100001,0
                99.2450266910001,18.115119667,0
                99.2438686620001,18.116741559,0
                99.2435792960001,18.1172528700001,0
                99.2434426200001,18.1177785850001,0
                99.24342792,18.11818736,0
                99.243565866,18.1185813380001,0
                99.2438563420001,18.1188729400001,0
                99.2443758690001,18.1191934450001,0
                99.244925912,18.1194993140001,0
                99.2457356400001,18.1199070390001,0
                99.2469425680001,18.120489434,0
                99.2478595470001,18.1211597820001,0
                99.2487156880001,18.121990786,0
                99.2494501100001,18.1231139130001,0
                99.2500561090001,18.124430966,0
                99.250200476,18.124704164,0
                99.250475625,18.1249373790001,0
                99.2510254850001,18.1250972450001,0
                99.2517290950001,18.125260898,0
                99.2521185430001,18.1253479760001,0
                99.2524621740001,18.1254241680001,0
                99.2527140270001,18.12538004,0
                99.253034476,18.125259188,0
                99.2532862350001,18.1251493660001,0
                99.253526654,18.1251162030001,0
                99.2537100370001,18.125236398,0
                99.2539512110001,18.1257287760001,0
                99.2542608400001,18.1260458850001,0
                99.2549600170001,18.126515754,0
                99.2554757820001,18.1268435370001,0
                99.2555905670001,18.1269950600001,0
                99.2556150940001,18.12710051,0
                99.2555991340001,18.127198052,0
                99.255512024,18.127288836,0
                99.2553110050001,18.127391688,0
                99.2552922950001,18.1273963510001,0
                99.2552686450001,18.127413361,0
                99.2552465620001,18.1274292430001,0
                99.2552150830001,18.1274518820001,0
                99.255131555,18.127593641,0
                99.2550739230001,18.127827747,0
                99.255016186,18.127987954,0
                99.2549583310001,18.128068092,0
                99.2548230780001,18.1280744260001,0
                99.2546813020001,18.128025345,0
                99.2545200490001,18.1278715930001,0
                99.2543975940001,18.1278224860001,0
                99.2542558740001,18.1278103550001,0
                99.2540498490001,18.127872214,0
                99.2539211760001,18.1279770800001,0
                99.253799068,18.1281681610001,0
                99.2537156010001,18.1283530330001,0
                99.2536968810001,18.1287718470001,0
                99.2536527660001,18.129449363,0
                99.253601523,18.129646506,0
                99.253466701,18.1299546180001,0
                99.2533190760001,18.1303181750001,0
                99.2531906180001,18.1305708520001,0
                99.2530876270001,18.130620256,0
                99.2529781250001,18.1306204000001,0
                99.2527139300001,18.130546844,0
                99.2523013670001,18.130319511,0
                99.2519339500001,18.1301352290001,0
                99.25157312,18.130049484,0
                99.2514266210001,18.130061681,0
                99.251347706,18.1300682520001,0
                99.2513421780001,18.1300695790001,0
                99.251115901,18.130123982,0
                99.2508907010001,18.130296721,0
                99.2507814190001,18.130450829,0
                99.2507438550001,18.1305172510001,0
                99.250453743,18.1310301720001,0
                99.2503241270001,18.131278879,0
                99.2501646760001,18.1315848300001,0
                99.2500491270001,18.131862121,0
                99.2499528380001,18.132096275,0
                99.2499016500001,18.1323365330001,0
                99.249804338,18.132606616,0
                99.2496759580001,18.132918821,0
                99.2495732310001,18.133157091,0
                99.2494532050001,18.133305051,0
                99.2492558220001,18.1334120600001,0
                99.248989581,18.1334124040001,0
                99.248465722,18.1334377150001,0
                99.2480965810001,18.1335531510001,0
                99.2478563210001,18.133709482,0
                99.247753469,18.133857425,0
                99.2477107590001,18.134021709,0
                99.2477196250001,18.1342187760001,0
                99.2477199160001,18.1342217490001,0
                99.2477544750001,18.1345718310001,0
                99.2477719510001,18.134785311,0
                99.2477206890001,18.134974244,0
                99.247617812,18.1351057580001,0
                99.2474837090001,18.1351747040001,0
                99.247374242,18.13519948,0
                99.2472002800001,18.1351689100001,0
                99.246884402,18.134990712,0
                99.2466910140001,18.1348862610001,0
                99.2465170020001,18.1348187410001,0
                99.2462850940001,18.134806719,0
                99.2461241220001,18.134850038,0
                99.2459310450001,18.1349672970001,0
                99.2456670380001,18.1350353820001,0
                99.245339931,18.135023769,0
                99.2453320690001,18.135023489,0
                99.2451453570001,18.135085314,0
                99.2449909430001,18.135214843,0
                99.2448623820001,18.135405925,0
                99.244862648,18.1355968450001,0
                99.2448834080001,18.1356446400001,0
                99.2449401920001,18.1357753500001,0
                99.245120801,18.13595372,0
                99.2453016810001,18.136329172,0
                99.2453664500001,18.1365815950001,0
                99.245421643,18.1368966410001,0
                99.2454306660001,18.137208673,0
                99.2454911870001,18.1374960000001,0
                99.2455171240001,18.13761914,0
                99.2455773820001,18.137717605,0
                99.2457751040001,18.137848735,0
                99.2459986750001,18.1380373170001,0
                99.2460761760001,18.1381850230001,0
                99.2460765440001,18.138447797,0
                99.246059701,18.138685955,0
                99.245991153,18.138801002,0
                99.2458537890001,18.138842235,0
                99.245639064,18.1388342990001,0
                99.245501688,18.138867319,0
                99.2453815170001,18.1389167450001,0
                99.245347343,18.1390481710001,0
                99.245493718,18.1393107540001,0
                99.2457520570001,18.139794909,0
                99.2458561290001,18.139917767,0
                99.2459327190001,18.1400081790001,0
                99.246216297,18.14011457,0
                99.246697408,18.1402124910001,0
                99.24723857,18.1402610660001,0
                99.2476496390001,18.1404316110001,0
                99.2480776240001,18.1407522270001,0
                99.2485060220001,18.141364803,0
                99.248980396,18.1420941100001,0
                99.2493018490001,18.1426630300001,0
                99.2494092920001,18.143057045,0
                99.2493793770001,18.1434950340001,0
                99.249013721,18.1440648440001,0
                99.2486935810001,18.144430218,0
                99.2480072860001,18.145015035,0
                99.247778699,18.1453364920001,0
                99.247596043,18.1457454820001,0
                99.2475659360001,18.1460520850001,0
                99.2475664080001,18.1463878500001,0
                99.2476890130001,18.146708855,0
                99.2478726830001,18.147015185,0
                99.2483007050001,18.147350396,0
                99.2486066900001,18.1477733510001,0
                99.2488210220001,18.148167228,0
                99.2489133230001,18.1486488570001,0
                99.2490455230001,18.1490008690001,0
                99.2490607450001,18.149065939,0
                99.249114654,18.149296398,0
                99.2491149800001,18.149526318,0
                99.2489779730001,18.1498221150001,0
                99.2486577870001,18.15016194,0
                99.24827336,18.1503818360001,0
                99.248005526,18.15053504,0
                99.2477652890001,18.150721477,0
                99.2476395790001,18.150907766,0
                99.2476169330001,18.1510939250001,0
                99.247582917,18.151334843,0
                99.2474802470001,18.151619645,0
                99.247251872,18.152101682,0
                99.246977782,18.1526494730001,0
                99.246760894,18.153153391,0
                99.2466697020001,18.1534600740001,0
                99.2466701170001,18.153755689,0
                99.2467623080001,18.154160677,0
                99.246957632,18.154609324,0
                99.2472450870001,18.155419164,0
                99.2475672900001,18.156502674,0
                99.247627175,18.156799284,0
                99.2478709490001,18.158006673,0
                99.2480668570001,18.1592855480001,0
                99.2494062960001,18.159320624,0
                99.2502595180001,18.159275463,0
                99.2508142560001,18.159195654,0
                99.251316397,18.159092178,0
                99.2518451060001,18.158975125,0
                99.2523394830001,18.1588276040001,0
                99.252798914,18.1586134570001,0
                99.2532381340001,18.158322529,0
                99.2534871700001,18.15810076,0
                99.2537237350001,18.1578202380001,0
                99.2539047550001,18.157560146,0
                99.2541022080001,18.157209645,0
                99.2542792930001,18.1566738860001,0
                99.2547637650001,18.1545763300001,0
                99.2552832360001,18.153435431,0
                99.255542044,18.152996955,0
                99.2565144900001,18.1520474660001,0
                99.2572049610001,18.1515671600001,0
                99.2575833450001,18.1512170620001,0
                99.2577324790001,18.1508668120001,0
                99.2578401150001,18.150335457,0
                99.2580284040001,18.149350527,0
                99.258175001,18.1489193690001,0
                99.2583749120001,18.148645688,0
                99.258619105,18.148359511,0
                99.2589750880001,18.148014754,0
                99.2593675840001,18.147664402,0
                99.2600719470001,18.147430237,0
                99.260708757,18.1473386800001,0
                99.261372651,18.1472341310001,0
                99.2619145960001,18.147142698,0
                99.2619598210001,18.147133986,0
                99.262253302,18.1470774540001,0
                99.2624669730001,18.1469569010001,0
                99.262488364,18.146920887,0
                99.262519324,18.1467512460001,0
                99.2624560040001,18.1465505,0
                99.2621298720001,18.1461994800001,0
                99.2612356990001,18.145266814,0
                99.2610902390001,18.1451004150001,0
                99.261075184,18.145073477,0
                99.261035566,18.1448854970001,0
                99.2610348810001,18.1444235750001,0
                99.2610865030001,18.1438210000001,0
                99.2612433350001,18.143338779,0
                99.26143174,18.142896684,0
                99.261945574,18.142343689,0
                99.262302338,18.142112239,0
              </coordinates>
                
            </LinearRing>
            
          </outerBoundaryIs>
        
        </Polygon>
        
      <styleUrl>
        #tambonStyle</styleUrl>
    </Placemark>

  </Document>
</kml>