<?xml version="1.0" encoding="UTF-8"?>
<kml xmlns="http://www.opengis.net/kml/2.2">
  <Document id="tambon_doc">
    <name>เขาไพร, รัษฎา, Trang</name>
    <description>ข้อมูลขอบเขตตำบลเขาไพร อำเภอรัษฎา จังหวัดTrang</description>
    
    <!-- Schema สำหรับข้อมูลตำบล -->
    <Schema id="tambon.schema">
      <SimpleField name="ADM3_EN" type="string">
        <displayName>Subdistrict Name (English)</displayName>
      </SimpleField>
      <SimpleField name="ADM3_TH" type="string">
        <displayName>ชื่อตำบล</displayName>
      </SimpleField>
      <SimpleField name="ADM2_EN" type="string">
        <displayName>District Name (English)</displayName>
      </SimpleField>
      <SimpleField name="ADM2_TH" type="string">
        <displayName>ชื่ออำเภอ</displayName>
      </SimpleField>
      <SimpleField name="ADM1_EN" type="string">
        <displayName>Province Name (English)</displayName>
      </SimpleField>
      <SimpleField name="ADM1_TH" type="string">
        <displayName>ชื่อจังหวัด</displayName>
      </SimpleField>
      <SimpleField name="ADM0_EN" type="string">
        <displayName>Country Name (English)</displayName>
      </SimpleField>
      <SimpleField name="ADM0_TH" type="string">
        <displayName>ชื่อประเทศ</displayName>
      </SimpleField>
    </Schema>

    <!-- Style สำหรับตำบล -->
    <Style id="tambonStyle">
      <LineStyle>
        <color>ffff0000</color>
        <width>1.5</width>
      </LineStyle>
      <PolyStyle>
        <color>33ff0000</color>
        <fill>1</fill>
        <outline>1</outline>
      </PolyStyle>
    </Style>

    <Placemark id="Trang.84">
        
        <ExtendedData>
            
          <SchemaData schemaUrl="#tambon.schema">
                
            <SimpleData name="Shape_Leng">
                0.3275024457</SimpleData>
                
            <SimpleData name="Shape_Area">
                0.00234291611072</SimpleData>
                
            <SimpleData name="ADM3_EN">
                Khao Phrai</SimpleData>
                
            <SimpleData name="ADM3_TH">
                เขาไพร</SimpleData>
                
            <SimpleData name="ADM3_PCODE">
                TH920905</SimpleData>
                
            <SimpleData name="ADM2_EN">
                Ratsada</SimpleData>
                
            <SimpleData name="ADM2_TH">
                รัษฎา</SimpleData>
                
            <SimpleData name="ADM2_PCODE">
                TH9209</SimpleData>
                
            <SimpleData name="ADM1_EN">
                Trang</SimpleData>
                
            <SimpleData name="ADM1_TH">
                ตรัง</SimpleData>
                
            <SimpleData name="ADM1_PCODE">
                TH92</SimpleData>
                
            <SimpleData name="ADM0_EN">
                Thailand</SimpleData>
                
            <SimpleData name="ADM0_TH">
                ประเทศไทย</SimpleData>
                
            <SimpleData name="ADM0_PCODE">
                TH</SimpleData>
            
          </SchemaData>
        
        </ExtendedData>
        
        <Polygon>
            
          <outerBoundaryIs>
                
            <LinearRing>
                    
              <coordinates>
                    
                99.6637664200001,7.97288067900007,0
                99.664059691,7.97285721200006,0
                99.6641486930001,7.97286692300003,0
                99.6642409620001,7.97286349200004,0
                99.6650581850001,7.97280304400005,0
                99.6652880300001,7.97280765500005,0
                99.665336891,7.97281460800002,0
                99.6653944050001,7.97284223900004,0
                99.6654649050001,7.97287908900006,0
                99.665509425,7.97289380000007,0
                99.6655613510001,7.97290480100003,0
                99.6656132630001,7.97291026300007,0
                99.665717068,7.97290640300002,0
                99.6658431070001,7.97289326400005,0
                99.6660358490001,7.97286153800007,0
                99.6672960430001,7.97262111600003,0
                99.66751657,7.97257456000006,0
                99.6677914640001,7.97256081100005,0
                99.667995939,7.97259105400008,0
                99.6681902340001,7.97264678300007,0
                99.6682710110001,7.97267348000003,0
                99.6683307860001,7.97268009500004,0
                99.6683795740001,7.97267689700004,0
                99.668647283,7.97262006400007,0
                99.6687768100001,7.97257550300003,0
                99.6691632870001,7.97244784700007,0
                99.6694750980001,7.97233783100006,0
                99.6699801130001,7.97214427500006,0
                99.6702391890001,7.97203434400006,0
                99.670990293,7.97184914600007,0
                99.671170352,7.97178753000003,0
                99.671324026,7.97171281200002,0
                99.6713997680001,7.97165925200005,0
                99.6714692200001,7.97157311000007,0
                99.6715108120001,7.97147036300004,0
                99.6715190770001,7.97141762200005,0
                99.671518797,7.97124612100004,0
                99.67146231,7.97074891100004,0
                99.6714677450001,7.97066843000005,0
                99.671489884,7.97058513400003,0
                99.6715814670001,7.97043697900006,0
                99.6718381260001,7.97015043500005,0
                99.6719610680001,7.97004714100007,0
                99.672172646,7.96994125200007,0
                99.6723710780001,7.96988370700006,0
                99.672411706,7.96986337200002,0
                99.6724268240001,7.96982855900006,0
                99.672435438,7.96975007700007,0
                99.6723031860001,7.96873471800006,0
                99.672229928,7.96839724200004,0
                99.6715620990001,7.96697338000007,0
                99.671560695,7.96696960300005,0
                99.6715586590001,7.96685842500005,0
                99.6715576030001,7.96680076600006,0
                99.671611205,7.96666953400006,0
                99.671897738,7.96637101700003,0
                99.6722209600001,7.96599528000007,0
                99.672723508,7.96547889400006,0
                99.6730725,7.96521248200003,0
                99.6735294470001,7.96483612600002,0
                99.6737875920001,7.96467629800003,0
                99.6741018760001,7.96455224200002,0
                99.6743396370001,7.96444740000004,0
                99.6745316000001,7.96436657300006,0
                99.6745446770001,7.96435964200003,0
                99.6746530070001,7.96434738100004,0
                99.6747103420001,7.96435681400004,0
                99.674784705,7.96438479500006,0
                99.6748266610001,7.96439151500005,0
                99.6748743510001,7.96438994900006,0
                99.674949563,7.96436516500006,0
                99.6750641310001,7.96431130300004,0
                99.6751208730001,7.96430251000004,0
                99.6751412770001,7.96430452400006,0
                99.6751752160001,7.96430787000003,0
                99.675190157,7.96431457900007,0
                99.6752035480001,7.96432251300007,0
                99.6752314890001,7.96433907400007,0
                99.6752650620001,7.96437408600002,0
                99.6752910320001,7.96442849800007,0
                99.6753320750001,7.96453437600007,0
                99.6753428760001,7.96455352000004,0
                99.6753767330001,7.96458715800003,0
                99.6754195380001,7.96460231900005,0
                99.6754870820001,7.96461310000007,0
                99.6755162200001,7.96461775100005,0
                99.6756000720001,7.96461477900004,0
                99.6756182880001,7.96461029600005,0
                99.675667558,7.96459818500006,0
                99.6757591790001,7.96456350600005,0
                99.6758074470001,7.96452696700004,0
                99.6758134990001,7.96451618400005,0
                99.6758187630001,7.96449398000004,0
                99.6758187440001,7.96448229800006,0
                99.6758101830001,7.96446140500007,0
                99.6758030890001,7.96445573600005,0
                99.6757724130001,7.96443121900006,0
                99.675692084,7.96438651600005,0
                99.6756820960001,7.96436242700003,0
                99.6756920190001,7.96434682200004,0
                99.675700545,7.96434255700007,0
                99.6757417530001,7.96433540700002,0
                99.6758014430001,7.96433389100002,0
                99.6759070740001,7.96435814000006,0
                99.6759407790001,7.96435917000002,0
                99.6759834050001,7.96435201800006,0
                99.6760004650001,7.96433940400004,0
                99.6760202680001,7.96429669800006,0
                99.676025886,7.96425276300005,0
                99.6760398920001,7.96423203100005,0
                99.67605711,7.96422436700004,0
                99.67608126,7.96421724600003,0
                99.6761111110001,7.96421861500005,0
                99.6761344550001,7.96424235900002,0
                99.6761396080001,7.96426107400004,0
                99.676160096,7.96433091700004,0
                99.6761675960001,7.96434181800004,0
                99.676180484,7.96434996500005,0
                99.676203716,7.96435023900005,0
                99.6762284660001,7.96434394900007,0
                99.6763414430001,7.96426358100007,0
                99.6764032990001,7.96423863800004,0
                99.6764522600001,7.96423223100004,0
                99.676501391,7.96423250000004,0
                99.676540909,7.96423272000004,0
                99.6766797130001,7.96425452700004,0
                99.6767721430001,7.96427846700004,0
                99.6768659950001,7.96430523100003,0
                99.676972844,7.96436696500007,0
                99.6769822700001,7.96437240800003,0
                99.6769853270001,7.96437645100002,0
                99.6770999980001,7.96450990400007,0
                99.677168206,7.96461871200006,0
                99.6772716570001,7.96484665600008,0
                99.6774864770001,7.96510730200004,0
                99.6775601350001,7.96517535300006,0
                99.6776522110001,7.96523700000006,0
                99.677843458,7.96532044700007,0
                99.6782704070001,7.96545538300006,0
                99.6783489790001,7.96547123200003,0
                99.6784310080001,7.96548778500005,0
                99.6785216200001,7.96549152700004,0
                99.678579691,7.96549392700007,0
                99.6786950960001,7.96547113200006,0
                99.6787836810001,7.96543604700003,0
                99.679097127,7.96528294100005,0
                99.679201515,7.96526472000005,0
                99.6793799810001,7.96528076600003,0
                99.6795886560001,7.96533543700002,0
                99.6797239460001,7.96539863400005,0
                99.6798141790001,7.96546190900006,0
                99.6800558960001,7.96576012800006,0
                99.680250271,7.96597016800007,0
                99.6803028080001,7.96599490900007,0
                99.680345221,7.96599219800004,0
                99.6807716740001,7.96579330500003,0
                99.681201097,7.96564075900005,0
                99.6813254090001,7.96562062800007,0
                99.6815162450001,7.96560710000006,0
                99.6819175410001,7.96562787300007,0
                99.6822330210001,7.96571206800007,0
                99.6826008140001,7.96584182800007,0
                99.6828944480001,7.96600694900008,0
                99.6830182780001,7.96608426000006,0
                99.683128003,7.96617921300003,0
                99.683315425,7.96647020600005,0
                99.6834187600001,7.96674248700003,0
                99.6835003180001,7.96690443000006,0
                99.6835640130001,7.96694660600002,0
                99.6836594930001,7.96697815900006,0
                99.683772951,7.96697169100003,0
                99.6838601640001,7.96693003500008,0
                99.684854682,7.96624696700007,0
                99.685993077,7.96557431600007,0
                99.6862532820001,7.96537113900007,0
                99.686342235,7.96526582200005,0
                99.686649473,7.96476183100003,0
                99.686793105,7.96455348700005,0
                99.6871834,7.96421564400003,0
                99.687718331,7.96386521700003,0
                99.6878141000001,7.96380247700006,0
                99.6879638550001,7.96373326900004,0
                99.6882046540001,7.96362198800006,0
                99.6885326240001,7.96348239100007,0
                99.6894475620001,7.96325681100006,0
                99.6904057470001,7.96292719800005,0
                99.692004373,7.96227329400006,0
                99.693899629,7.96137350600003,0
                99.6959109460001,7.96062399000004,0
                99.698361252,7.95999970400004,0
                99.7006735480001,7.95957186300006,0
                99.7028814970001,7.95910964600006,0
                99.7049965790001,7.95872787700006,0
                99.7070197200001,7.95865715600007,0
                99.7088017120001,7.95872805400006,0
                99.7092254840001,7.95871398800006,0
                99.711154643,7.95853009900003,0
                99.7120148760001,7.95837700800007,0
                99.713862657,7.95781050400007,0
                99.7154045290001,7.95725739200003,0
                99.7162342490001,7.95689648700005,0
                99.7173882010001,7.95631713600005,0
                99.7178849630001,7.95601283900004,0
                99.718916069,7.95529116800003,0
                99.7192996830001,7.95497755600007,0
                99.7204736950001,7.95378595600005,0
                99.7218949480001,7.95261051700004,0
                99.7227998770001,7.95200736800007,0
                99.7234955260001,7.95164668600006,0
                99.7240919450001,7.95142253200004,0
                99.724948306,7.95131713600006,0
                99.7252610360001,7.95127864300002,0
                99.7258077750001,7.95142297200005,0
                99.727156715,7.95196541600006,0
                99.7285971580001,7.95274378100004,0
                99.7291075910001,7.95296080700007,0
                99.7297271,7.95305052100002,0
                99.730483291,7.95291688600003,0
                99.729831586,7.95180790800003,0
                99.729614784,7.95134366100007,0
                99.7296040080001,7.95130735900005,0
                99.7295781340001,7.95122023200003,0
                99.729347977,7.95020753200004,0
                99.729363317,7.94980768400006,0
                99.7292820580001,7.94860206100003,0
                99.7291449310001,7.94800878600006,0
                99.729104605,7.94793220300005,0
                99.7289890310001,7.94771273100002,0
                99.728459877,7.94720517000007,0
                99.7283319490001,7.94696931400006,0
                99.7283316350001,7.94696305500003,0
                99.7283251280001,7.94683477900003,0
                99.728294206,7.94622481400006,0
                99.7278070150001,7.94511434200007,0
                99.727730163,7.94481597000004,0
                99.727711608,7.94410405500003,0
                99.726627636,7.94114287900004,0
                99.7264986440001,7.94053609100007,0
                99.7264937260001,7.94022329900002,0
                99.7264899210001,7.94003943000007,0
                99.726497006,7.94000274500007,0
                99.726540276,7.93988526300006,0
                99.726638543,7.93976106900004,0
                99.7268829860001,7.93948345900003,0
                99.7269451240001,7.93937148900005,0
                99.7270288670001,7.93917565100003,0
                99.7271414940001,7.93899496200004,0
                99.727198892,7.93893566300005,0
                99.727270606,7.93889259400004,0
                99.727500954,7.93880818900004,0
                99.7277087900001,7.93872458500005,0
                99.7277868180001,7.93866848100004,0
                99.7279694110001,7.93841290300003,0
                99.7281755720001,7.93804140100002,0
                99.7284730790001,7.93755284400004,0
                99.7289502680001,7.93682019700003,0
                99.7297231730001,7.93591469200004,0
                99.7302717310001,7.93541876200004,0
                99.7306182520001,7.93516252200004,0
                99.73089092,7.93501279100008,0
                99.731158388,7.93488941500004,0
                99.7317004510001,7.93478268800004,0
                99.7320421630001,7.93470938300004,0
                99.7322487850001,7.93464352500007,0
                99.732419351,7.93453637200003,0
                99.7324812270001,7.93446783600007,0
                99.732547003,7.93435222800002,0
                99.7325719190001,7.93424975200003,0
                99.7325147650001,7.93349850200002,0
                99.7324341,7.93283825300006,0
                99.7324369140001,7.93252604200006,0
                99.732513365,7.93229149900003,0
                99.7325728980001,7.93220425700002,0
                99.7327811960001,7.93202875200006,0
                99.733061186,7.93184815800004,0
                99.7332885970001,7.93175454300007,0
                99.733535175,7.93165784100006,0
                99.7338666000001,7.93151554200006,0
                99.7341039890001,7.93139285900003,0
                99.7343477730001,7.93119050900003,0
                99.7344866510001,7.93101728200003,0
                99.734586075,7.93074781100006,0
                99.73469149,7.93046604100005,0
                99.7349262480001,7.93012538400006,0
                99.735290412,7.92976103000007,0
                99.7368773250001,7.92876094900004,0
                99.737035399,7.92867150300003,0
                99.738146789,7.92792568500005,0
                99.738687364,7.92750235400007,0
                99.7390399650001,7.92725533700008,0
                99.739580813,7.92698453300005,0
                99.7404462100001,7.92663139600006,0
                99.7397457450001,7.92566529300007,0
                99.7396085110001,7.92554119200003,0
                99.739410976,7.92545790900004,0
                99.7389994700001,7.92537925700003,0
                99.7383165150001,7.92525552300003,0
                99.7381565430001,7.92521537800008,0
                99.7379705220001,7.92507679300007,0
                99.737892845,7.92495959200005,0
                99.7378652420001,7.92488741800003,0
                99.737792976,7.92356335600005,0
                99.737721955,7.92336970000002,0
                99.7376221150001,7.92317229400004,0
                99.7375147210001,7.92300712700006,0
                99.7373772070001,7.92290773200006,0
                99.7369632340001,7.92276392200006,0
                99.7368685640001,7.92275504500003,0
                99.7363295040001,7.92270447300007,0
                99.735693789,7.92279883000003,0
                99.735410389,7.92288928500005,0
                99.7351071130001,7.92314743700007,0
                99.7350772710001,7.92317284800004,0
                99.7348320340001,7.92365282800006,0
                99.7346676980001,7.92423641400006,0
                99.7343143160001,7.92528269500002,0
                99.7339981960001,7.92563444000007,0
                99.733338695,7.92597513700002,0
                99.7308653650001,7.92654876700004,0
                99.729544235,7.92679263900004,0
                99.728909188,7.92690986000002,0
                99.7263769930001,7.92780513000002,0
                99.7256044120001,7.92814275500007,0
                99.7253294940001,7.92820014500006,0
                99.7250441290001,7.92822133100003,0
                99.7247015830001,7.92818571100003,0
                99.7231807620001,7.92794520200005,0
                99.7229472010001,7.92791456400005,0
                99.7226929670001,7.92793570400005,0
                99.722376587,7.92802420100003,0
                99.7220551010001,7.92815926600002,0
                99.7215729210001,7.92839291100006,0
                99.7213396100001,7.92850712700005,0
                99.7211010290001,7.92857479700007,0
                99.7204474040001,7.92868974500004,0
                99.7201569110001,7.92874715800002,0
                99.7200273490001,7.92884050400005,0
                99.7199808130001,7.92893887900004,0
                99.7199758080001,7.92904235600002,0
                99.720001983,7.92917682300003,0
                99.7200958600001,7.92944567800004,0
                99.72014289,7.92963701800005,0
                99.7201690910001,7.92978183200006,0
                99.7201642420001,7.92997843100005,0
                99.7201281970001,7.93013887300003,0
                99.7200618420001,7.93030287600004,0
                99.720024949,7.93034974300002,0
                99.7199677770001,7.93039264700008,0
                99.7199177750001,7.93042323300006,0
                99.719833291,7.93045235000005,0
                99.7194300410001,7.93047811900004,0
                99.7189982520001,7.93046067600005,0
                99.7184265130001,7.93038891200007,0
                99.7179581550001,7.93031696300005,0
                99.717514039,7.93020254200007,0
                99.716978629,7.93003976900008,0
                99.7165526570001,7.92986468300006,0
                99.7162057140001,7.92967734100006,0
                99.7157443360001,7.92935431300003,0
                99.715619609,7.92924588000005,0
                99.7155467530001,7.92912701900002,0
                99.7154945660001,7.92895638100003,0
                99.7154472940001,7.92862535600005,0
                99.7154158770001,7.92845986000003,0
                99.7153585890001,7.92834096900003,0
                99.715264973,7.92821696700003,0
                99.715072687,7.92805174700004,0
                99.7146778410001,7.92777823000006,0
                99.7141792460001,7.92752040800002,0
                99.713525023,7.92728871900005,0
                99.7133172960001,7.92719595600005,0
                99.713182218,7.92710306200007,0
                99.7130314890001,7.92695846000004,0
                99.712594697,7.92643151400006,0
                99.7118878570001,7.92577569200006,0
                99.709756531,7.92406850300006,0
                99.707609157,7.92509730600005,0
                99.7067233210001,7.92559818200004,0
                99.7055971650001,7.92618972500003,0
                99.7055048560001,7.92623931600002,0
                99.705379113,7.92630226500006,0
                99.7052558970001,7.92632807500007,0
                99.704978597,7.92635415000007,0
                99.7048759020001,7.92636968200003,0
                99.704762966,7.92640059900003,0
                99.7047116690001,7.92643652600003,0
                99.7046706850001,7.92649804300004,0
                99.704593775,7.92657498200003,0
                99.704513703,7.92662839600007,0
                99.704495636,7.92663635400004,0
                99.7044070320001,7.92663282200004,0
                99.7043598930001,7.92660989200004,0
                99.704275232,7.92650895400004,0
                99.704269002,7.92649830000005,0
                99.7041825140001,7.92635037200006,0
                99.7040847370001,7.92623788800006,0
                99.7039921690001,7.92616635800005,0
                99.7038842540001,7.92613069600003,0
                99.7037404390001,7.92612581800006,0
                99.703555543,7.92612613000006,0
                99.7033469040001,7.92616708100007,0
                99.7032719700001,7.92620316200004,0
                99.7032340790001,7.92623520400002,0
                99.7032120840001,7.92625380600003,0
                99.7031655490001,7.92632648900008,0
                99.7031605340001,7.92639818200007,0
                99.7031710000001,7.92651081900004,0
                99.7032072920001,7.92671046000004,0
                99.7032074370001,7.92679620700005,0
                99.7032074830001,7.92682310900005,0
                99.7031716610001,7.92689998000003,0
                99.7031050000001,7.92696153500003,0
                99.703012593,7.92698729700004,0
                99.702940691,7.92698741800007,0
                99.7028584880001,7.92697219400003,0
                99.702650352,7.92691220600005,0
                99.70257587,7.92689074300006,0
                99.7024063480001,7.92687054600003,0
                99.7022933590001,7.92687073700006,0
                99.7022163610001,7.92689646700006,0
                99.7021369020001,7.92698493400007,0
                99.702041002,7.92711922700005,0
                99.702001388,7.92716081000003,0
                99.701931819,7.92719522200002,0
                99.70180349,7.92723639800005,0
                99.7016494210001,7.92724178100002,0
                99.7015228230001,7.92719693700008,0
                99.7014551390001,7.92716708400008,0
                99.7013821310001,7.92711421800004,0
                99.7012536390001,7.92705810600006,0
                99.701130365,7.92705319500004,0
                99.7010174280001,7.92708410700004,0
                99.700899436,7.92716623200005,0
                99.7007660510001,7.92725350500007,0
                99.7006171770001,7.92729472100007,0
                99.7004477,7.92730012900006,0
                99.7002550730001,7.92728381000006,0
                99.7001163570001,7.92725844200004,0
                99.6999518920001,7.92719214800007,0
                99.6997821900001,7.92706442000002,0
                99.6997192540001,7.92702329100007,0
                99.699586803,7.92693673400004,0
                99.69948401,7.92689082400005,0
                99.6993401840001,7.92688082200004,0
                99.6991912430001,7.92688107200007,0
                99.699093701,7.92690684200005,0
                99.6989551490001,7.92697876000005,0
                99.6988782330001,7.92705057500007,0
                99.6987295230001,7.92718908000006,0
                99.6985756220001,7.92729686900003,0
                99.698334415,7.92740480400005,0
                99.6981701330001,7.92744604500007,0
                99.6979545300001,7.92751297100006,0
                99.6978365100001,7.92757461700006,0
                99.6977749820001,7.92763617000003,0
                99.697739105,7.92768231300005,0
                99.6975985670001,7.92809923100003,0
                99.697589619,7.92812228800005,0
                99.6974958490001,7.92840285700004,0
                99.6973443270001,7.92885621600004,0
                99.6972326100001,7.92912236900003,0
                99.6972271830001,7.92913529900005,0
                99.6972023740001,7.92919441200007,0
                99.6971677960001,7.92924823300007,0
                99.69712165,7.92929439600005,0
                99.6970562270001,7.92933291000003,0
                99.696979217,7.92934840200007,0
                99.6968829150001,7.92934856400007,0
                99.6968197880001,7.92932132100003,0
                99.696783909,7.92928976500002,0
                99.696763332,7.92924891000007,0
                99.696736059,7.92906461600006,0
                99.6966973840001,7.92897251300008,0
                99.6966395300001,7.92892652700004,0
                99.696581703,7.92889973700005,0
                99.6965162160001,7.92889984600004,0
                99.6964314830001,7.92890383200006,0
                99.6963506170001,7.92891932500004,0
                99.6962958770001,7.92895888000004,0
                99.6962732360001,7.92899080000007,0
                99.696269611,7.92900035900004,0
                99.696208497,7.92916151000003,0
                99.696174022,7.92927677800003,0
                99.696131811,7.92937286000006,0
                99.6960856850001,7.92943054500006,0
                99.696016447,7.92948826300005,0
                99.695931762,7.92952297000005,0
                99.6958432170001,7.92955384400005,0
                99.695790414,7.92957148800002,0
                99.695739271,7.92958857800005,0
                99.695735901,7.92959098400007,0
                99.6956584760001,7.92964632000007,0
                99.695627755,7.92970397800002,0
                99.6956071980001,7.92980464200002,0
                99.695612764,7.92995363000006,0
                99.6955823370001,7.93018410600007,0
                99.6955251190001,7.93051831600008,0
                99.695479139,7.93066432800003,0
                99.6954141190001,7.93075106500004,0
                99.6953723450001,7.93078348900002,0
                99.695295936,7.93083395700006,0
                99.695191745,7.93086538500006,0
                99.6951258990001,7.93086862000007,0
                99.6949746880001,7.93087188700002,0
                99.694803102,7.93090937700003,0
                99.6947660880001,7.93091746500005,0
                99.6946727740001,7.93097214300008,0
                99.694428293,7.93111540800004,0
                99.6940473660001,7.93137015200006,0
                99.6938113410001,7.93150880100006,0
                99.6936113900001,7.93171907500005,0
                99.693565343,7.93182668300005,0
                99.693555502,7.93208272600003,0
                99.6935778050001,7.93218201200006,0
                99.693668861,7.93230272300002,0
                99.6937563060001,7.93237938200002,0
                99.6938951320001,7.93247132400006,0
                99.6939746930001,7.93251290100005,0
                99.6940015310001,7.93253777600006,0
                99.6940388580001,7.93261052900004,0
                99.6940356040001,7.93267767600003,0
                99.6939862730001,7.93276648400007,0
                99.693790805,7.93311835000003,0
                99.6937084200001,7.93332469000006,0
                99.6936775920001,7.93344330600007,0
                99.693655993,7.93368871900003,0
                99.6936065630001,7.93381098900005,0
                99.6935707010001,7.93386530500004,0
                99.693494888,7.93394686300007,0
                99.6934354950001,7.93399530300007,0
                99.693341634,7.93404024900008,0
                99.6931978310001,7.93410911300003,0
                99.692861952,7.93423854900004,0
                99.6926398950001,7.93435737900006,0
                99.6926013070001,7.93438785800004,0
                99.692544534,7.93448932800004,0
                99.6925054860001,7.93458151100003,0
                99.6924852340001,7.93460706100007,0
                99.6924386360001,7.93464650600004,0
                99.6922836160001,7.93473109000007,0
                99.6922735300001,7.93474829700006,0
                99.6922734090001,7.93477929900007,0
                99.6923004810001,7.93483006800005,0
                99.692314212,7.93485733400007,0
                99.692328241,7.93489444400007,0
                99.692332466,7.93495809100006,0
                99.6923264810001,7.93498172200003,0
                99.6922982030001,7.93503561500006,0
                99.6922662280001,7.93507975200004,0
                99.6922226040001,7.93516409200004,0
                99.692165462,7.93526143800005,0
                99.6921621720001,7.93526703300006,0
                99.692154729,7.93527336300002,0
                99.6921095860001,7.93531173400004,0
                99.6920306390001,7.93533647300006,0
                99.691959464,7.93534901400005,0
                99.691914275,7.93536063500005,0
                99.6917302310001,7.93540795100006,0
                99.6916850320001,7.93541622200007,0
                99.6915952410001,7.93545142900007,0
                99.6915527500001,7.93547789000007,0
                99.6915172050001,7.93551899800002,0
                99.6914947270001,7.93555826800002,0
                99.691466533,7.93562045800007,0
                99.691453826,7.93569002100003,0
                99.691456772,7.93577924500005,0
                99.6914721260001,7.93584856700005,0
                99.6915435600001,7.93599113300007,0
                99.691559112,7.93607559500003,0
                99.6915432330001,7.93615333100007,0
                99.6915189960001,7.93619459300004,0
                99.6914823550001,7.93624470000003,0
                99.691397754,7.93633316900002,0
                99.6910582830001,7.93674428400004,0
                99.690950065,7.93688681700007,0
                99.6909069050001,7.93698406700003,0
                99.6909057340001,7.93698700000004,0
                99.6908962190001,7.93712302300003,0
                99.690910843,7.93722032400007,0
                99.6909400490001,7.93738968800005,0
                99.6909688520001,7.93746271800006,0
                99.6910369170001,7.93763528700003,0
                99.691308602,7.93826862300006,0
                99.691416266,7.93863189700005,0
                99.691438604,7.93867059100006,0
                99.6914633410001,7.93869338400003,0
                99.6915199530001,7.93871690000003,0
                99.6916432580001,7.93873973800004,0
                99.691735726,7.93875110900007,0
                99.691767536,7.93876869600007,0
                99.6917820530001,7.93881247700006,0
                99.691782188,7.93889312700003,0
                99.6917286090001,7.93910059800004,0
                99.691716252,7.93919866900006,0
                99.691727282,7.93931746100003,0
                99.6917398140001,7.93940290100005,0
                99.691767467,7.93955989000006,0
                99.6917745550001,7.93970325000004,0
                99.691774761,7.93982614400005,0
                99.6917499340001,7.93990500600006,0
                99.6917255000001,7.93994367900007,0
                99.6917148030001,7.93995395600007,0
                99.691689114,7.93997581200006,0
                99.6916244130001,7.93999810700006,0
                99.6915464310001,7.94001119800004,0
                99.6914532310001,7.93999407200005,0
                99.6912949630001,7.93994032700004,0
                99.6911215000001,7.93986932800004,0
                99.6910369720001,7.93985650700006,0
                99.6909741540001,7.93986957300007,0
                99.6909265300001,7.93989557600003,0
                99.6908928280001,7.93992404600004,0
                99.6908666370001,7.93999284500006,0
                99.6908754820001,7.94003384800004,0
                99.69088329,7.94005031500006,0
                99.6909321780001,7.94011276200007,0
                99.6909904550001,7.94021033200005,0
                99.6909933410001,7.94026060700003,0
                99.6909835390001,7.94029764500004,0
                99.6909229620001,7.94035534800003,0
                99.6908652270001,7.94038136800003,0
                99.6907987750001,7.94038147800006,0
                99.690773736,7.94037458600008,0
                99.6906662960001,7.94029849300006,0
                99.690572763,7.94021168600005,0
                99.690474796,7.94015347600003,0
                99.6903996560001,7.94012579300005,0
                99.690284014,7.94007990200004,0
                99.6901684000001,7.94004840800005,0
                99.6901012980001,7.94005037900007,0
                99.690049457,7.94006080400004,0
                99.6900082160001,7.94008660000003,0
                99.68999517,7.94011926100006,0
                99.6899952210001,7.94014950500002,0
                99.689999576,7.94016102200004,0
                99.690029941,7.94020124400004,0
                99.6901589080001,7.94030865600007,0
                99.690175674,7.94032961800002,0
                99.6901974890001,7.94035688200006,0
                99.6902062450001,7.94036870000002,0
                99.6902432130001,7.94043234500003,0
                99.6902506630001,7.94047643600004,0
                99.690240428,7.94054661100006,0
                99.690228215,7.94060803300005,0
                99.6902149570001,7.94062996600007,0
                99.6901785360001,7.94066639700003,0
                99.6901309660001,7.94068710700003,0
                99.6900688750001,7.94068721000002,0
                99.690058708,7.94068594300006,0
                99.689996883,7.94067822000005,0
                99.6899384330001,7.94065647800005,0
                99.6896934970001,7.94047936500004,0
                99.6896788350001,7.94047417100006,0
                99.6896601970001,7.94047196200006,0
                99.689624591,7.94048576100005,0
                99.6895957030001,7.94052800400004,0
                99.689586697,7.94054305100008,0
                99.6895119340001,7.94066797100004,0
                99.689501631,7.94068147500008,0
                99.6894653200001,7.94070941700005,0
                99.6894459250001,7.94071501100007,0
                99.689407417,7.94072611900003,0
                99.689332978,7.94072252900003,0
                99.689309925,7.94071376600004,0
                99.6892509040001,7.94067607900007,0
                99.689163449,7.94059429100002,0
                99.6891129640001,7.94055353700003,0
                99.6890636740001,7.94052401900007,0
                99.6889886760001,7.94050753200003,0
                99.6889198250001,7.94052380400007,0
                99.688889497,7.94054656200007,0
                99.6888563030001,7.94059788700002,0
                99.6888423500001,7.94063569600007,0
                99.688804465,7.94092260200006,0
                99.6887688560001,7.94112748400005,0
                99.6887176880001,7.94124534400004,0
                99.6886787500001,7.94128428600004,0
                99.68862061,7.94130152000002,0
                99.688553433,7.94130706100003,0
                99.6882914910001,7.94130749400006,0
                99.6878960650001,7.94134399000006,0
                99.6876033650001,7.94138032000006,0
                99.687362073,7.94144728400005,0
                99.6872748530001,7.94150375500004,0
                99.687242042,7.94154752400004,0
                99.687227707,7.94158798300003,0
                99.687169291,7.94288647800005,0
                99.6871081250001,7.94316821200005,0
                99.6870365230001,7.94335267000002,0
                99.6869289350001,7.94351670200007,0
                99.6868731070001,7.94358186300008,0
                99.686744317,7.94368598800003,0
                99.686191508,7.94397987500003,0
                99.6859725670001,7.94410313100008,0
                99.6858152410001,7.94421263000004,0
                99.6857625860001,7.94427504800007,0
                99.6857332760001,7.94434248500005,0
                99.6857016330001,7.94445039800007,0
                99.685669422,7.94493325700006,0
                99.6855621010001,7.94529297400004,0
                99.685531676,7.94539744900004,0
                99.6854266450001,7.94556656900005,0
                99.6852818830001,7.94573346000004,0
                99.6851741680001,7.94582068700004,0
                99.6851126510001,7.94589247800008,0
                99.6850687200001,7.94596280700006,0
                99.6850570290001,7.94600105100005,0
                99.6850461700001,7.94606668400007,0
                99.685061729,7.94615882800002,0
                99.6850875490001,7.94624071300007,0
                99.6851698780001,7.94633274700004,0
                99.68523494,7.94637583300005,0
                99.685320388,7.94641446400004,0
                99.6854474240001,7.94644494400006,0
                99.685497501,7.94645911600003,0
                99.6856872060001,7.94652720900007,0
                99.6856877310001,7.94652740000004,0
                99.6857384570001,7.94657110700007,0
                99.6857570000001,7.94663088000004,0
                99.6857611510001,7.94669533300004,0
                99.6857340080001,7.94687229700003,0
                99.6856695020001,7.94718193600005,0
                99.685669653,7.94727313500005,0
                99.6856665160001,7.94733395900005,0
                99.6856576640001,7.94737397500006,0
                99.6856337930001,7.94739836800005,0
                99.685200819,7.94767254800007,0
                99.6851370890001,7.94771732900006,0
                99.6851034170001,7.94778621200004,0
                99.6851022920001,7.94790648900005,0
                99.685096286,7.94841266800006,0
                99.6850837800001,7.94847892000007,0
                99.6850622380001,7.94852878900002,0
                99.6850237340001,7.94856730300006,0
                99.6849951070001,7.94858548100007,0
                99.684955044,7.94859724300005,0
                99.684935995,7.94860283200006,0
                99.684891141,7.94859734800002,0
                99.6848423790001,7.94858346200004,0
                99.684829908,7.94857710900004,0
                99.6847623720001,7.94854272400005,0
                99.684681728,7.94847862300003,0
                99.6846314700001,7.94843867300006,0
                99.6845264780001,7.94838220200006,0
                99.6844175900001,7.94833681800003,0
                99.6843349800001,7.94832701900003,0
                99.6842913360001,7.94832183900007,0
                99.684143357,7.94832859100006,0
                99.6840823250001,7.94834492800004,0
                99.684072014,7.94834768500004,0
                99.6838841530001,7.94842831900007,0
                99.683542006,7.94859273900005,0
                99.6827481610001,7.94893541300007,0
                99.682601865,7.94898617200005,0
                99.682497772,7.94905646700005,0
                99.6824608040001,7.94909974500007,0
                99.6823446830001,7.94928427500002,0
                99.6821807310001,7.94953032800004,0
                99.6820814120001,7.94961208700005,0
                99.6819830860001,7.94965051200006,0
                99.6818324430001,7.94966441700006,0
                99.681773895,7.94965610200006,0
                99.681695409,7.94962367700003,0
                99.681615762,7.94954862200007,0
                99.6816083570001,7.94953717400006,0
                99.6815595050001,7.94946169300005,0
                99.681523784,7.94937134600002,0
                99.681451737,7.94918388200006,0
                99.6813942460001,7.94911953900004,0
                99.6813780990001,7.94910147100006,0
                99.681365138,7.94909297700002,0
                99.6813140120001,7.94905948200005,0
                99.6812803110001,7.94903739900008,0
                99.681220007,7.94901678100007,0
                99.6811195770001,7.94902060800007,0
                99.680985191,7.94903788300007,0
                99.6808807930001,7.94902627300007,0
                99.6808750230001,7.94902563200003,0
                99.6808705380001,7.94902364000006,0
                99.680795985,7.94899054000007,0
                99.680726533,7.94894828300005,0
                99.6806223710001,7.94885628400004,0
                99.680522034,7.94874507800006,0
                99.6804913560001,7.94870806800003,0
                99.6804679940001,7.94867988100003,0
                99.6804178350001,7.94863003400008,0
                99.680366952,7.94856749400003,0
                99.6803442500001,7.94853959200003,0
                99.6801922260001,7.94835336600005,0
                99.680152676,7.94831613300005,0
                99.6801286150001,7.94829976500006,0
                99.6801022700001,7.94828183500005,0
                99.6800163240001,7.94826250300002,0
                99.6800071040001,7.94826042900007,0
                99.6799343690001,7.94826469500003,0
                99.679840126,7.94828611800006,0
                99.679789396,7.94830847000003,0
                99.679693166,7.94835471100004,0
                99.6795329170001,7.94843729600007,0
                99.6793890640001,7.94848962500004,0
                99.679258163,7.94853592500004,0
                99.6791426880001,7.94858987700007,0
                99.6790657130001,7.94863224600005,0
                99.678973361,7.94869384500004,0
                99.6789156610001,7.94874386300006,0
                99.6788271810001,7.94881697700004,0
                99.6787781850001,7.94887053900004,0
                99.6787715240001,7.94887782300003,0
                99.678738303,7.94889652200004,0
                99.6787117570001,7.94890549500008,0
                99.6786663400001,7.94890556900003,0
                99.6786339980001,7.94889648100008,0
                99.6785999700001,7.94885959100003,0
                99.678588554,7.94883046300004,0
                99.6785844330001,7.94878280800003,0
                99.6785843320001,7.94872136500004,0
                99.678591549,7.94842563800006,0
                99.6785875150001,7.94831427400004,0
                99.6785751470001,7.94826069800007,0
                99.678556341,7.94819857100003,0
                99.6785294910001,7.94816843300003,0
                99.6784939060001,7.94814480300005,0
                99.6784628980001,7.94813838500005,0
                99.6784446810001,7.94813016500007,0
                99.6783676270001,7.94812261300007,0
                99.678084497,7.94811860300007,0
                99.678080278,7.94811854100004,0
                99.677979603,7.94810766200004,0
                99.6779162460001,7.94809319300003,0
                99.6778224720001,7.94806094700004,0
                99.6776707510001,7.94801456400006,0
                99.67757671,7.94796899300007,0
                99.6775468160001,7.94794729000006,0
                99.6775275530001,7.94792997200005,0
                99.6774658040001,7.94787445500003,0
                99.67741177,7.94781309600006,0
                99.6773577610001,7.94776326100003,0
                99.677322631,7.94772986500004,0
                99.6772921950001,7.94771727900007,0
                99.6772266950001,7.94770970600007,0
                99.6770571930001,7.94770614500004,0
                99.6770196430001,7.94769344700006,0
                99.6769839400001,7.94766785800005,0
                99.676933783,7.94762185600007,0
                99.6768718490001,7.94758299700004,0
                99.6768590890001,7.94757789300007,0
                99.6767905120001,7.94756946100006,0
                99.676726403,7.94756043500007,0
                99.6767035180001,7.94755721600006,0
                99.6766566580001,7.94753382400006,0
                99.676626544,7.94750968400007,0
                99.6766001510001,7.94746830800005,0
                99.6765868570001,7.94738957700002,0
                99.6765723550001,7.94725056100003,0
                99.6765663910001,7.94722424600008,0
                99.6765451090001,7.94718748000003,0
                99.6765321880001,7.94717521800004,0
                99.6765181040001,7.94716185400006,0
                99.676457966,7.94714322000004,0
                99.6764335020001,7.94714325600006,0
                99.676264346,7.94714057200002,0
                99.6762280410001,7.94713761700007,0
                99.6760225900001,7.94713795100006,0
                99.6758170950001,7.94711097700002,0
                99.6755841870001,7.94707039100007,0
                99.6752280700001,7.94707097000003,0
                99.6749747280001,7.94709868800004,0
                99.674728266,7.94714688200003,0
                99.6744886430001,7.94718823500006,0
                99.6742763540001,7.94719540400007,0
                99.6740640550001,7.94719574900006,0
                99.6739133450001,7.94716868600005,0
                99.6737557120001,7.94709384100003,0
                99.6736730280001,7.94704364900002,0
                99.6735293500001,7.94686890300005,0
                99.67347442,7.94678023200004,0
                99.6733920280001,7.94665064800006,0
                99.6732821860001,7.94648696600007,0
                99.67321616,7.94636811500004,0
                99.673042293,7.94604386800006,0
                99.6729798550001,7.94586786300005,0
                99.6729640190001,7.94582322900004,0
                99.6729795520001,7.94568182200004,0
                99.6730613270001,7.94543590100005,0
                99.6731636410001,7.94518312300005,0
                99.6733343280001,7.94486195400003,0
                99.6734573430001,7.94470472500007,0
                99.673640962,7.94449560600003,0
                99.6737717930001,7.94435602100003,0
                99.6738332510001,7.94424667900006,0
                99.6738794240001,7.94409322900003,0
                99.6738991920001,7.94393342700005,0
                99.6738889550001,7.94379697400007,0
                99.673838645,7.94365393000004,0
                99.673835533,7.94364887500006,0
                99.6737699650001,7.94354229600003,0
                99.673738294,7.94350224700003,0
                99.673736144,7.94350036400004,0
                99.6736826860001,7.94346443300003,0
                99.673658017,7.94344785900006,0
                99.6735853650001,7.94342096300005,0
                99.6734630320001,7.94339465900003,0
                99.6734243330001,7.94340340600007,0
                99.673343205,7.94345602900006,0
                99.67316715,7.94362462800007,0
                99.6729656370001,7.94373893000005,0
                99.6727962420001,7.94380065100006,0
                99.672590885,7.94385730700003,0
                99.6723735160001,7.94390572200007,0
                99.671096844,7.94422840300007,0
                99.670706652,7.94432632400003,0
                99.6704088440001,7.94438312800003,0
                99.6702548040001,7.94441410200005,0
                99.6695821160001,7.94451247700005,0
                99.6689864250001,7.94457999900004,0
                99.6687861520001,7.94460592800004,0
                99.6682418780001,7.94470921300007,0
                99.6668504340001,7.94500332100006,0
                99.6662907910001,7.94513223200005,0
                99.6658748950001,7.94521994700006,0
                99.6656386820001,7.94525616900006,0
                99.66546823,7.94525916100002,0
                99.665338224,7.94526225000004,0
                99.665138869,7.94525968800002,0
                99.6646996800001,7.94523446900007,0
                99.6641593100001,7.94517196700002,0
                99.6637172060001,7.94513234600004,0
                99.6634629360001,7.94511547100007,0
                99.663197116,7.94510437200006,0
                99.6628706610001,7.94511353500008,0
                99.6625153240001,7.94513138200006,0
                99.6619000090001,7.94517845000007,0
                99.6613684930001,7.94523114200007,0
                99.6610420790001,7.94526622200004,0
                99.660865856,7.94527802600004,0
                99.6607156540001,7.94529842700007,0
                99.6605799060001,7.94532456400003,0
                99.660467264,7.94534490600006,0
                99.6600223630001,7.94536289600006,0
                99.6596525840001,7.94538076300006,0
                99.6592943360001,7.94538709300002,0
                99.658719401,7.94538800500004,0
                99.6577978320001,7.94543266700003,0
                99.6570049960001,7.94547277400005,0
                99.656093377,7.94551889000007,0
                99.6552469380001,7.94557207100007,0
                99.655059146,7.94557236700007,0
                99.6549464500001,7.94556102300004,0
                99.6548539490001,7.94553236400003,0
                99.6547730030001,7.94550080700003,0
                99.6547035820001,7.94544907000005,0
                99.6546543810001,7.94539442600006,0
                99.6545993080001,7.94528217800007,0
                99.65455869,7.94517278800004,0
                99.6545333780001,7.94506831700005,0
                99.6543871050001,7.94446450000004,0
                99.654355186,7.94437525700005,0
                99.6543088670001,7.94431628500007,0
                99.6542779930001,7.94428176800005,0
                99.6542201920001,7.94427034000006,0
                99.6541354440001,7.94427047300007,0
                99.6540160430001,7.94428218000007,0
                99.6534190670001,7.94435224800003,0
                99.6531841340001,7.94438334000006,0
                99.653057006,7.94437970000007,0
                99.6529298670001,7.94436837600006,0
                99.6528181200001,7.94434935300006,0
                99.652725634,7.94432645200004,0
                99.6526408430001,7.94429970300007,0
                99.6525213530001,7.94425380600006,0
                99.6524095990001,7.94422710000003,0
                99.652289296,7.94421085800008,0
                99.6516729720001,7.94422547900007,0
                99.6514880650001,7.94422576800002,0
                99.651337347,7.94419186800008,0
                99.651166033,7.94412386100004,0
                99.651019267,7.94405320400006,0
                99.6509398650001,7.94401497900003,0
                99.650782238,7.94394012000004,0
                99.6505561560001,7.94388585400003,0
                99.6503712510001,7.94388614300004,0
                99.6501658380001,7.94390694700007,0
                99.6490568250001,7.94417495300007,0
                99.6487556060001,7.94424369900003,0
                99.6485502460001,7.94429863700003,0
                99.648386024,7.94438764800003,0
                99.648214996,7.94450398500004,0
                99.648044026,7.94465445200007,0
                99.647777283,7.94487335000002,0
                99.6475036890001,7.94509225500008,0
                99.647360092,7.94522902600005,0
                99.6472095970001,7.94533850100004,0
                99.6470453530001,7.94541385500003,0
                99.646860544,7.94547559200004,0
                99.646566185,7.94555115100007,0
                99.6462786810001,7.94563352900008,0
                99.6457378860001,7.94577774600003,0
                99.6456624470001,7.94581011800005,0
                99.6455732730001,7.94586034800005,0
                99.645523875,7.94591424100003,0
                99.645488857,7.94598646200006,0
                99.6454862590001,7.94606224600005,0
                99.645547692,7.94629873600007,0
                99.6461315440001,7.94788681900008,0
                99.646296653,7.94836448200004,0
                99.6463861610001,7.94867157900006,0
                99.6464413310001,7.94891728200002,0
                99.6464828490001,7.94919031400002,0
                99.646510714,7.94949068000005,0
                99.646531548,7.94967498800003,0
                99.6465111630001,7.94977743200008,0
                99.6464944040001,7.94980762400007,0
                99.646434421,7.94984961900008,0
                99.6463674860001,7.94986640900004,0
                99.6456486480001,7.95002456300006,0
                99.6446695920001,7.95019676600003,0
                99.6444573420001,7.95023123300007,0
                99.6443409520001,7.95025189600005,0
                99.644138491,7.95032981500003,0
                99.64390997,7.95041776200003,0
                99.6428625730001,7.95082086500003,0
                99.6426572350001,7.95089628300008,0
                99.6424477740001,7.95098884000004,0
                99.6423370900001,7.95100119800003,0
                99.641995062,7.95098042100005,0
                99.641732888,7.95102060700003,0
                99.6410550530001,7.95112406700002,0
                99.6403261620001,7.95131684000006,0
                99.6402909060001,7.95130567300004,0
                99.640277622,7.95129123500004,0
                99.6401683070001,7.95110528600003,0
                99.6398926090001,7.95051969100007,0
                99.6397310850001,7.95015807500005,0
                99.6396238830001,7.94977984700006,0
                99.639602122,7.94957755600007,0
                99.639508484,7.94746692900003,0
                99.6386911430001,7.94756000700005,0
                99.637744899,7.94771316300006,0
                99.6365024600001,7.94792065700005,0
                99.636110633,7.94797649100008,0
                99.6352356850001,7.94809914500007,0
                99.635176963,7.94813579500004,0
                99.635155721,7.94817526800006,0
                99.6351714680001,7.94848838700005,0
                99.6351785840001,7.94862988600005,0
                99.635203377,7.94898796000007,0
                99.635205715,7.94902168900006,0
                99.635184456,7.94911826800006,0
                99.635154206,7.94917043700002,0
                99.635105589,7.94921905600006,0
                99.635024157,7.94927376700002,0
                99.6350052600001,7.94928595600004,0
                99.6348316190001,7.94935981300006,0
                99.634539928,7.94948388200004,0
                99.634406776,7.94955900100007,0
                99.6343463050001,7.95034376400002,0
                99.6342938870001,7.95062485800003,0
                99.6341306880001,7.95142717300007,0
                99.6340317900001,7.95203619500006,0
                99.633857047,7.95296732300005,0
                99.633822104,7.95316057900004,0
                99.6338073040001,7.95322372700002,0
                99.6337790640001,7.95329463700006,0
                99.633728487,7.95338319400003,0
                99.6336640870001,7.95351208800002,0
                99.6336407810001,7.95362921200007,0
                99.6336619340001,7.95412235000003,0
                99.63368503,7.95425921800006,0
                99.6337064720001,7.95434336300002,0
                99.6337275970001,7.95439893800005,0
                99.6337691480001,7.95446796900006,0
                99.6337845690001,7.95449862700002,0
                99.6338590330001,7.95457963300004,0
                99.6339373760001,7.95466485400004,0
                99.6339586240001,7.95470230900003,0
                99.6339772730001,7.95477618200005,0
                99.6339841010001,7.95539674800006,0
                99.6339921650001,7.95546029500002,0
                99.6340112500001,7.95551314400007,0
                99.63418434,7.95577113000007,0
                99.6342608830001,7.95589981300003,0
                99.6342963330001,7.95604026900003,0
                99.6342965220001,7.95616320800002,0
                99.6342616840001,7.95642086100003,0
                99.6342149930001,7.95660827600005,0
                99.634215155,7.95671365500004,0
                99.6342209900001,7.95681554500004,0
                99.6342694630001,7.95766200400004,0
                99.634252454,7.95779358100003,0
                99.6342190920001,7.95789176600005,0
                99.6338873230001,7.95821213600004,0
                99.6337778960001,7.95828510700005,0
                99.6337067060001,7.95831856500007,0
                99.6331087010001,7.95843780000007,0
                99.633038738,7.95845307200005,0
                99.6329552440001,7.95849992400002,0
                99.6329232610001,7.95855335300007,0
                99.6329051690001,7.95865955100004,0
                99.632932882,7.95887185500004,0
                99.633024559,7.95935922000007,0
                99.633291984,7.96089559500007,0
                99.6335807410001,7.96265662900004,0
                99.633639138,7.96303572700003,0
                99.6350655110001,7.96290670300004,0
                99.63618969,7.96266302500004,0
                99.636896144,7.96251657400006,0
                99.6371578220001,7.96245436800007,0
                99.6374756870001,7.96228696300005,0
                99.6379428650001,7.96215034200003,0
                99.6382455150001,7.96207701900005,0
                99.6384647500001,7.96206627600003,0
                99.6389032050001,7.96204478400006,0
                99.639159582,7.96199120100005,0
                99.6401297350001,7.96165743500006,0
                99.640143401,7.96165273400004,0
                99.640145051,7.96165235100005,0
                99.6406770600001,7.96152909700004,0
                99.6408338410001,7.96152141100004,0
                99.6411993020001,7.96155206900005,0
                99.6422225520001,7.96162334000007,0
                99.6430579390001,7.96172612700008,0
                99.643121883,7.96174170700004,0
                99.6443739140001,7.96204673400007,0
                99.6449169300001,7.96212915500007,0
                99.6453346070001,7.96217013600005,0
                99.647252773,7.96253052600002,0
                99.6473702280001,7.96253034300003,0
                99.6479632240001,7.96244159900004,0
                99.6482861750001,7.96241182000006,0
                99.6487617320001,7.96232911600003,0
                99.648855429,7.96274408200003,0
                99.6489527900001,7.96297840200003,0
                99.6491592790001,7.96326579600003,0
                99.64919725,7.96333845900006,0
                99.6492054270001,7.96338517800007,0
                99.6492284110001,7.96407301800002,0
                99.649257907,7.96415493400002,0
                99.6492991000001,7.96420756500004,0
                99.6493695170001,7.96424823000007,0
                99.649387845,7.96425162400004,0
                99.6494662370001,7.96426615100006,0
                99.6503680220001,7.96427028200003,0
                99.6505701230001,7.96428915400003,0
                99.6506586900001,7.96433732000003,0
                99.650985394,7.96466425400007,0
                99.6512919190001,7.96483611600007,0
                99.6513541250001,7.96489631300005,0
                99.651380067,7.96493471400004,0
                99.6513969250001,7.96501804200005,0
                99.6513162620001,7.96600172200004,0
                99.6512636620001,7.96616573100005,0
                99.6512347510001,7.96624941500005,0
                99.6510272410001,7.96676182900006,0
                99.65065852,7.96724505000003,0
                99.6503875480001,7.96768865300004,0
                99.6503187180001,7.96789557900007,0
                99.6503175190001,7.96790668000006,0
                99.650309199,7.96792942300004,0
                99.650280185,7.96815193900005,0
                99.650286328,7.96832170800008,0
                99.650327701,7.96849142300005,0
                99.6503572620001,7.96861432100008,0
                99.650406607,7.96874987300004,0
                99.65051062,7.96903560000004,0
                99.6508647530001,7.97015910700003,0
                99.6509355540001,7.97036390100004,0
                99.6510682780001,7.97062281300003,0
                99.65111792,7.97072490800002,0
                99.6511449970001,7.97078059200004,0
                99.6511626160001,7.97081683500005,0
                99.6512140680001,7.97096753800002,0
                99.6512429270001,7.97162213100006,0
                99.651272948,7.97253107400007,0
                99.6529918990001,7.97251305100002,0
                99.6530203510001,7.97250704400005,0
                99.6530557280001,7.97248050600007,0
                99.6530801970001,7.97244535900006,0
                99.6530905750001,7.97240368600006,0
                99.6530903410001,7.97225572400004,0
                99.6530180930001,7.97189853800006,0
                99.6530126330001,7.97185289200007,0
                99.653019257,7.97176521800003,0
                99.653032823,7.97170022000006,0
                99.6530635170001,7.97165636700004,0
                99.6531206000001,7.97162999300002,0
                99.6531865010001,7.97162550700006,0
                99.6533051490001,7.97162970200003,0
                99.6534413790001,7.97163386900007,0
                99.6535732020001,7.97162927900007,0
                99.653696214,7.97161594700003,0
                99.6538367910001,7.97159381900008,0
                99.653977356,7.97156293500007,0
                99.6540651770001,7.97152337300003,0
                99.654170584,7.97148816100002,0
                99.654271598,7.97145734000003,0
                99.6543550630001,7.97143968900002,0
                99.6544341570001,7.97143956400004,0
                99.6545176880001,7.97146571000007,0
                99.654574869,7.97150066600005,0
                99.6546496730001,7.97156625500003,0
                99.6547113510001,7.97166691000007,0
                99.6547775210001,7.97182888200007,0
                99.6548128690001,7.97195148000003,0
                99.654852534,7.97202588200003,0
                99.654905333,7.97206960900007,0
                99.65499327,7.97210013100005,0
                99.6550768210001,7.97213942100007,0
                99.6551603820001,7.97218309400006,0
                99.6552439490001,7.97223553300006,0
                99.6553230690001,7.97224854400002,0
                99.655406558,7.97224841200006,0
                99.6555955300001,7.97226125600002,0
                99.655933873,7.97225633900007,0
                99.6561579680001,7.97225160600004,0
                99.6563600740001,7.97223376600004,0
                99.656498474,7.97222533300004,0
                99.656610517,7.97221858400007,0
                99.6567093410001,7.97218885600006,0
                99.6583658220001,7.97142402400004,0
                99.658454755,7.97139102700004,0
                99.6585437100001,7.97137446300007,0
                99.6586162030001,7.97136777800006,0
                99.6586722160001,7.97135783000004,0
                99.658741406,7.97134786500004,0
                99.6601188990001,7.97129639100007,0
                99.6604451520001,7.97128930100007,0
                99.6605967950001,7.97127548700007,0
                99.6606183540001,7.97127352300004,0
                99.660724008,7.97126596400005,0
                99.6608537710001,7.97126390700004,0
                99.6609316300001,7.97126378300004,0
                99.6610206230001,7.97127103400004,0
                99.6611151800001,7.97128012400003,0
                99.6611986300001,7.97129847000002,0
                99.6612542780001,7.97131686000006,0
                99.6613117830001,7.97133894600006,0
                99.6613517550001,7.97136144500007,0
                99.6613809930001,7.97138374300005,0
                99.6614305730001,7.97143300500005,0
                99.661458779,7.97146687000003,0
                99.6614808610001,7.97149338200006,0
                99.661536459,7.97157010200004,0
                99.6615992210001,7.97165870600003,0
                99.661652056,7.97172432900004,0
                99.6618336590001,7.97193759200007,0
                99.662005353,7.97214100700006,0
                99.6620681360001,7.97224275100007,0
                99.6625275320001,7.97305350200003,0
                99.663090975,7.97298360500002,0
                99.6632227790001,7.97296697400003,0
                99.6633347920001,7.97294379300007,0
                99.6634533970001,7.97292060600006,0
                99.6636412020001,7.97289073800005,0
                99.6637664200001,7.97288067900007,0
              </coordinates>
                
            </LinearRing>
            
          </outerBoundaryIs>
        
        </Polygon>
        
      <styleUrl>
        #tambonStyle</styleUrl>
    </Placemark>

  </Document>
</kml>