<?xml version="1.0" encoding="UTF-8"?>
<kml xmlns="http://www.opengis.net/kml/2.2">
  <Document id="tambon_doc">
    <name>ยางงาม, หนองไผ่, Phetchabun</name>
    <description>ข้อมูลขอบเขตตำบลยางงาม อำเภอหนองไผ่ จังหวัดPhetchabun</description>
    
    <!-- Schema สำหรับข้อมูลตำบล -->
    <Schema id="tambon.schema">
      <SimpleField name="ADM3_EN" type="string">
        <displayName>Subdistrict Name (English)</displayName>
      </SimpleField>
      <SimpleField name="ADM3_TH" type="string">
        <displayName>ชื่อตำบล</displayName>
      </SimpleField>
      <SimpleField name="ADM2_EN" type="string">
        <displayName>District Name (English)</displayName>
      </SimpleField>
      <SimpleField name="ADM2_TH" type="string">
        <displayName>ชื่ออำเภอ</displayName>
      </SimpleField>
      <SimpleField name="ADM1_EN" type="string">
        <displayName>Province Name (English)</displayName>
      </SimpleField>
      <SimpleField name="ADM1_TH" type="string">
        <displayName>ชื่อจังหวัด</displayName>
      </SimpleField>
      <SimpleField name="ADM0_EN" type="string">
        <displayName>Country Name (English)</displayName>
      </SimpleField>
      <SimpleField name="ADM0_TH" type="string">
        <displayName>ชื่อประเทศ</displayName>
      </SimpleField>
    </Schema>

    <!-- Style สำหรับตำบล -->
    <Style id="tambonStyle">
      <LineStyle>
        <color>ffff0000</color>
        <width>1.5</width>
      </LineStyle>
      <PolyStyle>
        <color>33ff0000</color>
        <fill>1</fill>
        <outline>1</outline>
      </PolyStyle>
    </Style>

    <Placemark id="Phetchabun.91">
        
        <ExtendedData>
            
          <SchemaData schemaUrl="#tambon.schema">
                
            <SimpleData name="Shape_Leng">
                0.580091836712</SimpleData>
                
            <SimpleData name="Shape_Area">
                0.0115979201418</SimpleData>
                
            <SimpleData name="ADM3_EN">
                Yang Ngam</SimpleData>
                
            <SimpleData name="ADM3_TH">
                ยางงาม</SimpleData>
                
            <SimpleData name="ADM3_PCODE">
                TH670712</SimpleData>
                
            <SimpleData name="ADM2_EN">
                Nong Phai</SimpleData>
                
            <SimpleData name="ADM2_TH">
                หนองไผ่</SimpleData>
                
            <SimpleData name="ADM2_PCODE">
                TH6707</SimpleData>
                
            <SimpleData name="ADM1_EN">
                Phetchabun</SimpleData>
                
            <SimpleData name="ADM1_TH">
                เพชรบูรณ์</SimpleData>
                
            <SimpleData name="ADM1_PCODE">
                TH67</SimpleData>
                
            <SimpleData name="ADM0_EN">
                Thailand</SimpleData>
                
            <SimpleData name="ADM0_TH">
                ประเทศไทย</SimpleData>
                
            <SimpleData name="ADM0_PCODE">
                TH</SimpleData>
            
          </SchemaData>
        
        </ExtendedData>
        
        <Polygon>
            
          <outerBoundaryIs>
                
            <LinearRing>
                    
              <coordinates>
                    
                100.974494743,16.1429513530001,0
                100.974402376,16.1386058580001,0
                100.974568254,16.1380597250001,0
                100.974923142,16.1374054770001,0
                100.975182317,16.137037906,0
                100.975393787,16.136829543,0
                100.975785301,16.136556005,0
                100.97621061,16.1363774160001,0
                100.976833168,16.136212873,0
                100.977291794,16.1360816010001,0
                100.977602444,16.1359358290001,0
                100.977748213,16.135728074,0
                100.977808392,16.135547827,0
                100.977934122,16.134728147,0
                100.97834844,16.13403214,0
                100.97889612,16.133637989,0
                100.978900129,16.133635106,0
                100.979401773,16.1334286420001,0
                100.980724896,16.133207811,0
                100.981113645,16.1332114740001,0
                100.981799088,16.133353529,0
                100.982005003,16.133508751,0
                100.982181657,16.1340372550001,0
                100.982233903,16.135054654,0
                100.982358033,16.1357034330001,0
                100.982389426,16.135867514,0
                100.982444442,16.135949941,0
                100.982645988,16.136251923,0
                100.983158195,16.136665507,0
                100.985965788,16.137261912,0
                100.986829881,16.1350849070001,0
                100.987216648,16.133755616,0
                100.987319085,16.132567067,0
                100.987304486,16.1311034190001,0
                100.987576688,16.1297475740001,0
                100.988136238,16.1285547640001,0
                100.988561476,16.1282193760001,0
                100.989218854,16.128240868,0
                100.991403968,16.128809834,0
                100.991823803,16.1288911830001,0
                100.993479802,16.129088885,0
                100.994560754,16.1291214130001,0
                100.9953773,16.129177725,0
                100.996236246,16.129063103,0
                100.997071215,16.1287568450001,0
                100.997856978,16.1283316380001,0
                100.998459497,16.127680533,0
                100.998882459,16.1268426410001,0
                100.999419413,16.1254093530001,0
                100.999646363,16.123851061,0
                100.999728366,16.1232320940001,0
                100.999967293,16.122867462,0
                100.999963658,16.1225051000001,0
                100.999806306,16.1222081330001,0
                100.999627976,16.122017951,0
                100.999226361,16.121552734,0
                100.998889619,16.120959005,0
                100.998841244,16.120533112,0
                100.99883633,16.120042862,0
                100.998831202,16.1195312950001,0
                100.9988918,16.118976477,0
                100.999330045,16.1180837860001,0
                100.999492198,16.1178551740001,0
                100.999937048,16.117597774,0
                101.00001309,16.117548684,0
                101.000256133,16.117421205,0
                101.000522894,16.117310575,0
                101.000980558,16.1171452200001,0
                101.001092118,16.1171243680001,0
                101.001133814,16.1171032670001,0
                101.001187442,16.1170640510001,0
                101.001211541,16.11705212,0
                101.001273783,16.1170362300001,0
                101.00137522,16.117028077,0
                101.001502806,16.1170268810001,0
                101.001527916,16.1170230450001,0
                101.001559409,16.1170056400001,0
                101.001597146,16.11696117,0
                101.001631018,16.116902333,0
                101.00163988,16.1168572300001,0
                101.001662358,16.1167768920001,0
                101.001676009,16.116745252,0
                101.001720261,16.1166998210001,0
                101.001850604,16.116602261,0
                101.001971746,16.1165155940001,0
                101.002065715,16.116412971,0
                101.002101844,16.116300993,0
                101.002135842,16.116162022,0
                101.002176215,16.1161013220001,0
                101.002201126,16.1160776770001,0
                101.002367634,16.1159644750001,0
                101.002469626,16.115918498,0
                101.002543984,16.1159033980001,0
                101.002601711,16.115901953,0
                101.00265204,16.1159050860001,0
                101.002683686,16.115902986,0
                101.002722719,16.115894515,0
                101.002766324,16.115877901,0
                101.002824606,16.115838641,0
                101.002908603,16.115763123,0
                101.002956596,16.11571946,0
                101.002982509,16.115703007,0
                101.003125474,16.1156566500001,0
                101.003178565,16.115657051,0
                101.003241037,16.1156636700001,0
                101.003305491,16.115682872,0
                101.003392319,16.1157036650001,0
                101.00340909,16.1157044070001,0
                101.003566123,16.1156678200001,0
                101.003612672,16.115665581,0
                101.003646224,16.115667968,0
                101.00367523,16.1156812040001,0
                101.003703315,16.115695343,0
                101.003834017,16.115819263,0
                101.00405418,16.11604048,0
                101.004078568,16.1160573550001,0
                101.00413193,16.116084765,0
                101.004284374,16.11614726,0
                101.00438052,16.1161688650001,0
                101.004506525,16.116195593,0
                101.004701545,16.116231575,0
                101.004742555,16.1162347910001,0
                101.004783524,16.1162335020001,0
                101.004833721,16.1162240310001,0
                101.004982266,16.116176717,0
                101.005031505,16.1161645490001,0
                101.005181233,16.1161424370001,0
                101.005320763,16.1161249210001,0
                101.005371046,16.1161235450001,0
                101.00548753,16.1161296560001,0
                101.005529465,16.116131959,0
                101.005639688,16.1161642380001,0
                101.005667773,16.1161783810001,0
                101.005759836,16.116256745,0
                101.005783452,16.1162898320001,0
                101.005783495,16.116289904,0
                101.005806193,16.116328336,0
                101.005815769,16.1163543550001,0
                101.005867939,16.1165411320001,0
                101.005920269,16.1167432180001,0
                101.00598624,16.116912761,0
                101.006022992,16.1170483650001,0
                101.006067906,16.117161385,0
                101.006104859,16.1172240600001,0
                101.006118042,16.117238344,0
                101.006168692,16.117273879,0
                101.006249219,16.1173163390001,0
                101.006292166,16.117326742,0
                101.006355651,16.1173414470001,0
                101.006452596,16.1173495400001,0
                101.006574783,16.117367298,0
                101.006593419,16.1173680260001,0
                101.006737622,16.117352263,0
                101.006764583,16.1173475100001,0
                101.00684811,16.1173179100001,0
                101.007152386,16.117197107,0
                101.0073609,16.1170934100001,0
                101.007377495,16.1170761450001,0
                101.007385702,16.117058963,0
                101.007391115,16.116949071,0
                101.00740826,16.116893987,0
                101.007428429,16.1168622860001,0
                101.007462137,16.116787244,0
                101.0074647,16.1167647080001,0
                101.007461575,16.116731428,0
                101.007455641,16.11669727,0
                101.007435795,16.116668647,0
                101.007402928,16.116641944,0
                101.007195838,16.116516946,0
                101.007150736,16.1164777540001,0
                101.007115941,16.116444772,0
                101.007094956,16.116395449,0
                101.007090942,16.116366677,0
                101.007091437,16.116323455,0
                101.00711412,16.116239152,0
                101.007121062,16.1162133350001,0
                101.007188812,16.1160965550001,0
                101.007255028,16.1160131030001,0
                101.007282751,16.115991234,0
                101.007422703,16.115923293,0
                101.007551744,16.1158815640001,0
                101.00761027,16.1158666060001,0
                101.007690326,16.115862253,0
                101.007785388,16.11586856,0
                101.007844176,16.115879712,0
                101.007921836,16.1159149980001,0
                101.007975289,16.115951405,0
                101.008022323,16.115997781,0
                101.008039385,16.116027334,0
                101.008059295,16.116062259,0
                101.008070772,16.11609186,0
                101.008087752,16.116113308,0
                101.008091344,16.1161177700001,0
                101.008115102,16.1161472640001,0
                101.008132926,16.1161597010001,0
                101.008150673,16.1161649380001,0
                101.008177706,16.116167385,0
                101.008213068,16.1161643510001,0
                101.008250358,16.1161676,0
                101.008323323,16.116199324,0
                101.008345756,16.1162072180001,0
                101.008362518,16.1162070610001,0
                101.008388549,16.1162023110001,0
                101.008406146,16.1161922430001,0
                101.008428248,16.116167725,0
                101.008494395,16.1160770710001,0
                101.008507539,16.1160660730001,0
                101.008524872,16.116051575,0
                101.008580372,16.116013239,0
                101.008765892,16.1159385670001,0
                101.008960926,16.1158836110001,0
                101.009002752,16.1158751130001,0
                101.009042787,16.115873837,0
                101.009199405,16.1158885680001,0
                101.009247841,16.115889011,0
                101.009295311,16.115885862,0
                101.009337156,16.1158791660001,0
                101.009372382,16.115862629,0
                101.009404795,16.1158443210001,0
                101.009527911,16.1157693320001,0
                101.009561327,16.115758215,0
                101.009599474,16.1157542510001,0
                101.009660957,16.115755474,0
                101.009767184,16.115760777,0
                101.009827302,16.115769431,0
                101.009866987,16.1157751430001,0
                101.009992956,16.1157982670001,0
                101.010073324,16.1158254170001,0
                101.010287252,16.1158891270001,0
                101.010357223,16.115901072,0
                101.010428074,16.1159076110001,0
                101.010514712,16.115909496,0
                101.010549121,16.115904668,0
                101.0106308,16.115876891,0
                101.010656758,16.115864941,0
                101.010721394,16.1158094090001,0
                101.010761828,16.1157550090001,0
                101.010815966,16.1156743720001,0
                101.010869315,16.1156081440001,0
                101.010903469,16.115582234,0
                101.010929396,16.1155625590001,0
                101.010966477,16.115545105,0
                101.011034038,16.115503054,0
                101.011060822,16.1154802940001,0
                101.011078178,16.115446816,0
                101.011081585,16.1154152720001,0
                101.011077307,16.115360395,0
                101.011040919,16.115261698,0
                101.010991458,16.115159529,0
                101.010959647,16.115052685,0
                101.010958921,16.11498067,0
                101.010959624,16.1149581510001,0
                101.010990572,16.1148867360001,0
                101.01100067,16.114872233,0
                101.011057163,16.1148401890001,0
                101.011079464,16.1148354800001,0
                101.011203364,16.114837913,0
                101.011320786,16.1148449070001,0
                101.011451781,16.1149048980001,0
                101.011478977,16.114923548,0
                101.011632869,16.1150373420001,0
                101.011768728,16.115117992,0
                101.011941074,16.1152145030001,0
                101.012046842,16.1152666260001,0
                101.012074052,16.1152861750001,0
                101.012182915,16.1153679780001,0
                101.012283162,16.115426455,0
                101.012310075,16.115438345,0
                101.012313099,16.1154396810001,0
                101.012338276,16.1154430440001,0
                101.012362483,16.115441913,0
                101.012386639,16.115436286,0
                101.012388929,16.1154353430001,0
                101.012440437,16.1154141700001,0
                101.012468296,16.115405803,0
                101.01249155,16.1154028820001,0
                101.012513937,16.115406276,0
                101.01252796,16.1154115430001,0
                101.012546324,16.1154293590001,0
                101.01260885,16.1154900080001,0
                101.012639753,16.1155068260001,0
                101.012656579,16.1155129690001,0
                101.012677084,16.115514574,0
                101.012704094,16.1155143190001,0
                101.012729099,16.1155005800001,0
                101.012773456,16.1154659480001,0
                101.012792768,16.115441461,0
                101.012800147,16.1154197060001,0
                101.012811761,16.11538546,0
                101.012827606,16.1152943760001,0
                101.012841218,16.115166399,0
                101.012846983,16.115091616,0
                101.012852321,16.114974524,0
                101.012877106,16.1148464460001,0
                101.012906737,16.1147372250001,0
                101.012917533,16.1146993090001,0
                101.012955947,16.1146296210001,0
                101.012972491,16.1146078570001,0
                101.013007571,16.1145769130001,0
                101.013039957,16.1145559030001,0
                101.013109637,16.1145390410001,0
                101.013152452,16.114535935,0
                101.013202738,16.1145354610001,0
                101.013242809,16.114537785,0
                101.0133342,16.1145495270001,0
                101.013426463,16.114554959,0
                101.013477023,16.1145570080001,0
                101.013480501,16.114557147,0
                101.013544639,16.1145501350001,0
                101.01360065,16.1145338220001,0
                101.013652625,16.11450618,0
                101.013684388,16.114481886,0
                101.013721191,16.1144392300001,0
                101.013739564,16.11438286,0
                101.01374926,16.1143082570001,0
                101.013752047,16.1141958330001,0
                101.013751004,16.1141573240001,0
                101.013756018,16.114136441,0
                101.013767584,16.1141173880001,0
                101.013780477,16.114100217,0
                101.013793437,16.1140899930001,0
                101.013808403,16.114084168,0
                101.013832535,16.114080782,0
                101.01390636,16.114081979,0
                101.01397695,16.1140863640001,0
                101.014074475,16.114105652,0
                101.014150302,16.114111252,0
                101.014175114,16.1141103850001,0
                101.014209656,16.1141024830001,0
                101.014265005,16.114085543,0
                101.014399693,16.114033122,0
                101.014466114,16.1140129240001,0
                101.0145033,16.1140081500001,0
                101.014523561,16.114009224,0
                101.014551684,16.114012744,0
                101.014570681,16.114018249,0
                101.014593008,16.1140300370001,0
                101.014618749,16.114056313,0
                101.014685489,16.1141320880001,0
                101.014707842,16.1141464020001,0
                101.014781357,16.1141817010001,0
                101.014866687,16.1142225720001,0
                101.01490681,16.114249973,0
                101.01492259,16.114259931,0
                101.014979378,16.1143206420001,0
                101.015027421,16.1143561820001,0
                101.015056294,16.114369169,0
                101.015115864,16.114381866,0
                101.0151636,16.1143870990001,0
                101.015194951,16.1143868030001,0
                101.015215816,16.1143828200001,0
                101.015247033,16.114369266,0
                101.015318423,16.114323757,0
                101.015394433,16.1142826280001,0
                101.015443934,16.114268268,0
                101.015497415,16.1142601870001,0
                101.015543136,16.114259755,0
                101.01560195,16.1142623540001,0
                101.015647741,16.1142688690001,0
                101.015711259,16.1142846870001,0
                101.015741434,16.1142970290001,0
                101.01578682,16.1143281760001,0
                101.015811226,16.1143519390001,0
                101.015860255,16.1144203040001,0
                101.015876322,16.114458671,0
                101.015882392,16.114477557,0
                101.015882494,16.114487658,0
                101.015881288,16.1144977710001,0
                101.015875189,16.1145407700001,0
                101.015869936,16.114602699,0
                101.015872051,16.114617837,0
                101.015883955,16.1146322440001,0
                101.015904397,16.1146516270001,0
                101.015928732,16.114667814,0
                101.015983103,16.1146830860001,0
                101.016032188,16.1146927290001,0
                101.016075976,16.1146948410001,0
                101.016099491,16.114694619,0
                101.016119015,16.114687486,0
                101.016139155,16.1146765610001,0
                101.016162492,16.1146592910001,0
                101.016183838,16.1146382530001,0
                101.016206985,16.1146020410001,0
                101.016212512,16.114567261,0
                101.016212327,16.1144195040001,0
                101.016218702,16.1144042870001,0
                101.016236756,16.1143807550001,0
                101.016267249,16.114360259,0
                101.016305006,16.1143472750001,0
                101.016331763,16.1143451300001,0
                101.016374269,16.1143497790001,0
                101.016439941,16.1143845190001,0
                101.016494689,16.114437045,0
                101.016568657,16.1145171690001,0
                101.016599929,16.1145737030001,0
                101.016631333,16.114642867,0
                101.016635453,16.1146630320001,0
                101.016635651,16.114682605,0
                101.016636028,16.11471986,0
                101.01662349,16.114771756,0
                101.016617803,16.114790753,0
                101.01658315,16.114852333,0
                101.016574156,16.114866938,0
                101.016556434,16.114923306,0
                101.016556594,16.1149390900001,0
                101.016560096,16.1149624180001,0
                101.016586415,16.1151105600001,0
                101.016595136,16.1151332110001,0
                101.01660917,16.1151646490001,0
                101.016627055,16.1151891060001,0
                101.016652135,16.1152147610001,0
                101.016675181,16.1152328540001,0
                101.016767147,16.115283763,0
                101.016841368,16.1153241050001,0
                101.016851861,16.115328429,0
                101.016863619,16.115328318,0
                101.01687863,16.1153269110001,0
                101.016912459,16.115313332,0
                101.016989004,16.1152608300001,0
                101.017053414,16.115234963,0
                101.017129647,16.1152159320001,0
                101.017168714,16.1152035640001,0
                101.017235045,16.1151745240001,0
                101.017351829,16.1150957510001,0
                101.017416132,16.115059783,0
                101.017456451,16.115042352,0
                101.017513141,16.115028556,0
                101.017544448,16.115023842,0
                101.01758624,16.1150221820001,0
                101.017670578,16.115029593,0
                101.017703945,16.115034961,0
                101.01775704,16.1150534020001,0
                101.017766281,16.115062789,0
                101.017798015,16.1151003750001,0
                101.017802707,16.115112325,0
                101.017802918,16.115133164,0
                101.017803853,16.1151609390001,0
                101.017798815,16.1151900680001,0
                101.017791104,16.115231672,0
                101.017772938,16.11527226,0
                101.017756953,16.115299351,0
                101.017692518,16.1153583340001,0
                101.017675306,16.1153787050001,0
                101.017671995,16.115395574,0
                101.017672211,16.1154169000001,0
                101.017684352,16.1154695440001,0
                101.017719196,16.115584842,0
                101.017770467,16.1157168190001,0
                101.01781995,16.115787072,0
                101.017871461,16.115828121,0
                101.017949701,16.1158711630001,0
                101.017968326,16.1158754780001,0
                101.018035731,16.1158804520001,0
                101.018168259,16.1158949160001,0
                101.018227549,16.1159010910001,0
                101.018280003,16.115920799,0
                101.018305709,16.115936273,0
                101.018361042,16.1160109620001,0
                101.018375364,16.1160489920001,0
                101.01839692,16.116113898,0
                101.018401974,16.1161542620001,0
                101.018402451,16.116201405,0
                101.018396097,16.1162620850001,0
                101.018363382,16.116356689,0
                101.018289266,16.1164921010001,0
                101.018261048,16.1165720700001,0
                101.018257812,16.1165967950001,0
                101.01826282,16.116632673,0
                101.018271185,16.116656167,0
                101.018308834,16.116704079,0
                101.018384956,16.116767349,0
                101.018455054,16.1168093430001,0
                101.018500477,16.116822385,0
                101.018531829,16.116822088,0
                101.018643107,16.116801948,0
                101.018676747,16.1167982650001,0
                101.018725538,16.1168000480001,0
                101.018786067,16.1168140680001,0
                101.018808265,16.11682733,0
                101.018858696,16.1168762460001,0
                101.018896068,16.116897221,0
                101.01893566,16.116908073,0
                101.018998476,16.116918705,0
                101.019024058,16.116921829,0
                101.01906373,16.1169405370001,0
                101.019080124,16.116953854,0
                101.019155821,16.117090089,0
                101.019224874,16.117143319,0
                101.019270388,16.1171653420001,0
                101.019319338,16.117182841,0
                101.019363541,16.11719028,0
                101.019421611,16.117190851,0
                101.019477244,16.1171802220001,0
                101.019549045,16.11716046,0
                101.019610243,16.117126205,0
                101.019653951,16.1170842550001,0
                101.019681214,16.117024498,0
                101.019685461,16.1169851720001,0
                101.019682809,16.1169526420001,0
                101.019666108,16.1169090180001,0
                101.019594425,16.116825503,0
                101.019548639,16.1167765440001,0
                101.019535538,16.116744113,0
                101.019531647,16.1167037380001,0
                101.019536348,16.1165948070001,0
                101.019550988,16.116549766,0
                101.019581964,16.116512427,0
                101.019607296,16.1164908590001,0
                101.019637393,16.1164815930001,0
                101.019680368,16.1164823070001,0
                101.019746746,16.116500762,0
                101.019844771,16.116548106,0
                101.019917321,16.1166024240001,0
                101.019949105,16.1166447840001,0
                101.019988231,16.1167241160001,0
                101.020028926,16.1168438450001,0
                101.020061131,16.117042236,0
                101.020070689,16.117069085,0
                101.020087356,16.117109338,0
                101.020110888,16.1171394250001,0
                101.020137811,16.117160499,0
                101.020170435,16.1171714170001,0
                101.020200674,16.1171756210001,0
                101.020237829,16.117175269,0
                101.020281805,16.117160261,0
                101.020359181,16.117117992,0
                101.020424968,16.1170780780001,0
                101.020477847,16.1170248190001,0
                101.020531571,16.1169401170001,0
                101.020641291,16.1167662020001,0
                101.020682761,16.1167332540001,0
                101.020773789,16.1166627960001,0
                101.020839359,16.116601556,0
                101.020888631,16.11653598,0
                101.020921554,16.1164615770001,0
                101.020930487,16.1164266960001,0
                101.020931378,16.116399744,0
                101.020898991,16.1162978990001,0
                101.02089643,16.11627435,0
                101.020896146,16.1162462880001,0
                101.020899347,16.1162181940001,0
                101.020944519,16.1160920360001,0
                101.021016612,16.115872455,0
                101.02109867,16.115719009,0
                101.02117303,16.115608293,0
                101.02121203,16.1155607760001,0
                101.021329422,16.115456384,0
                101.021350085,16.115432614,0
                101.021374991,16.115369518,0
                101.021399708,16.115287337,0
                101.021408584,16.115246837,0
                101.021412774,16.115201895,0
                101.021410671,16.115108745,0
                101.021403513,16.1149752270001,0
                101.021416795,16.1149111120001,0
                101.021425721,16.114875107,0
                101.021457776,16.1148299010001,0
                101.021488854,16.114802663,0
                101.021563901,16.1147592950001,0
                101.021622924,16.1147396530001,0
                101.021684394,16.114732335,0
                101.021735507,16.1147340960001,0
                101.021766995,16.1147472700001,0
                101.02193657,16.1148646570001,0
                101.022057457,16.1149530490001,0
                101.022069939,16.114962179,0
                101.022143466,16.1149985280001,0
                101.022180785,16.115013887,0
                101.022218009,16.1150202700001,0
                101.022295862,16.1150251440001,0
                101.022425946,16.115027282,0
                101.022477071,16.115030163,0
                101.022510847,16.115039949,0
                101.022563324,16.115061901,0
                101.02259848,16.115093002,0
                101.022640587,16.1151229130001,0
                101.022675568,16.115137174,0
                101.022715125,16.1151446550001,0
                101.022783693,16.1151496210001,0
                101.022839485,16.115154703,0
                101.02286743,16.1151622950001,0
                101.022888469,16.1151755670001,0
                101.022899066,16.115190059,0
                101.022924293,16.1152728930001,0
                101.02295142,16.1153141670001,0
                101.022966651,16.115327495,0
                101.022988757,16.1153317760001,0
                101.023016627,16.1153315120001,0
                101.023054844,16.1153210480001,0
                101.023094025,16.115291487,0
                101.023115745,16.1152576060001,0
                101.023130236,16.1151979740001,0
                101.023113867,16.1150724,0
                101.023106296,16.115012978,0
                101.023112808,16.11496801,0
                101.023137854,16.1149183800001,0
                101.023175781,16.114879854,0
                101.023221981,16.1148547220001,0
                101.023247421,16.1148443750001,0
                101.023475835,16.1148096540001,0
                101.023610313,16.1147870510001,0
                101.023706678,16.114785017,0
                101.023791305,16.1147707430001,0
                101.023857546,16.1147757260001,0
                101.023913417,16.1147886680001,0
                101.023951918,16.1148062660001,0
                101.023976473,16.1148228700001,0
                101.023991817,16.1148474240001,0
                101.024001403,16.114876517,0
                101.02400631,16.11490229,0
                101.024005856,16.115086397,0
                101.024006209,16.11512119,0
                101.024028931,16.1151860840001,0
                101.024054827,16.115220639,0
                101.0241005,16.115258372,0
                101.024143703,16.1152815360001,0
                101.024176327,16.1152924530001,0
                101.024213528,16.1152965910001,0
                101.024247202,16.115296271,0
                101.024279637,16.115288107,0
                101.024313094,16.115266462,0
                101.024333741,16.1152415670001,0
                101.024353059,16.115199848,0
                101.024361848,16.1151503720001,0
                101.024361312,16.115097619,0
                101.024345885,16.114950707,0
                101.024346672,16.1149136540001,0
                101.024353401,16.1148900170001,0
                101.024383155,16.114847078,0
                101.0243924,16.11483931,0
                101.024445334,16.1147948500001,0
                101.024563156,16.114733114,0
                101.024618561,16.1147000330001,0
                101.024640417,16.114679623,0
                101.024656412,16.1146536520001,0
                101.024660806,16.1146289120001,0
                101.024658199,16.114600872,0
                101.024638232,16.114578613,0
                101.024568358,16.1145590680001,0
                101.024493929,16.114548547,0
                101.024461282,16.1145353850001,0
                101.024329379,16.1144681600001,0
                101.024287152,16.1144270240001,0
                101.024274096,16.114399088,0
                101.024263237,16.114358775,0
                101.024259068,16.1142914640001,0
                101.024271115,16.1142195040001,0
                101.024298445,16.114166482,0
                101.024413283,16.114039668,0
                101.024515499,16.1139275620001,0
                101.024594877,16.1138538430001,0
                101.024698547,16.1137709120001,0
                101.024722828,16.1137605800001,0
                101.024755315,16.1137580270001,0
                101.024773929,16.1137612200001,0
                101.024894357,16.113842021,0
                101.024918843,16.113851895,0
                101.02495255,16.1138549410001,0
                101.025000204,16.113858979,0
                101.02504314,16.1138563270001,0
                101.025094121,16.113844617,0
                101.025128771,16.1138263300001,0
                101.025155215,16.1138002600001,0
                101.025174532,16.11375854,0
                101.025179948,16.1137203230001,0
                101.025179413,16.1136675650001,0
                101.02513365,16.11350635,0
                101.025079885,16.113357562,0
                101.02506166,16.113278032,0
                101.025056651,16.113242155,0
                101.025056218,16.113199502,0
                101.025067529,16.1131702100001,0
                101.025087045,16.1131475720001,0
                101.025119292,16.113121447,0
                101.025218773,16.1130834570001,0
                101.025247756,16.113078692,0
                101.025265172,16.113078527,0
                101.025284956,16.1130828290001,0
                101.025311856,16.1131016570001,0
                101.025355241,16.1131427820001,0
                101.025407174,16.113225362,0
                101.025435624,16.1132823410001,0
                101.025466131,16.113313481,0
                101.025506954,16.113331056,0
                101.02556771,16.1133675250001,0
                101.025620209,16.113391721,0
                101.025643517,16.1133969530001,0
                101.025658619,16.1134003380001,0
                101.025693417,16.1133966420001,0
                101.025721115,16.1133795420001,0
                101.0257613,16.1133342540001,0
                101.025778295,16.113292561,0
                101.025781855,16.113269003,0
                101.025789177,16.1132206120001,0
                101.025785133,16.1131656470001,0
                101.025747792,16.113033536,0
                101.025701508,16.11293519,0
                101.025658803,16.1128469120001,0
                101.025657496,16.112832332,0
                101.025657177,16.112800905,0
                101.02567408,16.112750227,0
                101.025700319,16.1127039510001,0
                101.025741526,16.1126451910001,0
                101.025820857,16.112566981,0
                101.025911972,16.112505497,0
                101.026020662,16.1124595640001,0
                101.026139908,16.1124236320001,0
                101.02628468,16.112386332,0
                101.026370447,16.1123698050001,0
                101.02638554,16.112369662,0
                101.026468129,16.112383471,0
                101.026550592,16.112384933,0
                101.026627159,16.1123774700001,0
                101.026703654,16.112363272,0
                101.026732694,16.112364121,0
                101.02675011,16.112363956,0
                101.026822352,16.112387964,0
                101.026861864,16.112390959,0
                101.026922208,16.1123870160001,0
                101.026952765,16.1123814440001,0
                101.026954666,16.112381097,0
                101.026990474,16.112362794,0
                101.027037706,16.1123253000001,0
                101.027097389,16.1122562580001,0
                101.027118052,16.1122324880001,0
                101.027228642,16.1121450000001,0
                101.027240909,16.112129338,0
                101.02724813,16.112120121,0
                101.027256039,16.112098717,0
                101.027256913,16.1120706450001,0
                101.027256297,16.1120100320001,0
                101.027249234,16.111974445,0
                101.027229374,16.1118744570001,0
                101.027225517,16.1118374480001,0
                101.027225083,16.111794795,0
                101.027250523,16.111669949,0
                101.027329347,16.1114278490001,0
                101.02737619,16.1113521930001,0
                101.027448588,16.111277414,0
                101.027498262,16.1112522490001,0
                101.027546892,16.111238315,0
                101.027581705,16.1112357390001,0
                101.027591106,16.1112382650001,0
                101.027634102,16.111249834,0
                101.027712261,16.1112850160001,0
                101.027744833,16.111290318,0
                101.027787784,16.1112887850001,0
                101.027810958,16.111284079,0
                101.027901068,16.1112383170001,0
                101.02795183,16.1112052840001,0
                101.027970086,16.111173676,0
                101.027977886,16.111141047,0
                101.027979775,16.1110983730001,0
                101.027967603,16.111043485,0
                101.027933384,16.1109711550001,0
                101.027852148,16.1109000810001,0
                101.027806514,16.110878563,0
                101.027699908,16.110859471,0
                101.027626585,16.110846343,0
                101.027547922,16.110825139,0
                101.027491884,16.1107957360001,0
                101.02745841,16.110752151,0
                101.027435279,16.1107104590001,0
                101.027426352,16.110644689,0
                101.027425704,16.110580832,0
                101.027429282,16.110526915,0
                101.027447416,16.110482839,0
                101.027498613,16.1104424390001,0
                101.027570698,16.110425788,0
                101.027661566,16.1104289190001,0
                101.027912659,16.110461389,0
                101.027977835,16.1104698190001,0
                101.028027377,16.110469348,0
                101.028076797,16.1104569020001,0
                101.028134307,16.110428418,0
                101.028284406,16.110290068,0
                101.02837815,16.1101779960001,0
                101.028404062,16.1101470150001,0
                101.028542392,16.1100357170001,0
                101.028819629,16.109869883,0
                101.02908585,16.1097471410001,0
                101.029084672,16.1094179030001,0
                101.028942653,16.1093188090001,0
                101.028652335,16.10873586,0
                101.027943821,16.1071528160001,0
                101.02750357,16.106415898,0
                101.028360022,16.105523228,0
                101.028690553,16.1051973520001,0
                101.028948361,16.1050156050001,0
                101.029602959,16.1048080040001,0
                101.031240765,16.104288576,0
                101.030742252,16.1037635760001,0
                101.030763966,16.103749669,0
                101.03076425,16.1037498220001,0
                101.031015159,16.10360511,0
                101.031210563,16.103444515,0
                101.031237386,16.1033859450001,0
                101.031239124,16.1033440620001,0
                101.03121307,16.103276318,0
                101.031190564,16.103162105,0
                101.031187904,16.1030813,0
                101.031202541,16.10299092,0
                101.031265566,16.102789612,0
                101.031305406,16.102713183,0
                101.031333038,16.102677349,0
                101.031435364,16.1025853570001,0
                101.031508557,16.1024637130001,0
                101.031557337,16.1024200890001,0
                101.031625098,16.1024023090001,0
                101.031842783,16.1024002390001,0
                101.03187592,16.102390389,0
                101.031916541,16.1023620140001,0
                101.031929042,16.10234381,0
                101.031964686,16.1021660530001,0
                101.031954577,16.1020581270001,0
                101.031933362,16.1020269050001,0
                101.031913665,16.1020111870001,0
                101.031785116,16.1019529070001,0
                101.031765487,16.101937144,0
                101.031744163,16.101900755,0
                101.031738815,16.101843247,0
                101.031783351,16.101729225,0
                101.031789126,16.1017176030001,0
                101.031956416,16.101353526,0
                101.031996331,16.101224573,0
                101.032048973,16.101128015,0
                101.032140813,16.101051028,0
                101.032293028,16.100820952,0
                101.032329269,16.1007972140001,0
                101.032395776,16.100799642,0
                101.032475912,16.100831031,0
                101.032531305,16.100833444,0
                101.03270834,16.1008085990001,0
                101.032734861,16.100815321,0
                101.032771867,16.1008438910001,0
                101.032777692,16.1008608020001,0
                101.032758158,16.10098142,0
                101.032741052,16.101041531,0
                101.032744949,16.101096904,0
                101.032785034,16.1011389280001,0
                101.032893841,16.1011553970001,0
                101.032960424,16.101128322,0
                101.032986092,16.1010969920001,0
                101.03299195,16.101032724,0
                101.033009357,16.1010059270001,0
                101.033103848,16.1009402890001,0
                101.033272228,16.100866743,0
                101.033327043,16.10085186,0
                101.033498613,16.1008628390001,0
                101.03370116,16.1009266360001,0
                101.033789667,16.100945881,0
                101.033822722,16.100960748,0
                101.033834879,16.100978191,0
                101.033813616,16.101045066,0
                101.033785892,16.1011548720001,0
                101.033787173,16.1011849940001,0
                101.033806465,16.1012355130001,0
                101.033842689,16.1012698490001,0
                101.034247703,16.1013894760001,0
                101.034352221,16.1014104710001,0
                101.034394823,16.1014285480001,0
                101.034499043,16.101455351,0
                101.034605225,16.101461295,0
                101.034613554,16.101462968,0
                101.034645172,16.101457807,0
                101.03467407,16.1014280740001,0
                101.034679923,16.1013970020001,0
                101.034673732,16.101347576,0
                101.03463168,16.1012574760001,0
                101.034628777,16.101196314,0
                101.034691978,16.1011163680001,0
                101.034823349,16.101069309,0
                101.034908153,16.101102359,0
                101.034983406,16.101267013,0
                101.035020975,16.1013013740001,0
                101.035026463,16.101304181,0
                101.035069953,16.1012989280001,0
                101.035189526,16.1012418610001,0
                101.035230339,16.101239537,0
                101.035301553,16.1012607550001,0
                101.035383993,16.10126732,0
                101.035506014,16.1013046420001,0
                101.035557204,16.1013362260001,0
                101.035602282,16.1014191830001,0
                101.035641597,16.1015139620001,0
                101.035704017,16.101568795,0
                101.035892255,16.1016165030001,0
                101.035946279,16.101614953,0
                101.035968117,16.10159838,0
                101.035982798,16.1015502390001,0
                101.035979019,16.1014645980001,0
                101.035954454,16.101234682,0
                101.035963957,16.1011511740001,0
                101.036014168,16.1011223460001,0
                101.036061946,16.101135707,0
                101.036111809,16.1011703820001,0
                101.036334582,16.1013815420001,0
                101.036444899,16.101507993,0
                101.036466525,16.1015794680001,0
                101.036473974,16.1017168060001,0
                101.036485592,16.1017339040001,0
                101.036499591,16.10174206,0
                101.03656519,16.101744604,0
                101.036644367,16.101703795,0
                101.036681383,16.1016605990001,0
                101.036819164,16.1014247210001,0
                101.036936764,16.1013201640001,0
                101.036953179,16.1013209400001,0
                101.037008052,16.101361179,0
                101.037219077,16.10164995,0
                101.037399447,16.1017626780001,0
                101.037494995,16.1017745790001,0
                101.037626199,16.101730904,0
                101.037654947,16.101741518,0
                101.037671655,16.1017870430001,0
                101.037681658,16.1018958330001,0
                101.037683051,16.101910984,0
                101.037715112,16.10195915,0
                101.037771651,16.1019812100001,0
                101.037802391,16.101980269,0
                101.037860878,16.1019634080001,0
                101.037905908,16.1019282680001,0
                101.037926024,16.101895375,0
                101.03798395,16.10180066,0
                101.038010461,16.1017782490001,0
                101.038040029,16.101768007,0
                101.03808928,16.101770936,0
                101.038120022,16.1017839790001,0
                101.038151047,16.1018123540001,0
                101.038236118,16.1019229730001,0
                101.038256114,16.101930634,0
                101.038299878,16.101933468,0
                101.038325081,16.1019220090001,0
                101.038357185,16.1018945700001,0
                101.038396071,16.101861334,0
                101.038409165,16.101856975,0
                101.038416825,16.101843075,0
                101.038466282,16.101812459,0
                101.03849818,16.1018044260001,0
                101.038537238,16.1018191850001,0
                101.038554583,16.1018293380001,0
                101.038599051,16.101852433,0
                101.038624481,16.1018674630001,0
                101.038635284,16.101882797,0
                101.038638833,16.101935209,0
                101.038640941,16.10193867,0
                101.038707784,16.1021344550001,0
                101.038749588,16.1022204510001,0
                101.038856502,16.10231645,0
                101.03890229,16.1023406680001,0
                101.038984678,16.1023663460001,0
                101.039028442,16.10240027,0
                101.039039864,16.102443544,0
                101.0390291,16.1024851080001,0
                101.039026051,16.102496882,0
                101.039023647,16.102519026,0
                101.039015356,16.102595401,0
                101.039007628,16.102666588,0
                101.039007414,16.1026685570001,0
                101.039008035,16.1026681430001,0
                101.039020908,16.102717307,0
                101.039044083,16.1027502060001,0
                101.039096378,16.1027870940001,0
                101.039217056,16.102789704,0
                101.039296797,16.10273926,0
                101.039362343,16.102605211,0
                101.039396686,16.10256774,0
                101.039543889,16.1024756310001,0
                101.039593681,16.1024063190001,0
                101.039595521,16.1024024650001,0
                101.039624298,16.1022650580001,0
                101.039669229,16.102201682,0
                101.039737425,16.1021631410001,0
                101.039772514,16.10215321,0
                101.039870799,16.1021745780001,0
                101.039965848,16.1021703870001,0
                101.039985709,16.102169512,0
                101.040057449,16.102137686,0
                101.040060298,16.102135881,0
                101.040075084,16.1021265110001,0
                101.040100624,16.102089517,0
                101.040103892,16.1020464590001,0
                101.040099329,16.101988862,0
                101.040102484,16.101962336,0
                101.040095674,16.101941787,0
                101.040093262,16.101891386,0
                101.040112145,16.1018651160001,0
                101.040127139,16.1018588850001,0
                101.040173148,16.1018547360001,0
                101.040361578,16.101837742,0
                101.040361413,16.10183597,0
                101.040470461,16.101831228,0
                101.040537912,16.1018282950001,0
                101.04079386,16.101841979,0
                101.04086364,16.101878162,0
                101.040884282,16.1019118580001,0
                101.040882452,16.1019753740001,0
                101.040891283,16.1020011700001,0
                101.040896443,16.1020979050001,0
                101.04092846,16.1021542450001,0
                101.040963488,16.102186794,0
                101.041055985,16.1022367250001,0
                101.041151548,16.102277768,0
                101.041249079,16.102285809,0
                101.041283861,16.1022740940001,0
                101.041334124,16.1022386550001,0
                101.041366492,16.1021853130001,0
                101.041406794,16.1020413360001,0
                101.041422201,16.1020178100001,0
                101.041472406,16.1019996160001,0
                101.041499902,16.1019989500001,0
                101.041629707,16.102026605,0
                101.041677355,16.10202615,0
                101.041746622,16.102010233,0
                101.041765854,16.101990234,0
                101.041783154,16.1019627260001,0
                101.041788433,16.1019264230001,0
                101.041783677,16.10188272,0
                101.041765083,16.101859624,0
                101.041688053,16.1018269940001,0
                101.04161034,16.101810205,0
                101.041401944,16.101804298,0
                101.041339892,16.101792812,0
                101.041300999,16.101763337,0
                101.041280574,16.101721641,0
                101.041285662,16.1016788530001,0
                101.041320741,16.101624746,0
                101.041356334,16.1016037320001,0
                101.041511596,16.1015357310001,0
                101.041684136,16.101395575,0
                101.041749901,16.1012806160001,0
                101.041843642,16.1008967970001,0
                101.041861378,16.100856821,0
                101.041996644,16.100551943,0
                101.042036332,16.1005227960001,0
                101.042230409,16.10051542,0
                101.042270775,16.1005095620001,0
                101.04229558,16.1005101820001,0
                101.042328947,16.100518596,0
                101.042375673,16.100517715,0
                101.042526396,16.1005042630001,0
                101.042670007,16.1004900610001,0
                101.042782375,16.100467919,0
                101.042834879,16.1004344350001,0
                101.042848535,16.100425725,0
                101.042867563,16.1004135900001,0
                101.042878448,16.100404758,0
                101.042893372,16.1003826460001,0
                101.04291846,16.1003074120001,0
                101.042939312,16.1002276090001,0
                101.042945699,16.100203165,0
                101.042964614,16.100177753,0
                101.04310731,16.100083801,0
                101.043174381,16.100023595,0
                101.043208193,16.100012495,0
                101.043510736,16.100088611,0
                101.043597537,16.1001115130001,0
                101.043678085,16.1001505310001,0
                101.043693163,16.100168782,0
                101.044055076,16.100348223,0
                101.044415668,16.100598189,0
                101.04446607,16.100658316,0
                101.044511967,16.100759081,0
                101.04458505,16.100848087,0
                101.044696634,16.1009415840001,0
                101.044906538,16.101050936,0
                101.04494629,16.101070232,0
                101.045022292,16.1011071250001,0
                101.045290518,16.1006323120001,0
                101.04572478,16.0998566750001,0
                101.046084762,16.0991258,0
                101.046046558,16.0991051080001,0
                101.046071403,16.099055047,0
                101.046212973,16.098753104,0
                101.046229092,16.098718725,0
                101.046416086,16.0983213910001,0
                101.046610632,16.0979177990001,0
                101.046987347,16.0971506380001,0
                101.047172789,16.096757113,0
                101.047202061,16.0966842830001,0
                101.047484353,16.0960395440001,0
                101.047774073,16.0953874740001,0
                101.047814318,16.0952873370001,0
                101.047887433,16.095099829,0
                101.048191303,16.094364199,0
                101.048383835,16.0939307,0
                101.048616722,16.0934079470001,0
                101.048842122,16.0928870810001,0
                101.049030732,16.0924372970001,0
                101.049352884,16.091656147,0
                101.049750421,16.0907255550001,0
                101.05000339,16.090150013,0
                101.050140688,16.0898186100001,0
                101.05022711,16.0896094290001,0
                101.050482982,16.0889901090001,0
                101.050829044,16.0881633880001,0
                101.050959264,16.087873765,0
                101.051047549,16.0877024340001,0
                101.051186138,16.087503423,0
                101.051308208,16.0873281350001,0
                101.051393979,16.087232779,0
                101.051527068,16.0870848160001,0
                101.051627348,16.086985919,0
                101.051742075,16.0868883110001,0
                101.051776123,16.086859347,0
                101.052031124,16.0866646530001,0
                101.052262201,16.0865155280001,0
                101.052424216,16.0863997110001,0
                101.053059358,16.0859583320001,0
                101.053843498,16.0854121470001,0
                101.054185825,16.0851716830001,0
                101.054314692,16.0850811620001,0
                101.054821245,16.084722631,0
                101.055106194,16.0845222020001,0
                101.055197224,16.084436087,0
                101.055448057,16.084201525,0
                101.055631996,16.0840292730001,0
                101.05578407,16.083859143,0
                101.055988099,16.0836341020001,0
                101.056292166,16.083286582,0
                101.056841038,16.082635942,0
                101.057481028,16.081877725,0
                101.058145574,16.081075738,0
                101.058252044,16.080960949,0
                101.05835831,16.080846379,0
                101.058559286,16.0806896820001,0
                101.058899241,16.0804276590001,0
                101.059169743,16.080221925,0
                101.059966711,16.079650809,0
                101.061168496,16.078802533,0
                101.061363954,16.0786680690001,0
                101.062191686,16.0780986460001,0
                101.063041056,16.077517342,0
                101.063530372,16.0771885830001,0
                101.064138776,16.076766779,0
                101.064749332,16.076311102,0
                101.065094145,16.0760369340001,0
                101.065386769,16.075794709,0
                101.065602066,16.075572574,0
                101.065716235,16.0754403330001,0
                101.065772597,16.0753750550001,0
                101.065928247,16.075189768,0
                101.066066041,16.074970799,0
                101.066339207,16.074540138,0
                101.066388271,16.0744477750001,0
                101.066685096,16.0738863020001,0
                101.066913192,16.073451243,0
                101.067013752,16.0732592320001,0
                101.067258627,16.0727538830001,0
                101.067506131,16.072260597,0
                101.067986577,16.071317697,0
                101.068341909,16.070610564,0
                101.068858858,16.069570583,0
                101.069116107,16.069053018,0
                101.069231839,16.0688777880001,0
                101.069403711,16.068569015,0
                101.069526296,16.068330847,0
                101.070166138,16.0670841260001,0
                101.07076927,16.0659151420001,0
                101.071232534,16.0650062550001,0
                101.071617601,16.0642746520001,0
                101.072335943,16.0628820740001,0
                101.072978233,16.061632907,0
                101.073554404,16.0605197960001,0
                101.074208756,16.0592294,0
                101.074581226,16.0584906600001,0
                101.074794861,16.058088303,0
                101.075156359,16.057407405,0
                101.075533035,16.0566977940001,0
                101.075930308,16.055940376,0
                101.076235023,16.055345722,0
                101.07658104,16.0546649720001,0
                101.076956156,16.053941772,0
                101.077249833,16.05336899,0
                101.077422251,16.053039504,0
                101.07775182,16.052401076,0
                101.078033191,16.0518624170001,0
                101.078354514,16.051243115,0
                101.078515859,16.0509314170001,0
                101.078689594,16.050593754,0
                101.078848136,16.0502834430001,0
                101.07917932,16.0496654090001,0
                101.079524068,16.0489996310001,0
                101.079781899,16.0484979230001,0
                101.079995668,16.048087778,0
                101.080069966,16.0479279090001,0
                101.080151313,16.047769336,0
                101.080360777,16.0473510690001,0
                101.080450348,16.0471720090001,0
                101.080503941,16.0470504300001,0
                101.080564343,16.0469070180001,0
                101.080621749,16.046745957,0
                101.080666242,16.0465605320001,0
                101.080680992,16.0464910160001,0
                101.080699415,16.046368418,0
                101.080724998,16.046123327,0
                101.080728402,16.0460444020001,0
                101.080727792,16.0459856470001,0
                101.080726015,16.045814545,0
                101.080714911,16.0456935930001,0
                101.080646161,16.045303878,0
                101.080507532,16.044822342,0
                101.08035774,16.044349077,0
                101.080156673,16.0436790750001,0
                101.079970222,16.0430619800001,0
                101.07979836,16.042495075,0
                101.079725481,16.04224958,0
                101.079533268,16.0416189380001,0
                101.079268198,16.040744159,0
                101.079090543,16.040160987,0
                101.078840172,16.0393472750001,0
                101.078633309,16.0386596480001,0
                101.078395996,16.037883896,0
                101.078202345,16.037249187,0
                101.077975094,16.036493738,0
                101.07771888,16.0356583180001,0
                101.077497638,16.034939539,0
                101.07727329,16.034192229,0
                101.077087001,16.0335887310001,0
                101.07689645,16.03296368,0
                101.076721716,16.032388973,0
                101.076548023,16.0318132350001,0
                101.076402735,16.0313310810001,0
                101.076233425,16.030770601,0
                101.076060855,16.030200977,0
                101.075886116,16.0296252480001,0
                101.075718994,16.029071889,0
                101.07558902,16.028642636,0
                101.075444873,16.0281686280001,0
                101.075336748,16.027811591,0
                101.075232935,16.027463696,0
                101.075161718,16.0272073030001,0
                101.075040408,16.0267993840001,0
                101.074860276,16.0262114670001,0
                101.07468544,16.0256255360001,0
                101.074539166,16.025149506,0
                101.074413536,16.0247314320001,0
                101.074269396,16.0242574220001,0
                101.074140516,16.0238312160001,0
                101.074010581,16.023405014,0
                101.073871917,16.0229503370001,0
                101.073702708,16.0223980160001,0
                101.073554312,16.021919967,0
                101.073444052,16.02155989,0
                101.073334953,16.021210007,0
                101.073191896,16.020738023,0
                101.073051135,16.0202843860001,0
                101.072843756,16.019604627,0
                101.072624536,16.0188957940001,0
                101.071829777,16.01612397,0
                101.071408977,16.0146563370001,0
                101.071394886,16.01460719,0
                101.067621906,16.0157193480001,0
                101.064708866,16.0170352010001,0
                101.062587413,16.01845073,0
                101.061141651,16.01948414,0
                101.056219494,16.021787488,0
                101.054485111,16.0222381290001,0
                101.048654678,16.02404818,0
                101.043981974,16.024785787,0
                101.020839273,16.0285880110001,0
                101.012759807,16.03040429,0
                101.006791166,16.03295109,0
                101.006013968,16.0332826970001,0
                101.002692615,16.034593386,0
                100.99647825,16.0377224870001,0
                100.995791416,16.0380864750001,0
                100.988805504,16.0417884440001,0
                100.988841675,16.042107286,0
                100.98874039,16.04242379,0
                100.988595012,16.042580635,0
                100.988048099,16.0430023650001,0
                100.987886505,16.0430886460001,0
                100.987272443,16.043416515,0
                100.986692899,16.043637333,0
                100.986026247,16.043811084,0
                100.985691427,16.043961059,0
                100.985516803,16.0441536700001,0
                100.98537553,16.044343758,0
                100.985306,16.0444467410001,0
                100.985266389,16.044505411,0
                100.98480028,16.0451957550001,0
                100.984275065,16.045706481,0
                100.983810606,16.046145546,0
                100.98285522,16.0470486940001,0
                100.982854022,16.0470507970001,0
                100.982772182,16.0471451600001,0
                100.982755116,16.0471739710001,0
                100.982451306,16.0476867470001,0
                100.982381414,16.047860518,0
                100.982285624,16.0479620310001,0
                100.982223847,16.048019718,0
                100.982057225,16.0480674230001,0
                100.981774091,16.0480767240001,0
                100.98173109,16.048078134,0
                100.980914132,16.0480784430001,0
                100.980815012,16.0481035610001,0
                100.98066586,16.0481803210001,0
                100.980586907,16.0482426070001,0
                100.980555557,16.0482921600001,0
                100.980508562,16.0483664440001,0
                100.980460555,16.0485599730001,0
                100.980453344,16.048682163,0
                100.980465501,16.0488362730001,0
                100.98046476,16.0488435620001,0
                100.980457272,16.0489372060001,0
                100.980493024,16.0493664630001,0
                100.980585829,16.049758733,0
                100.980610865,16.0499300230001,0
                100.980602865,16.0500655070001,0
                100.980575979,16.0501786030001,0
                100.980393374,16.0507175760001,0
                100.98027942,16.051344505,0
                100.980195636,16.0516242680001,0
                100.980180213,16.0517409670001,0
                100.980056388,16.0526780860001,0
                100.980111167,16.0532335780001,0
                100.980111535,16.053270878,0
                100.980117747,16.053899114,0
                100.980109087,16.0540127190001,0
                100.98004624,16.0543235110001,0
                100.979993905,16.054427188,0
                100.979655122,16.0549711200001,0
                100.979350494,16.0553740840001,0
                100.979287246,16.0554737190001,0
                100.979118465,16.0558080750001,0
                100.979021249,16.0561279090001,0
                100.978989337,16.0562970460001,0
                100.979021549,16.0567113550001,0
                100.979038172,16.056958035,0
                100.979095102,16.05716498,0
                100.979175845,16.057370813,0
                100.979373223,16.057717295,0
                100.979727065,16.0581274150001,0
                100.979836304,16.0582339210001,0
                100.979928314,16.058297179,0
                100.980709103,16.059136956,0
                100.981533934,16.0599809120001,0
                100.981731374,16.060231372,0
                100.98239097,16.0614844880001,0
                100.982619678,16.0621513090001,0
                100.982807574,16.063353798,0
                100.982923616,16.0642224590001,0
                100.98292689,16.0645528700001,0
                100.982903698,16.065008563,0
                100.982847131,16.0651780420001,0
                100.982837994,16.0651980690001,0
                100.982697097,16.0654337560001,0
                100.982595088,16.0655562050001,0
                100.982467118,16.0656913500001,0
                100.981958134,16.066174985,0
                100.981836358,16.066238771,0
                100.981687758,16.066270146,0
                100.981345867,16.0662554470001,0
                100.98104021,16.0661689680001,0
                100.98082629,16.066019124,0
                100.980263937,16.0652354430001,0
                100.979862826,16.064916758,0
                100.979517337,16.064784752,0
                100.979161819,16.064725643,0
                100.978944831,16.064764199,0
                100.978903642,16.064774921,0
                100.978431249,16.064897896,0
                100.978173828,16.064880374,0
                100.977904241,16.064810064,0
                100.977579446,16.0645946660001,0
                100.977013216,16.0638926980001,0
                100.976589781,16.0634910110001,0
                100.976326158,16.0632346740001,0
                100.975802831,16.0624127450001,0
                100.975198055,16.061287625,0
                100.974940626,16.0609369850001,0
                100.973776777,16.059919829,0
                100.973556386,16.0597976190001,0
                100.973423041,16.0597988480001,0
                100.973180631,16.059911459,0
                100.972894525,16.0602231510001,0
                100.972830066,16.0603473100001,0
                100.972483771,16.061014297,0
                100.972302311,16.061133705,0
                100.972180844,16.0611583580001,0
                100.972150414,16.0611645340001,0
                100.971959333,16.061166294,0
                100.971929741,16.061166567,0
                100.97188938,16.0611507420001,0
                100.971746391,16.061094672,0
                100.971454956,16.060885087,0
                100.971301862,16.0607749910001,0
                100.970126849,16.059689393,0
                100.969879696,16.059612251,0
                100.96982581,16.059602677,0
                100.969584041,16.0596244000001,0
                100.969303225,16.059737324,0
                100.968837867,16.060039826,0
                100.967487648,16.0608936080001,0
                100.965667858,16.0621207090001,0
                100.965376909,16.0622919530001,0
                100.965207031,16.062405746,0
                100.964852567,16.0627327760001,0
                100.96463339,16.0630921600001,0
                100.964535925,16.063384098,0
                100.964383269,16.0636645660001,0
                100.963810019,16.064287633,0
                100.963705071,16.064450482,0
                100.963547657,16.0646947550001,0
                100.963496485,16.0649086230001,0
                100.963499129,16.065178093,0
                100.963515499,16.06524024,0
                100.963534243,16.065594327,0
                100.963496454,16.0656997790001,0
                100.963466594,16.065740411,0
                100.963345851,16.065844536,0
                100.963141548,16.065964147,0
                100.962844186,16.066014877,0
                100.962822453,16.066018582,0
                100.962380611,16.066027134,0
                100.962182517,16.066030965,0
                100.961990741,16.0660067950001,0
                100.961710594,16.0659404730001,0
                100.961352515,16.0658341590001,0
                100.96116078,16.065756473,0
                100.961061221,16.065716132,0
                100.960981852,16.065651955,0
                100.96097646,16.065646257,0
                100.960880338,16.0655446440001,0
                100.960306439,16.064768617,0
                100.960273962,16.0647439800001,0
                100.959884744,16.0644487010001,0
                100.959586964,16.06434841,0
                100.959239925,16.064311359,0
                100.958872201,16.0643496210001,0
                100.957763226,16.064710711,0
                100.957651943,16.0647370290001,0
                100.956763326,16.0650757490001,0
                100.956320716,16.065156749,0
                100.95596199,16.0651359560001,0
                100.955916492,16.0651266130001,0
                100.955320799,16.0650170650001,0
                100.955277741,16.0650125660001,0
                100.955201886,16.0650181510001,0
                100.954801957,16.065165542,0
                100.954379019,16.0653137890001,0
                100.954001956,16.0654459520001,0
                100.95339519,16.065724591,0
                100.9528354,16.066247161,0
                100.952273921,16.066597255,0
                100.951914179,16.066797826,0
                100.95134016,16.067117857,0
                100.951291296,16.067178305,0
                100.951225844,16.067354257,0
                100.950927714,16.068049156,0
                100.949999018,16.06985452,0
                100.94951156,16.0706830660001,0
                100.949215545,16.0710090850001,0
                100.94913892,16.071067753,0
                100.948783468,16.071226322,0
                100.94795403,16.0715405170001,0
                100.947281093,16.0716424680001,0
                100.947122932,16.071684497,0
                100.946451592,16.0717998810001,0
                100.945676077,16.071695404,0
                100.945277822,16.0715073690001,0
                100.944317723,16.070615332,0
                100.943176577,16.069412282,0
                100.942850837,16.0689306520001,0
                100.941969628,16.0676277050001,0
                100.941874192,16.0674771290001,0
                100.941612997,16.06706502,0
                100.941099922,16.065834056,0
                100.940989695,16.065466719,0
                100.940669784,16.06440056,0
                100.940518481,16.064163207,0
                100.940291085,16.0639312370001,0
                100.939751793,16.0637572580001,0
                100.93842464,16.0637876960001,0
                100.937145664,16.063685999,0
                100.937134764,16.0636851310001,0
                100.93477612,16.0636872970001,0
                100.933517987,16.0636008500001,0
                100.933211086,16.0635797580001,0
                100.933050939,16.063607056,0
                100.93267586,16.063763765,0
                100.932360977,16.063996596,0
                100.931609192,16.0646593170001,0
                100.931270547,16.065014247,0
                100.930881788,16.065540003,0
                100.930880328,16.0655431870001,0
                100.930792089,16.0657356360001,0
                100.930697246,16.0661772940001,0
                100.930700019,16.066464754,0
                100.930741336,16.066744424,0
                100.930930509,16.067169053,0
                100.931005075,16.067266945,0
                100.931226607,16.0676290910001,0
                100.931367978,16.067833208,0
                100.931656784,16.0682502,0
                100.932055484,16.069308161,0
                100.932196848,16.069784101,0
                100.932434564,16.0708135690001,0
                100.932564403,16.0717740850001,0
                100.932639687,16.072331015,0
                100.932596304,16.0728323650001,0
                100.932503635,16.073093542,0
                100.932378377,16.0733235860001,0
                100.932222118,16.07347752,0
                100.932143269,16.0735276680001,0
                100.931446404,16.0739708450001,0
                100.931274054,16.07410673,0
                100.931051539,16.0744987850001,0
                100.930952416,16.0750447340001,0
                100.930885496,16.075413315,0
                100.930532619,16.075818971,0
                100.930412794,16.075891477,0
                100.929309766,16.0762953340001,0
                100.926231479,16.077422358,0
                100.925482364,16.0779394780001,0
                100.924367457,16.0796264580001,0
                100.923019007,16.08453086,0
                100.922887914,16.084812336,0
                100.922851537,16.084838303,0
                100.922632448,16.084994716,0
                100.922458702,16.0850667500001,0
                100.92025264,16.085579878,0
                100.919897406,16.0857447760001,0
                100.919697752,16.085854378,0
                100.919521836,16.0860815820001,0
                100.91937835,16.086266907,0
                100.918984168,16.086951436,0
                100.918734404,16.0874753360001,0
                100.918661809,16.087745564,0
                100.918622699,16.087839871,0
                100.918592957,16.0879115860001,0
                100.918361289,16.0881749280001,0
                100.918211209,16.088275847,0
                100.917744802,16.0884852360001,0
                100.917361838,16.0886723730001,0
                100.917203099,16.088749939,0
                100.916813427,16.0890349100001,0
                100.916462782,16.0894296760001,0
                100.91600448,16.090058368,0
                100.915800165,16.090292285,0
                100.91516833,16.090890174,0
                100.915052913,16.091087714,0
                100.914975225,16.091388872,0
                100.91492315,16.091607563,0
                100.91491606,16.091919483,0
                100.91488208,16.092229403,0
                100.914798606,16.092515947,0
                100.914581936,16.0930418510001,0
                100.914548352,16.093095722,0
                100.914210522,16.093488441,0
                100.914178567,16.0935240310001,0
                100.913634375,16.094129986,0
                100.913385327,16.0945605520001,0
                100.91297689,16.095531024,0
                100.912748269,16.0959107090001,0
                100.912634374,16.096041766,0
                100.911902822,16.096635276,0
                100.911848598,16.09667927,0
                100.911701684,16.096791136,0
                100.911590036,16.0970281200001,0
                100.911555735,16.097122004,0
                100.91141576,16.09906958,0
                100.911368825,16.0993204110001,0
                100.911367589,16.099327014,0
                100.911231281,16.0996341850001,0
                100.911052258,16.1000154810001,0
                100.91103686,16.1000482700001,0
                100.910530276,16.1007444570001,0
                100.910282865,16.101062294,0
                100.90939784,16.102502072,0
                100.909174678,16.102993595,0
                100.909041642,16.1036434050001,0
                100.90899651,16.104219003,0
                100.908975915,16.104443426,0
                100.908887457,16.1054073550001,0
                100.908810076,16.105551368,0
                100.908217293,16.1061351220001,0
                100.907452154,16.106876245,0
                100.907244319,16.107125432,0
                100.90824416,16.108618978,0
                100.908680094,16.109025016,0
                100.909769001,16.110013419,0
                100.909957801,16.1102238280001,0
                100.91085396,16.11098817,0
                100.911112203,16.1112595550001,0
                100.91171611,16.1124006090001,0
                100.912404563,16.1140428900001,0
                100.912722937,16.114614724,0
                100.912841501,16.1147708440001,0
                100.913293343,16.1153657790001,0
                100.913868578,16.115899218,0
                100.913987885,16.1160098560001,0
                100.914473408,16.1164417520001,0
                100.91465701,16.1167457660001,0
                100.914734399,16.1171777390001,0
                100.914742723,16.118044738,0
                100.914746498,16.1184379100001,0
                100.91480164,16.118749962,0
                100.914829214,16.1189059880001,0
                100.914847863,16.118953301,0
                100.915004002,16.119349502,0
                100.915037374,16.119403193,0
                100.915893265,16.1201675200001,0
                100.91628484,16.1206018570001,0
                100.918478071,16.1227738440001,0
                100.919551024,16.123476171,0
                100.920260826,16.1240747160001,0
                100.920672229,16.124554958,0
                100.920838148,16.124897328,0
                100.920942273,16.125455474,0
                100.920948377,16.1256111000001,0
                100.920956684,16.126473053,0
                100.920960765,16.126896469,0
                100.921057981,16.127243429,0
                100.921186051,16.1275447420001,0
                100.92130341,16.1277023160001,0
                100.921723037,16.128043484,0
                100.921803161,16.1281313640001,0
                100.921930699,16.128458836,0
                100.9219498,16.128868707,0
                100.921956697,16.129583761,0
                100.922025851,16.1298320330001,0
                100.922102558,16.1301074360001,0
                100.922412022,16.130507466,0
                100.922451112,16.1305579950001,0
                100.922846424,16.130971808,0
                100.922909469,16.131037807,0
                100.924744211,16.132328972,0
                100.925099966,16.1326664750001,0
                100.925524997,16.132934855,0
                100.925807182,16.132992802,0
                100.926165398,16.13282321,0
                100.926614849,16.132380577,0
                100.927178728,16.1319292050001,0
                100.927235096,16.131884085,0
                100.927600295,16.131755452,0
                100.928047703,16.1317022060001,0
                100.928154096,16.131694603,0
                100.928532388,16.131667576,0
                100.92866355,16.1316615100001,0
                100.928969843,16.1316031280001,0
                100.929373815,16.1313121310001,0
                100.929521866,16.1310190940001,0
                100.929906732,16.130523754,0
                100.930146809,16.130352379,0
                100.930660871,16.1301208740001,0
                100.931036478,16.1301326,0
                100.931312539,16.1302345550001,0
                100.931648808,16.130434177,0
                100.9316888,16.130457913,0
                100.931902229,16.1305714280001,0
                100.932110723,16.130613264,0
                100.932170276,16.1306143240001,0
                100.932463775,16.130497749,0
                100.933926116,16.1296375970001,0
                100.936196502,16.128210546,0
                100.936926779,16.1276897270001,0
                100.937328967,16.1272172560001,0
                100.937742091,16.126260748,0
                100.938181942,16.1248351740001,0
                100.938257222,16.124532027,0
                100.938474765,16.1243788210001,0
                100.938740704,16.1243764050001,0
                100.93899233,16.124510226,0
                100.939277888,16.124915953,0
                100.939562712,16.1252460750001,0
                100.939845482,16.12536449,0
                100.940080285,16.125377476,0
                100.940922839,16.1251429660001,0
                100.941344782,16.125093758,0
                100.941768046,16.1251806440001,0
                100.941894082,16.1252702350001,0
                100.942241041,16.125554418,0
                100.942542549,16.125990243,0
                100.943465816,16.1276151270001,0
                100.943593918,16.1279164220001,0
                100.943686007,16.1283868310001,0
                100.943644548,16.1286331110001,0
                100.943632429,16.128657103,0
                100.943322645,16.12897751,0
                100.943139192,16.1294177510001,0
                100.942957804,16.1300696980001,0
                100.9427649,16.1311451930001,0
                100.942593508,16.131379193,0
                100.942504944,16.131436181,0
                100.942236532,16.131512964,0
                100.941894125,16.131697558,0
                100.941892119,16.131701326,0
                100.941738421,16.131774588,0
                100.941599833,16.132002701,0
                100.94160278,16.1323051320001,0
                100.941639671,16.1328794780001,0
                100.941812682,16.1333432280001,0
                100.942089503,16.1340852270001,0
                100.942822157,16.1353693190001,0
                100.943161424,16.135930838,0
                100.943515258,16.1362931410001,0
                100.943829223,16.1365528700001,0
                100.944510933,16.136975342,0
                100.945054934,16.1371728140001,0
                100.945758841,16.137345012,0
                100.946202781,16.137388592,0
                100.946597329,16.137420713,0
                100.947003731,16.137405093,0
                100.948105042,16.1371283660001,0
                100.9484294,16.1369854590001,0
                100.948470291,16.1369674430001,0
                100.948917697,16.1364958620001,0
                100.949664557,16.135154534,0
                100.950053617,16.134658997,0
                100.950399802,16.134326958,0
                100.9507425,16.1341725940001,0
                100.951179953,16.134108101,0
                100.951804835,16.1340116440001,0
                100.952373085,16.1340500040001,0
                100.952410678,16.134053798,0
                100.953495755,16.134502604,0
                100.953860925,16.134673347,0
                100.954001373,16.1347801690001,0
                100.954451849,16.135122785,0
                100.955151955,16.1357085610001,0
                100.955625837,16.1362157140001,0
                100.955770373,16.1363344920001,0
                100.957668371,16.13791932,0
                100.957897227,16.138185514,0
                100.958784969,16.139892597,0
                100.959334963,16.1407637930001,0
                100.959381952,16.1408382230001,0
                100.959621043,16.141240065,0
                100.959728608,16.141357038,0
                100.959978885,16.141516048,0
                100.960048698,16.1415353890001,0
                100.960280785,16.141599667,0
                100.96061014,16.141628444,0
                100.961019446,16.141606268,0
                100.961416899,16.141543869,0
                100.961589401,16.141482049,0
                100.963023429,16.140968097,0
                100.963231472,16.1408935380001,0
                100.963777101,16.140691911,0
                100.9644017,16.1405651760001,0
                100.964542503,16.140563878,0
                100.964787257,16.1405983710001,0
                100.965247559,16.1406632370001,0
                100.96564248,16.1408532680001,0
                100.965709753,16.1408856420001,0
                100.966049326,16.1410490390001,0
                100.966522252,16.1414076250001,0
                100.968842525,16.1434580430001,0
                100.969610863,16.144304302,0
                100.969922049,16.1445254170001,0
                100.97054679,16.14491022,0
                100.971649034,16.145379126,0
                100.972618587,16.1455705700001,0
                100.973268245,16.145540394,0
                100.973619511,16.1454570660001,0
                100.973709305,16.1454208370001,0
                100.974029864,16.14519549,0
                100.974147715,16.145034045,0
                100.974248719,16.144824579,0
                100.974471873,16.1441254960001,0
                100.974549336,16.1432659500001,0
                100.974494743,16.1429513530001,0
              </coordinates>
                
            </LinearRing>
            
          </outerBoundaryIs>
        
        </Polygon>
        
      <styleUrl>
        #tambonStyle</styleUrl>
    </Placemark>

  </Document>
</kml>