<?xml version="1.0" encoding="UTF-8"?>
<kml xmlns="http://www.opengis.net/kml/2.2">
  <Document id="tambon_doc">
    <name>โพธิ์ไทร, ป่าติ้ว, Yasothon</name>
    <description>ข้อมูลขอบเขตตำบลโพธิ์ไทร อำเภอป่าติ้ว จังหวัดYasothon</description>
    
    <!-- Schema สำหรับข้อมูลตำบล -->
    <Schema id="tambon.schema">
      <SimpleField name="ADM3_EN" type="string">
        <displayName>Subdistrict Name (English)</displayName>
      </SimpleField>
      <SimpleField name="ADM3_TH" type="string">
        <displayName>ชื่อตำบล</displayName>
      </SimpleField>
      <SimpleField name="ADM2_EN" type="string">
        <displayName>District Name (English)</displayName>
      </SimpleField>
      <SimpleField name="ADM2_TH" type="string">
        <displayName>ชื่ออำเภอ</displayName>
      </SimpleField>
      <SimpleField name="ADM1_EN" type="string">
        <displayName>Province Name (English)</displayName>
      </SimpleField>
      <SimpleField name="ADM1_TH" type="string">
        <displayName>ชื่อจังหวัด</displayName>
      </SimpleField>
      <SimpleField name="ADM0_EN" type="string">
        <displayName>Country Name (English)</displayName>
      </SimpleField>
      <SimpleField name="ADM0_TH" type="string">
        <displayName>ชื่อประเทศ</displayName>
      </SimpleField>
    </Schema>

    <!-- Style สำหรับตำบล -->
    <Style id="tambonStyle">
      <LineStyle>
        <color>ffff0000</color>
        <width>1.5</width>
      </LineStyle>
      <PolyStyle>
        <color>33ff0000</color>
        <fill>1</fill>
        <outline>1</outline>
      </PolyStyle>
    </Style>

    <Placemark id="Yasothon.46">
        
        <ExtendedData>
            
          <SchemaData schemaUrl="#tambon.schema">
                
            <SimpleData name="Shape_Leng">
                0.356688565444</SimpleData>
                
            <SimpleData name="Shape_Area">
                0.00430802706511</SimpleData>
                
            <SimpleData name="ADM3_EN">
                Pho Sai</SimpleData>
                
            <SimpleData name="ADM3_TH">
                โพธิ์ไทร</SimpleData>
                
            <SimpleData name="ADM3_PCODE">
                TH350501</SimpleData>
                
            <SimpleData name="ADM2_EN">
                Pa Tio</SimpleData>
                
            <SimpleData name="ADM2_TH">
                ป่าติ้ว</SimpleData>
                
            <SimpleData name="ADM2_PCODE">
                TH3505</SimpleData>
                
            <SimpleData name="ADM1_EN">
                Yasothon</SimpleData>
                
            <SimpleData name="ADM1_TH">
                ยโสธร</SimpleData>
                
            <SimpleData name="ADM1_PCODE">
                TH35</SimpleData>
                
            <SimpleData name="ADM0_EN">
                Thailand</SimpleData>
                
            <SimpleData name="ADM0_TH">
                ประเทศไทย</SimpleData>
                
            <SimpleData name="ADM0_PCODE">
                TH</SimpleData>
            
          </SchemaData>
        
        </ExtendedData>
        
        <Polygon>
            
          <outerBoundaryIs>
                
            <LinearRing>
                    
              <coordinates>
                    
                104.402965398,15.859842008,0
                104.42912888,15.8553926440001,0
                104.429128982,15.855392646,0
                104.429128885,15.8553924760001,0
                104.428673982,15.8544546200001,0
                104.428419258,15.8540584780001,0
                104.428298881,15.8536152070001,0
                104.428163375,15.8529447870001,0
                104.428142942,15.852666544,0
                104.42809217,15.8519752170001,0
                104.428082114,15.8516876310001,0
                104.427965092,15.8511644050001,0
                104.427720048,15.850561317,0
                104.427718267,15.8504949000001,0
                104.427732601,15.8503893060001,0
                104.427781986,15.8503105250001,0
                104.427859513,15.850214421,0
                104.427989544,15.850155769,0
                104.428113112,15.8500695860001,0
                104.428166729,15.8499353130001,0
                104.42803583,15.8493774620001,0
                104.427947093,15.8489992720001,0
                104.427841875,15.8487028320001,0
                104.427635676,15.8480544560001,0
                104.427157042,15.846847988,0
                104.427081318,15.846719298,0
                104.426895784,15.846525877,0
                104.426676035,15.8462006560001,0
                104.425841155,15.844295555,0
                104.425795865,15.844083131,0
                104.425710209,15.843681379,0
                104.425680249,15.843540842,0
                104.425530689,15.842834485,0
                104.425494725,15.842699673,0
                104.42543763,15.842552181,0
                104.425048435,15.8420878360001,0
                104.42460636,15.8413401760001,0
                104.424432406,15.840848431,0
                104.424336972,15.8402866270001,0
                104.424312789,15.8400246620001,0
                104.424297568,15.8398597820001,0
                104.424124138,15.839323226,0
                104.423975957,15.839049829,0
                104.423896882,15.838981436,0
                104.423768323,15.838931874,0
                104.423676798,15.8389077780001,0
                104.423615532,15.8388257400001,0
                104.423567297,15.8387213830001,0
                104.423545605,15.8385899680001,0
                104.423434389,15.838509184,0
                104.423388652,15.838473483,0
                104.423201779,15.8384009100001,0
                104.423103202,15.8383869960001,0
                104.422998206,15.838386347,0
                104.422887408,15.838421908,0
                104.422813921,15.838459815,0
                104.42273297,15.8384716790001,0
                104.422643756,15.838428019,0
                104.422287144,15.837882961,0
                104.421869356,15.837329595,0
                104.421698505,15.8370191770001,0
                104.421642483,15.8368238940001,0
                104.421613482,15.836752501,0
                104.421604609,15.8366740480001,0
                104.421596436,15.836319304,0
                104.421593163,15.836197,0
                104.421610683,15.835951793,0
                104.421779384,15.835731934,0
                104.421903231,15.8356355870001,0
                104.422034028,15.8355740260001,0
                104.422182715,15.8355061940001,0
                104.422317656,15.8353745960001,0
                104.422567312,15.835030327,0
                104.422944449,15.834617028,0
                104.423144829,15.8343398170001,0
                104.423401997,15.8339955930001,0
                104.423832487,15.833265983,0
                104.424095547,15.8325781950001,0
                104.424103887,15.832305508,0
                104.424079354,15.831973095,0
                104.423994342,15.8317178840001,0
                104.423848845,15.8315398840001,0
                104.423299392,15.831234705,0
                104.423139466,15.8311770830001,0
                104.423060237,15.831128773,0
                104.422933211,15.8310467520001,0
                104.422890214,15.8309626070001,0
                104.422840193,15.830622228,0
                104.422831793,15.8305617340001,0
                104.422826631,15.8305245380001,0
                104.422797722,15.830316286,0
                104.422650916,15.829954871,0
                104.422574145,15.8297841040001,0
                104.422513107,15.829605105,0
                104.422490139,15.829548147,0
                104.422445711,15.8295060900001,0
                104.422356749,15.8295141890001,0
                104.422265071,15.8295371360001,0
                104.422203066,15.829538691,0
                104.422140779,15.8295296530001,0
                104.422085408,15.829506311,0
                104.421967242,15.829318474,0
                104.421966051,15.829315846,0
                104.421792202,15.8290804170001,0
                104.421593787,15.82886498,0
                104.421547191,15.828760152,0
                104.421305703,15.8283280810001,0
                104.421270045,15.828222974,0
                104.421122724,15.8277638110001,0
                104.421077309,15.8271572300001,0
                104.42106284,15.8268890630001,0
                104.42106309,15.8267618620001,0
                104.421073995,15.8266237940001,0
                104.421091192,15.826584493,0
                104.421195891,15.826405209,0
                104.421273798,15.826042864,0
                104.421315358,15.825822762,0
                104.421275451,15.8255587680001,0
                104.421296137,15.825240256,0
                104.421362404,15.824715675,0
                104.421461718,15.824335128,0
                104.421499009,15.8242281990001,0
                104.421504697,15.824167991,0
                104.421481398,15.8241155750001,0
                104.421089887,15.8239416540001,0
                104.420916106,15.823857678,0
                104.42087822,15.8238056270001,0
                104.42086193,15.823742436,0
                104.420794642,15.823546262,0
                104.420788635,15.8234580770001,0
                104.420845226,15.8231174690001,0
                104.42101318,15.822710472,0
                104.421109449,15.8224889960001,0
                104.421215469,15.8223591450001,0
                104.421267252,15.822248314,0
                104.421289854,15.8221382180001,0
                104.421324904,15.8220553530001,0
                104.421313574,15.821931465,0
                104.421209063,15.821794604,0
                104.421120441,15.8217409330001,0
                104.420296831,15.8214092960001,0
                104.420194216,15.8213284980001,0
                104.42017353,15.8212852610001,0
                104.420170277,15.8211635380001,0
                104.420233477,15.8209628120001,0
                104.420299119,15.820766512,0
                104.420386881,15.820448238,0
                104.420450889,15.820337222,0
                104.420553077,15.820245512,0
                104.420627939,15.820227431,0
                104.420766948,15.8202604200001,0
                104.420898455,15.8203260120001,0
                104.421116218,15.8204866990001,0
                104.421183466,15.820497172,0
                104.421220466,15.8204719340001,0
                104.421244046,15.820414611,0
                104.421281654,15.820255633,0
                104.421325934,15.8201896850001,0
                104.421379447,15.820155927,0
                104.421433821,15.8201545650001,0
                104.421552132,15.820196176,0
                104.42165768,15.8202300020001,0
                104.421707659,15.8202206450001,0
                104.421766268,15.8201757520001,0
                104.421786958,15.820135932,0
                104.421805298,15.820083169,0
                104.421818318,15.820016938,0
                104.421813575,15.819924751,0
                104.421793754,15.819847081,0
                104.421753881,15.8197693590001,0
                104.421668989,15.819667264,0
                104.421644141,15.8195992890001,0
                104.42164429,15.8195459350001,0
                104.421664591,15.8194538170001,0
                104.421735057,15.819342428,0
                104.42180545,15.8192552890001,0
                104.421910987,15.819148861,0
                104.422031457,15.819071562,0
                104.42208665,15.8190425990001,0
                104.4221368,15.8190281760001,0
                104.422216999,15.819018683,0
                104.422267081,15.819028524,0
                104.422352244,15.819033598,0
                104.422392378,15.8190191470001,0
                104.422417481,15.8189998180001,0
                104.422442666,15.8189562380001,0
                104.422447834,15.8188980300001,0
                104.42242799,15.8188300690001,0
                104.422368297,15.8186746710001,0
                104.422368516,15.8185970530001,0
                104.422383728,15.8185340320001,0
                104.422429009,15.818471086,0
                104.422524394,15.8184082760001,0
                104.422569643,15.8183501980001,0
                104.42257988,15.8182774530001,0
                104.422575162,15.8181755740001,0
                104.42235559,15.8178548230001,0
                104.422165966,15.8175826610001,0
                104.422126202,15.817466116,0
                104.422116415,15.81738849,0
                104.422136725,15.8172915230001,0
                104.422197079,15.8172140660001,0
                104.422347755,15.8170883380001,0
                104.422398026,15.8170302570001,0
                104.422402138,15.817018428,0
                104.422404789,15.8170078520001,0
                104.422404588,15.8168993620001,0
                104.422387304,15.816808291,0
                104.422338437,15.81674808,0
                104.42228235,15.8167207290001,0
                104.422202289,15.8167057410001,0
                104.422053179,15.816734309,0
                104.421961467,15.816737914,0
                104.42193413,15.8167255290001,0
                104.421923953,15.8166983300001,0
                104.421928064,15.816660326,0
                104.421968411,15.816573125,0
                104.422139317,15.8163795400001,0
                104.422330443,15.8161277930001,0
                104.422492222,15.816035744,0
                104.422601748,15.8159911710001,0
                104.422872151,15.8159254870001,0
                104.422962547,15.8158578170001,0
                104.423022881,15.815780358,0
                104.423023117,15.815696454,0
                104.42298693,15.81559844,0
                104.422841406,15.8154357020001,0
                104.422761493,15.8153545110001,0
                104.422673739,15.815216718,0
                104.422604008,15.815071001,0
                104.42246483,15.8146728460001,0
                104.422345437,15.8143717610001,0
                104.422255919,15.8141386840001,0
                104.422229359,15.813969403,0
                104.422219011,15.8136586790001,0
                104.422228107,15.813343037,0
                104.422269036,15.813042382,0
                104.422349538,15.8129261760001,0
                104.422449996,15.812839135,0
                104.422590464,15.812781289,0
                104.422730887,15.812733151,0
                104.422901462,15.812655986,0
                104.423092254,15.812520654,0
                104.423202929,15.812365732,0
                104.423273651,15.81216217,0
                104.423304291,15.8119585040001,0
                104.42332502,15.8117160100001,0
                104.42331546,15.8115510550001,0
                104.423336208,15.8112988570001,0
                104.423516233,15.8106667550001,0
                104.423542247,15.8106009050001,0
                104.423590635,15.810514628,0
                104.423624822,15.810464127,0
                104.423658983,15.810422164,0
                104.423693146,15.8103870140001,0
                104.423719036,15.810364355,0
                104.423746174,15.8103183800001,0
                104.423756887,15.810267256,0
                104.423755856,15.810214967,0
                104.423750149,15.810159245,0
                104.423738552,15.810106927,0
                104.423717577,15.8100494650001,0
                104.423690674,15.810013015,0
                104.423667305,15.809976577,0
                104.42365564,15.8099470020001,0
                104.423647515,15.8099151390001,0
                104.423645252,15.809883316,0
                104.423647703,15.809849222,0
                104.423658369,15.8098151500001,0
                104.423680769,15.8097788320001,0
                104.423714928,15.8097448030001,0
                104.423750223,15.8097176310001,0
                104.423783154,15.8096961150001,0
                104.423826639,15.80967918,0
                104.423870109,15.809673617,0
                104.423918234,15.809673748,0
                104.423974552,15.809688668,0
                104.424023808,15.809710383,0
                104.424102338,15.809756065,0
                104.42415861,15.809788054,0
                104.424209053,15.8098063790001,0
                104.42425363,15.809818987,0
                104.424297068,15.8098202410001,0
                104.424327617,15.809813508,0
                104.42437906,15.8098019810001,0
                104.424394032,15.8097919150001,0
                104.424417105,15.809761151,0
                104.424472233,15.809661943,0
                104.424516716,15.8095695810001,0
                104.424559453,15.809473779,0
                104.424580872,15.8094087280001,0
                104.424591668,15.809341966,0
                104.424591889,15.809263173,0
                104.424570886,15.809180903,0
                104.424532111,15.809131118,0
                104.424465178,15.8090264530001,0
                104.424348932,15.8088471670001,0
                104.424304854,15.8087896650001,0
                104.424246666,15.8087218530001,0
                104.424188469,15.808660027,0
                104.424107345,15.8085664610001,0
                104.424015627,15.808470302,0
                104.423936155,15.808415272,0
                104.423886705,15.808389451,0
                104.423831907,15.808372182,0
                104.423766522,15.808348036,0
                104.423685198,15.8083255440001,0
                104.423598569,15.8083047580001,0
                104.423526092,15.8082857250001,0
                104.423460654,15.8082735620001,0
                104.423397001,15.8082648270001,0
                104.423349244,15.8082595660001,0
                104.423329394,15.808258681,0
                104.423287513,15.8082630700001,0
                104.423220858,15.808271862,0
                104.423154207,15.808286004,0
                104.423085686,15.8083001570001,0
                104.423033844,15.8083072000001,0
                104.422978323,15.8083088390001,0
                104.422932066,15.8083087200001,0
                104.422858056,15.808295973,0
                104.422769303,15.8082742400001,0
                104.422665735,15.808247082,0
                104.422565904,15.808207399,0
                104.422480899,15.8081659690001,0
                104.422394074,15.808110195,0
                104.422310919,15.808062475,0
                104.422268464,15.808026527,0
                104.422231602,15.8079735810001,0
                104.422213239,15.807921568,0
                104.422204185,15.807848087,0
                104.422206187,15.8077943390001,0
                104.422215598,15.8077424000001,0
                104.422234341,15.8076591340001,0
                104.422245633,15.807594653,0
                104.422240202,15.807548049,0
                104.422225526,15.807501432,0
                104.422185203,15.8073642420001,0
                104.422157685,15.807283544,0
                104.422119251,15.807132041,0
                104.422101008,15.807038805,0
                104.422101204,15.8069707330001,0
                104.422105049,15.806918781,0
                104.422121915,15.8068453490001,0
                104.422165073,15.806711175,0
                104.422168066,15.806660621,0
                104.422174463,15.806552654,0
                104.422063953,15.806129991,0
                104.421642146,15.8052938280001,0
                104.421441423,15.804807742,0
                104.421370441,15.8045759990001,0
                104.421273369,15.804125549,0
                104.421179956,15.8038122460001,0
                104.421118201,15.803659168,0
                104.421070846,15.803403501,0
                104.42106909,15.8033758660001,0
                104.421071521,15.8033158970001,0
                104.421081914,15.8030599000001,0
                104.421054629,15.802834144,0
                104.420978678,15.802643916,0
                104.420753646,15.8023498920001,0
                104.420684952,15.802260141,0
                104.420660208,15.802242124,0
                104.420590127,15.802161284,0
                104.420567447,15.802145915,0
                104.419978734,15.8017469600001,0
                104.419703809,15.8015516630001,0
                104.419559976,15.801378363,0
                104.419465395,15.801094312,0
                104.419423428,15.8008257970001,0
                104.419384486,15.8005365290001,0
                104.419396059,15.8004104020001,0
                104.419441367,15.800302022,0
                104.419797344,15.799965748,0
                104.419923721,15.7997955000001,0
                104.419908755,15.799680643,0
                104.419810382,15.799562109,0
                104.419415587,15.799485557,0
                104.418983737,15.799358081,0
                104.418677689,15.7992620220001,0
                104.418616995,15.799217448,0
                104.418591398,15.799165363,0
                104.418593219,15.7991173020001,0
                104.418611209,15.798967899,0
                104.418609734,15.798912611,0
                104.41858236,15.7988749940001,0
                104.418470162,15.798788428,0
                104.418460358,15.798750371,0
                104.418506633,15.7986726130001,0
                104.418699249,15.7985449880001,0
                104.41903145,15.797914731,0
                104.419289747,15.797546534,0
                104.419443074,15.797197978,0
                104.419511962,15.796979214,0
                104.41962795,15.796878431,0
                104.419762979,15.796832497,0
                104.419818606,15.7967757820001,0
                104.419838755,15.7967071840001,0
                104.419835692,15.796592354,0
                104.419800518,15.7964272580001,0
                104.419816275,15.796358776,0
                104.419897458,15.79627163,0
                104.420086417,15.796105185,0
                104.420127731,15.7960062710001,0
                104.420138864,15.7959293870001,0
                104.42010259,15.795887737,0
                104.420030499,15.795821446,0
                104.419878172,15.7955486340001,0
                104.419848417,15.7954217060001,0
                104.419862468,15.795289423,0
                104.419921581,15.7951985730001,0
                104.420064259,15.79510989,0
                104.421641741,15.794764022,0
                104.421888703,15.794630173,0
                104.422055807,15.794468529,0
                104.422094624,15.794276052,0
                104.422088576,15.7938846760001,0
                104.422083583,15.793697545,0
                104.422087941,15.793531462,0
                104.422120584,15.7934370190001,0
                104.422279811,15.793309621,0
                104.422835217,15.793040381,0
                104.422973506,15.7929518060001,0
                104.423064688,15.7927452490001,0
                104.423095855,15.7925955220001,0
                104.423093018,15.7924891960001,0
                104.423043114,15.7924308670001,0
                104.422691175,15.791924727,0
                104.422575009,15.791689311,0
                104.422459705,15.7906623060001,0
                104.422479366,15.7904107250001,0
                104.422420987,15.7901993990001,0
                104.422299525,15.7899300670001,0
                104.422158714,15.789759104,0
                104.422064206,15.789676351,0
                104.421668645,15.789511759,0
                104.421332449,15.789430797,0
                104.420918557,15.7894028420001,0
                104.420566042,15.7893691,0
                104.420396526,15.789275456,0
                104.419815326,15.788906969,0
                104.419637368,15.7888263030001,0
                104.41945176,15.788788385,0
                104.419363122,15.7887608080001,0
                104.419169632,15.788757134,0
                104.419025595,15.788794781,0
                104.418857131,15.788905383,0
                104.418569524,15.789234043,0
                104.418291215,15.7895449270001,0
                104.41812549,15.7897274630001,0
                104.417957476,15.7898241620001,0
                104.417744819,15.7899338460001,0
                104.417523865,15.7899407140001,0
                104.417248285,15.7898418840001,0
                104.417107853,15.789693426,0
                104.417074239,15.789456409,0
                104.417208646,15.7891226890001,0
                104.417306756,15.788195235,0
                104.417386253,15.7878496760001,0
                104.417497816,15.78770504,0
                104.417956018,15.787465438,0
                104.418142557,15.787295595,0
                104.418281005,15.787113741,0
                104.418328694,15.7868548710001,0
                104.418352096,15.78670893,0
                104.418456275,15.7865213220001,0
                104.418665378,15.786430207,0
                104.418844605,15.7864984060001,0
                104.419344821,15.7873448330001,0
                104.419766859,15.7880742890001,0
                104.419974601,15.788188024,0
                104.420159064,15.7881966300001,0
                104.420728172,15.7880436510001,0
                104.421117866,15.7878158710001,0
                104.421538357,15.787719468,0
                104.421941383,15.787735818,0
                104.422189508,15.78782872,0
                104.422289201,15.787984797,0
                104.422338218,15.7882874970001,0
                104.422268845,15.7885006650001,0
                104.422223099,15.7888321630001,0
                104.42229028,15.789048522,0
                104.422368812,15.789178699,0
                104.422507132,15.7892479180001,0
                104.422875012,15.7892255,0
                104.424252884,15.788695499,0
                104.424783659,15.7883848980001,0
                104.424868958,15.7882572300001,0
                104.424864553,15.7880921610001,0
                104.424834808,15.7880004090001,0
                104.424491339,15.7876588230001,0
                104.424416806,15.7874228320001,0
                104.424375315,15.787146369,0
                104.424473972,15.786496405,0
                104.424659035,15.786016062,0
                104.425064543,15.78535842,0
                104.425201324,15.7851039180001,0
                104.425252661,15.784880733,0
                104.425197614,15.784574478,0
                104.42512605,15.7844300140001,0
                104.425051573,15.7843713620001,0
                104.42497296,15.7843531550001,0
                104.424904894,15.7843397290001,0
                104.424743947,15.784358883,0
                104.424348959,15.7845856220001,0
                104.423838691,15.784981665,0
                104.423764117,15.7851146530001,0
                104.42377735,15.78522023,0
                104.423981992,15.785472315,0
                104.424034079,15.7856676960001,0
                104.423947649,15.785942187,0
                104.423744698,15.786143947,0
                104.423475658,15.7862111970001,0
                104.423266252,15.786171043,0
                104.423074844,15.7860245360001,0
                104.422800522,15.785698547,0
                104.42267023,15.7855000770001,0
                104.422469623,15.7853991850001,0
                104.422006084,15.785204004,0
                104.42186206,15.7850764830001,0
                104.421849499,15.7849961050001,0
                104.42187203,15.784864419,0
                104.422538911,15.7840912630001,0
                104.422717182,15.7839405550001,0
                104.422996224,15.783857927,0
                104.423840576,15.783685517,0
                104.42405263,15.7836297860001,0
                104.424159378,15.7835312940001,0
                104.424233955,15.7833983080001,0
                104.424230057,15.7832521500001,0
                104.424165447,15.7831730770001,0
                104.4239596,15.7828756330001,0
                104.423676503,15.7824265150001,0
                104.42351087,15.7821497310001,0
                104.423379283,15.7819955310001,0
                104.423168852,15.7818518170001,0
                104.422867773,15.7817618600001,0
                104.422774488,15.7817339870001,0
                104.42273416,15.7817052,0
                104.422723785,15.781645865,0
                104.422726134,15.781569194,0
                104.422755071,15.7815003650001,0
                104.422914157,15.7813458260001,0
                104.423110403,15.7813084520001,0
                104.423244313,15.781219976,0
                104.423559056,15.7808247730001,0
                104.423697243,15.780731931,0
                104.424345223,15.780634853,0
                104.425072384,15.7805400560001,0
                104.425249876,15.780437718,0
                104.425395373,15.7802893590001,0
                104.425415293,15.780212245,0
                104.425369321,15.7801367810001,0
                104.425251142,15.77999076,0
                104.424742053,15.779526773,0
                104.424683243,15.779464396,0
                104.424621294,15.7794489180001,0
                104.424564072,15.77944609,0
                104.424302111,15.779558077,0
                104.424196095,15.779568446,0
                104.424171787,15.779570828,0
                104.424091921,15.7795430300001,0
                104.423801405,15.779363007,0
                104.423646819,15.779191688,0
                104.42334126,15.778591326,0
                104.423140723,15.778323926,0
                104.42300463,15.7781655850001,0
                104.422559006,15.7779383610001,0
                104.4222355,15.777840038,0
                104.421883516,15.7778275490001,0
                104.421418109,15.777847695,0
                104.421252417,15.7778660290001,0
                104.421112657,15.777931946,0
                104.420555288,15.778294902,0
                104.420254671,15.7785169840001,0
                104.420133356,15.778567417,0
                104.420002421,15.778567874,0
                104.419923006,15.778536047,0
                104.419901778,15.7784782580001,0
                104.419903582,15.7779524060001,0
                104.419818013,15.77763544,0
                104.419613335,15.777292403,0
                104.419486515,15.776884995,0
                104.419409899,15.776793534,0
                104.419199858,15.7767054030001,0
                104.418774268,15.776601107,0
                104.41809913,15.776596421,0
                104.417254261,15.7766247000001,0
                104.416842344,15.7765976540001,0
                104.416310494,15.776534837,0
                104.416139284,15.776537611,0
                104.415939899,15.776506393,0
                104.415708194,15.776505274,0
                104.415361702,15.776585751,0
                104.415276468,15.77659379,0
                104.415050934,15.776615054,0
                104.414597494,15.7765914670001,0
                104.414438187,15.7766135100001,0
                104.414218447,15.77666802,0
                104.414100839,15.7767028960001,0
                104.413832638,15.776791197,0
                104.413570696,15.7768622460001,0
                104.413174019,15.7768773060001,0
                104.41279763,15.7769537900001,0
                104.412579867,15.776982445,0
                104.41240901,15.7769712260001,0
                104.412194858,15.776935279,0
                104.411960014,15.776923072,0
                104.411819431,15.77691846,0
                104.411684471,15.776883497,0
                104.411614473,15.7768568540001,0
                104.411581279,15.776811234,0
                104.411578934,15.7766229100001,0
                104.411571963,15.776561149,0
                104.411514868,15.776518703,0
                104.411434699,15.7765103780001,0
                104.411296624,15.7765293090001,0
                104.41123633,15.7765669390001,0
                104.411113494,15.776657745,0
                104.411067987,15.7766946250001,0
                104.410568335,15.777102298,0
                104.410505035,15.7771270980001,0
                104.410417426,15.7771396040001,0
                104.410007839,15.7771704640001,0
                104.409233258,15.777205263,0
                104.408794374,15.7772368460001,0
                104.408386295,15.77732444,0
                104.408038648,15.777379555,0
                104.407111924,15.7775058770001,0
                104.406833313,15.777551529,0
                104.406769189,15.777545386,0
                104.406338076,15.7774683870001,0
                104.406186342,15.7774747490001,0
                104.405825653,15.777540511,0
                104.405570802,15.7775778290001,0
                104.405415856,15.7775636270001,0
                104.40534299,15.77752931,0
                104.405280227,15.7774741040001,0
                104.405205853,15.777383054,0
                104.40518017,15.777319178,0
                104.405129621,15.777121731,0
                104.405099296,15.7770837780001,0
                104.405066789,15.777063942,0
                104.404675621,15.7768853050001,0
                104.404584451,15.776864349,0
                104.403585602,15.7768840690001,0
                104.403331978,15.776867157,0
                104.403077547,15.776840243,0
                104.402931137,15.776794098,0
                104.402813249,15.7767020160001,0
                104.402762301,15.7766717530001,0
                104.402533723,15.776477535,0
                104.402365715,15.7763502010001,0
                104.401878681,15.7761431320001,0
                104.401781043,15.7760965950001,0
                104.401663698,15.7760376030001,0
                104.401647536,15.7760329590001,0
                104.401570476,15.776010808,0
                104.401334982,15.7759431260001,0
                104.400949848,15.775873743,0
                104.400314587,15.7759053460001,0
                104.399566269,15.77597925,0
                104.398534593,15.776131274,0
                104.397250061,15.776281684,0
                104.397155028,15.7763110720001,0
                104.396816824,15.7764156530001,0
                104.396416907,15.7765393170001,0
                104.394902296,15.776932351,0
                104.394261422,15.7770200790001,0
                104.394260012,15.7772115660001,0
                104.394259596,15.7773509250001,0
                104.394221929,15.7775738240001,0
                104.394167929,15.777756847,0
                104.394093057,15.7780393790001,0
                104.394059602,15.778226434,0
                104.39405496,15.7784056350001,0
                104.394033739,15.778628558,0
                104.394008585,15.7787877750001,0
                104.393958762,15.7789469250001,0
                104.393946121,15.7790544150001,0
                104.393937258,15.779265439,0
                104.393937033,15.7793411060001,0
                104.393953224,15.77942875,0
                104.394002322,15.779512507,0
                104.394067707,15.779652071,0
                104.394108498,15.779767667,0
                104.394120529,15.779867247,0
                104.394117309,15.7799319110001,0
                104.394116158,15.7799548560001,0
                104.394103405,15.78009418,0
                104.39407008,15.780237448,0
                104.394003807,15.7803965530001,0
                104.39390469,15.7805436130001,0
                104.393793211,15.7806906380001,0
                104.393661112,15.78085753,0
                104.393532961,15.781080177,0
                104.393446096,15.7812511550001,0
                104.39340052,15.78136253,0
                104.393400247,15.7814541220001,0
                104.393420538,15.7815497500001,0
                104.393448876,15.7816971670001,0
                104.393489547,15.781852572,0
                104.393501545,15.7819681030001,0
                104.393488697,15.7821392880001,0
                104.393434741,15.7823063970001,0
                104.393360362,15.7824216700001,0
                104.393257343,15.782493054,0
                104.392886728,15.7826592800001,0
                104.392722016,15.7827304910001,0
                104.392553348,15.7827499270001,0
                104.392405309,15.782745533,0
                104.392302574,15.782721365,0
                104.392146429,15.782673141,0
                104.39203402,15.782631043,0
                104.391899954,15.782580857,0
                104.391764378,15.7825366710001,0
                104.391641023,15.782532346,0
                104.391546349,15.7825599620001,0
                104.391476347,15.7825916210001,0
                104.391430971,15.7826352870001,0
                104.391402033,15.782690965,0
                104.391364723,15.7827864330001,0
                104.391364433,15.782882006,0
                104.391368231,15.7829935180001,0
                104.391384264,15.7831329250001,0
                104.391378565,15.783228068,0
                104.391362605,15.78349525,0
                104.39134169,15.7836146490001,0
                104.391316837,15.7836782910001,0
                104.391275442,15.7837657960001,0
                104.391213488,15.78385322,0
                104.391048541,15.7840080670001,0
                104.390928883,15.7841351440001,0
                104.390809172,15.784286142,0
                104.390693593,15.7844291750001,0
                104.390582186,15.7845562950001,0
                104.390499508,15.784699421,0
                104.390466384,15.784774977,0
                104.390449739,15.7848386480001,0
                104.390441138,15.7849620710001,0
                104.39043247,15.785113365,0
                104.390423998,15.7851929830001,0
                104.390399139,15.785256627,0
                104.390349587,15.7853241820001,0
                104.390295997,15.7853678430001,0
                104.390188873,15.7854312530001,0
                104.390065316,15.785494622,0
                104.389958187,15.785558037,0
                104.389855139,15.785637395,0
                104.389780898,15.7857128520001,0
                104.389677708,15.785839971,0
                104.389603326,15.7859552630001,0
                104.389545365,15.7860865070001,0
                104.389466423,15.786353079,0
                104.389408141,15.786591845,0
                104.389333509,15.7867907350001,0
                104.389258898,15.786989647,0
                104.389167849,15.7871765400001,0
                104.389126517,15.7872481090001,0
                104.389052246,15.787327545,0
                104.388969803,15.78739103,0
                104.388875009,15.787462433,0
                104.388792558,15.787529896,0
                104.388738868,15.78760541,0
                104.388697497,15.787684938,0
                104.388672555,15.7877764630001,0
                104.388676391,15.7878680470001,0
                104.388684389,15.78793976,0
                104.388725226,15.7880394270001,0
                104.38876603,15.788143067,0
                104.388782075,15.7882785140001,0
                104.388785868,15.7883900260001,0
                104.388769096,15.7884974880001,0
                104.388739958,15.788612899,0
                104.388665554,15.788736127,0
                104.388578856,15.7888473840001,0
                104.388471521,15.78898646,0
                104.388409311,15.789157506,0
                104.388363662,15.7892927820001,0
                104.388350956,15.789420176,0
                104.388292953,15.7895593750001,0
                104.388226682,15.789714498,0
                104.388160583,15.789813865,0
                104.388065659,15.789929074,0
                104.387900807,15.7900441100001,0
                104.387752597,15.790095454,0
                104.387600278,15.7901467890001,0
                104.387505658,15.7901544810001,0
                104.387382347,15.7901342230001,0
                104.387230261,15.790101942,0
                104.387069967,15.7900736080001,0
                104.386979465,15.7900773480001,0
                104.386909485,15.7901010360001,0
                104.386876067,15.790123034,0
                104.386831184,15.79015258,0
                104.386744597,15.790227998,0
                104.386666144,15.7903353040001,0
                104.386632814,15.790478566,0
                104.386612221,15.7905519890001,0
                104.386587081,15.790641705,0
                104.386545524,15.7907809500001,0
                104.386528836,15.7908605430001,0
                104.386540911,15.790948198,0
                104.386548893,15.7910318420001,0
                104.386593895,15.791107632,0
                104.386671763,15.791199427,0
                104.386782534,15.7912913370001,0
                104.386868606,15.7913871490001,0
                104.386934125,15.791482907,0
                104.386970908,15.791558679,0
                104.386986962,15.7916901290001,0
                104.386994862,15.791801655,0
                104.386969873,15.791901136,0
                104.38692431,15.7920085280001,0
                104.386878843,15.792088026,0
                104.386812705,15.7921993420001,0
                104.386750624,15.7923265950001,0
                104.386684306,15.7924976480001,0
                104.386651034,15.7926210050001,0
                104.386634178,15.7927563440001,0
                104.386633852,15.7928638670001,0
                104.386649873,15.7930072680001,0
                104.386674342,15.7930790080001,0
                104.38670705,15.7931428150001,0
                104.386780819,15.7932266460001,0
                104.386862764,15.7933304210001,0
                104.386887177,15.793414113,0
                104.386878625,15.793525591,0
                104.386866081,15.793593248,0
                104.38682478,15.793652868,0
                104.386725934,15.793700357,0
                104.386594255,15.7937238860001,0
                104.386458549,15.793719525,0
                104.386357926,15.793714483,0
                104.386219624,15.7937439840001,0
                104.386118977,15.793812627,0
                104.38605312,15.79390521,0
                104.386043299,15.7939386250001,0
                104.386037452,15.7940238580001,0
                104.38603698,15.7941798150001,0
                104.386040051,15.794488147,0
                104.386067209,15.7947451090001,0
                104.386101763,15.7948601260001,0
                104.386174257,15.7949524680001,0
                104.386192187,15.7949753180001,0
                104.386352474,15.7950704,0
                104.386543493,15.7951106620001,0
                104.386709208,15.7951449240001,0
                104.386848562,15.7952382670001,0
                104.386900718,15.795306017,0
                104.386909209,15.7953821030001,0
                104.3868826,15.7955256770001,0
                104.38678612,15.795685958,0
                104.386610919,15.795905158,0
                104.386365781,15.796157969,0
                104.386129425,15.7964023590001,0
                104.385967125,15.7965849140001,0
                104.385691217,15.797009544,0
                104.385542168,15.797237277,0
                104.385419505,15.79739748,0
                104.385305869,15.797456303,0
                104.385113767,15.7974895670001,0
                104.384930565,15.797463701,0
                104.384773671,15.797395656,0
                104.384607981,15.797352932,0
                104.384480052,15.797363634,0
                104.384382419,15.7973734280001,0
                104.384292612,15.7973567220001,0
                104.384236875,15.797318938,0
                104.384098872,15.797184519,0
                104.383996634,15.797061609,0
                104.383883215,15.7969253420001,0
                104.38379995,15.7968516290001,0
                104.383697664,15.7967999000001,0
                104.383576395,15.7967518040001,0
                104.383485423,15.79671848,0
                104.383409581,15.7967035620001,0
                104.383345097,15.796692352,0
                104.383280622,15.7966848300001,0
                104.383219211,15.7966651830001,0
                104.383079748,15.796606006,0
                104.383031196,15.7965999940001,0
                104.382976551,15.7966027690001,0
                104.38290665,15.7966290210001,0
                104.382821583,15.796652303,0
                104.382779098,15.796652179,0
                104.382709327,15.7966372810001,0
                104.382557593,15.796622153,0
                104.382472574,15.796627788,0
                104.382433064,15.7966453220001,0
                104.382417813,15.7966687840001,0
                104.382411602,15.7967157950001,0
                104.382408292,15.79680396,0
                104.382405129,15.79684803,0
                104.382389765,15.796909713,0
                104.382352959,15.797033061,0
                104.382343676,15.797088865,0
                104.382349541,15.797156483,0
                104.38237644,15.7973005900001,0
                104.382385314,15.7973740900001,0
                104.38238806,15.797471081,0
                104.382366226,15.7976650030001,0
                104.382292096,15.7980821580001,0
                104.382244404,15.7983593210001,0
                104.382239143,15.7985292230001,0
                104.382257586,15.798703787,0
                104.382313948,15.798887639,0
                104.382384467,15.799094498,0
                104.382431536,15.799214035,0
                104.382554284,15.799402673,0
                104.382648643,15.799568268,0
                104.382733851,15.799623615,0
                104.382833235,15.799697376,0
                104.382899386,15.799780227,0
                104.382946455,15.7998997620001,0
                104.382973586,15.8000233810001,0
                104.382988515,15.8001079320001,0
                104.382984513,15.8001777270001,0
                104.382957613,15.8002915380001,0
                104.382953671,15.80033561,0
                104.382961013,15.8004201370001,0
                104.382986888,15.800644312,0
                104.382986667,15.800717793,0
                104.382974984,15.800820634,0
                104.382974702,15.800912483,0
                104.382993431,15.8009933550001,0
                104.38301216,15.8010742450001,0
                104.383004248,15.801177082,0
                104.382985022,15.80126153,0
                104.382935436,15.8013495700001,0
                104.382874474,15.8014265460001,0
                104.382821159,15.801488863,0
                104.382767785,15.8015768660001,0
                104.382691481,15.8017125960001,0
                104.382634333,15.8017895840001,0
                104.382546781,15.8018775100001,0
                104.382478128,15.801991204,0
                104.382415369,15.802131778,0
                104.382346682,15.802276138,0
                104.382265374,15.8023626360001,0
                104.382141478,15.802428369,0
                104.381970426,15.802564171,0
                104.381820634,15.8027330640001,0
                104.381632414,15.802905993,0
                104.381315977,15.803161142,0
                104.381140693,15.8032928100001,0
                104.380961126,15.803428588,0
                104.380860994,15.8035271480001,0
                104.380759235,15.803645574,0
                104.380624965,15.8038247110001,0
                104.380498708,15.8039664780001,0
                104.380295264,15.8042027660001,0
                104.379937627,15.804573982,0
                104.379594121,15.8048978690001,0
                104.379327474,15.80522875,0
                104.379025677,15.805627192,0
                104.378822271,15.805849956,0
                104.37865368,15.806120187,0
                104.378562295,15.80628914,0
                104.378148432,15.806754949,0
                104.377955497,15.806984506,0
                104.377857378,15.807072202,0
                104.377766345,15.8071193320001,0
                104.377626366,15.8071798440001,0
                104.377489795,15.8072606690001,0
                104.377363595,15.807382128,0
                104.377268811,15.8075206070001,0
                104.377223117,15.807605073,0
                104.377195043,15.807638819,0
                104.377163544,15.8076556510001,0
                104.377114588,15.8076588910001,0
                104.377051725,15.807641792,0
                104.376922664,15.807556822,0
                104.376870362,15.8075194640001,0
                104.376824946,15.807512553,0
                104.376772489,15.8075191830001,0
                104.37672348,15.8075461080001,0
                104.376646343,15.8076237240001,0
                104.376562083,15.807745304,0
                104.376470679,15.8079209970001,0
                104.376339344,15.8081071930001,0
                104.37632779,15.8081205610001,0
                104.376102809,15.8083808540001,0
                104.37572953,15.8087884080001,0
                104.375599654,15.8088959730001,0
                104.375521717,15.808973214,0
                104.375185203,15.8092991460001,0
                104.375127549,15.8093834000001,0
                104.375134103,15.8095499300001,0
                104.375140905,15.8097228660001,0
                104.375256934,15.8100076900001,0
                104.375268295,15.810080477,0
                104.375127002,15.8102666560001,0
                104.375107659,15.8104269730001,0
                104.375122044,15.8106138520001,0
                104.37517716,15.810735788,0
                104.375308179,15.810874104,0
                104.375479566,15.8111118900001,0
                104.37553454,15.8113190080001,0
                104.375587303,15.81153548,0
                104.375623091,15.8116514020001,0
                104.375760693,15.811828147,0
                104.375825354,15.8118760360001,0
                104.375907412,15.811885879,0
                104.376160131,15.8118538690001,0
                104.376223692,15.811860209,0
                104.376287985,15.81189425,0
                104.376382463,15.8119869330001,0
                104.376515137,15.812132127,0
                104.376645874,15.8122813250001,0
                104.376801709,15.8123744650001,0
                104.376868726,15.812434175,0
                104.376888798,15.8124970280001,0
                104.37691374,15.812666672,0
                104.376934437,15.8128304860001,0
                104.377003716,15.813129695,0
                104.377070578,15.8133378950001,0
                104.37722427,15.8138131900001,0
                104.37724628,15.8139492500001,0
                104.377243977,15.8140166200001,0
                104.377224328,15.8141240140001,0
                104.377161972,15.814240392,0
                104.377070537,15.814339676,0
                104.376853025,15.8144658470001,0
                104.376707668,15.814536769,0
                104.37664762,15.8145857750001,0
                104.376588147,15.81473376,0
                104.376492258,15.8149737150001,0
                104.376417852,15.815098312,0
                104.376237338,15.8153086950001,0
                104.376046811,15.815527246,0
                104.37598299,15.8155882230001,0
                104.37584371,15.815734229,0
                104.375731102,15.8158835290001,0
                104.375677131,15.8159304070001,0
                104.375480107,15.8160580480001,0
                104.375394172,15.816133436,0
                104.375339939,15.816247629,0
                104.375297388,15.8162625470001,0
                104.375212605,15.816227032,0
                104.375123995,15.8161243060001,0
                104.374968104,15.816029182,0
                104.374863249,15.81600803,0
                104.374808492,15.8160252280001,0
                104.374758923,15.8160838740001,0
                104.374638928,15.8163402700001,0
                104.37452679,15.816507379,0
                104.374509708,15.816557297,0
                104.374513167,15.816687878,0
                104.374508711,15.8167513400001,0
                104.374489587,15.8168013100001,0
                104.374361835,15.8169193150001,0
                104.374298233,15.8169638680001,0
                104.374290413,15.816967961,0
                104.37420027,15.817034462,0
                104.373977172,15.8171317590001,0
                104.373960831,15.817138888,0
                104.373946195,15.8171479600001,0
                104.373918577,15.817165077,0
                104.373858366,15.817202396,0
                104.373823304,15.817250164,0
                104.373781408,15.8174059670001,0
                104.373682572,15.817765073,0
                104.37349178,15.8183143320001,0
                104.373379861,15.818545677,0
                104.373287908,15.8190851000001,0
                104.373121536,15.8194892230001,0
                104.372793041,15.82001166,0
                104.372398291,15.820707166,0
                104.372283689,15.8208805940001,0
                104.372277437,15.8208812990001,0
                104.372252161,15.820915733,0
                104.371720148,15.821427536,0
                104.371629331,15.821459367,0
                104.371546797,15.8214740920001,0
                104.371489871,15.8214670580001,0
                104.371411357,15.821469006,0
                104.371337321,15.8214750660001,0
                104.371259595,15.8215065740001,0
                104.371142623,15.8216146770001,0
                104.37094522,15.8218562280001,0
                104.370746068,15.8220709780001,0
                104.370379024,15.822335878,0
                104.369952664,15.8227570940001,0
                104.369909529,15.822792398,0
                104.369634446,15.82301757,0
                104.369558731,15.8231133780001,0
                104.369530656,15.823148912,0
                104.369383341,15.823358092,0
                104.369237764,15.823472689,0
                104.3691484,15.823513597,0
                104.369057373,15.823555265,0
                104.368955022,15.8236809960001,0
                104.368927094,15.8237238940001,0
                104.368755697,15.824008355,0
                104.368667941,15.8241328020001,0
                104.368583585,15.8242738640001,0
                104.368510402,15.824483152,0
                104.368486396,15.824570355,0
                104.368365437,15.82477205,0
                104.368231817,15.824954086,0
                104.368142116,15.8250762760001,0
                104.36807517,15.8252778730001,0
                104.368079137,15.825427726,0
                104.368245029,15.826233357,0
                104.368256401,15.8266629410001,0
                104.368229583,15.8269148590001,0
                104.368223325,15.8269736620001,0
                104.368149497,15.8273053890001,0
                104.367957877,15.827891687,0
                104.367815884,15.8284468100001,0
                104.367837586,15.828510834,0
                104.367926616,15.8285990110001,0
                104.368028882,15.828656489,0
                104.36810263,15.8286979440001,0
                104.368251987,15.828797536,0
                104.368307701,15.8288487740001,0
                104.368338499,15.8289176220001,0
                104.368343073,15.82896314,0
                104.368305477,15.829054458,0
                104.368250969,15.829214209,0
                104.368230035,15.829436629,0
                104.368247541,15.8296369550001,0
                104.368263752,15.8298777810001,0
                104.368255532,15.830061707,0
                104.368223932,15.8303434110001,0
                104.368226709,15.8305029750001,0
                104.368250033,15.830663889,0
                104.368288316,15.831029706,0
                104.368308278,15.8312437330001,0
                104.368273132,15.8313602810001,0
                104.368122439,15.831720809,0
                104.367936025,15.83227715,0
                104.367803731,15.8327672410001,0
                104.367719543,15.8333859530001,0
                104.367715529,15.834078398,0
                104.367808593,15.834638623,0
                104.367974961,15.835013121,0
                104.368167386,15.835527606,0
                104.368220344,15.8359014210001,0
                104.367973317,15.8441603210001,0
                104.367365625,15.848796017,0
                104.367054209,15.850417339,0
                104.366729329,15.8515307800001,0
                104.366879713,15.853242277,0
                104.366949591,15.853768368,0
                104.366976231,15.853800472,0
                104.367132915,15.8543202320001,0
                104.367280841,15.85489455,0
                104.367480301,15.8555676330001,0
                104.367776012,15.856438382,0
                104.367909185,15.8567857940001,0
                104.368126322,15.85718809,0
                104.368494645,15.8577125620001,0
                104.368868021,15.858427491,0
                104.368874422,15.85866873,0
                104.36875133,15.85897672,0
                104.368641921,15.8592886320001,0
                104.368617406,15.859358512,0
                104.368587769,15.859443006,0
                104.36856641,15.8594805170001,0
                104.368504193,15.859554544,0
                104.368433528,15.859638617,0
                104.368128855,15.859927214,0
                104.367835668,15.8601609310001,0
                104.367826364,15.860168351,0
                104.366701699,15.861378168,0
                104.366676288,15.8614048910001,0
                104.366619988,15.8614641130001,0
                104.366305825,15.8617945770001,0
                104.364855155,15.863024938,0
                104.364293777,15.863368254,0
                104.3639095,15.863693159,0
                104.362988875,15.8644345390001,0
                104.362725749,15.86477638,0
                104.362601168,15.8652105800001,0
                104.362532058,15.865403902,0
                104.361888807,15.86600129,0
                104.361735103,15.8661079140001,0
                104.36130864,15.8664037560001,0
                104.361000196,15.8666528210001,0
                104.360423345,15.867670882,0
                104.360167037,15.8679059450001,0
                104.360003492,15.868013537,0
                104.359986408,15.8680247790001,0
                104.359884152,15.8681289640001,0
                104.359588707,15.869035081,0
                104.360075154,15.870000475,0
                104.360179662,15.8701904390001,0
                104.360302969,15.8703859500001,0
                104.360644859,15.8708528350001,0
                104.361401918,15.871971318,0
                104.362638334,15.873525366,0
                104.362805806,15.8735671530001,0
                104.362997146,15.873748934,0
                104.363108509,15.8739627950001,0
                104.363177022,15.874201785,0
                104.363260836,15.8745487100001,0
                104.363300517,15.874872666,0
                104.363297926,15.8753512110001,0
                104.363297354,15.8754564280001,0
                104.363313949,15.876081824,0
                104.36334327,15.8762495830001,0
                104.363396329,15.8763746280001,0
                104.363585765,15.87671893,0
                104.363739199,15.8769960290001,0
                104.36393077,15.877240075,0
                104.364099675,15.8774050640001,0
                104.364341835,15.8776179930001,0
                104.364381928,15.8776615300001,0
                104.364574777,15.877870961,0
                104.364681763,15.8780275390001,0
                104.364811678,15.878273117,0
                104.364997463,15.8786864900001,0
                104.365120538,15.879061618,0
                104.36515559,15.8792199820001,0
                104.365158134,15.8793158030001,0
                104.365162984,15.8794984630001,0
                104.365181183,15.8797965810001,0
                104.365225458,15.8799149070001,0
                104.365439434,15.8802280580001,0
                104.365611251,15.8805024500001,0
                104.366045712,15.881207379,0
                104.368024729,15.8802977240001,0
                104.368722487,15.880106343,0
                104.369504423,15.8800251760001,0
                104.370133989,15.879934604,0
                104.370313107,15.879880218,0
                104.370388448,15.8798034480001,0
                104.370625382,15.8794979690001,0
                104.370901639,15.8792164720001,0
                104.371180218,15.879022299,0
                104.371485495,15.8788650990001,0
                104.371890824,15.878675893,0
                104.372222132,15.878426232,0
                104.372593852,15.878183349,0
                104.372839396,15.878037057,0
                104.373285135,15.877854628,0
                104.373643666,15.8777210980001,0
                104.374503188,15.8773648270001,0
                104.375129723,15.8770221410001,0
                104.37605232,15.876617567,0
                104.376672467,15.8763373360001,0
                104.377448664,15.8758741080001,0
                104.37855781,15.8752234620001,0
                104.379135463,15.874858626,0
                104.380017592,15.8741435520001,0
                104.381763669,15.872635974,0
                104.382996207,15.8714838400001,0
                104.387046988,15.8680506220001,0
                104.388640251,15.866591376,0
                104.390287478,15.8653826190001,0
                104.39099058,15.865031032,0
                104.393275336,15.8638885230001,0
                104.397054,15.861893847,0
                104.397697305,15.861625239,0
                104.400077634,15.8606313220001,0
                104.400268554,15.860609696,0
                104.40042229,15.8605480050001,0
                104.40057868,15.86047476,0
                104.400670192,15.8604318980001,0
                104.401115325,15.8603166450001,0
                104.401473981,15.860296529,0
                104.402046215,15.8602644370001,0
                104.402272771,15.8602294090001,0
                104.402357255,15.8602005330001,0
                104.402605598,15.860071251,0
                104.402724398,15.8600094060001,0
                104.402965398,15.859842008,0
              </coordinates>
                
            </LinearRing>
            
          </outerBoundaryIs>
        
        </Polygon>
        
      <styleUrl>
        #tambonStyle</styleUrl>
    </Placemark>

  </Document>
</kml>