<?xml version="1.0" encoding="UTF-8"?>
<kml xmlns="http://www.opengis.net/kml/2.2">
  <Document id="tambon_doc">
    <name>พระบาท, เมืองลำปาง, Lampang</name>
    <description>ข้อมูลขอบเขตตำบลพระบาท อำเภอเมืองลำปาง จังหวัดLampang</description>
    
    <!-- Schema สำหรับข้อมูลตำบล -->
    <Schema id="tambon.schema">
      <SimpleField name="ADM3_EN" type="string">
        <displayName>Subdistrict Name (English)</displayName>
      </SimpleField>
      <SimpleField name="ADM3_TH" type="string">
        <displayName>ชื่อตำบล</displayName>
      </SimpleField>
      <SimpleField name="ADM2_EN" type="string">
        <displayName>District Name (English)</displayName>
      </SimpleField>
      <SimpleField name="ADM2_TH" type="string">
        <displayName>ชื่ออำเภอ</displayName>
      </SimpleField>
      <SimpleField name="ADM1_EN" type="string">
        <displayName>Province Name (English)</displayName>
      </SimpleField>
      <SimpleField name="ADM1_TH" type="string">
        <displayName>ชื่อจังหวัด</displayName>
      </SimpleField>
      <SimpleField name="ADM0_EN" type="string">
        <displayName>Country Name (English)</displayName>
      </SimpleField>
      <SimpleField name="ADM0_TH" type="string">
        <displayName>ชื่อประเทศ</displayName>
      </SimpleField>
    </Schema>

    <!-- Style สำหรับตำบล -->
    <Style id="tambonStyle">
      <LineStyle>
        <color>ffff0000</color>
        <width>1.5</width>
      </LineStyle>
      <PolyStyle>
        <color>33ff0000</color>
        <fill>1</fill>
        <outline>1</outline>
      </PolyStyle>
    </Style>

    <Placemark id="Lampang.5">
        
        <ExtendedData>
            
          <SchemaData schemaUrl="#tambon.schema">
                
            <SimpleData name="Shape_Leng">
                0.496793673876</SimpleData>
                
            <SimpleData name="Shape_Area">
                0.00742328620638</SimpleData>
                
            <SimpleData name="ADM3_EN">
                Phrabat</SimpleData>
                
            <SimpleData name="ADM3_TH">
                พระบาท</SimpleData>
                
            <SimpleData name="ADM3_PCODE">
                TH520105</SimpleData>
                
            <SimpleData name="ADM2_EN">
                Mueang Lampang</SimpleData>
                
            <SimpleData name="ADM2_TH">
                เมืองลำปาง</SimpleData>
                
            <SimpleData name="ADM2_PCODE">
                TH5201</SimpleData>
                
            <SimpleData name="ADM1_EN">
                Lampang</SimpleData>
                
            <SimpleData name="ADM1_TH">
                ลำปาง</SimpleData>
                
            <SimpleData name="ADM1_PCODE">
                TH52</SimpleData>
                
            <SimpleData name="ADM0_EN">
                Thailand</SimpleData>
                
            <SimpleData name="ADM0_TH">
                ประเทศไทย</SimpleData>
                
            <SimpleData name="ADM0_PCODE">
                TH</SimpleData>
            
          </SchemaData>
        
        </ExtendedData>
        
        <Polygon>
            
          <outerBoundaryIs>
                
            <LinearRing>
                    
              <coordinates>
                    
                99.6142752470001,18.3136859580001,0
                99.614937276,18.3136604040001,0
                99.615516755,18.3136767710001,0
                99.616404903,18.3137621070001,0
                99.6169699860001,18.313801789,0
                99.617868183,18.3138265530001,0
                99.6182591960001,18.313797618,0
                99.618569752,18.313718786,0
                99.618830125,18.313614177,0
                99.6190397380001,18.313324681,0
                99.6193279710001,18.3129086810001,0
                99.6195299340001,18.312672822,0
                99.620281693,18.312255314,0
                99.6206865950001,18.3120603030001,0
                99.6211340610001,18.311616112,0
                99.6213644410001,18.3112279700001,0
                99.621738984,18.310645661,0
                99.6220564270001,18.310298738,0
                99.622634448,18.3099094630001,0
                99.6236175550001,18.309380504,0
                99.6244324090001,18.3090596260001,0
                99.6252858400001,18.3087247830001,0
                99.625808782,18.3086314080001,0
                99.6262975390001,18.308598676,0
                99.626705024,18.3086232810001,0
                99.6268389420001,18.30795564,0
                99.6269922280001,18.3071343500001,0
                99.6270681540001,18.3065247270001,0
                99.6271705680001,18.3060393810001,0
                99.627325463,18.3056657920001,0
                99.6275971310001,18.305179889,0
                99.627920649,18.3046316350001,0
                99.6282440790001,18.304058506,0
                99.6284636650001,18.303572773,0
                99.6290711890001,18.302352033,0
                99.629634417,18.3014858670001,0
                99.630170036,18.300787676,0
                99.630983036,18.299989076,0
                99.6316061640001,18.299489571,0
                99.6333737750001,18.2986546440001,0
                99.633841444,18.298371209,0
                99.6342563110001,18.297888965,0
                99.6345843180001,18.2973904300001,0
                99.6347222260001,18.297124668,0
                99.6348598870001,18.296792582,0
                99.6349276930001,18.296344655,0
                99.6352152380001,18.2942710070001,0
                99.635160807,18.2936245080001,0
                99.6350373650001,18.2930943120001,0
                99.634739433,18.2923159710001,0
                99.6344407810001,18.2917836840001,0
                99.6337428840001,18.2906110700001,0
                99.633032244,18.290002245,0
                99.6326639820001,18.289620062,0
                99.6322287070001,18.2892567050001,0
                99.6319321810001,18.2888597310001,0
                99.631722143,18.2883795600001,0
                99.6316852030001,18.2877661640001,0
                99.6317518710001,18.287003194,0
                99.6320248530001,18.2856923460001,0
                99.6320568020001,18.28492949,0
                99.6319676730001,18.2842831040001,0
                99.6318094860001,18.2839252310001,0
                99.631300605,18.2830826420001,0
                99.6309029620001,18.2826749700001,0
                99.630494012,18.282415359,0
                99.6297718310001,18.282197432,0
                99.6289567420001,18.282054525,0
                99.6282792700001,18.281907518,0
                99.6278271420001,18.2816768610001,0
                99.6274960410001,18.281313153,0
                99.6271122750001,18.2807838050001,0
                99.6265459200001,18.279966621,0
                99.6259610440001,18.279212327,0
                99.6256317030001,18.2787946820001,0
                99.62492129,18.2780581540001,0
                99.624667188,18.277607087,0
                99.6245510080001,18.2770301580001,0
                99.6246096690001,18.2767351110001,0
                99.6247773810001,18.276506356,0
                99.6253431640001,18.275989345,0
                99.6258610200001,18.2754611710001,0
                99.6260476960001,18.2752515670001,0
                99.6261623670001,18.2749100090001,0
                99.626184165,18.2742309540001,0
                99.626102512,18.2735533750001,0
                99.626054545,18.273070096,0
                99.6259362860001,18.2727626870001,0
                99.625338307,18.272083765,0
                99.625171198,18.271767187,0
                99.6250528100001,18.2714224690001,0
                99.6249439810001,18.271021757,0
                99.624874273,18.2706395750001,0
                99.6249032860001,18.269890149,0
                99.624983892,18.2696108280001,0
                99.6253121060001,18.268958739,0
                99.6289224390001,18.263082679,0
                99.629078785,18.262496958,0
                99.629175446,18.262083154,0
                99.6289815010001,18.25895552,0
                99.6289577490001,18.258570402,0
                99.6288824330001,18.258533087,0
                99.6287146600001,18.25844683,0
                99.627591399,18.2578692930001,0
                99.6253932770001,18.256729047,0
                99.624347318,18.256189098,0
                99.6232855580001,18.255640972,0
                99.622442317,18.2552056500001,0
                99.6218480000001,18.254898831,0
                99.6217982940001,18.254873171,0
                99.6217638800001,18.254855532,0
                99.6195378690001,18.253714668,0
                99.6193027260001,18.253576755,0
                99.6190595100001,18.253438536,0
                99.6189010290001,18.2533377510001,0
                99.618774692,18.2532634890001,0
                99.6186006040001,18.2531517620001,0
                99.618400454,18.2530098990001,0
                99.6180639470001,18.2527742450001,0
                99.6175704220001,18.252428652,0
                99.6169500250001,18.251994353,0
                99.6156320650001,18.2510713890001,0
                99.6151349610001,18.2507268140001,0
                99.6146850280001,18.25041493,0
                99.6145724410001,18.250334491,0
                99.6143899470001,18.2502076060001,0
                99.6138397450001,18.2498213700001,0
                99.6133328600001,18.2494689390001,0
                99.6129728810001,18.249225887,0
                99.6126776980001,18.249031557,0
                99.6124070820001,18.248872002,0
                99.6121860570001,18.24874169,0
                99.6118950150001,18.248583786,0
                99.6114636920001,18.2483602460001,0
                99.6111432330001,18.2482022350001,0
                99.611133092,18.2481969040001,0
                99.610729318,18.2479845830001,0
                99.6105488690001,18.2478952540001,0
                99.610383029,18.247813152,0
                99.6101424670001,18.2476888510001,0
                99.6091061290001,18.2471616920001,0
                99.608336572,18.2467678410001,0
                99.6078791140001,18.246554949,0
                99.6075332510001,18.246412649,0
                99.607040397,18.24623224,0
                99.606549241,18.2460718890001,0
                99.6060930820001,18.245921803,0
                99.60566384,18.245781698,0
                99.6053919270001,18.24569272,0
                99.6051607540001,18.24561708,0
                99.6047750700001,18.2454904460001,0
                99.6043583690001,18.245353643,0
                99.6041125820001,18.245276221,0
                99.602650333,18.2448060300001,0
                99.602621206,18.244796664,0
                99.6023602760001,18.244711141,0
                99.601249474,18.24434705,0
                99.600305436,18.244037801,0
                99.6002898880001,18.244031534,0
                99.599837581,18.243849164,0
                99.5998293850001,18.2438447000001,0
                99.5993851700001,18.2436028110001,0
                99.5990356130001,18.2433625350001,0
                99.598793572,18.243161075,0
                99.59852018,18.242919821,0
                99.5982125800001,18.2425940210001,0
                99.598045862,18.2423776570001,0
                99.5980284180001,18.242355016,0
                99.598020649,18.242343911,0
                99.597643851,18.241805007,0
                99.597521424,18.241650684,0
                99.5974882850001,18.241608915,0
                99.597448005,18.2415464640001,0
                99.597272466,18.2412743130001,0
                99.5970444650001,18.2409230660001,0
                99.5966581550001,18.2401973950001,0
                99.596253168,18.239380625,0
                99.595925445,18.238725286,0
                99.5956314380001,18.2381430130001,0
                99.5953150190001,18.2375005440001,0
                99.5948193660001,18.236502768,0
                99.5945736560001,18.2360026970001,0
                99.5943850420001,18.235618781,0
                99.5942411250001,18.2353258570001,0
                99.5939393350001,18.2347156610001,0
                99.5937212010001,18.2342950560001,0
                99.5937079700001,18.234272294,0
                99.5935313950001,18.233968539,0
                99.593291278,18.2335867030001,0
                99.5930169200001,18.23320331,0
                99.5927541760001,18.2328492720001,0
                99.592429231,18.2324090390001,0
                99.5921820120001,18.232068456,0
                99.591979908,18.231788775,0
                99.5918283890001,18.231581314,0
                99.5909912260001,18.230440549,0
                99.590117535,18.229250473,0
                99.5898050340001,18.228822071,0
                99.5892652100001,18.228082038,0
                99.588477857,18.2270099420001,0
                99.5871522070001,18.225203665,0
                99.586401869,18.2241812670001,0
                99.5858033540001,18.223365734,0
                99.5846817250001,18.22183305,0
                99.5841777960001,18.2211455080001,0
                99.5830613250001,18.219625487,0
                99.5823091620001,18.21858997,0
                99.5816582720001,18.2177058880001,0
                99.5815148170001,18.2175109950001,0
                99.5811881980001,18.217067292,0
                99.5811393000001,18.2169995890001,0
                99.5808547290001,18.216605574,0
                99.5807405630001,18.2164643950001,0
                99.5806660160001,18.216372221,0
                99.5806197220001,18.2163022080001,0
                99.5805254400001,18.216159621,0
                99.5801258750001,18.215609452,0
                99.579953829,18.215373492,0
                99.579788245,18.215146405,0
                99.5795375870001,18.21482595,0
                99.579362216,18.214647653,0
                99.579164812,18.214446954,0
                99.579070583,18.214373758,0
                99.5788810830001,18.214226539,0
                99.5786304170001,18.2140748960001,0
                99.5783286450001,18.213929208,0
                99.578126319,18.2138553630001,0
                99.577986906,18.2138129210001,0
                99.577795398,18.213754619,0
                99.577785722,18.213751675,0
                99.5775225940001,18.213697805,0
                99.577387457,18.213684077,0
                99.5772645370001,18.213671585,0
                99.5771960200001,18.213664625,0
                99.576786139,18.2136462820001,0
                99.576466194,18.2136417520001,0
                99.576392093,18.213640705,0
                99.5760640410001,18.2136325810001,0
                99.5757632660001,18.2136251310001,0
                99.575403887,18.2136128880001,0
                99.574947158,18.213593249,0
                99.5747733520001,18.213576978,0
                99.574770921,18.2140266330001,0
                99.574766035,18.214321442,0
                99.5747629830001,18.2148787880001,0
                99.574714106,18.2153694530001,0
                99.5746059320001,18.215739679,0
                99.574405282,18.216134304,0
                99.5742044200001,18.216464597,0
                99.573978287,18.216786928,0
                99.573743527,18.2170449490001,0
                99.5735172110001,18.2173109890001,0
                99.5731230260001,18.217706192,0
                99.5729383540001,18.217843443,0
                99.5727703570001,18.217932401,0
                99.5726358850001,18.217981052,0
                99.572382491,18.2180089450001,0
                99.572148993,18.218009642,0
                99.5718525990001,18.2180768700001,0
                99.571714076,18.218173779,0
                99.5716324900001,18.2183127330001,0
                99.5715633820001,18.218409434,0
                99.5714941210001,18.2184578860001,0
                99.5713742200001,18.218458243,0
                99.5711217090001,18.218434874,0
                99.5710018810001,18.218459352,0
                99.570926328,18.21851386,0
                99.5707690690001,18.218671134,0
                99.57060778,18.2188035390001,0
                99.5703293400001,18.219053144,0
                99.570211451,18.2191891910001,0
                99.5701360880001,18.2193024960001,0
                99.570013278,18.2193797570001,0
                99.5697864570001,18.2194935110001,0
                99.5696495340001,18.219597955,0
                99.569593135,18.21972025,0
                99.569541803,18.2199465620001,0
                99.5694854640001,18.2200869500001,0
                99.5693910950001,18.220177693,0
                99.5692257100001,18.2202641270001,0
                99.5689844680001,18.2203100740001,0
                99.5687527810001,18.220383133,0
                99.568483459,18.2205286770001,0
                99.5682379190001,18.2207103330001,0
                99.5679640870001,18.2209237340001,0
                99.567600354,18.2212286220001,0
                99.567315169,18.221510912,0
                99.567197938,18.22168817,0
                99.5671058710001,18.221841225,0
                99.5670646060001,18.2220906260001,0
                99.5669809820001,18.222251703,0
                99.5668131570001,18.2223969390001,0
                99.566662244,18.222566252,0
                99.566595497,18.22274336,0
                99.5664454670001,18.223186072,0
                99.5661526700001,18.2237176670001,0
                99.565792602,18.2242655370001,0
                99.5654404050001,18.2246445170001,0
                99.5651968720001,18.224798019,0
                99.5649278600001,18.2248792250001,0
                99.564667108,18.22491216,0
                99.564423289,18.2249772050001,0
                99.5641794410001,18.225034211,0
                99.5639018310001,18.2250591530001,0
                99.563710079,18.2250949780001,0
                99.5636831780001,18.2251000040001,0
                99.563538781,18.225164916,0
                99.5634310980001,18.225213324,0
                99.5631455160001,18.2253749870001,0
                99.5629694530001,18.225576538,0
                99.5626340250001,18.2259393800001,0
                99.5624913840001,18.22606846,0
                99.5623401280001,18.2261332320001,0
                99.5620624900001,18.2261501300001,0
                99.5617260280001,18.226191322,0
                99.5614401280001,18.2262564930001,0
                99.561162519,18.226281428,0
                99.5608850870001,18.226362652,0
                99.560692009,18.226507962,0
                99.5604573990001,18.2268222600001,0
                99.5601389990001,18.2272493770001,0
                99.5597702100001,18.2277088110001,0
                99.5594265610001,18.2281360000001,0
                99.5589903210001,18.228555424,0
                99.5587475230001,18.228942112,0
                99.55852989,18.229304604,0
                99.5583879610001,18.2296588360001,0
                99.558346682,18.229908235,0
                99.5583474000001,18.23013339,0
                99.55843214,18.2303180930001,0
                99.5584665960001,18.230567272,0
                99.5584756540001,18.2307682800001,0
                99.5584344750001,18.2310498460001,0
                99.558376394,18.2313073340001,0
                99.5582589670001,18.231428298,0
                99.5580487700001,18.2314852000001,0
                99.5577793570001,18.231445778,0
                99.557518056,18.2313098330001,0
                99.5573070130001,18.231101376,0
                99.557171424,18.230804243,0
                99.5570431780001,18.230169351,0
                99.5570317240001,18.2296551860001,0
                99.5568950830001,18.229026579,0
                99.5568194200001,18.2287551810001,0
                99.5566993790001,18.2286411630001,0
                99.5565045800001,18.2285416570001,0
                99.5562497180001,18.22837085,0
                99.556128996,18.2280423990001,0
                99.555902598,18.227414051,0
                99.5557511860001,18.2268426630001,0
                99.555675481,18.226556967,0
                99.555480049,18.2262573260001,0
                99.5548799420001,18.2257158300001,0
                99.5545198230001,18.2253737770001,0
                99.5541602070001,18.225188971,0
                99.553740841,18.2250329290001,0
                99.553456112,18.2248765030001,0
                99.5533506720001,18.2246480760001,0
                99.5533497230001,18.224347869,0
                99.5533788700001,18.22410476,0
                99.5534821850001,18.223661296,0
                99.553570769,18.2232893500001,0
                99.5535700460001,18.223060624,0
                99.5534496500001,18.222832241,0
                99.553149014,18.222375646,0
                99.5530881820001,18.222061319,0
                99.5530870530001,18.2217039280001,0
                99.5532646670001,18.2211029970001,0
                99.553467104,18.2205354980001,0
                99.5535760590001,18.220230062,0
                99.5535901120001,18.21994411,0
                99.5534697140001,18.2197157270001,0
                99.5531846330001,18.219444934,0
                99.552853955,18.2189455380001,0
                99.5526520210001,18.218358209,0
                99.5522795540001,18.2176516440001,0
                99.5519980940001,18.217341527,0
                99.5518185550001,18.217331319,0
                99.55181543,18.2173334660001,0
                99.5517650290001,18.217817462,0
                99.5516166560001,18.218203869,0
                99.5513338710001,18.218662146,0
                99.5509908070001,18.218977635,0
                99.5505278370001,18.2192219940001,0
                99.550226222,18.2193779900001,0
                99.5499618090001,18.2195838010001,0
                99.5495521890001,18.2197719380001,0
                99.5490290870001,18.219996581,0
                99.548587587,18.2200822790001,0
                99.5482721530001,18.2201193660001,0
                99.547969234,18.2201202320001,0
                99.547628348,18.2200910550001,0
                99.5473317930001,18.220109989,0
                99.5471741730001,18.2201586900001,0
                99.5469034230001,18.2203584860001,0
                99.5466704280001,18.2205219850001,0
                99.5465129200001,18.2206068680001,0
                99.5463237610001,18.220661686,0
                99.5461912330001,18.2206620630001,0
                99.546039712,18.220644404,0
                99.5458375580001,18.220578636,0
                99.5456987150001,18.220579032,0
                99.5455599900001,18.2206156140001,0
                99.5453583,18.220700623,0
                99.545209152,18.220767386,0
                99.5449819940001,18.220780093,0
                99.5448177970001,18.2207443770001,0
                99.5446912230001,18.2206301470001,0
                99.544488657,18.2204316990001,0
                99.5442674010001,18.2203117080001,0
                99.5440399240001,18.220221887,0
                99.5437111750001,18.220035856,0
                99.5432557230001,18.219693384,0
                99.5429581440001,18.2193806130001,0
                99.542578216,18.2189715800001,0
                99.542261592,18.218622678,0
                99.5420338210001,18.2184363640001,0
                99.541850492,18.218334354,0
                99.5416569450001,18.2182894480001,0
                99.5414548320001,18.2182357360001,0
                99.5411262010001,18.2180858890001,0
                99.5407153260001,18.217869937,0
                99.540386567,18.2176778670001,0
                99.5401676650001,18.2174885700001,0
                99.5400074520001,18.2173363630001,0
                99.539904311,18.217272198,0
                99.5397905510001,18.21721824,0
                99.53964842,18.217174539,0
                99.5394316210001,18.2170903360001,0
                99.539255386,18.21701341,0
                99.5392076790001,18.2169925850001,0
                99.5390883950001,18.2169226670001,0
                99.5388241950001,18.2167198670001,0
                99.5386747510001,18.2166057920001,0
                99.538602709,18.2165551050001,0
                99.5385387680001,18.216540019,0
                99.538386986,18.2165328130001,0
                99.538240472,18.216505238,0
                99.538131181,18.216462289,0
                99.5380137710001,18.2163761140001,0
                99.5378857050001,18.2162874200001,0
                99.5375950950001,18.2161533870001,0
                99.5373497620001,18.216024313,0
                99.5372190730001,18.215948348,0
                99.5369685620001,18.21586763,0
                99.536742012,18.215786845,0
                99.5365474640001,18.215723784,0
                99.536459543,18.215703675,0
                99.5363716950001,18.215706465,0
                99.5363051580001,18.2157142830001,0
                99.536169456,18.2157401060001,0
                99.5361162010001,18.21573771,0
                99.536057569,18.2157175190001,0
                99.535982861,18.215664297,0
                99.5359081340001,18.215605988,0
                99.535846834,18.2155832600001,0
                99.5357749410001,18.2155809170001,0
                99.535652472,18.215581259,0
                99.5354740160001,18.2155563110001,0
                99.535228955,18.2155162870001,0
                99.5349918890001,18.215478784,0
                99.534877335,18.2154536620001,0
                99.534760191,18.215453989,0
                99.5345792360001,18.2154824790001,0
                99.5343690080001,18.215516141,0
                99.5341561600001,18.2155625340001,0
                99.5340018860001,18.2156087610001,0
                99.533736047,18.2157392610001,0
                99.5334303540001,18.2158978620001,0
                99.533260221,18.215982296,0
                99.533161846,18.216025825,0
                99.533007507,18.2160516970001,0
                99.53285327,18.216110643,0
                99.532635295,18.216223197,0
                99.532273633,18.216361595,0
                99.531845338,18.2164772790001,0
                99.531465068,18.216625907,0
                99.5311300340001,18.2167667730001,0
                99.5309971240001,18.2168358390001,0
                99.5309281130001,18.2169047240001,0
                99.53088561,18.2169353730001,0
                99.530832397,18.2169482460001,0
                99.5307952420001,18.2169865120001,0
                99.5307421540001,18.217040089,0
                99.5306517260001,18.2170708740001,0
                99.530545288,18.2170889770001,0
                99.530462754,18.217089205,0
                99.5303880930001,18.2170512450001,0
                99.5303236380001,18.217014529,0
                99.5302064210001,18.21699111,0
                99.530103447,18.2169812130001,0
                99.5299472730001,18.216988434,0
                99.529858559,18.216998855,0
                99.5297876670001,18.217032976,0
                99.529731063,18.2170975870001,0
                99.5296993630001,18.2171790940001,0
                99.5296429220001,18.217297984,0
                99.5295438460001,18.217403425,0
                99.529458811,18.217457939,0
                99.529399089,18.2174724880001,0
                99.5291920710001,18.2174666970001,0
                99.5290462780001,18.217457559,0
                99.5289704290001,18.217467309,0
                99.5288707070001,18.2175076570001,0
                99.5287172530001,18.2176073100001,0
                99.528573812,18.2177145680001,0
                99.52849417,18.217791119,0
                99.5284465330001,18.217886661,0
                99.528395145,18.218062359,0
                99.5283336150001,18.2181846610001,0
                99.528265913,18.218247816,0
                99.528152252,18.2182996510001,0
                99.5279906420001,18.2183439900001,0
                99.527838962,18.2183692130001,0
                99.527685251,18.218382994,0
                99.5276775240001,18.2183841990001,0
                99.5275235830001,18.218408245,0
                99.5271723540001,18.2184779090001,0
                99.5268730010001,18.2185340720001,0
                99.5267153240001,18.218557403,0
                99.5265855160001,18.218552033,0
                99.5264896570001,18.2185484840001,0
                99.526321979,18.218566115,0
                99.526200223,18.218583622,0
                99.5260964730001,18.2186106240001,0
                99.5260366570001,18.218641323,0
                99.525966919,18.2186911250001,0
                99.5258971810001,18.2187409310001,0
                99.5257994310001,18.218771733,0
                99.5257136640001,18.2188044070001,0
                99.5255740270001,18.218850586,0
                99.5254722560001,18.218873767,0
                99.5253245330001,18.2188875310001,0
                99.5252507010001,18.218902997,0
                99.5249914010001,18.21899912,0
                99.524698077,18.2190686160001,0
                99.5245623470001,18.219086165,0
                99.5244864590001,18.219084465,0
                99.52442253,18.219073189,0
                99.524364501,18.2190332770001,0
                99.5243163900001,18.2189704350001,0
                99.5241738060001,18.218699853,0
                99.524053376,18.218492182,0
                99.524007129,18.2183854470001,0
                99.5239629200001,18.218292064,0
                99.5239067140001,18.2181929870001,0
                99.523878558,18.2181262770001,0
                99.523850307,18.218027125,0
                99.523699707,18.217747026,0
                99.5235672100001,18.217510765,0
                99.5235359160001,18.2174684600001,0
                99.5235150830001,18.217440299,0
                99.5234309900001,18.217364198,0
                99.5233748430001,18.2172842050001,0
                99.5233366090001,18.217185081,0
                99.523266398,18.2170784100001,0
                99.5231920700001,18.216927861,0
                99.523147753,18.216798222,0
                99.5230793910001,18.216640023,0
                99.5230230110001,18.2164837,0
                99.5229886690001,18.216350216,0
                99.5229464270001,18.2162472850001,0
                99.522872217,18.2161368120001,0
                99.522782093,18.216047368,0
                99.5226919190001,18.2159407510001,0
                99.5226276600001,18.215818799,0
                99.5225852440001,18.2156567100001,0
                99.5225808420001,18.2155193300001,0
                99.5225802670001,18.215326599,0
                99.52257812,18.215276988,0
                99.5225560580001,18.215244612,0
                99.52250804,18.2152123000001,0
                99.522426081,18.2151819910001,0
                99.522358141,18.2151650050001,0
                99.5222801840001,18.21513659,0
                99.5222057010001,18.215098524,0
                99.5218660620001,18.2148811650001,0
                99.521706931,18.2150999080001,0
                99.5214612020001,18.2154396510001,0
                99.5213254550001,18.215627327,0
                99.5209756730001,18.216113842,0
                99.5207504430001,18.2164285650001,0
                99.5204835070001,18.216801553,0
                99.5202303230001,18.2171498820001,0
                99.5199959110001,18.2174625870001,0
                99.519344813,18.218354752,0
                99.5190920200001,18.218701132,0
                99.5186022880001,18.219373949,0
                99.518200064,18.219926996,0
                99.517607565,18.2207416300001,0
                99.5173141290001,18.2211450880001,0
                99.5168154630001,18.2218323920001,0
                99.5163410800001,18.2224864410001,0
                99.5157896010001,18.22324675,0
                99.515396863,18.223788213,0
                99.5148177350001,18.2245866430001,0
                99.5143476430001,18.225232396,0
                99.5139508710001,18.22577649,0
                99.5136176540001,18.2262395870001,0
                99.5131069760001,18.2269351800001,0
                99.511963602,18.2285042930001,0
                99.510323434,18.230763188,0
                99.509176047,18.2323323000001,0
                99.5080602450001,18.2338786220001,0
                99.506636809,18.235826724,0
                99.5054026490001,18.2375284350001,0
                99.5039160740001,18.2395674700001,0
                99.5020035490001,18.242178804,0
                99.500700453,18.2439931590001,0
                99.5005445900001,18.2442101770001,0
                99.499089444,18.246203698,0
                99.4978148380001,18.247945578,0
                99.496991801,18.2490754620001,0
                99.4965622240001,18.249663508,0
                99.4959081870001,18.2505588070001,0
                99.4957629500001,18.2507597740001,0
                99.4947283060001,18.2521915240001,0
                99.494248263,18.2528554950001,0
                99.4936289140001,18.25370722,0
                99.4933078390001,18.254142743,0
                99.492557305,18.2551657870001,0
                99.4922999570001,18.2555189,0
                99.4919125970001,18.256047758,0
                99.4914655460001,18.2566606980001,0
                99.490874751,18.2574794230001,0
                99.4901748070001,18.2584377210001,0
                99.489320816,18.25961434,0
                99.488330229,18.2609720470001,0
                99.4878564140001,18.261627581,0
                99.487445022,18.2621919220001,0
                99.487022208,18.2627710410001,0
                99.4867479120001,18.263148791,0
                99.486431134,18.2635835,0
                99.4860783190001,18.2640557510001,0
                99.4856005930001,18.264719423,0
                99.484998767,18.265545112,0
                99.483880974,18.2670786460001,0
                99.4834499230001,18.267669402,0
                99.4826056780001,18.268825217,0
                99.4822329680001,18.269354508,0
                99.482227929,18.2693616610001,0
                99.4821262670001,18.2695060180001,0
                99.480617678,18.271591186,0
                99.4795196650001,18.27309738,0
                99.4816261570001,18.274656669,0
                99.48398352,18.276383357,0
                99.486400808,18.2780765040001,0
                99.4871819310001,18.2786802950001,0
                99.4877330630001,18.279078429,0
                99.4886007860001,18.2797087370001,0
                99.4889840490001,18.2799663500001,0
                99.489274105,18.280154311,0
                99.48960408,18.2803335950001,0
                99.4899294160001,18.280500852,0
                99.4902586630001,18.280649915,0
                99.4904741570001,18.280734411,0
                99.4907403720001,18.2808294600001,0
                99.4909446870001,18.28089448,0
                99.491103932,18.2809404550001,0
                99.491291393,18.2809879110001,0
                99.491530842,18.2810448500001,0
                99.4918756050001,18.2811063080001,0
                99.4919832470001,18.281124759,0
                99.492240596,18.2811545170001,0
                99.4925155440001,18.281178357,0
                99.4926096770001,18.2811851280001,0
                99.492756887,18.2811957210001,0
                99.493031016,18.281210903,0
                99.4936272200001,18.2812466020001,0
                99.4945311160001,18.281303123,0
                99.4954468110001,18.281362845,0
                99.4962690190001,18.2814121930001,0
                99.4968302340001,18.2814465980001,0
                99.4981417880001,18.281529247,0
                99.4984059720001,18.2815398920001,0
                99.4984261640001,18.281540708,0
                99.4995554610001,18.281596452,0
                99.4997431950001,18.281612339,0
                99.50087109,18.281685457,0
                99.5034464840001,18.281841899,0
                99.5046039590001,18.281907893,0
                99.5051962650001,18.281945563,0
                99.505652189,18.2819702520001,0
                99.506455831,18.282019592,0
                99.507064379,18.282067731,0
                99.507653437,18.28211795,0
                99.507924599,18.2821572460001,0
                99.5081094970001,18.282189712,0
                99.508294414,18.2822292380001,0
                99.5085410130001,18.2822944870001,0
                99.508886289,18.282399495,0
                99.5092439380001,18.282523301,0
                99.5093894870001,18.282581759,0
                99.5096213900001,18.28267765,0
                99.5098952960001,18.2828110940001,0
                99.510110018,18.2829305700001,0
                99.5101428440001,18.2829487880001,0
                99.5102704400001,18.283019591,0
                99.510376588,18.283085214,0
                99.510524714,18.283181332,0
                99.5107716040001,18.2833454450001,0
                99.511035855,18.283549528,0
                99.511334757,18.2838029480001,0
                99.5115645340001,18.284014186,0
                99.511752368,18.2842067010001,0
                99.5119699400001,18.2844556320001,0
                99.5121875670001,18.2847233950001,0
                99.5123879530001,18.2849935570001,0
                99.5126849640001,18.285442355,0
                99.5130761770001,18.286083918,0
                99.5134451360001,18.2866972950001,0
                99.5137175350001,18.2871532200001,0
                99.514470251,18.2883799310001,0
                99.516162954,18.291133842,0
                99.5163210760001,18.2910700850001,0
                99.516422413,18.2910201880001,0
                99.51648757,18.290970762,0
                99.5165217730001,18.2909148520001,0
                99.51652154,18.2908360540001,0
                99.5165110090001,18.290760569,0
                99.5164799190001,18.290708119,0
                99.5164385340001,18.290662264,0
                99.5163696600001,18.290616486,0
                99.51622165,18.2905446550001,0
                99.5161837160001,18.2905020740001,0
                99.5161732280001,18.2904430020001,0
                99.516186825,18.290390431,0
                99.5162243990001,18.290311532,0
                99.516279206,18.290249004,0
                99.5163129320001,18.2902299150001,0
                99.5163135190001,18.2902292090001,0
                99.5163186390001,18.290226035,0
                99.5164198750001,18.290163254,0
                99.5164843800001,18.2901524500001,0
                99.516519498,18.290146572,0
                99.516562385,18.29014928,0
                99.5166191930001,18.2901528690001,0
                99.516722363,18.2901722880001,0
                99.516797425,18.2901899990001,0
                99.5168186720001,18.290195012,0
                99.5168977220001,18.2901947990001,0
                99.5169534650001,18.2901806240001,0
                99.5169629810001,18.290178204,0
                99.516971776,18.290170457,0
                99.5170041160001,18.2901419770001,0
                99.517024635,18.2901058050001,0
                99.5170416620001,18.290053229,0
                99.517041175,18.289889064,0
                99.517051128,18.289767555,0
                99.517054096,18.2897624760001,0
                99.5170819050001,18.289714938,0
                99.5171230300001,18.289675431,0
                99.5171985380001,18.2896391100001,0
                99.5172775350001,18.289619197,0
                99.5173291200001,18.289628905,0
                99.517370439,18.2896550580001,0
                99.517415316,18.289720607,0
                99.517428103,18.2897654510001,0
                99.5174396300001,18.289805905,0
                99.5174742180001,18.289878043,0
                99.5175431040001,18.2899271060001,0
                99.5176153100001,18.2899367570001,0
                99.5176874620001,18.289926715,0
                99.5177285880001,18.289887203,0
                99.517769613,18.2897846000001,0
                99.5177811720001,18.289723963,0
                99.5177932170001,18.289660483,0
                99.5178377820001,18.2896209620001,0
                99.5178721360001,18.2896143020001,0
                99.5179099430001,18.289614199,0
                99.518006266,18.289643487,0
                99.5180715710001,18.28964331,0
                99.518123071,18.2896234730001,0
                99.518153898,18.289587274,0
                99.5181674600001,18.2895248520001,0
                99.5181843440001,18.289423028,0
                99.5182151370001,18.2893769780001,0
                99.5182769070001,18.2893439740001,0
                99.5183834840001,18.2893535370001,0
                99.5185177440001,18.289425405,0
                99.5186900250001,18.289569402,0
                99.518707464,18.289577669,0
                99.518786403,18.2896151080001,0
                99.518865492,18.2896280260001,0
                99.5189125580001,18.2896184260001,0
                99.51893076,18.2896147160001,0
                99.519013133,18.2895750920001,0
                99.51910223,18.2894861990001,0
                99.519122978,18.2894634200001,0
                99.5191816980001,18.2893989470001,0
                99.519198154,18.2893808750001,0
                99.5192564760001,18.2893446,0
                99.519317582,18.2893411900001,0
                99.519317958,18.2893411690001,0
                99.5193183330001,18.2893411470001,0
                99.5193231480001,18.289342345,0
                99.5193824680001,18.289357082,0
                99.5194490410001,18.2893736280001,0
                99.5195488530001,18.2894193240001,0
                99.519569033,18.289439558,0
                99.5196109030001,18.289481535,0
                99.5196695700001,18.2895601750001,0
                99.5196972900001,18.289635612,0
                99.5197150640001,18.2898325620001,0
                99.519742852,18.289930983,0
                99.5198048080001,18.2899603650001,0
                99.5198770140001,18.2899700200001,0
                99.5199251340001,18.2899698890001,0
                99.519993759,18.289930301,0
                99.5200656230001,18.2898250420001,0
                99.520126981,18.289654146,0
                99.520157323,18.2895273410001,0
                99.520201666,18.2893420290001,0
                99.520245779,18.2891514830001,0
                99.5202900290001,18.2890068930001,0
                99.5203648990001,18.2887571630001,0
                99.5203715090001,18.288668494,0
                99.520357527,18.288589733,0
                99.5203298550001,18.288530709,0
                99.520295242,18.288448724,0
                99.5202778700001,18.2883863860001,0
                99.5202879820001,18.2883206970001,0
                99.520335662,18.2881728180001,0
                99.5203801760001,18.2881168820001,0
                99.5204488400001,18.288090427,0
                99.5205141710001,18.2881001000001,0
                99.5205486520001,18.288136121,0
                99.520559156,18.2882017590001,0
                99.520552546,18.288290428,0
                99.5205528100001,18.2883790760001,0
                99.5205701550001,18.288431557,0
                99.5206046800001,18.2884839970001,0
                99.520673527,18.288519926,0
                99.520819008,18.288550394,0
                99.520826383,18.288551937,0
                99.5208273380001,18.2885521360001,0
                99.520938308,18.2885618870001,0
                99.521006979,18.2885387160001,0
                99.5210687300001,18.2884991510001,0
                99.5211406110001,18.2884004540001,0
                99.5212366120001,18.288321394,0
                99.5213635300001,18.288235684,0
                99.5214425200001,18.288215768,0
                99.521518115,18.288208996,0
                99.5215765240001,18.288202266,0
                99.521621113,18.2881693140001,0
                99.5216381850001,18.2881331510001,0
                99.521624251,18.288070808,0
                99.5215932290001,18.288041343,0
                99.5215381620001,18.2880152280001,0
                99.5214350100001,18.288002374,0
                99.521366179,18.287973015,0
                99.5213385280001,18.2879205560001,0
                99.521338224,18.2878187760001,0
                99.5213447740001,18.28771041,0
                99.5213411180001,18.287638187,0
                99.5213201050001,18.2875069140001,0
                99.5213195650001,18.2873263340001,0
                99.5213262130001,18.2872508030001,0
                99.5213466910001,18.2872014980001,0
                99.5213844,18.2871685590001,0
                99.5214771380001,18.2871486080001,0
                99.5216008620001,18.287144986,0
                99.5216987960001,18.287138699,0
                99.521996399,18.2870459550001,0
                99.5220125600001,18.287038969,0
                99.5222206590001,18.286949033,0
                99.5224399190001,18.2867120390001,0
                99.5225540270001,18.286558504,0
                99.5226040420001,18.2864270360001,0
                99.5226265370001,18.2862868890001,0
                99.522610457,18.286082822,0
                99.522610259,18.286016691,0
                99.5226100930001,18.2859613420001,0
                99.522633828,18.2858529320001,0
                99.5227261250001,18.285685233,0
                99.5228903120001,18.285422119,0
                99.523061166,18.2850900400001,0
                99.5231533560001,18.284886225,0
                99.523242429,18.284790764,0
                99.523345335,18.2847215360001,0
                99.523410567,18.284698372,0
                99.5235204090001,18.2846521050001,0
                99.523654041,18.284513846,0
                99.5236950560001,18.284438215,0
                99.5236982280001,18.2843495610001,0
                99.5236984580001,18.2842351890001,0
                99.523698208,18.2841520150001,0
                99.523734527,18.2840380960001,0
                99.5237798520001,18.283871617,0
                99.5238162250001,18.2837752070001,0
                99.523866528,18.283740052,0
                99.523939741,18.283704829,0
                99.5241046350001,18.2836781070001,0
                99.5243290270001,18.283624963,0
                99.5245029770001,18.2835631940001,0
                99.524547694,18.2835300460001,0
                99.5245526960001,18.283524207,0
                99.524727467,18.283352999,0
                99.524967142,18.2830502750001,0
                99.52514849,18.282780551,0
                99.5255794070001,18.282070177,0
                99.5256616650001,18.281994438,0
                99.5257475170001,18.281971217,0
                99.5258884620001,18.281980678,0
                99.5263069690001,18.2820333380001,0
                99.5264077990001,18.2820374360001,0
                99.5265085330001,18.2820108930001,0
                99.526610711,18.2819551630001,0
                99.5267737830001,18.281830675,0
                99.5269613190001,18.281716338,0
                99.5272633710001,18.2815841770001,0
                99.5277805200001,18.2813594880001,0
                99.528055157,18.281253662,0
                99.528215489,18.2812357080001,0
                99.5283850430001,18.2812352390001,0
                99.5284859650001,18.2812699840001,0
                99.528651186,18.281352704,0
                99.528788848,18.2814136100001,0
                99.528907996,18.28141328,0
                99.5290362110001,18.281382282,0
                99.529150508,18.2812944140001,0
                99.5292372580001,18.2811891060001,0
                99.52932387,18.281038568,0
                99.5294104870001,18.280889485,0
                99.5294699120001,18.2808411660001,0
                99.5298131850001,18.2807045050001,0
                99.529991561,18.280590192,0
                99.5300601110001,18.280528711,0
                99.5300965210001,18.2804454380001,0
                99.5300884110001,18.280290779,0
                99.5301431760001,18.2802162080001,0
                99.530260598,18.2801516750001,0
                99.5304588220001,18.280035845,0
                99.530850591,18.2797735570001,0
                99.5309418420001,18.279641973,0
                99.5310238470001,18.279484144,0
                99.531061633,18.279351251,0
                99.5311512700001,18.2789416860001,0
                99.531223788,18.27867882,0
                99.53129857,18.278406466,0
                99.5313665210001,18.2781479930001,0
                99.5314528550001,18.2779069800001,0
                99.5315531080001,18.277722839,0
                99.5316764230001,18.277586785,0
                99.5318319680001,18.277503176,0
                99.5319785020001,18.277467745,0
                99.5320838540001,18.2774543200001,0
                99.5322258580001,18.277436414,0
                99.532523687,18.2774268320001,0
                99.5327160250001,18.277386898,0
                99.5328212620001,18.277334071,0
                99.532848373,18.2773092050001,0
                99.5329217940001,18.277241856,0
                99.53297645,18.2771322610001,0
                99.532998923,18.276987735,0
                99.5329984420001,18.2768301400001,0
                99.532965973,18.276703277,0
                99.5329103330001,18.2764889270001,0
                99.532896199,18.276362013,0
                99.5329370760001,18.2762436990001,0
                99.533005626,18.2761822210001,0
                99.5331338920001,18.276168731,0
                99.533275947,18.276168335,0
                99.533498486,18.276227244,0
                99.5338165320001,18.276335315,0
                99.5341674220001,18.276528897,0
                99.534860828,18.2768382620001,0
                99.5351706820001,18.276930785,0
                99.535260318,18.276938316,0
                99.535374366,18.2769379970001,0
                99.535504496,18.276867591,0
                99.5356585640001,18.276633684,0
                99.535772325,18.276539972,0
                99.53590267,18.276539606,0
                99.5363102090001,18.2766085100001,0
                99.5365464550001,18.276607847,0
                99.536676728,18.276584131,0
                99.536790565,18.2765137700001,0
                99.5368799570001,18.2764434750001,0
                99.5370423370001,18.2762640190001,0
                99.5371639130001,18.2760613300001,0
                99.5373906460001,18.275617088,0
                99.5375441720001,18.275318649,0
                99.537720527,18.275049654,0
                99.5379093560001,18.274862338,0
                99.5380495030001,18.2747393700001,0
                99.5385680590001,18.274486923,0
                99.5389828190001,18.274258113,0
                99.5394950340001,18.273929803,0
                99.539824093,18.2736487,0
                99.5400188460001,18.2734029970001,0
                99.540304667,18.2729702570001,0
                99.5405056180001,18.272753724,0
                99.540688548,18.2726364660001,0
                99.5409389740001,18.272612413,0
                99.5412505670001,18.272611532,0
                99.5416724450001,18.272709567,0
                99.5418043920001,18.2727173230001,0
                99.5419876280001,18.2727280940001,0
                99.5420513230001,18.2727318390001,0
                99.5426376380001,18.272660135,0
                99.5428513140001,18.272606995,0
                99.543052806,18.2725655620001,0
                99.5433211980001,18.272424717,0
                99.543540948,18.2723598860001,0
                99.5437913870001,18.272341661,0
                99.5440907660001,18.2723408100001,0
                99.544292366,18.2723344030001,0
                99.544463125,18.272234688,0
                99.5445605570001,18.2721293430001,0
                99.5446091250001,18.272029977,0
                99.544627108,18.2719190240001,0
                99.5446265610001,18.271743918,0
                99.544607596,18.27153968,0
                99.5446132100001,18.271382067,0
                99.5447162190001,18.2711074380001,0
                99.544825571,18.2709086720001,0
                99.5450387920001,18.2707096080001,0
                99.5453009230001,18.27052208,0
                99.54577634,18.270158832,0
                99.5459040250001,18.269960014,0
                99.54593026,18.2698956460001,0
                99.5459707190001,18.2697963890001,0
                99.546049522,18.2695977060001,0
                99.5461462710001,18.269276403,0
                99.546255224,18.2689492220001,0
                99.5463769740001,18.2688087880001,0
                99.5465659700001,18.268679837,0
                99.546748983,18.268591757,0
                99.5469869460001,18.2684918520001,0
                99.5470965680001,18.268380633,0
                99.5471390270001,18.268281287,0
                99.5471691340001,18.268141116,0
                99.5471930080001,18.2679601,0
                99.5472900820001,18.267743855,0
                99.5474483250001,18.267550783,0
                99.5475945490001,18.2674219520001,0
                99.547929878,18.2671991890001,0
                99.54829564,18.2669413150001,0
                99.548576004,18.2667245480001,0
                99.548898996,18.266466796,0
                99.549075917,18.2663845710001,0
                99.5492895450001,18.266319751,0
                99.5497356550001,18.266205702,0
                99.5503517480001,18.266048201,0
                99.550558956,18.26588417,0
                99.5506257930001,18.265767237,0
                99.5506498230001,18.2656387550001,0
                99.5506065970001,18.265492957,0
                99.5505565180001,18.2652847950001,0
                99.5505303990001,18.264974458,0
                99.550590964,18.264805014,0
                99.550682269,18.264699684,0
                99.5510544320001,18.2645351790001,0
                99.5515243580001,18.2643762280001,0
                99.5517071620001,18.264223943,0
                99.551993585,18.263995477,0
                99.5522613080001,18.2636503260001,0
                99.5523998560001,18.263499385,0
                99.552769928,18.2633981650001,0
                99.5534564380001,18.2634898420001,0
                99.555304124,18.2639371720001,0
                99.5563022160001,18.264386963,0
                99.5573296210001,18.2651425610001,0
                99.5574649930001,18.265242121,0
                99.5582847140001,18.26611388,0
                99.558566172,18.267268189,0
                99.558878253,18.267782402,0
                99.559632294,18.2685450820001,0
                99.559894667,18.2688408970001,0
                99.559995244,18.2690237,0
                99.5600918850001,18.2691993460001,0
                99.560353961,18.2694015110001,0
                99.560631927,18.2694631360001,0
                99.5609912830001,18.2694308600001,0
                99.5615626960001,18.2692886950001,0
                99.562492562,18.2688332760001,0
                99.5628844440001,18.2687540760001,0
                99.563243647,18.268674972,0
                99.564011678,18.2687039250001,0
                99.5646324580001,18.268670878,0
                99.5653017490001,18.268481582,0
                99.5655330650001,18.268380306,0
                99.565878265,18.2681601620001,0
                99.566092745,18.268023934,0
                99.5661793850001,18.2679689030001,0
                99.566321536,18.2679140920001,0
                99.5665321130001,18.267891713,0
                99.566650812,18.267902695,0
                99.566782575,18.2679319050001,0
                99.5672226450001,18.268007122,0
                99.5680142560001,18.2679863270001,0
                99.568477494,18.267929607,0
                99.5689018150001,18.267780766,0
                99.5695189210001,18.2675391110001,0
                99.570212719,18.267131201,0
                99.5708103360001,18.2668342600001,0
                99.571176359,18.2665749020001,0
                99.571485002,18.2664817420001,0
                99.5718132520001,18.2664807620001,0
                99.572257418,18.26649788,0
                99.5726242870001,18.266496783,0
                99.5732220770001,18.266255174,0
                99.574051146,18.265883736,0
                99.574591673,18.2658452210001,0
                99.5750745720001,18.265899114,0
                99.575442169,18.266119379,0
                99.5754892320001,18.266170758,0
                99.576157542,18.267134142,0
                99.5766373100001,18.267699959,0
                99.5776394810001,18.268582419,0
                99.5787928250001,18.269474211,0
                99.5797601360001,18.269962723,0
                99.5812399160001,18.2707468680001,0
                99.5824876350001,18.2714210140001,0
                99.5834165650001,18.272040787,0
                99.583960839,18.272396547,0
                99.5848707360001,18.2730947690001,0
                99.5857421440001,18.273830006,0
                99.5871643520001,18.275419045,0
                99.587469737,18.2757916680001,0
                99.5875431320001,18.276081988,0
                99.5874715530001,18.2763312500001,0
                99.587254971,18.2765256120001,0
                99.5870092820001,18.2766785580001,0
                99.5865610650001,18.2769013060001,0
                99.5862166050001,18.2771122020001,0
                99.5858124580001,18.2775192820001,0
                99.585678337,18.277833303,0
                99.5856601420001,18.2781654130001,0
                99.5856806900001,18.278534297,0
                99.5858177220001,18.279087304,0
                99.5860126210001,18.2796216840001,0
                99.5863113070001,18.280153436,0
                99.586731006,18.280781668,0
                99.5875656440001,18.282051983,0
                99.5883064540001,18.283412508,0
                99.5886411050001,18.283868055,0
                99.5888857370001,18.284114034,0
                99.5892143310001,18.284205259,0
                99.589619799,18.2841855620001,0
                99.590199247,18.2842206670001,0
                99.590605209,18.284348548,0
                99.5912240920001,18.284623346,0
                99.5922115150001,18.2853766370001,0
                99.593024642,18.2859828800001,0
                99.5932765640001,18.286240363,0
                99.593470741,18.2865533630001,0
                99.593569368,18.2871618240001,0
                99.5936099400001,18.2877335700001,0
                99.593752087,18.289780793,0
                99.5939277750001,18.2903336680001,0
                99.59421883,18.2907386090001,0
                99.5949745610001,18.2914926020001,0
                99.595846291,18.292283125,0
                99.5967493160001,18.293221702,0
                99.5968260320001,18.2934186200001,0
                99.596826707,18.2936157730001,0
                99.5967951120001,18.293906421,0
                99.59674126,18.294217309,0
                99.5967619570001,18.2946230900001,0
                99.59683097,18.294860962,0
                99.5970707000001,18.2950781210001,0
                99.5976259930001,18.2954499430001,0
                99.5982361040001,18.2959668680001,0
                99.598814195,18.296649917,0
                99.599185144,18.2972903780001,0
                99.599536383,18.298366243,0
                99.5996798090001,18.2988055480001,0
                99.5998477270001,18.299022356,0
                99.6001379850001,18.2991874690001,0
                99.600442017,18.299321987,0
                99.6008553220001,18.299465959,0
                99.601334023,18.2996719860001,0
                99.6017047770001,18.299901988,0
                99.6018568900001,18.300085408,0
                99.6019781460001,18.300593479,0
                99.602078039,18.3014997710001,0
                99.6021947280001,18.3019665520001,0
                99.602350948,18.302464141,0
                99.6025951010001,18.303081933,0
                99.6028029440001,18.3034963440001,0
                99.6029886300001,18.303786302,0
                99.6032726610001,18.30424198,0
                99.603401121,18.3045638250001,0
                99.603596871,18.3053195480001,0
                99.6038888690001,18.3059827340001,0
                99.6041798510001,18.3063507590001,0
                99.6044649630001,18.3065937060001,0
                99.6049927330001,18.3068462640001,0
                99.605611272,18.3069918840001,0
                99.6058680720001,18.3070769620001,0
                99.606020889,18.30728401,0
                99.6060924050001,18.307542405,0
                99.6061742460001,18.307820228,0
                99.606214476,18.308281283,0
                99.6061912440001,18.30941068,0
                99.6063114340001,18.309607455,0
                99.6066052630001,18.309751794,0
                99.6070839640001,18.3099474310001,0
                99.607486253,18.310039541,0
                99.6080735200001,18.310214074,0
                99.6084116490001,18.310425718,0
                99.6089346360001,18.311031083,0
                99.610780794,18.3127148460001,0
                99.611517662,18.313378325,0
                99.611996923,18.3137295930001,0
                99.612422026,18.3139547860001,0
                99.61281338,18.3140227100001,0
                99.6131753710001,18.313980036,0
                99.6136093970001,18.3138264520001,0
                99.6142752470001,18.3136859580001,0
              </coordinates>
                
            </LinearRing>
            
          </outerBoundaryIs>
        
        </Polygon>
        
      <styleUrl>
        #tambonStyle</styleUrl>
    </Placemark>

  </Document>
</kml>