<?xml version="1.0" encoding="UTF-8"?>
<kml xmlns="http://www.opengis.net/kml/2.2">
  <Document id="tambon_doc">
    <name>ปากคลองบางปลากด, พระสมุทรเจดีย์, Samut Prakan</name>
    <description>ข้อมูลขอบเขตตำบลปากคลองบางปลากด อำเภอพระสมุทรเจดีย์ จังหวัดSamut Prakan</description>
    
    <!-- Schema สำหรับข้อมูลตำบล -->
    <Schema id="tambon.schema">
      <SimpleField name="ADM3_EN" type="string">
        <displayName>Subdistrict Name (English)</displayName>
      </SimpleField>
      <SimpleField name="ADM3_TH" type="string">
        <displayName>ชื่อตำบล</displayName>
      </SimpleField>
      <SimpleField name="ADM2_EN" type="string">
        <displayName>District Name (English)</displayName>
      </SimpleField>
      <SimpleField name="ADM2_TH" type="string">
        <displayName>ชื่ออำเภอ</displayName>
      </SimpleField>
      <SimpleField name="ADM1_EN" type="string">
        <displayName>Province Name (English)</displayName>
      </SimpleField>
      <SimpleField name="ADM1_TH" type="string">
        <displayName>ชื่อจังหวัด</displayName>
      </SimpleField>
      <SimpleField name="ADM0_EN" type="string">
        <displayName>Country Name (English)</displayName>
      </SimpleField>
      <SimpleField name="ADM0_TH" type="string">
        <displayName>ชื่อประเทศ</displayName>
      </SimpleField>
    </Schema>

    <!-- Style สำหรับตำบล -->
    <Style id="tambonStyle">
      <LineStyle>
        <color>ffff0000</color>
        <width>1.5</width>
      </LineStyle>
      <PolyStyle>
        <color>33ff0000</color>
        <fill>1</fill>
        <outline>1</outline>
      </PolyStyle>
    </Style>

    <Placemark id="Samut_Prakan.46">
        
        <ExtendedData>
            
          <SchemaData schemaUrl="#tambon.schema">
                
            <SimpleData name="Shape_Leng">
                0.13998894376</SimpleData>
                
            <SimpleData name="Shape_Area">
                0.000744216123411</SimpleData>
                
            <SimpleData name="ADM3_EN">
                Pak Khlong Bang Pla Kot</SimpleData>
                
            <SimpleData name="ADM3_TH">
                ปากคลองบางปลากด</SimpleData>
                
            <SimpleData name="ADM3_PCODE">
                TH110504</SimpleData>
                
            <SimpleData name="ADM2_EN">
                Phra Samut Chedi</SimpleData>
                
            <SimpleData name="ADM2_TH">
                พระสมุทรเจดีย์</SimpleData>
                
            <SimpleData name="ADM2_PCODE">
                TH1105</SimpleData>
                
            <SimpleData name="ADM1_EN">
                Samut Prakan</SimpleData>
                
            <SimpleData name="ADM1_TH">
                สมุทรปราการ</SimpleData>
                
            <SimpleData name="ADM1_PCODE">
                TH11</SimpleData>
                
            <SimpleData name="ADM0_EN">
                Thailand</SimpleData>
                
            <SimpleData name="ADM0_TH">
                ประเทศไทย</SimpleData>
                
            <SimpleData name="ADM0_PCODE">
                TH</SimpleData>
            
          </SchemaData>
        
        </ExtendedData>
        
        <Polygon>
            
          <outerBoundaryIs>
                
            <LinearRing>
                    
              <coordinates>
                    
                100.571169837,13.6109106440001,0
                100.572357575,13.610852444,0
                100.576290787,13.6106924760001,0
                100.580770377,13.610529102,0
                100.5821148,13.610468741,0
                100.583008897,13.6104085210001,0
                100.583454304,13.610366345,0
                100.583897849,13.610311708,0
                100.584326677,13.610243638,0
                100.584753186,13.610162314,0
                100.585177333,13.610069487,0
                100.585598784,13.609965835,0
                100.586016864,13.609850938,0
                100.586430484,13.60972323,0
                100.586838086,13.609579941,0
                100.587213461,13.6094290080001,0
                100.587582388,13.609263845,0
                100.587945052,13.6090864660001,0
                100.588301033,13.6088978330001,0
                100.588649241,13.6086979090001,0
                100.588987863,13.608485613,0
                100.589314221,13.608258801,0
                100.589624613,13.608014122,0
                100.589843399,13.607813751,0
                100.589932737,13.607731932,0
                100.590220667,13.607429622,0
                100.590489985,13.607110753,0
                100.590671453,13.6068693730001,0
                100.590740584,13.606777419,0
                100.590970658,13.6064303540001,0
                100.59117658,13.606069017,0
                100.59135265,13.6056989260001,0
                100.59150712,13.6053173810001,0
                100.591645463,13.6049274910001,0
                100.591771728,13.6045316,0
                100.591998513,13.603728178,0
                100.592199115,13.602915508,0
                100.592289622,13.602506847,0
                100.592372062,13.6020967650001,0
                100.592444266,13.601685107,0
                100.592507258,13.601248976,0
                100.592558741,13.600811422,0
                100.592634934,13.599934159,0
                100.592678097,13.59905665,0
                100.592684471,13.598618693,0
                100.592676949,13.598181788,0
                100.592651034,13.597746424,0
                100.592602134,13.597307163,0
                100.592534219,13.596869762,0
                100.592451725,13.59643405,0
                100.592357612,13.5960000310001,0
                100.592253533,13.595567901,0
                100.592139928,13.5951380820001,0
                100.592016109,13.594711267,0
                100.591880194,13.594288433,0
                100.59172903,13.593870962,0
                100.591558703,13.593457152,0
                100.591373605,13.5930487970001,0
                100.590973735,13.5922434830001,0
                100.590938723,13.592177055,0
                100.590763699,13.5918449810001,0
                100.590340678,13.5910757620001,0
                100.590329163,13.591054824,0
                100.589875308,13.5902752390001,0
                100.588286228,13.5878813750001,0
                100.584080674,13.589013261,0
                100.584009178,13.5890187140001,0
                100.583945649,13.5890376300001,0
                100.583712129,13.589094962,0
                100.583542857,13.589121262,0
                100.583395621,13.58913661,0
                100.583331148,13.589135217,0
                100.583316016,13.589132357,0
                100.583293745,13.5891245620001,0
                100.58326279,13.5891032230001,0
                100.583238681,13.5890781520001,0
                100.583221877,13.5890440270001,0
                100.583116868,13.588761844,0
                100.583101979,13.5887385180001,0
                100.583087186,13.588729604,0
                100.582799226,13.588641755,0
                100.582773181,13.588622238,0
                100.582653495,13.5884807030001,0
                100.582631031,13.5884585640001,0
                100.582604592,13.588444413,0
                100.582564026,13.5884374620001,0
                100.582529033,13.588437684,0
                100.582517436,13.588438427,0
                100.582490732,13.5884483950001,0
                100.582274175,13.588610455,0
                100.582257651,13.588617765,0
                100.582237391,13.588617893,0
                100.582213477,13.588610267,0
                100.582198929,13.58860155,0
                100.582198014,13.588600693,0
                100.582137388,13.588535656,0
                100.581984497,13.5883741380001,0
                100.581964132,13.5883618570001,0
                100.581944672,13.5883585180001,0
                100.581932993,13.5883585920001,0
                100.581924164,13.588359403,0
                100.581751714,13.5884228,0
                100.581718608,13.588430219,0
                100.581696522,13.588432158,0
                100.581677646,13.5884311250001,0
                100.581656075,13.5884272760001,0
                100.581264744,13.588310586,0
                100.581225455,13.5883012080001,0
                100.581213391,13.5883004400001,0
                100.581202198,13.588301356,0
                100.581196179,13.5883030800001,0
                100.581185042,13.5883124160001,0
                100.58113388,13.58839111,0
                100.581031284,13.588603442,0
                100.581029119,13.5886079250001,0
                100.580986493,13.588672912,0
                100.580939613,13.5887443890001,0
                100.580916724,13.5887764510001,0
                100.580904781,13.588787772,0
                100.580792603,13.588855328,0
                100.580653131,13.5889392610001,0
                100.580539044,13.588992778,0
                100.58049092,13.5890048700001,0
                100.580411962,13.589008354,0
                100.580400355,13.589008866,0
                100.580292712,13.5890021590001,0
                100.580230995,13.5889947540001,0
                100.580029803,13.588970616,0
                100.579989875,13.588962458,0
                100.579756987,13.588903326,0
                100.579635577,13.588872499,0
                100.57945136,13.588833573,0
                100.579394585,13.588829305,0
                100.579140182,13.5888101900001,0
                100.578129767,13.588901848,0
                100.577763161,13.5889857390001,0
                100.577730535,13.5889932040001,0
                100.577546256,13.5890616040001,0
                100.577459924,13.589093652,0
                100.577016893,13.589326215,0
                100.576456826,13.5897287290001,0
                100.575999525,13.5901365870001,0
                100.575328084,13.5909443050001,0
                100.575311875,13.591031994,0
                100.575312418,13.5911141030001,0
                100.575329964,13.5912289520001,0
                100.575489978,13.591917827,0
                100.57556613,13.5922456540001,0
                100.575996147,13.593803082,0
                100.575946376,13.59473948,0
                100.575941415,13.594780434,0
                100.575925231,13.594799003,0
                100.57590215,13.5948218790001,0
                100.575787222,13.594882909,0
                100.575049337,13.5952747860001,0
                100.57502856,13.595293801,0
                100.574987382,13.595342778,0
                100.574952234,13.595434814,0
                100.574873445,13.59586253,0
                100.574818259,13.59598226,0
                100.574758393,13.596069916,0
                100.574642818,13.596150816,0
                100.574441717,13.5962666250001,0
                100.573746492,13.596666994,0
                100.573376446,13.596938021,0
                100.573291027,13.597037401,0
                100.573250348,13.59711028,0
                100.573240234,13.5971721,0
                100.573237542,13.5971774650001,0
                100.573238767,13.5972395580001,0
                100.573284644,13.5974775930001,0
                100.573313827,13.59766861,0
                100.573307258,13.597709219,0
                100.573269853,13.597759147,0
                100.573123742,13.5978687410001,0
                100.573104468,13.597880488,0
                100.572620383,13.5982244790001,0
                100.572349973,13.5983966590001,0
                100.572317502,13.598388937,0
                100.57229362,13.5983527450001,0
                100.572169649,13.5981279980001,0
                100.571896561,13.5982354400001,0
                100.571150087,13.5986700670001,0
                100.571042245,13.5987059870001,0
                100.569461707,13.598952975,0
                100.569407007,13.5989512300001,0
                100.569368612,13.598948804,0
                100.568613681,13.598901074,0
                100.568363156,13.598885507,0
                100.568275432,13.5988738090001,0
                100.568146655,13.598844043,0
                100.568096314,13.5988584560001,0
                100.567830798,13.599022232,0
                100.567287257,13.599320199,0
                100.566965385,13.5994985880001,0
                100.566892101,13.59939862,0
                100.566745688,13.5992207300001,0
                100.566642295,13.599111147,0
                100.566556686,13.5990406500001,0
                100.566405603,13.5989142280001,0
                100.566264779,13.5986444500001,0
                100.565998707,13.5987236510001,0
                100.565574078,13.5987968000001,0
                100.56439367,13.5989874590001,0
                100.564343148,13.598973684,0
                100.563914909,13.598497117,0
                100.563871631,13.598490344,0
                100.563821195,13.59849066,0
                100.563032947,13.598796801,0
                100.561898806,13.5991977250001,0
                100.56114031,13.599508271,0
                100.561082395,13.5994663430001,0
                100.560581093,13.598986074,0
                100.559256441,13.600422537,0
                100.558501297,13.6007733060001,0
                100.557967892,13.6010472680001,0
                100.557864276,13.601154391,0
                100.557792378,13.6012568780001,0
                100.557702861,13.6014393350001,0
                100.557612992,13.6015685510001,0
                100.557527141,13.6016488010001,0
                100.557459292,13.601690385,0
                100.557416799,13.601707134,0
                100.557310253,13.601743464,0
                100.556961865,13.6018743010001,0
                100.556405434,13.602095164,0
                100.555704445,13.602405662,0
                100.555641211,13.6024459830001,0
                100.555582566,13.60249515,0
                100.555452547,13.6027266580001,0
                100.555263103,13.6028875550001,0
                100.554773104,13.603239644,0
                100.55459202,13.6033629020001,0
                100.554483087,13.603437045,0
                100.554433779,13.603363546,0
                100.554424529,13.603359766,0
                100.554399336,13.603317283,0
                100.554375624,13.603309715,0
                100.553973169,13.6033037620001,0
                100.553424181,13.6032761330001,0
                100.552340724,13.603216951,0
                100.551398093,13.6030265360001,0
                100.550564496,13.6024519330001,0
                100.550288519,13.6025502840001,0
                100.549283268,13.602923741,0
                100.548782629,13.602974277,0
                100.548742053,13.603355602,0
                100.548282262,13.603332692,0
                100.547174391,13.603277479,0
                100.547128442,13.6032770910001,0
                100.546831621,13.6032745680001,0
                100.546710164,13.603284467,0
                100.546626216,13.603312417,0
                100.546528541,13.6033861760001,0
                100.546139208,13.6038914860001,0
                100.546081445,13.6039774120001,0
                100.546037369,13.6040429820001,0
                100.545546425,13.6047363650001,0
                100.545437258,13.6046485270001,0
                100.545038988,13.604328057,0
                100.544611485,13.6047515500001,0
                100.544456466,13.6048772250001,0
                100.544307891,13.6049720610001,0
                100.543989336,13.6053157170001,0
                100.542859644,13.606655636,0
                100.54235669,13.607260196,0
                100.542018646,13.6076686710001,0
                100.54127873,13.608555519,0
                100.540873562,13.6090273570001,0
                100.541077323,13.609214148,0
                100.541545714,13.609636102,0
                100.541646531,13.6097259520001,0
                100.541748823,13.609813936,0
                100.54178364,13.609842357,0
                100.541819063,13.6098700100001,0
                100.541881613,13.6099153710001,0
                100.541950698,13.609961577,0
                100.542025933,13.610009092,0
                100.542215589,13.6101259160001,0
                100.54228994,13.610173296,0
                100.542362803,13.6102212550001,0
                100.542471422,13.61029423,0
                100.542687891,13.610441409,0
                100.542795703,13.610515315,0
                100.542997038,13.610645716,0
                100.54302719,13.6106658910001,0
                100.543045918,13.6106851230001,0
                100.543049049,13.6106883350001,0
                100.543174529,13.6108617360001,0
                100.543208973,13.6109030220001,0
                100.543240726,13.6109291710001,0
                100.543259871,13.6109392980001,0
                100.543285846,13.610948041,0
                100.543300412,13.610951874,0
                100.54337842,13.610952981,0
                100.543389464,13.61095378,0
                100.543457011,13.6109586760001,0
                100.543520055,13.610978104,0
                100.543572991,13.6110172960001,0
                100.54360048,13.611045002,0
                100.543677032,13.61111893,0
                100.543724755,13.6111650240001,0
                100.543757695,13.6111924260001,0
                100.543802296,13.6112202890001,0
                100.543883937,13.6112659510001,0
                100.543945308,13.6112995450001,0
                100.544038137,13.61133462,0
                100.544071733,13.611344187,0
                100.544103095,13.61134929,0
                100.544153488,13.6113574880001,0
                100.544257945,13.6113798760001,0
                100.544274295,13.61138735,0
                100.544292684,13.6113984350001,0
                100.544313053,13.6114261820001,0
                100.544323921,13.6114539920001,0
                100.5443265,13.6114853330001,0
                100.544333681,13.611589458,0
                100.544340914,13.6116943060001,0
                100.544344994,13.611717814,0
                100.544354597,13.6117449270001,0
                100.544373247,13.611778519,0
                100.544390663,13.611795536,0
                100.544410774,13.6118070850001,0
                100.544443033,13.611815039,0
                100.544548216,13.61182051,0
                100.544570485,13.6118206250001,0
                100.544674227,13.611821161,0
                100.544678543,13.611821134,0
                100.544697456,13.6118254410001,0
                100.544725051,13.611838097,0
                100.544746872,13.6118532290001,0
                100.544798111,13.611895025,0
                100.544846519,13.611947699,0
                100.544897517,13.6120114130001,0
                100.544909039,13.6120274310001,0
                100.544968217,13.6121096970001,0
                100.544980891,13.612120249,0
                100.544981904,13.612121142,0
                100.544993252,13.6121295190001,0
                100.544999766,13.6121342370001,0
                100.545151702,13.612204962,0
                100.545312658,13.6123050090001,0
                100.545572574,13.6124659990001,0
                100.545607866,13.612490516,0
                100.545627474,13.612508631,0
                100.545645441,13.612532908,0
                100.545662262,13.612563004,0
                100.545671921,13.612587332,0
                100.545687051,13.6126458800001,0
                100.545709679,13.6127334390001,0
                100.545713169,13.612744202,0
                100.545720603,13.61276044,0
                100.545726531,13.612768181,0
                100.545740882,13.612784349,0
                100.545751614,13.6127947140001,0
                100.545764246,13.6128036980001,0
                100.545776488,13.6128095920001,0
                100.545798342,13.6128148710001,0
                100.545846823,13.612823184,0
                100.545947683,13.612847357,0
                100.545989109,13.6128572870001,0
                100.546037165,13.6128727080001,0
                100.546067171,13.6128845710001,0
                100.5460863,13.612896425,0
                100.546132502,13.6129294250001,0
                100.546204133,13.61298821,0
                100.546228909,13.6130121410001,0
                100.546244283,13.6130300300001,0
                100.546344259,13.6131720130001,0
                100.5463694,13.6132032140001,0
                100.546380323,13.61321294,0
                100.546695239,13.6134480440001,0
                100.546968383,13.6136454910001,0
                100.547013299,13.613686156,0
                100.5470345,13.613708902,0
                100.547048729,13.613727543,0
                100.547101355,13.613824687,0
                100.54712559,13.61385927,0
                100.547204116,13.613935106,0
                100.547251694,13.613973706,0
                100.547254188,13.6139757290001,0
                100.547720662,13.614330699,0
                100.547752574,13.614357709,0
                100.547768918,13.614373363,0
                100.54788725,13.614491236,0
                100.547917239,13.614520192,0
                100.547979257,13.6145757420001,0
                100.548047829,13.6146287010001,0
                100.548083324,13.614653795,0
                100.548155753,13.61470232,0
                100.54826632,13.6147728980001,0
                100.548488902,13.614912444,0
                100.548598749,13.614983985,0
                100.548670071,13.615033999,0
                100.548704686,13.615060273,0
                100.548739639,13.6150887370001,0
                100.548773762,13.615118201,0
                100.548840262,13.6151792220001,0
                100.548872876,13.6152104670001,0
                100.548886843,13.6152242910001,0
                100.548937119,13.6152740520001,0
                100.548998099,13.6153369520001,0
                100.549322179,13.6156669850001,0
                100.549385422,13.615718228,0
                100.549413402,13.6157388980001,0
                100.549441941,13.615758838,0
                100.549500508,13.615796677,0
                100.549538232,13.615819072,0
                100.549615179,13.615861652,0
                100.549772004,13.615943778,0
                100.549865654,13.6159944930001,0
                100.550016626,13.616079819,0
                100.550072485,13.616111985,0
                100.550275584,13.616228945,0
                100.550392646,13.6163353470001,0
                100.55049686,13.616430069,0
                100.550524728,13.6164554000001,0
                100.550561582,13.6165088550001,0
                100.551357408,13.6185576830001,0
                100.552028427,13.617959049,0
                100.552330746,13.6176893410001,0
                100.552408053,13.617620373,0
                100.552757001,13.6173351570001,0
                100.553084755,13.6170807240001,0
                100.553418085,13.6168332120001,0
                100.554098009,13.6163553010001,0
                100.554793492,13.6158989910001,0
                100.555147555,13.615680264,0
                100.555542398,13.615448224,0
                100.556345071,13.615004663,0
                100.557159695,13.6145808700001,0
                100.557570758,13.6143756720001,0
                100.558351991,13.6140011320001,0
                100.559139032,13.613638241,0
                100.559930563,13.613285548,0
                100.560727693,13.6129470180001,0
                100.561534174,13.6126332170001,0
                100.561932454,13.612493768,0
                100.562333741,13.612362552,0
                100.563142969,13.612119466,0
                100.563959052,13.611898878,0
                100.564369522,13.611797815,0
                100.564781839,13.611704424,0
                100.565678735,13.6115306290001,0
                100.566581193,13.6113821930001,0
                100.567486619,13.611249521,0
                100.568394013,13.6111311120001,0
                100.569303558,13.6110328250001,0
                100.569738803,13.610996056,0
                100.570610786,13.610938037,0
                100.571169837,13.6109106440001,0
              </coordinates>
                
            </LinearRing>
            
          </outerBoundaryIs>
        
        </Polygon>
        
      <styleUrl>
        #tambonStyle</styleUrl>
    </Placemark>

  </Document>
</kml>