<?xml version="1.0" encoding="UTF-8"?>
<kml xmlns="http://www.opengis.net/kml/2.2">
  <Document id="tambon_doc">
    <name>แม่ก๊า, สันป่าตอง, Chiang Mai</name>
    <description>ข้อมูลขอบเขตตำบลแม่ก๊า อำเภอสันป่าตอง จังหวัดChiang Mai</description>
    
    <!-- Schema สำหรับข้อมูลตำบล -->
    <Schema id="tambon.schema">
      <SimpleField name="ADM3_EN" type="string">
        <displayName>Subdistrict Name (English)</displayName>
      </SimpleField>
      <SimpleField name="ADM3_TH" type="string">
        <displayName>ชื่อตำบล</displayName>
      </SimpleField>
      <SimpleField name="ADM2_EN" type="string">
        <displayName>District Name (English)</displayName>
      </SimpleField>
      <SimpleField name="ADM2_TH" type="string">
        <displayName>ชื่ออำเภอ</displayName>
      </SimpleField>
      <SimpleField name="ADM1_EN" type="string">
        <displayName>Province Name (English)</displayName>
      </SimpleField>
      <SimpleField name="ADM1_TH" type="string">
        <displayName>ชื่อจังหวัด</displayName>
      </SimpleField>
      <SimpleField name="ADM0_EN" type="string">
        <displayName>Country Name (English)</displayName>
      </SimpleField>
      <SimpleField name="ADM0_TH" type="string">
        <displayName>ชื่อประเทศ</displayName>
      </SimpleField>
    </Schema>

    <!-- Style สำหรับตำบล -->
    <Style id="tambonStyle">
      <LineStyle>
        <color>ffff0000</color>
        <width>1.5</width>
      </LineStyle>
      <PolyStyle>
        <color>33ff0000</color>
        <fill>1</fill>
        <outline>1</outline>
      </PolyStyle>
    </Style>

    <Placemark id="Chiang_Mai.110">
        
        <ExtendedData>
            
          <SchemaData schemaUrl="#tambon.schema">
                
            <SimpleData name="Shape_Leng">
                0.333409825237</SimpleData>
                
            <SimpleData name="Shape_Area">
                0.00170219415515</SimpleData>
                
            <SimpleData name="ADM3_EN">
                Mae Ka</SimpleData>
                
            <SimpleData name="ADM3_TH">
                แม่ก๊า</SimpleData>
                
            <SimpleData name="ADM3_PCODE">
                TH501205</SimpleData>
                
            <SimpleData name="ADM2_EN">
                San Pa Tong</SimpleData>
                
            <SimpleData name="ADM2_TH">
                สันป่าตอง</SimpleData>
                
            <SimpleData name="ADM2_PCODE">
                TH5012</SimpleData>
                
            <SimpleData name="ADM1_EN">
                Chiang Mai</SimpleData>
                
            <SimpleData name="ADM1_TH">
                เชียงใหม่</SimpleData>
                
            <SimpleData name="ADM1_PCODE">
                TH50</SimpleData>
                
            <SimpleData name="ADM0_EN">
                Thailand</SimpleData>
                
            <SimpleData name="ADM0_TH">
                ประเทศไทย</SimpleData>
                
            <SimpleData name="ADM0_PCODE">
                TH</SimpleData>
            
          </SchemaData>
        
        </ExtendedData>
        
        <Polygon>
            
          <outerBoundaryIs>
                
            <LinearRing>
                    
              <coordinates>
                    
                98.959705865,18.59584892,0
                98.9598982310001,18.5957174650001,0
                98.960014389,18.5955998370001,0
                98.9601316220001,18.595402575,0
                98.9593155420001,18.594590866,0
                98.9590577760001,18.5943344780001,0
                98.9579312060001,18.593103871,0
                98.956890672,18.591873273,0
                98.956557338,18.591175102,0
                98.9565381800001,18.591134982,0
                98.956528684,18.5910877150001,0
                98.9564179070001,18.590536174,0
                98.9564081620001,18.590488314,0
                98.9563577650001,18.5902408760001,0
                98.9563751350001,18.589592892,0
                98.956342782,18.5889520280001,0
                98.956265628,18.588398163,0
                98.9561226970001,18.587943974,0
                98.955693044,18.5874885640001,0
                98.955012374,18.5871275690001,0
                98.954834223,18.5870330760001,0
                98.9543348160001,18.586735134,0
                98.9540707500001,18.5865775890001,0
                98.9535936760001,18.5862588790001,0
                98.9534027460001,18.585849877,0
                98.9533075310001,18.5852126510001,0
                98.9532600460001,18.584529144,0
                98.953280362,18.58419166,0
                98.953332823,18.5833201660001,0
                98.9533558620001,18.582937343,0
                98.9535950060001,18.5813444240001,0
                98.9535475790001,18.5804338250001,0
                98.9534044530001,18.579569528,0
                98.9530705270001,18.5789774580001,0
                98.9524028710001,18.578158181,0
                98.9515438010001,18.577702694,0
                98.9507803400001,18.5773839030001,0
                98.9507062420001,18.577365554,0
                98.9504213640001,18.5772950250001,0
                98.949492117,18.577064959,0
                98.949398478,18.577047045,0
                98.9487762840001,18.5769280490001,0
                98.9482512070001,18.576746029,0
                98.9476789000001,18.5762002000001,0
                98.9474879810001,18.575836345,0
                98.9473450840001,18.57533583,0
                98.9473930170001,18.5744704630001,0
                98.9477037080001,18.57352831,0
                98.9479183700001,18.5726505530001,0
                98.948061931,18.571968199,0
                98.9480620420001,18.571603296,0
                98.94803011,18.5712981620001,0
                98.948014512,18.5711491180001,0
                98.9478343690001,18.5705454050001,0
                98.947739277,18.570404695,0
                98.9474421070001,18.569964968,0
                98.946917398,18.569601037,0
                98.9465963950001,18.569426127,0
                98.946249375,18.5692370470001,0
                98.9458677280001,18.5689635530001,0
                98.945581399,18.568690068,0
                98.9454847550001,18.568560904,0
                98.9451045260001,18.568052729,0
                98.944580138,18.566778201,0
                98.9441506970001,18.5659137970001,0
                98.9441360960001,18.5658882320001,0
                98.9438647760001,18.565413237,0
                98.9437929570001,18.5652077240001,0
                98.9436262740001,18.56473077,0
                98.9433402530001,18.563729715,0
                98.9431973470001,18.5633195940001,0
                98.9428307420001,18.5629306500001,0
                98.942768071,18.562864161,0
                98.9421000580001,18.5626820740001,0
                98.9418995250001,18.562729861,0
                98.941527223,18.562818571,0
                98.9408593260001,18.563136957,0
                98.9402863600001,18.563637253,0
                98.9398092180001,18.563864213,0
                98.939236409,18.56395551,0
                98.9392042150001,18.563949349,0
                98.939002638,18.5639107970001,0
                98.938520677,18.5638186040001,0
                98.938262793,18.5636542820001,0
                98.9380913840001,18.5635450620001,0
                98.9377574920001,18.5630444400001,0
                98.9377422190001,18.563006542,0
                98.9375192900001,18.5624535220001,0
                98.937376413,18.5611791010001,0
                98.937257829,18.5607253040001,0
                98.9371859710001,18.560450314,0
                98.9369144350001,18.560018271,0
                98.9368997550001,18.5599949150001,0
                98.9363749520001,18.5594039000001,0
                98.9362319800001,18.559130431,0
                98.936182348,18.558940754,0
                98.936142836,18.5587897450001,0
                98.936089182,18.5585846990001,0
                98.9358985580001,18.557446971,0
                98.9358511300001,18.5568097500001,0
                98.935764808,18.5563967470001,0
                98.9357559680001,18.556354449,0
                98.9354697300001,18.55599055,0
                98.934502992,18.5555073210001,0
                98.9344677970001,18.5554897280001,0
                98.9336575010001,18.555219992,0
                98.9333704690001,18.5551244390001,0
                98.93300206,18.5549005930001,0
                98.9328458160001,18.554805661,0
                98.9326851370001,18.5546305350001,0
                98.9325119200001,18.5544417400001,0
                98.9323690850001,18.553941212,0
                98.9324141390001,18.5537408660001,0
                98.9325123670001,18.5533040770001,0
                98.9327513580001,18.5525754540001,0
                98.9331126920001,18.5515429770001,0
                98.9332289180001,18.5512108680001,0
                98.9335633040001,18.550300414,0
                98.9335635510001,18.5496632100001,0
                98.9335637440001,18.549162697,0
                98.933516254,18.5487085140001,0
                98.933182528,18.547934535,0
                98.9327534610001,18.5472056740001,0
                98.9322286890001,18.546477883,0
                98.9320381970001,18.545977357,0
                98.9319907670001,18.545385342,0
                98.932038629,18.5448848820001,0
                98.9324205290001,18.5444296970001,0
                98.9326923730001,18.544314666,0
                98.9328499430001,18.544247985,0
                98.9339952510001,18.5437015640001,0
                98.9345200430001,18.5434295000001,0
                98.9347111210001,18.543247648,0
                98.9347327880001,18.5431441870001,0
                98.9347397980001,18.5431107210001,0
                98.934758908,18.54301947,0
                98.9347589210001,18.542983357,0
                98.934758968,18.542860438,0
                98.9347589770001,18.5428375500001,0
                98.9344402500001,18.542316645,0
                98.934112236,18.5420352090001,0
                98.9331284690001,18.5415343870001,0
                98.932406627,18.5412833240001,0
                98.93171793,18.541127149,0
                98.9308980340001,18.5411268510001,0
                98.9303730710001,18.5410328780001,0
                98.9294548560001,18.540938759,0
                98.928536534,18.5404684490001,0
                98.9277380340001,18.5400072370001,0
                98.9238099780001,18.5366411970001,0
                98.9229398310001,18.5359542350001,0
                98.922475181,18.535814741,0
                98.9223540180001,18.535778368,0
                98.9214993670001,18.535750937,0
                98.920591351,18.5358855150001,0
                98.918732692,18.5364799340001,0
                98.9186323480001,18.5365226820001,0
                98.9175937380001,18.5368339300001,0
                98.9174841970001,18.5368667540001,0
                98.9164016460001,18.536866278,0
                98.9156472600001,18.5366772990001,0
                98.9146635770001,18.536176325,0
                98.913778241,18.5355195610001,0
                98.9121718170001,18.533954082,0
                98.9108933040001,18.532733336,0
                98.909975289,18.5317940750001,0
                98.9091230160001,18.5309180570001,0
                98.9083361400001,18.530072627,0
                98.907155963,18.528883536,0
                98.906401911,18.5281634940001,0
                98.9050249320001,18.527411521,0
                98.9035493050001,18.5267848830001,0
                98.9018767480001,18.5261897660001,0
                98.9017394250001,18.526130326,0
                98.9001388880001,18.5254375690001,0
                98.897941889,18.5244986710001,0
                98.8966960400001,18.5239026350001,0
                98.896138722,18.523589358,0
                98.895613907,18.5233710140001,0
                98.8951548530001,18.523088337,0
                98.8946632560001,18.522744631,0
                98.8939747140001,18.5220866870001,0
                98.8899027180001,18.5190718050001,0
                98.8874515080001,18.5172482360001,0
                98.8852947890001,18.5159028420001,0
                98.882613522,18.5144221420001,0
                98.8818004330001,18.513803012,0
                98.8813166830001,18.513243013,0
                98.8810261300001,18.5125358170001,0
                98.880798488,18.5121018740001,0
                98.8806985520001,18.5119108540001,0
                98.8799448030001,18.5110020450001,0
                98.8793877090001,18.510470717,0
                98.8789286420001,18.510313377,0
                98.8783712330001,18.510219239,0
                98.8777153490001,18.5103442120001,0
                98.8772888970001,18.510531482,0
                98.8768173340001,18.510800675,0
                98.8767966600001,18.510812478,0
                98.8761729110001,18.5115633570001,0
                98.8752207910001,18.5131579810001,0
                98.874664597,18.514238775,0
                98.874399559,18.514753791,0
                98.8741634530001,18.515103445,0
                98.873808566,18.5156289920001,0
                98.873185252,18.516160669,0
                98.8724305650001,18.5165668970001,0
                98.8716731600001,18.5166328080001,0
                98.8716967710001,18.5168403100001,0
                98.8717076440001,18.5169358900001,0
                98.8717234320001,18.516992838,0
                98.871741677,18.517028871,0
                98.8717603520001,18.5170437370001,0
                98.871763591,18.5170463110001,0
                98.8717952410001,18.5170695740001,0
                98.8718183660001,18.5170893430001,0
                98.8718293160001,18.5171067790001,0
                98.8718366080001,18.5171300210001,0
                98.8718672030001,18.5172856940001,0
                98.8718754370001,18.5173275820001,0
                98.8718789700001,18.517341629,0
                98.8719456420001,18.517606659,0
                98.8719543750001,18.5176413610001,0
                98.872002949,18.5178389230001,0
                98.872021175,18.5178935480001,0
                98.872035764,18.517933064,0
                98.8720637440001,18.5179807230001,0
                98.8720892920001,18.5180190840001,0
                98.872124586,18.5180539680001,0
                98.872167194,18.5180900190001,0
                98.8723047510001,18.518195844,0
                98.8723485670001,18.518237707,0
                98.8723875090001,18.518285373,0
                98.872416705,18.518335356,0
                98.8724361610001,18.5183772020001,0
                98.8724470880001,18.51842601,0
                98.8724786480001,18.5185689520001,0
                98.872502921,18.518690969,0
                98.8725248140001,18.518733979,0
                98.8725491540001,18.518758394,0
                98.872573505,18.5187688710001,0
                98.8726076080001,18.518774702,0
                98.8726356230001,18.5187700750001,0
                98.8726721770001,18.518752669,0
                98.8727136090001,18.51872481,0
                98.872744068,18.5187155350001,0
                98.8727842640001,18.518712077,0
                98.8728232390001,18.5187144270001,0
                98.8728536840001,18.518727228,0
                98.872892644,18.518744682,0
                98.872927948,18.5187749180001,0
                98.8729741830001,18.5188365290001,0
                98.8730277280001,18.5189074470001,0
                98.8730837130001,18.518962097,0
                98.8731336370001,18.518981884,0
                98.8731712060001,18.51898354,0
                98.873196556,18.5189829020001,0
                98.873214375,18.5189731130001,0
                98.8732226050001,18.5189613530001,0
                98.8732226160001,18.5189469750001,0
                98.8732203740001,18.5189292040001,0
                98.873219894,18.5189254040001,0
                98.87321511,18.5189071030001,0
                98.8732123880001,18.518884875,0
                98.873212401,18.518867229,0
                98.873219265,18.51884828,0
                98.873243249,18.5188411070001,0
                98.8732624350001,18.5188424250001,0
                98.8732788710001,18.5188496270001,0
                98.8732891350001,18.5188653180001,0
                98.873294603,18.518882971,0
                98.873302122,18.5189058500001,0
                98.8733098270001,18.5189214970001,0
                98.8733130680001,18.518928083,0
                98.8733192280001,18.518937888,0
                98.873328815,18.51894574,0
                98.873345257,18.518948363,0
                98.8733582740001,18.5189477170001,0
                98.8733781460001,18.518941195,0
                98.8733877480001,18.518928783,0
                98.873395986,18.518911143,0
                98.873414498,18.5188915460001,0
                98.8734343720001,18.518883719,0
                98.873448077,18.518882418,0
                98.8734679400001,18.518887664,0
                98.8734843770001,18.51889486,0
                98.873509029,18.518917102,0
                98.873597332,18.5190230420001,0
                98.873621293,18.519047895,0
                98.8736301910001,18.5190577070001,0
                98.8736409310001,18.519064041,0
                98.8736534770001,18.519071447,0
                98.873661703,18.519075813,0
                98.873678135,18.5190845330001,0
                98.8737103270001,18.519093705,0
                98.873745269,18.519098307,0
                98.873808979,18.5191035770001,0
                98.8738637920001,18.5191049200001,0
                98.8738829710001,18.5191082000001,0
                98.873903521,18.519114748,0
                98.873922695,18.5191291400001,0
                98.8739487130001,18.519152035,0
                98.8739671920001,18.5191794990001,0
                98.8740082560001,18.5192409630001,0
                98.874023315,18.5192612320001,0
                98.8740417930001,18.5192886990001,0
                98.874059592,18.5193063570001,0
                98.8741095920001,18.5193266540001,0
                98.8741328850001,18.5193318980001,0
                98.8741506900001,18.519341061,0
                98.87416641,18.5193640910001,0
                98.8741736970001,18.5193754790001,0
                98.8741773790001,18.5194197860001,0
                98.8741680750001,18.5194463610001,0
                98.8741476210001,18.519471158,0
                98.8741309500001,18.519491013,0
                98.874125307,18.519505209,0
                98.8741252880001,18.519531392,0
                98.8741289920001,18.51954557,0
                98.8741568450001,18.51956154,0
                98.8741939880001,18.519568652,0
                98.874219983,18.5195846180001,0
                98.8742441140001,18.519609442,0
                98.8742682330001,18.5196537630001,0
                98.874327597,18.5197583510001,0
                98.8743739860001,18.5198328120001,0
                98.8743980770001,18.519909028,0
                98.8744203040001,18.5199976490001,0
                98.874442506,18.5201234780001,0
                98.874470278,18.5202493150001,0
                98.8744683470001,18.5203450060001,0
                98.8744497360001,18.5203946130001,0
                98.8744292680001,18.520444218,0
                98.8743716390001,18.5204991140001,0
                98.8743196,18.5205380670001,0
                98.8742099470001,18.5206124210001,0
                98.874152322,18.520665545,0
                98.874135562,18.520716921,0
                98.8741299580001,18.5207629930001,0
                98.8741483330001,18.521035908,0
                98.8741538240001,18.5211510930001,0
                98.8741389140001,18.5212184260001,0
                98.8741221380001,18.521298159,0
                98.8741016500001,18.521369027,0
                98.8740793160001,18.521423945,0
                98.8740718600001,18.521464699,0
                98.8740718380001,18.521494826,0
                98.874092239,18.5215355990001,0
                98.874159008,18.5216791770001,0
                98.874277755,18.521875961,0
                98.874311144,18.5219397750001,0
                98.8743333800001,18.522017761,0
                98.8743444730001,18.522090426,0
                98.8743555560001,18.522171949,0
                98.8743666600001,18.5222304370001,0
                98.8743963360001,18.522294248,0
                98.8744167520001,18.522320843,0
                98.8744371600001,18.522352756,0
                98.8744594300001,18.5223864390001,0
                98.8744854050001,18.522430759,0
                98.8744928080001,18.5224626610001,0
                98.8744946300001,18.522512281,0
                98.8744945330001,18.522645187,0
                98.874503743,18.522755062,0
                98.8745036550001,18.522875561,0
                98.8744924580001,18.5229428970001,0
                98.874490129,18.5229536960001,0
                98.8744780690001,18.522972656,0
                98.87443799,18.523002021,0
                98.874394839,18.523025503,0
                98.874342449,18.5230401650001,0
                98.874259243,18.5230606820001,0
                98.8742006960001,18.5230724,0
                98.8741298150001,18.5230958660001,0
                98.8740835940001,18.523095835,0
                98.874012721,18.5231046050001,0
                98.8739757480001,18.5231104580001,0
                98.8739233700001,18.5231074870001,0
                98.8738586680001,18.5231074440001,0
                98.873812446,18.523116229,0
                98.8737662130001,18.523136774,0
                98.873698403,18.523172,0
                98.8736706700001,18.5231719820001,0
                98.8735659970001,18.523191109,0
                98.8734620150001,18.5231827690001,0
                98.8733805520001,18.523190985,0
                98.8733059990001,18.523232265,0
                98.8732487780001,18.523266947,0
                98.8732019620001,18.523299982,0
                98.8731170070001,18.523341256,0
                98.873056326,18.5233742820001,0
                98.8729626950001,18.5234254700001,0
                98.8728690760001,18.523471699,0
                98.8728135910001,18.523504729,0
                98.8727806260001,18.5235510000001,0
                98.8727598,18.523590663,0
                98.8727407040001,18.5236336350001,0
                98.872693875,18.523679896,0
                98.8725586400001,18.523745938,0
                98.8724563420001,18.5238103470001,0
                98.8723523040001,18.5238764100001,0
                98.8722673380001,18.5239325630001,0
                98.8721840960001,18.5240002940001,0
                98.8721511480001,18.5240250680001,0
                98.8720523120001,18.524086176,0
                98.8719118800001,18.524155519,0
                98.8718251780001,18.5242133240001,0
                98.8717540820001,18.5242694880001,0
                98.871679483,18.5243636770001,0
                98.8715979520001,18.5244644700001,0
                98.8715251150001,18.524522287,0
                98.871485238,18.5245454080001,0
                98.8714488400001,18.524547037,0
                98.8713985950001,18.524528812,0
                98.8713310510001,18.5244593310001,0
                98.8712895100001,18.5243898620001,0
                98.8712063620001,18.5243302910001,0
                98.871137069,18.524288907,0
                98.8710781760001,18.524242574,0
                98.8710210150001,18.5241995540001,0
                98.8709517290001,18.524144947,0
                98.870920557,18.524116819,0
                98.870878965,18.524115137,0
                98.8708460130001,18.524144875,0
                98.8707454080001,18.5242506160001,0
                98.870658667,18.5243679390001,0
                98.8705823430001,18.524457166,0
                98.87053552,18.524493508,0
                98.8704800310001,18.524524883,0
                98.87042639,18.5245643010001,0
                98.870419338,18.524569479,0
                98.870355176,18.524619031,0
                98.8703256680001,18.5246818360001,0
                98.8703013720001,18.5247231550001,0
                98.870294415,18.5247578660001,0
                98.8702943770001,18.52480912,0
                98.870283939,18.5248554070001,0
                98.8702683260001,18.5248785430001,0
                98.87024232,18.524886791,0
                98.8702093910001,18.5248900720001,0
                98.8701729950001,18.524888397,0
                98.8701348610001,18.5248916740001,0
                98.8701036520001,18.5249098420001,0
                98.8700741750001,18.5249313150001,0
                98.870039481,18.5249726220001,0
                98.869999583,18.525015581,0
                98.8699648770001,18.5250750770001,0
                98.8698798610001,18.525199012,0
                98.8698260990001,18.525240307,0
                98.869782752,18.525265076,0
                98.8697411470001,18.525276621,0
                98.8697030150001,18.525284866,0
                98.869651015,18.5252881320001,0
                98.8695920820001,18.52530132,0
                98.869557414,18.5253079070001,0
                98.869495026,18.525299599,0
                98.8694395650001,18.5252995610001,0
                98.8693789180001,18.5252813330001,0
                98.869302679,18.5252564800001,0
                98.869242032,18.525239904,0
                98.8691796420001,18.525231596,0
                98.8691120510001,18.5252315490001,0
                98.8690323220001,18.5252381080001,0
                98.8689751190001,18.525249639,0
                98.8689404450001,18.5252644940001,0
                98.8689109590001,18.525295886,0
                98.8688970760001,18.5253190240001,0
                98.868886661,18.525340509,0
                98.868869283,18.5253967100001,0
                98.8688484350001,18.5254644820001,0
                98.8687807640001,18.5255702440001,0
                98.8687425890001,18.52562643,0
                98.8686784280001,18.525674333,0
                98.868652421,18.525685889,0
                98.8686108150001,18.5257007390001,0
                98.8685570800001,18.5257089670001,0
                98.868515475,18.525722166,0
                98.868472131,18.525743629,0
                98.8684426520001,18.5257667550001,0
                98.8683767590001,18.525804733,0
                98.868350745,18.5258311650001,0
                98.8683004530001,18.5258708120001,0
                98.8682466970001,18.525908798,0
                98.868208538,18.525945144,0
                98.8681686560001,18.525968263,0
                98.8681561960001,18.525985674,0
                98.868142634,18.526004619,0
                98.8681131230001,18.526062461,0
                98.868041942,18.5262211300001,0
                98.868010703,18.5262773200001,0
                98.8679777420001,18.5263186290001,0
                98.8679482530001,18.526354983,0
                98.867915291,18.526389678,0
                98.867878884,18.526409492,0
                98.8678182140001,18.526422677,0
                98.867698594,18.5264606170001,0
                98.8675720510001,18.5264902860001,0
                98.867521777,18.52651009,0
                98.8674888340001,18.5265282560001,0
                98.8674680140001,18.5265513890001,0
                98.867450653,18.526592706,0
                98.8674419690001,18.526617501,0
                98.867441941,18.526653875,0
                98.8674419120001,18.5266918990001,0
                98.8674418740001,18.5267414950001,0
                98.867440107,18.5267844800001,0
                98.8674331510001,18.5268092760001,0
                98.8674192720001,18.526832411,0
                98.867388056,18.526855536,0
                98.867315239,18.5268902060001,0
                98.8672164220001,18.5269215480001,0
                98.8671123970001,18.5269661150001,0
                98.8670343750001,18.5270057380001,0
                98.8669858230001,18.527035465,0
                98.866971934,18.5270635590001,0
                98.8669563030001,18.5271098420001,0
                98.866935449,18.527182571,0
                98.8669042010001,18.527247027,0
                98.866862574,18.5272883320001,0
                98.8667776170001,18.5273279510001,0
                98.866711744,18.527344439,0
                98.86666668,18.5273493650001,0
                98.8666320170001,18.527347687,0
                98.8665973490001,18.5273542780001,0
                98.8665678770001,18.5273674800001,0
                98.8665262390001,18.527417052,0
                98.8664828460001,18.527499683,0
                98.866434252,18.52758562,0
                98.8664099330001,18.527653389,0
                98.8663821850001,18.5276798250001,0
                98.866328416,18.5277277320001,0
                98.8662763710001,18.527795478,0
                98.866245146,18.527831829,0
                98.8662295340001,18.5278466950001,0
                98.866198335,18.5278466730001,0
                98.86617234,18.527848309,0
                98.8661272800001,18.5278449730001,0
                98.8660544790001,18.5278531870001,0
                98.8659799320001,18.527877935,0
                98.865912317,18.527910954,0
                98.865860297,18.5279390210001,0
                98.8658204160001,18.5279654450001,0
                98.865783992,18.5279984860001,0
                98.8657544860001,18.5280513700001,0
                98.86572499,18.5280959880001,0
                98.8656955040001,18.528119115,0
                98.865650434,18.5281290020001,0
                98.865579369,18.528140525,0
                98.8655134970001,18.5281520500001,0
                98.8654181460001,18.528188351,0
                98.865386937,18.528199902,0
                98.865362653,18.528224687,0
                98.8653470310001,18.5282577410001,0
                98.865341798,18.5282974150001,0
                98.8653487030001,18.5283371030001,0
                98.8653590600001,18.528390013,0
                98.8653780750001,18.528451202,0
                98.8654144210001,18.5285173550001,0
                98.8654680970001,18.528583526,0
                98.865504462,18.528624886,0
                98.8655546850001,18.5286761740001,0
                98.86561011,18.5287225060001,0
                98.8656689950001,18.5287787560001,0
                98.8657417380001,18.528839981,0
                98.8657815750001,18.528874731,0
                98.8658474100001,18.5289061890001,0
                98.865887264,18.5289210990001,0
                98.865940977,18.5289409760001,0
                98.8659842910001,18.5289591910001,0
                98.8660484010001,18.528984037,0
                98.8660813180001,18.5290005910001,0
                98.8661281030001,18.5290155060001,0
                98.866174877,18.5290370320001,0
                98.866219271,18.529067856,0
                98.866228348,18.529092663,0
                98.8662439340001,18.529112512,0
                98.86627251,18.5291373330001,0
                98.8662880910001,18.5291596640001,0
                98.866312764,18.5291906780001,0
                98.8663400350001,18.5292303790001,0
                98.8663621100001,18.529257671,0
                98.8663854820001,18.52929117,0
                98.8663997520001,18.5293246580001,0
                98.8664127120001,18.5293755050001,0
                98.866419185,18.5294089870001,0
                98.8664217610001,18.5294412280001,0
                98.8664334310001,18.5294771980001,0
                98.8664528960001,18.5295206100001,0
                98.866467168,18.529554101,0
                98.866497021,18.529611157,0
                98.866519092,18.529648375,0
                98.8665398690001,18.529674427,0
                98.8665593490001,18.529700479,0
                98.866593128,18.5297253040001,0
                98.8666165120001,18.529742678,0
                98.8666424890001,18.5297687360001,0
                98.8666645640001,18.529796032,0
                98.8666723380001,18.529833239,0
                98.8666827070001,18.5298654850001,0
                98.866687884,18.529897728,0
                98.866687852,18.529938648,0
                98.8666826370001,18.5299560020001,0
                98.8666813140001,18.529987003,0
                98.8666800030001,18.5300043600001,0
                98.8666929870001,18.530025449,0
                98.8667150680001,18.530044065,0
                98.8667436480001,18.530068882,0
                98.866783915,18.5301061110001,0
                98.8667929970001,18.5301259560001,0
                98.8668007860001,18.530143319,0
                98.866796869,18.530166879,0
                98.8667877550001,18.53018423,0
                98.8667812400001,18.5302015880001,0
                98.8667682270001,18.530218936,0
                98.8667552140001,18.5302424860001,0
                98.866736996,18.5302672720001,0
                98.866734374,18.530294552,0
                98.8667395590001,18.5303094330001,0
                98.866764247,18.530325571,0
                98.86678893,18.530341707,0
                98.8668110180001,18.5303578420001,0
                98.8668279090001,18.530367776,0
                98.8668356900001,18.5303901020001,0
                98.8668460740001,18.5304087060001,0
                98.866856451,18.5304434340001,0
                98.866861638,18.530455838,0
                98.8668642220001,18.5304781570001,0
                98.8668641960001,18.530511636,0
                98.86686417,18.530545117,0
                98.8668649480001,18.5305686090001,0
                98.8668880330001,18.530599485,0
                98.8669041910001,18.530621539,0
                98.8669295920001,18.530645807,0
                98.8669573000001,18.5306722770001,0
                98.8669572760001,18.530703142,0
                98.866961868,18.530745027,0
                98.8669595220001,18.5307869100001,0
                98.8669479310001,18.5308353950001,0
                98.8669317170001,18.5308860870001,0
                98.8669293740001,18.530927967,0
                98.8669455140001,18.530976477,0
                98.8669893840001,18.5310205970001,0
                98.867047115,18.531073543,0
                98.8670910000001,18.5311088440001,0
                98.8671164090001,18.53112429,0
                98.8671210090001,18.5311485440001,0
                98.867111735,18.531190419,0
                98.8671070760001,18.5312345030001,0
                98.8670885350001,18.5313050340001,0
                98.8670723050001,18.531373354,0
                98.8670445100001,18.5314593100001,0
                98.867037537,18.5315055940001,0
                98.867030572,18.531549678,0
                98.8670397830001,18.5315937710001,0
                98.8670651730001,18.5316334710001,0
                98.8671205830001,18.531699643,0
                98.8671898750001,18.531748184,0
                98.867256845,18.531807751,0
                98.867321507,18.53186952,0
                98.8673815430001,18.531929081,0
                98.8674600360001,18.5320305400001,0
                98.8674900510001,18.5320680340001,0
                98.8674992570001,18.5321165390001,0
                98.867485349,18.532169432,0
                98.8674367690001,18.532239937,0
                98.867415926,18.532297237,0
                98.867411281,18.5323258930001,0
                98.867427433,18.532354561,0
                98.867457442,18.5324008740001,0
                98.867501298,18.5324670370001,0
                98.867526647,18.5325618420001,0
                98.8675358310001,18.5326390020001,0
                98.8675496500001,18.532700737,0
                98.867563493,18.5327316090001,0
                98.867591206,18.532751467,0
                98.8676212410001,18.532764715,0
                98.8676766880001,18.532784593,0
                98.8677367670001,18.532793451,0
                98.867776044,18.5328022950001,0
                98.8677968370001,18.532808926,0
                98.8678176130001,18.532837595,0
                98.867829133,18.532881692,0
                98.8678475560001,18.532969881,0
                98.8678659600001,18.5330779080001,0
                98.867875165,18.533126413,0
                98.8678936260001,18.5331638970001,0
                98.8679467430001,18.533208023,0
                98.867985999,18.533249933,0
                98.868022936,18.533300662,0
                98.868055235,18.5333712230001,0
                98.868089834,18.533457222,0
                98.8681128950001,18.533521165,0
                98.8681636690001,18.533604966,0
                98.868214445,18.533690973,0
                98.868276769,18.533783602,0
                98.86831369,18.5338563710001,0
                98.8683144880001,18.533871451,0
                98.868359426,18.533881755,0
                98.8684024900001,18.533868818,0
                98.8685090320001,18.5338148550001,0
                98.8686200980001,18.533773863,0
                98.8687515830001,18.5336939800001,0
                98.8688173460001,18.533631342,0
                98.868892196,18.5335341300001,0
                98.8689216860001,18.5334930820001,0
                98.868938675,18.5334785150001,0
                98.8689522620001,18.533479576,0
                98.8689760650001,18.533497443,0
                98.8690417480001,18.5335385590001,0
                98.8690892880001,18.533594785,0
                98.869157219,18.5336596770001,0
                98.8692206330001,18.533705115,0
                98.869299878,18.533787304,0
                98.8694877130001,18.5341051730001,0
                98.8696552000001,18.5343689850001,0
                98.869770622,18.5345527910001,0
                98.8699879910001,18.534773412,0
                98.8701125000001,18.534935606,0
                98.8702233750001,18.5351410230001,0
                98.8702301310001,18.535155318,0
                98.8704227790001,18.535376156,0
                98.870595166,18.535595733,0
                98.8707889790001,18.536014213,0
                98.8708893770001,18.536357192,0
                98.8710469060001,18.5368845240001,0
                98.871075847,18.5369814150001,0
                98.8714562820001,18.537825228,0
                98.8715540740001,18.538089207,0
                98.8715752020001,18.5381231550001,0
                98.8716724590001,18.5382160610001,0
                98.8717921310001,18.53837801,0
                98.8718125520001,18.5384135310001,0
                98.874559714,18.539826889,0
                98.8750839840001,18.540272015,0
                98.87531671,18.54085594,0
                98.8754541700001,18.541609108,0
                98.8754628350001,18.541628637,0
                98.8757011420001,18.5419131680001,0
                98.876313349,18.5424784260001,0
                98.8778633780001,18.5451868320001,0
                98.8778631700001,18.5454789980001,0
                98.877760746,18.5459269140001,0
                98.87747577,18.5462737400001,0
                98.8777129060001,18.546260154,0
                98.877848541,18.5462171300001,0
                98.8780412770001,18.5460663320001,0
                98.8784120180001,18.5456474970001,0
                98.878489705,18.545433904,0
                98.87849851,18.5451709600001,0
                98.8785072730001,18.5449573180001,0
                98.8785247210001,18.544653296,0
                98.878593858,18.5443410880001,0
                98.878740484,18.5441028860001,0
                98.8789646290001,18.543881168,0
                98.8791197230001,18.5438401800001,0
                98.8795505690001,18.5437007620001,0
                98.8797315070001,18.54366801,0
                98.8800762560001,18.543454583,0
                98.8808950120001,18.54296207,0
                98.8816535010001,18.542420216,0
                98.8817880060001,18.54235326,0
                98.882032682,18.5422314620001,0
                98.8826273450001,18.5418867070001,0
                98.8831013500001,18.54160762,0
                98.8834460420001,18.5414681410001,0
                98.8840061530001,18.541246626,0
                98.8850952670001,18.5408088900001,0
                98.8855038510001,18.5405364490001,0
                98.8856673820001,18.540283339,0
                98.88581594,18.5400475070001,0
                98.885851395,18.5399344300001,0
                98.8858515780001,18.5396601640001,0
                98.8856884890001,18.539251032,0
                98.8855050320001,18.5387639790001,0
                98.8853828100001,18.538315917,0
                98.885219787,18.537809399,0
                98.8849137280001,18.5374586140001,0
                98.884464661,18.537205134,0
                98.884240262,18.5368738710001,0
                98.8842608250001,18.5366596310001,0
                98.8844039480001,18.536387028,0
                98.884281603,18.5361337470001,0
                98.884179583,18.5360168170001,0
                98.8841089890001,18.535781308,0
                98.884128499,18.5357050160001,0
                98.8841920930001,18.535645538,0
                98.8850611130001,18.5355942620001,0
                98.8865987520001,18.5354377030001,0
                98.888126103,18.535231907,0
                98.890551336,18.5348199200001,0
                98.8921200020001,18.5345353760001,0
                98.8933894680001,18.5341620610001,0
                98.8942978790001,18.533601521,0
                98.8949276340001,18.533109719,0
                98.895567698,18.532627764,0
                98.8963109700001,18.532106492,0
                98.897064496,18.5316836530001,0
                98.8978075080001,18.531585626,0
                98.898261522,18.531605557,0
                98.898767042,18.531783003,0
                98.8994890820001,18.5322558560001,0
                98.8999325990001,18.532590756,0
                98.9000979950001,18.5327694860001,0
                98.900240296,18.5324743090001,0
                98.9003065360001,18.5324446170001,0
                98.9004233940001,18.532448392,0
                98.9007894820001,18.5325749250001,0
                98.9013542280001,18.532727563,0
                98.9018411260001,18.5327686910001,0
                98.9020943140001,18.532791119,0
                98.9021955750001,18.5328246130001,0
                98.90285744,18.5334380520001,0
                98.9029509170001,18.5334641110001,0
                98.903040516,18.5334567240001,0
                98.903208061,18.533382497,0
                98.9033093400001,18.5333825490001,0
                98.903430073,18.533427196,0
                98.9037766550001,18.5336205940001,0
                98.9041855080001,18.5339143460001,0
                98.9043178480001,18.5340964860001,0
                98.9043995330001,18.5343120380001,0
                98.9044929680001,18.534412413,0
                98.9046136950001,18.534464493,0
                98.904761723,18.534468281,0
                98.9050305680001,18.53435323,0
                98.9051357430001,18.5343607140001,0
                98.9059067350001,18.534907318,0
                98.906019632,18.535037425,0
                98.9060896660001,18.5351898060001,0
                98.9062375950001,18.5353645180001,0
                98.906743856,18.5356434500001,0
                98.9068957540001,18.535684401,0
                98.9069853550001,18.535669581,0
                98.9071996770001,18.5355433500001,0
                98.907382784,18.535502567,0
                98.9075113280001,18.5355137770001,0
                98.9076515190001,18.5355918760001,0
                98.907779997,18.535725703,0
                98.9078890390001,18.53578521,0
                98.9079708340001,18.535803828,0
                98.908130526,18.53584478,0
                98.908161664,18.5358931000001,0
                98.9082005440001,18.536030602,0
                98.9082861130001,18.5362721650001,0
                98.908453314,18.536848191,0
                98.9085972510001,18.5372198360001,0
                98.9087023450001,18.537372229,0
                98.9088697590001,18.5375432390001,0
                98.909087835,18.537684541,0
                98.9092241260001,18.537777498,0
                98.9092786180001,18.537859273,0
                98.9093330370001,18.538089676,0
                98.9093796180001,18.538401821,0
                98.9094301630001,18.5385839140001,0
                98.9094456980001,18.53867682,0
                98.9094963050001,18.53874001,0
                98.9095702830001,18.5388143590001,0
                98.909640359,18.5388924260001,0
                98.9097298660001,18.539059675,0
                98.9097882520001,18.5391525970001,0
                98.9099479170001,18.5392529970001,0
                98.910064746,18.5393236530001,0
                98.9102478140001,18.5393609000001,0
                98.9104114080001,18.5393981330001,0
                98.9104503470001,18.5394353070001,0
                98.9104464160001,18.539498473,0
                98.9104424540001,18.5396248100001,0
                98.9104579660001,18.539758582,0
                98.90929485,18.547005084,0
                98.9099522910001,18.5470184810001,0
                98.9101236480001,18.5470705770001,0
                98.9102560220001,18.547189523,0
                98.910318298,18.547278718,0
                98.9104039920001,18.5472713300001,0
                98.911354423,18.547227198,0
                98.9115335560001,18.5473090130001,0
                98.911728237,18.5474577140001,0
                98.91195414,18.5474875410001,0
                98.9123903860001,18.547495172,0
                98.912803254,18.547532516,0
                98.9133562630001,18.54772596,0
                98.9137767980001,18.5480010740001,0
                98.9141583480001,18.5483430460001,0
                98.914438633,18.548677539,0
                98.9149448140001,18.5490567140001,0
                98.9154509290001,18.5495770700001,0
                98.915925981,18.5499042180001,0
                98.9162997770001,18.5501941680001,0
                98.9165411660001,18.550424616,0
                98.916727978,18.5507442000001,0
                98.9169147700001,18.5511158040001,0
                98.9170002750001,18.551502215,0
                98.9171792830001,18.551858951,0
                98.91745174,18.552297464,0
                98.9175918160001,18.552617033,0
                98.9176228040001,18.5529811320001,0
                98.917529017,18.553605239,0
                98.9173418020001,18.55410299,0
                98.9169986380001,18.5548904620001,0
                98.916554245,18.5555664250001,0
                98.9162968940001,18.5561087290001,0
                98.9160782230001,18.557193463,0
                98.9159765890001,18.557921594,0
                98.9159598360001,18.5582277610001,0
                98.9160167920001,18.55847263,0
                98.9162125030001,18.5588463830001,0
                98.9166335040001,18.5592015500001,0
                98.916868412,18.559547292,0
                98.917279476,18.5601920400001,0
                98.917494794,18.5605471150001,0
                98.9175436610001,18.5607713360001,0
                98.917484497,18.5615840290001,0
                98.9173266660001,18.5639006690001,0
                98.917297406,18.5640392870001,0
                98.9172333990001,18.5641551410001,0
                98.9171118470001,18.5642587680001,0
                98.915992358,18.5649962480001,0
                98.9159859330001,18.565063335,0
                98.9160306200001,18.5652219290001,0
                98.9172255590001,18.567149731,0
                98.917877403,18.5681075520001,0
                98.9180626770001,18.5684918650001,0
                98.9182734930001,18.5689676760001,0
                98.9188741930001,18.569907175,0
                98.9193087950001,18.570492862,0
                98.91948504,18.570788501,0
                98.9196711430001,18.571017393,0
                98.919753497,18.571044751,0
                98.9199898310001,18.5710721730001,0
                98.9201115750001,18.571092713,0
                98.9204087670001,18.5711679730001,0
                98.920820539,18.5712671810001,0
                98.9213504780001,18.57138352,0
                98.921773009,18.5714519970001,0
                98.9220487380001,18.5714725990001,0
                98.9222313660001,18.571479508,0
                98.9223710360001,18.571459073,0
                98.9228151350001,18.571349975,0
                98.923377417,18.571220425,0
                98.9237212230001,18.5711590930001,0
                98.924011297,18.5711387210001,0
                98.9244804210001,18.571104759,0
                98.924920882,18.571118594,0
                98.9257122670001,18.5711769640001,0
                98.9261777730001,18.571242037,0
                98.9265107840001,18.5712933900001,0
                98.926515845,18.5712928950001,0
                98.926611913,18.5713657530001,0
                98.926731444,18.5714198060001,0
                98.92711524,18.5715249730001,0
                98.9274770220001,18.571615127,0
                98.9276594630001,18.571705212,0
                98.9278136040001,18.571762279,0
                98.9279142880001,18.5717563150001,0
                98.9280338620001,18.571723354,0
                98.9281314130001,18.571675386,0
                98.9282108680001,18.571630375,0
                98.928279086,18.5716070500001,0
                98.9283265110001,18.5716034490001,0
                98.9284523630001,18.5716034970001,0
                98.9285498870001,18.5716185370001,0
                98.928556449,18.5716205420001,0
                98.9286319110001,18.5716577800001,0
                98.9286981660001,18.571691011,0
                98.9287610420001,18.5717381640001,0
                98.9288351450001,18.5718013910001,0
                98.928910365,18.571888179,0
                98.9290518080001,18.5720778260001,0
                98.929138245,18.5721967580001,0
                98.9291943700001,18.5722728310001,0
                98.9292538750001,18.5723467610001,0
                98.9293223590001,18.5724132,0
                98.9294009580001,18.5724721390001,0
                98.929488543,18.5725396560001,0
                98.9296154190001,18.5726468180001,0
                98.9297099230001,18.5727220540001,0
                98.9297924260001,18.5727957140001,0
                98.929898875,18.572907468,0
                98.9299893660001,18.5729862150001,0
                98.930055898,18.5730522530001,0
                98.9301277610001,18.5731106760001,0
                98.9302388880001,18.5731868990001,0
                98.9303647260001,18.573282631,0
                98.9305673260001,18.5734352860001,0
                98.930708075,18.573551298,0
                98.9307677830001,18.5736082870001,0
                98.930865866,18.573728353,0
                98.930970351,18.5738443500001,0
                98.9310812290001,18.573976632,0
                98.9311494620001,18.5740437910001,0
                98.931200645,18.5740906,0
                98.9312368860001,18.574149613,0
                98.9313456150001,18.574330714,0
                98.931420227,18.57445281,0
                98.9314500690001,18.574519955,0
                98.9314713740001,18.574589132,0
                98.9314884070001,18.574670516,0
                98.9315033080001,18.574755968,0
                98.931528873,18.574843457,0
                98.9315693500001,18.5749757080001,0
                98.9315970420001,18.5750835440001,0
                98.9316226030001,18.575177132,0
                98.9316417850001,18.5752300350001,0
                98.9317121160001,18.575394847,0
                98.9317803100001,18.5755759370001,0
                98.9318186710001,18.575669534,0
                98.9318506530001,18.575714304,0
                98.9318954300001,18.5757712830001,0
                98.931961533,18.5758506510001,0
                98.9321811660001,18.576094859,0
                98.9323560240001,18.576288193,0
                98.932528748,18.5764774530001,0
                98.932633239,18.5765832810001,0
                98.9328315490001,18.576801034,0
                98.9329914890001,18.5769679110001,0
                98.9332388540001,18.577216202,0
                98.9334563670001,18.577448201,0
                98.9335437970001,18.5775357110001,0
                98.9336951920001,18.577729037,0
                98.9337293080001,18.5777717710001,0
                98.9337932830001,18.577828755,0
                98.9338679310001,18.577887778,0
                98.9339404240001,18.5779813890001,0
                98.9340171900001,18.578077034,0
                98.934091815,18.578190985,0
                98.9341451160001,18.578268311,0
                98.9341962990001,18.578319191,0
                98.9343498580001,18.578423002,0
                98.9344564880001,18.578514586,0
                98.9345652580001,18.5785980360001,0
                98.934622844,18.578636707,0
                98.9347252270001,18.5786794690001,0
                98.934985457,18.5787853470001,0
                98.9351198400001,18.5788362550001,0
                98.9352840760001,18.578915651,0
                98.9353477080001,18.5789533130001,0
                98.935387516,18.5789885880001,0
                98.935444384,18.5790455700001,0
                98.9355097920001,18.5790889950001,0
                98.9356519900001,18.5791595700001,0
                98.935783959,18.5792284770001,0
                98.9358558580001,18.5792732400001,0
                98.9359590270001,18.5793655730001,0
                98.9362326070001,18.579610416,0
                98.93649808,18.5798767950001,0
                98.93659762,18.5800053200001,0
                98.936652264,18.5800928570001,0
                98.9366893280001,18.5801952890001,0
                98.9367302860001,18.5803312420001,0
                98.9367692920001,18.580456015,0
                98.9368083240001,18.58051562,0
                98.936841509,18.5805565970001,0
                98.936946913,18.5806665000001,0
                98.937075742,18.5808117890001,0
                98.9372084710001,18.580971979,0
                98.9372884910001,18.5810762880001,0
                98.937337293,18.581128445,0
                98.9374641900001,18.5812066980001,0
                98.9375598540001,18.5812719040001,0
                98.937680888,18.5813650530001,0
                98.9377823820001,18.58149171,0
                98.9378741070001,18.581646301,0
                98.9379365520001,18.5817636360001,0
                98.937995083,18.5819051780001,0
                98.9380692460001,18.582024383,0
                98.9381395060001,18.582126825,0
                98.9382702810001,18.582294462,0
                98.938412768,18.582462102,0
                98.9386021240001,18.582637203,0
                98.9387016890001,18.582715448,0
                98.9389379020001,18.5829073260001,0
                98.9391662990001,18.583119686,0
                98.9394259380001,18.583339504,0
                98.9396582510001,18.5835220710001,0
                98.939900347,18.583665533,0
                98.9400994680001,18.5838406400001,0
                98.9402888320001,18.5839859480001,0
                98.9404508520001,18.5841629020001,0
                98.9405172250001,18.5842187860001,0
                98.940587512,18.5842672260001,0
                98.9407983740001,18.5843697120001,0
                98.940960434,18.584434936,0
                98.941073669,18.58450946,0
                98.9411517600001,18.584554172,0
                98.9412689160001,18.584598902,0
                98.9415559330001,18.5847163060001,0
                98.9419991550001,18.584887764,0
                98.942334998,18.584992148,0
                98.9426083500001,18.5850909220001,0
                98.942727458,18.585137515,0
                98.9429676020001,18.5852772480001,0
                98.9431296540001,18.5853704040001,0
                98.943369777,18.5855809,0
                98.943482998,18.585703838,0
                98.9435806000001,18.5858211820001,0
                98.9437094350001,18.585966468,0
                98.9438987810001,18.5861955720001,0
                98.9440881290001,18.586415361,0
                98.9442423470001,18.586586723,0
                98.9443868020001,18.58674505,0
                98.9444707390001,18.586851218,0
                98.9445976200001,18.587000226,0
                98.9447100550001,18.587128966,0
                98.9447440260001,18.5871678620001,0
                98.9451559220001,18.5876167650001,0
                98.9454077340001,18.5879371240001,0
                98.9455287640001,18.588086133,0
                98.9455694050001,18.58811716,0
                98.945632474,18.588190006,0
                98.9456980020001,18.5882297970001,0
                98.9457767050001,18.588257513,0
                98.946256588,18.588287129,0
                98.946652165,18.588307522,0
                98.946979018,18.5883381140001,0
                98.9472558020001,18.5883768410001,0
                98.9474407800001,18.5883808580001,0
                98.947571855,18.5884007820001,0
                98.9477979910001,18.588490931,0
                98.9478200610001,18.5884952440001,0
                98.9479013330001,18.5884993440001,0
                98.948089049,18.588495563,0
                98.9481930920001,18.588522552,0
                98.94831064,18.588585638,0
                98.9484704480001,18.5887055220001,0
                98.9485307,18.5887342710001,0
                98.948615046,18.588774518,0
                98.9489391390001,18.5889380790001,0
                98.9491000040001,18.5889835740001,0
                98.949377052,18.589043308,0
                98.9494986130001,18.5890659230001,0
                98.9498471380001,18.589099543,0
                98.949975823,18.5891005980001,0
                98.9502281750001,18.589083569,0
                98.9503248990001,18.5890710680001,0
                98.9504740780001,18.5890782930001,0
                98.950503176,18.589077699,0
                98.9506148340001,18.5890899450001,0
                98.9512925550001,18.589199089,0
                98.9517030100001,18.589255979,0
                98.9519518370001,18.589286465,0
                98.952181528,18.589298689,0
                98.9524665220001,18.589286596,0
                98.9525005500001,18.589294717,0
                98.9526174950001,18.58939209,0
                98.9528365040001,18.589590893,0
                98.9529042520001,18.589635124,0
                98.9531187480001,18.5896692640001,0
                98.9531604490001,18.589697686,0
                98.953344717,18.5899134800001,0
                98.9535743380001,18.590185293,0
                98.9538528620001,18.5905159340001,0
                98.9539336660001,18.590578823,0
                98.954061246,18.5906782270001,0
                98.9541501200001,18.590804199,0
                98.9542844790001,18.590994654,0
                98.954441806,18.5912076380001,0
                98.9546097840001,18.59136384,0
                98.954860705,18.5915220840001,0
                98.955055444,18.5916332190001,0
                98.9553085370001,18.5917776520001,0
                98.95542693,18.5919612800001,0
                98.9554711100001,18.5920647630001,0
                98.9555593480001,18.5922633230001,0
                98.9556112550001,18.592380125,0
                98.9556558500001,18.592559162,0
                98.955638815,18.5927248990001,0
                98.9556451750001,18.592795881,0
                98.9556515190001,18.592931761,0
                98.955700402,18.593063597,0
                98.9557960390001,18.5933333460001,0
                98.955870427,18.593552393,0
                98.9558874030001,18.593702475,0
                98.9558639460001,18.5939275810001,0
                98.955859655,18.5940857680001,0
                98.9558638650001,18.5942419250001,0
                98.955895743,18.594349423,0
                98.9559829040001,18.594507627,0
                98.9562018920001,18.59481594,0
                98.956312466,18.594899116,0
                98.9565460690001,18.59502916,0
                98.9571014480001,18.595250149,0
                98.9571615560001,18.595287784,0
                98.9575003680001,18.5957003190001,0
                98.957572014,18.595784199,0
                98.95762962,18.595818805,0
                98.9578221820001,18.595857214,0
                98.9578669680001,18.595862788,0
                98.9580909410001,18.5958589470001,0
                98.9584454970001,18.5957959940001,0
                98.958536952,18.595793986,0
                98.9587262480001,18.595791998,0
                98.958898516,18.595826516,0
                98.95959336,18.595869656,0
                98.959705865,18.59584892,0
              </coordinates>
                
            </LinearRing>
            
          </outerBoundaryIs>
        
        </Polygon>
        
      <styleUrl>
        #tambonStyle</styleUrl>
    </Placemark>

  </Document>
</kml>