<?xml version="1.0" encoding="UTF-8"?>
<kml xmlns="http://www.opengis.net/kml/2.2">
  <Document id="tambon_doc">
    <name>ตลาดน้อย, สัมพันธวงศ์, Bangkok</name>
    <description>ข้อมูลขอบเขตตำบลตลาดน้อย อำเภอสัมพันธวงศ์ จังหวัดBangkok</description>
    
    <!-- Schema สำหรับข้อมูลตำบล -->
    <Schema id="tambon.schema">
      <SimpleField name="ADM3_EN" type="string">
        <displayName>Subdistrict Name (English)</displayName>
      </SimpleField>
      <SimpleField name="ADM3_TH" type="string">
        <displayName>ชื่อตำบล</displayName>
      </SimpleField>
      <SimpleField name="ADM2_EN" type="string">
        <displayName>District Name (English)</displayName>
      </SimpleField>
      <SimpleField name="ADM2_TH" type="string">
        <displayName>ชื่ออำเภอ</displayName>
      </SimpleField>
      <SimpleField name="ADM1_EN" type="string">
        <displayName>Province Name (English)</displayName>
      </SimpleField>
      <SimpleField name="ADM1_TH" type="string">
        <displayName>ชื่อจังหวัด</displayName>
      </SimpleField>
      <SimpleField name="ADM0_EN" type="string">
        <displayName>Country Name (English)</displayName>
      </SimpleField>
      <SimpleField name="ADM0_TH" type="string">
        <displayName>ชื่อประเทศ</displayName>
      </SimpleField>
    </Schema>

    <!-- Style สำหรับตำบล -->
    <Style id="tambonStyle">
      <LineStyle>
        <color>ffff0000</color>
        <width>1.5</width>
      </LineStyle>
      <PolyStyle>
        <color>33ff0000</color>
        <fill>1</fill>
        <outline>1</outline>
      </PolyStyle>
    </Style>

    <Placemark id="Bangkok.57">
        
        <ExtendedData>
            
          <SchemaData schemaUrl="#tambon.schema">
                
            <SimpleData name="Shape_Leng">
                0.0295760559052</SimpleData>
                
            <SimpleData name="Shape_Area">
                3.37789403794e-05</SimpleData>
                
            <SimpleData name="ADM3_EN">
                Talat Noi</SimpleData>
                
            <SimpleData name="ADM3_TH">
                ตลาดน้อย</SimpleData>
                
            <SimpleData name="ADM3_PCODE">
                TH101303</SimpleData>
                
            <SimpleData name="ADM2_EN">
                Samphanthawong</SimpleData>
                
            <SimpleData name="ADM2_TH">
                สัมพันธวงศ์</SimpleData>
                
            <SimpleData name="ADM2_PCODE">
                TH1013</SimpleData>
                
            <SimpleData name="ADM1_EN">
                Bangkok</SimpleData>
                
            <SimpleData name="ADM1_TH">
                กรุงเทพมหานคร</SimpleData>
                
            <SimpleData name="ADM1_PCODE">
                TH10</SimpleData>
                
            <SimpleData name="ADM0_EN">
                Thailand</SimpleData>
                
            <SimpleData name="ADM0_TH">
                ประเทศไทย</SimpleData>
                
            <SimpleData name="ADM0_PCODE">
                TH</SimpleData>
            
          </SchemaData>
        
        </ExtendedData>
        
        <Polygon>
            
          <outerBoundaryIs>
                
            <LinearRing>
                    
              <coordinates>
                    
                100.515858392,13.736247489,0
                100.515909321,13.735720642,0
                100.515906191,13.7352336610001,0
                100.515845949,13.7343108810001,0
                100.515822746,13.734118933,0
                100.515697233,13.733293745,0
                100.515647776,13.7330590070001,0
                100.515502248,13.7324429450001,0
                100.51540907,13.732216914,0
                100.515064232,13.731483005,0
                100.514938703,13.7312788030001,0
                100.514112983,13.730390426,0
                100.513863357,13.730121856,0
                100.513649034,13.7299281590001,0
                100.513437627,13.729737093,0
                100.513409172,13.7297113830001,0
                100.513283296,13.729629177,0
                100.512964177,13.72954694,0
                100.512298349,13.7293925870001,0
                100.512129863,13.7300625240001,0
                100.512019392,13.730402467,0
                100.511615811,13.7316443560001,0
                100.511464132,13.7319765510001,0
                100.511317268,13.732298203,0
                100.510922378,13.7330913500001,0
                100.510622854,13.733566459,0
                100.510307991,13.7340658910001,0
                100.509835038,13.7348160760001,0
                100.510319856,13.7349092640001,0
                100.510586804,13.734957502,0
                100.510921301,13.7350130670001,0
                100.51097413,13.7350274930001,0
                100.511087573,13.7350584710001,0
                100.511170869,13.7350812180001,0
                100.511354145,13.7351844460001,0
                100.511567724,13.7357508480001,0
                100.511624607,13.736072081,0
                100.511662858,13.7362880910001,0
                100.512091214,13.7361808580001,0
                100.512755371,13.736019738,0
                100.513151829,13.736109933,0
                100.513472477,13.7361825780001,0
                100.513483819,13.7361850300001,0
                100.513578938,13.7362056220001,0
                100.513495525,13.736445686,0
                100.513327307,13.7369777810001,0
                100.513304614,13.7370445990001,0
                100.513236096,13.7372608480001,0
                100.513205456,13.7373514110001,0
                100.51309106,13.7377182160001,0
                100.513060446,13.7378121880001,0
                100.513035117,13.737902014,0
                100.512984199,13.73808272,0
                100.512946165,13.7381947980001,0
                100.512869685,13.7384348370001,0
                100.512777795,13.738706564,0
                100.512610238,13.7392476850001,0
                100.512442596,13.7397865780001,0
                100.512274331,13.7404022690001,0
                100.513081268,13.739774535,0
                100.513312321,13.739594794,0
                100.513441684,13.7394923250001,0
                100.513556115,13.7393989340001,0
                100.513838338,13.739159923,0
                100.514342018,13.7387568450001,0
                100.514624362,13.7385370280001,0
                100.514754316,13.738436806,0
                100.514942436,13.7383041730001,0
                100.515120489,13.7382123290001,0
                100.515329293,13.738141408,0
                100.515334999,13.73813947,0
                100.515687797,13.738046738,0
                100.515692081,13.7378860370001,0
                100.515703483,13.7374583050001,0
                100.515756819,13.7368074190001,0
                100.515858392,13.736247489,0
              </coordinates>
                
            </LinearRing>
            
          </outerBoundaryIs>
        
        </Polygon>
        
      <styleUrl>
        #tambonStyle</styleUrl>
    </Placemark>

  </Document>
</kml>