<?xml version="1.0" encoding="UTF-8"?>
<kml xmlns="http://www.opengis.net/kml/2.2">
  <Document id="tambon_doc">
    <name>สามบัณฑิต, อุทัย, Phra Nakhon Si Ayutthaya</name>
    <description>ข้อมูลขอบเขตตำบลสามบัณฑิต อำเภออุทัย จังหวัดPhra Nakhon Si Ayutthaya</description>
    
    <!-- Schema สำหรับข้อมูลตำบล -->
    <Schema id="tambon.schema">
      <SimpleField name="ADM3_EN" type="string">
        <displayName>Subdistrict Name (English)</displayName>
      </SimpleField>
      <SimpleField name="ADM3_TH" type="string">
        <displayName>ชื่อตำบล</displayName>
      </SimpleField>
      <SimpleField name="ADM2_EN" type="string">
        <displayName>District Name (English)</displayName>
      </SimpleField>
      <SimpleField name="ADM2_TH" type="string">
        <displayName>ชื่ออำเภอ</displayName>
      </SimpleField>
      <SimpleField name="ADM1_EN" type="string">
        <displayName>Province Name (English)</displayName>
      </SimpleField>
      <SimpleField name="ADM1_TH" type="string">
        <displayName>ชื่อจังหวัด</displayName>
      </SimpleField>
      <SimpleField name="ADM0_EN" type="string">
        <displayName>Country Name (English)</displayName>
      </SimpleField>
      <SimpleField name="ADM0_TH" type="string">
        <displayName>ชื่อประเทศ</displayName>
      </SimpleField>
    </Schema>

    <!-- Style สำหรับตำบล -->
    <Style id="tambonStyle">
      <LineStyle>
        <color>ffff0000</color>
        <width>1.5</width>
      </LineStyle>
      <PolyStyle>
        <color>33ff0000</color>
        <fill>1</fill>
        <outline>1</outline>
      </PolyStyle>
    </Style>

    <Placemark id="Phra_Nakhon_Si_Ayutthaya.184">
        
        <ExtendedData>
            
          <SchemaData schemaUrl="#tambon.schema">
                
            <SimpleData name="Shape_Leng">
                0.202308078432</SimpleData>
                
            <SimpleData name="Shape_Area">
                0.0013953797604</SimpleData>
                
            <SimpleData name="ADM3_EN">
                Sam Bandit</SimpleData>
                
            <SimpleData name="ADM3_TH">
                สามบัณฑิต</SimpleData>
                
            <SimpleData name="ADM3_PCODE">
                TH141403</SimpleData>
                
            <SimpleData name="ADM2_EN">
                Uthai</SimpleData>
                
            <SimpleData name="ADM2_TH">
                อุทัย</SimpleData>
                
            <SimpleData name="ADM2_PCODE">
                TH1414</SimpleData>
                
            <SimpleData name="ADM1_EN">
                Phra Nakhon Si Ayutthaya</SimpleData>
                
            <SimpleData name="ADM1_TH">
                พระนครศรีอยุธยา</SimpleData>
                
            <SimpleData name="ADM1_PCODE">
                TH14</SimpleData>
                
            <SimpleData name="ADM0_EN">
                Thailand</SimpleData>
                
            <SimpleData name="ADM0_TH">
                ประเทศไทย</SimpleData>
                
            <SimpleData name="ADM0_PCODE">
                TH</SimpleData>
            
          </SchemaData>
        
        </ExtendedData>
        
        <Polygon>
            
          <outerBoundaryIs>
                
            <LinearRing>
                    
              <coordinates>
                    
                100.752992431,14.362511537,0
                100.753941506,14.3615030390001,0
                100.754449858,14.361065442,0
                100.75442401,14.3607399590001,0
                100.754424602,14.360558928,0
                100.754424659,14.3605406670001,0
                100.754407322,14.3602550730001,0
                100.754382544,14.3600591910001,0
                100.754326352,14.359588963,0
                100.754316387,14.3594427300001,0
                100.754322928,14.359118656,0
                100.754335537,14.3587974880001,0
                100.754348919,14.358535003,0
                100.754359129,14.3583348350001,0
                100.754364867,14.3579076710001,0
                100.754366742,14.3577603740001,0
                100.7543308,14.3575569920001,0
                100.75429689,14.357362113,0
                100.754280049,14.3572799020001,0
                100.754269473,14.357227849,0
                100.754271107,14.3571805,0
                100.754279038,14.3571501960001,0
                100.754295411,14.357114546,0
                100.754356427,14.357078345,0
                100.754527694,14.357074234,0
                100.75503062,14.3570467800001,0
                100.755385355,14.356998592,0
                100.755662767,14.356939245,0
                100.755915182,14.3568740860001,0
                100.756198523,14.356784959,0
                100.75653299,14.356662483,0
                100.756816089,14.3565430300001,0
                100.757117875,14.3563918020001,0
                100.757484044,14.356171515,0
                100.757653588,14.3560595020001,0
                100.757927766,14.355837266,0
                100.758035733,14.355743031,0
                100.758154796,14.355639115,0
                100.758293007,14.355498321,0
                100.758549218,14.355227428,0
                100.758673907,14.355086735,0
                100.758790471,14.3549447780001,0
                100.758806377,14.3549207500001,0
                100.759015039,14.354605561,0
                100.759276784,14.3541764020001,0
                100.759508808,14.3537527290001,0
                100.759669104,14.353478985,0
                100.759711488,14.353393469,0
                100.760335689,14.3537407540001,0
                100.760598992,14.3529157520001,0
                100.761269094,14.3505397820001,0
                100.761822525,14.348461721,0
                100.761827183,14.3483650220001,0
                100.761823559,14.348338386,0
                100.76102471,14.348111154,0
                100.760693181,14.348032753,0
                100.75950714,14.347589941,0
                100.759051148,14.347371874,0
                100.758715545,14.3471639160001,0
                100.758496931,14.346954221,0
                100.758299184,14.346716956,0
                100.758176299,14.3464952050001,0
                100.758091204,14.346341635,0
                100.757953922,14.345920877,0
                100.757833766,14.345820309,0
                100.757766245,14.3457969350001,0
                100.757625406,14.3457920120001,0
                100.7576076,14.34578398,0
                100.757462607,14.345718612,0
                100.757376466,14.345662551,0
                100.757342381,14.345609089,0
                100.75731654,14.345564546,0
                100.757293256,14.345549707,0
                100.757203956,14.345520591,0
                100.757126442,14.345515356,0
                100.757088819,14.345501515,0
                100.757025787,14.3454383540001,0
                100.756973615,14.34542084,0
                100.756796003,14.3454102150001,0
                100.756682549,14.345384198,0
                100.756623978,14.3453309220001,0
                100.756598956,14.3452624670001,0
                100.756570759,14.3451791200001,0
                100.756530507,14.3451197360001,0
                100.756435302,14.3450786650001,0
                100.756125453,14.344988448,0
                100.756076062,14.344935096,0
                100.756041791,14.3448577660001,0
                100.756047266,14.3447741690001,0
                100.756065233,14.3447469760001,0
                100.756104738,14.344687203,0
                100.756207548,14.344525295,0
                100.756303627,14.3442858510001,0
                100.756330683,14.344222986,0
                100.756311807,14.34415747,0
                100.756262211,14.3440772640001,0
                100.756123737,14.3439827990001,0
                100.756047103,14.3439684480001,0
                100.755992063,14.3439748230001,0
                100.755848166,14.3439699210001,0
                100.755774497,14.3439436090001,0
                100.755712681,14.343866475,0
                100.755666334,14.3438101190001,0
                100.755577109,14.3437510970001,0
                100.75548218,14.343745832,0
                100.75540263,14.343749406,0
                100.754861682,14.3438548680001,0
                100.754831354,14.3438909000001,0
                100.754810771,14.3439984840001,0
                100.754789669,14.344040421,0
                100.754753171,14.344070533,0
                100.754328346,14.344151261,0
                100.754300964,14.344172354,0
                100.754305843,14.344209618,0
                100.754353553,14.344571348,0
                100.754288398,14.344677269,0
                100.753446768,14.345982008,0
                100.753398218,14.3460068950001,0
                100.753242614,14.346069271,0
                100.753231777,14.3460729550001,0
                100.753158515,14.3460978800001,0
                100.752963168,14.346125559,0
                100.752816165,14.346140635,0
                100.752791194,14.346136404,0
                100.752756882,14.346130585,0
                100.752702832,14.3461012490001,0
                100.752698486,14.3460965520001,0
                100.752673883,14.3460699720001,0
                100.752665417,14.3460279180001,0
                100.752701536,14.3455758220001,0
                100.752675197,14.345059823,0
                100.752671677,14.3450414920001,0
                100.752172902,14.344196579,0
                100.752069202,14.343987177,0
                100.751869721,14.343584358,0
                100.750814424,14.341453383,0
                100.750167569,14.3399611620001,0
                100.749990338,14.3395523,0
                100.749727365,14.338945629,0
                100.749556767,14.33873549,0
                100.749327844,14.338548276,0
                100.748898604,14.338197254,0
                100.748877661,14.338180127,0
                100.748450871,14.337884893,0
                100.748233582,14.3377345760001,0
                100.74800711,14.337617261,0
                100.74667409,14.3371772950001,0
                100.742723311,14.3361273960001,0
                100.738308326,14.334956027,0
                100.735720782,14.3341175620001,0
                100.734334153,14.333504127,0
                100.733707491,14.333166165,0
                100.732068806,14.332164189,0
                100.729499678,14.333148973,0
                100.729430274,14.3331658430001,0
                100.728319261,14.3336939270001,0
                100.727301713,14.334177577,0
                100.723693676,14.3357752150001,0
                100.722292726,14.336413936,0
                100.72203197,14.336460758,0
                100.720241529,14.3363239930001,0
                100.718843915,14.336188663,0
                100.717088133,14.336102652,0
                100.715053844,14.336104053,0
                100.710457019,14.336066961,0
                100.710111003,14.3360641630001,0
                100.708987079,14.336228541,0
                100.70168191,14.338855472,0
                100.693602872,14.3447759330001,0
                100.692424929,14.345854269,0
                100.692342174,14.3459300260001,0
                100.691615676,14.346595085,0
                100.691431217,14.3467732300001,0
                100.686171694,14.351002044,0
                100.684271506,14.352507792,0
                100.683712136,14.3529510400001,0
                100.683462567,14.353192043,0
                100.683216845,14.353544008,0
                100.683199125,14.353576527,0
                100.68316989,14.353662806,0
                100.682991762,14.3549944980001,0
                100.682979232,14.35508817,0
                100.682971232,14.355104378,0
                100.682923772,14.35515988,0
                100.682849232,14.3551944390001,0
                100.682806636,14.3552104990001,0
                100.68269689,14.355251874,0
                100.682648552,14.3552816910001,0
                100.682618532,14.3553138680001,0
                100.682597443,14.3553527290001,0
                100.682559539,14.355466338,0
                100.682548082,14.355599978,0
                100.682411861,14.357309769,0
                100.682873302,14.357310835,0
                100.683369225,14.3573085730001,0
                100.68348343,14.357301679,0
                100.68353587,14.3573170240001,0
                100.683623157,14.3573425430001,0
                100.683690144,14.3573597820001,0
                100.68375712,14.3573637980001,0
                100.683814534,14.35736724,0
                100.683913315,14.3573483710001,0
                100.684014822,14.35731659,0
                100.684108708,14.3572872350001,0
                100.684990698,14.3569905690001,0
                100.685162877,14.3569506700001,0
                100.685297664,14.3569302920001,0
                100.685560877,14.356890708,0
                100.685643505,14.356878275,0
                100.685727303,14.3568835990001,0
                100.685842939,14.3568933830001,0
                100.68595281,14.356903953,0
                100.686035136,14.356911864,0
                100.686119606,14.3569381830001,0
                100.68620764,14.3569866610001,0
                100.686274363,14.357019316,0
                100.686369021,14.357041171,0
                100.686455801,14.357045348,0
                100.686532429,14.3570482370001,0
                100.686624185,14.357052713,0
                100.68667435,14.3570638300001,0
                100.686773297,14.3570857390001,0
                100.686974354,14.357113235,0
                100.687122006,14.357148712,0
                100.687162399,14.3571777440001,0
                100.687184337,14.3572381170001,0
                100.687217202,14.357344363,0
                100.687250976,14.3574198910001,0
                100.687294118,14.3574543940001,0
                100.687315629,14.357461517,0
                100.687391692,14.357454585,0
                100.687524333,14.357425559,0
                100.687582433,14.3574148820001,0
                100.68765212,14.3573798140001,0
                100.687694118,14.3573137070001,0
                100.687718995,14.3572720490001,0
                100.687737977,14.3572558170001,0
                100.687760487,14.357247183,0
                100.68778567,14.357244468,0
                100.68781786,14.357250159,0
                100.687869838,14.3572699530001,0
                100.687941487,14.3573217430001,0
                100.688027783,14.357387451,0
                100.688105339,14.357438136,0
                100.688217737,14.3574802530001,0
                100.68835951,14.357522374,0
                100.688528996,14.357562887,0
                100.689153999,14.3577122180001,0
                100.689617825,14.357840955,0
                100.690389865,14.3580724720001,0
                100.690717784,14.358177859,0
                100.691025604,14.358278264,0
                100.691401314,14.358383395,0
                100.691571705,14.358445514,0
                100.691932983,14.358349859,0
                100.691953728,14.358338928,0
                100.692011461,14.358286202,0
                100.69208231,14.3581941570001,0
                100.692185672,14.3580528200001,0
                100.692227891,14.3579940590001,0
                100.692278734,14.357938088,0
                100.69230691,14.3579233940001,0
                100.692356596,14.3579139600001,0
                100.692405911,14.357906273,0
                100.692620579,14.35787142,0
                100.692926074,14.3578296910001,0
                100.693020135,14.357811403,0
                100.693079698,14.3577962680001,0
                100.693137581,14.357777583,0
                100.693209632,14.357747057,0
                100.693299302,14.357695924,0
                100.693405424,14.357630203,0
                100.693582566,14.3575447100001,0
                100.693689869,14.357479432,0
                100.693902831,14.3573213810001,0
                100.694040301,14.35719262,0
                100.694221046,14.3570167450001,0
                100.694361962,14.356879626,0
                100.694589588,14.3566665220001,0
                100.694807463,14.356506225,0
                100.694969664,14.3563868850001,0
                100.695250949,14.356179922,0
                100.695529314,14.355975104,0
                100.696016524,14.3556703410001,0
                100.696651467,14.3552306460001,0
                100.696880905,14.3550438730001,0
                100.697176551,14.3547477280001,0
                100.697412803,14.3544774160001,0
                100.697579316,14.3543382820001,0
                100.697745915,14.354210042,0
                100.697786389,14.354175873,0
                100.698277326,14.353895591,0
                100.699413277,14.353346538,0
                100.701163097,14.352563355,0
                100.701581146,14.352391945,0
                100.701699521,14.3523547340001,0
                100.701807266,14.3523141970001,0
                100.701926135,14.35228039,0
                100.702027498,14.3522333870001,0
                100.702179105,14.3521066800001,0
                100.702632037,14.3518266360001,0
                100.702844107,14.351728784,0
                100.703109154,14.3516009090001,0
                100.703448633,14.351464772,0
                100.703767551,14.3513583010001,0
                100.704272057,14.351181796,0
                100.704551603,14.3510736600001,0
                100.704905953,14.350936591,0
                100.70503341,14.350886281,0
                100.705093084,14.3508530880001,0
                100.705160078,14.350813755,0
                100.705228037,14.350767849,0
                100.705321559,14.3506980980001,0
                100.705406411,14.3506518080001,0
                100.705532894,14.350604532,0
                100.705715405,14.350553599,0
                100.706016309,14.350468721,0
                100.706464334,14.350350367,0
                100.706813997,14.3502479150001,0
                100.70710479,14.350194231,0
                100.707714032,14.3500803000001,0
                100.708353225,14.349976057,0
                100.708569237,14.3499426860001,0
                100.708930361,14.349884855,0
                100.709035099,14.3498680750001,0
                100.709213602,14.3498457650001,0
                100.70946597,14.3498266600001,0
                100.709611018,14.3498157170001,0
                100.709679378,14.349816774,0
                100.709766164,14.349832602,0
                100.709912976,14.349879952,0
                100.710114265,14.3499563410001,0
                100.710273047,14.350026583,0
                100.710575496,14.3501761790001,0
                100.710710952,14.3502480180001,0
                100.710791429,14.3502856050001,0
                100.71089383,14.3503348560001,0
                100.711006738,14.350382563,0
                100.711098359,14.3504191210001,0
                100.711180917,14.350451279,0
                100.711279419,14.3504783060001,0
                100.711671159,14.3505858070001,0
                100.712092209,14.3507085090001,0
                100.712282313,14.3507647500001,0
                100.712603115,14.350859412,0
                100.71281126,14.3509204750001,0
                100.713046833,14.3509895770001,0
                100.713269326,14.351047124,0
                100.713426282,14.3510829460001,0
                100.713555775,14.3510995350001,0
                100.713775002,14.3511177620001,0
                100.713958023,14.351132965,0
                100.714047746,14.351134485,0
                100.714296976,14.3511360050001,0
                100.714540619,14.3511374870001,0
                100.714729216,14.351138635,0
                100.714889538,14.3511489900001,0
                100.715114286,14.351167252,0
                100.715463414,14.3511989310001,0
                100.715752,14.3512300080001,0
                100.715996458,14.351256333,0
                100.716369876,14.351291115,0
                100.716648386,14.351326661,0
                100.716926504,14.3513654810001,0
                100.717122439,14.3513928250001,0
                100.717415236,14.351447256,0
                100.7176145,14.351494749,0
                100.717915439,14.3515744260001,0
                100.718151534,14.3516424850001,0
                100.718481172,14.351737508,0
                100.718863984,14.351846688,0
                100.719535847,14.3520211540001,0
                100.719932967,14.3521197480001,0
                100.720225515,14.352192384,0
                100.720730888,14.3523049140001,0
                100.720865316,14.3523333210001,0
                100.721008153,14.3523634970001,0
                100.721062319,14.352376598,0
                100.721119702,14.352406549,0
                100.721159552,14.3524586950001,0
                100.721373346,14.3527400670001,0
                100.721439527,14.3528525900001,0
                100.721557206,14.353107492,0
                100.721610652,14.3532931350001,0
                100.721657738,14.353523008,0
                100.721770937,14.354071672,0
                100.721917676,14.354737669,0
                100.722084009,14.3557133420001,0
                100.722158807,14.356186934,0
                100.72227777,14.356854953,0
                100.722354602,14.357156724,0
                100.722567464,14.3578589210001,0
                100.722722272,14.35831131,0
                100.722830125,14.358605133,0
                100.723044917,14.358986633,0
                100.723184814,14.3592166120001,0
                100.723984603,14.3604369980001,0
                100.724305637,14.3609705540001,0
                100.724526321,14.3613005830001,0
                100.724668523,14.3614874,0
                100.724820589,14.361665659,0
                100.724996131,14.361855618,0
                100.725019545,14.3618809480001,0
                100.725425757,14.3621769110001,0
                100.72576182,14.3624032540001,0
                100.725867961,14.362491741,0
                100.726069934,14.362698272,0
                100.726200224,14.3628044550001,0
                100.726421004,14.363038804,0
                100.726538616,14.363185593,0
                100.726638728,14.3633268340001,0
                100.726727227,14.3634738260001,0
                100.72682116,14.363569663,0
                100.726897178,14.363608872,0
                100.727013933,14.363642086,0
                100.727194666,14.3636634800001,0
                100.727340217,14.363656738,0
                100.727431888,14.3636396160001,0
                100.727604091,14.3635855590001,0
                100.727708703,14.3635452,0
                100.727853645,14.3634682590001,0
                100.727981703,14.363394726,0
                100.72810971,14.3633146010001,0
                100.728220941,14.3632543950001,0
                100.728342303,14.363190822,0
                100.728423227,14.3631506350001,0
                100.728524662,14.3631367040001,0
                100.728602569,14.3631460180001,0
                100.728656884,14.3631654330001,0
                100.728728261,14.363204508,0
                100.728823451,14.3632598990001,0
                100.729203968,14.3634452000001,0
                100.729587751,14.36361728,0
                100.729961315,14.363779537,0
                100.730175223,14.363867063,0
                100.7303178,14.3639221070001,0
                100.730436467,14.363947641,0
                100.730534707,14.363960118,0
                100.730626168,14.363969347,0
                100.73072089,14.3639620660001,0
                100.730835855,14.3639480160001,0
                100.730964344,14.363930587,0
                100.731153562,14.3638896090001,0
                100.73147113,14.363811394,0
                100.73173451,14.3637302770001,0
                100.731893092,14.363666429,0
                100.732078686,14.363592474,0
                100.732254064,14.3635120000001,0
                100.732439395,14.363405066,0
                100.732698835,14.363251378,0
                100.73297495,14.363064588,0
                100.733274558,14.36285452,0
                100.733577685,14.362660916,0
                100.733796586,14.362517434,0
                100.734234556,14.3622535650001,0
                100.73451417,14.362083238,0
                100.734790343,14.361906334,0
                100.735120348,14.3616861400001,0
                100.735477413,14.3614657520001,0
                100.735618875,14.3613756140001,0
                100.735827953,14.3612751060001,0
                100.735983122,14.361207973,0
                100.73618902,14.3611338750001,0
                100.736482755,14.361039325,0
                100.736624597,14.36099869,0
                100.736729307,14.360971535,0
                100.736921889,14.3609272200001,0
                100.737138386,14.360912437,0
                100.737267025,14.3609147880001,0
                100.737541262,14.3609259850001,0
                100.737741023,14.3609344170001,0
                100.738424955,14.360965686,0
                100.738618046,14.360987375,0
                100.738916433,14.3610577740001,0
                100.739269207,14.3611574760001,0
                100.739486202,14.361205366,0
                100.739733645,14.361253042,0
                100.739967448,14.361287626,0
                100.740031931,14.361310244,0
                100.740160973,14.3613653950001,0
                100.740293327,14.3614106210001,0
                100.740381734,14.3614627580001,0
                100.740510869,14.3615311040001,0
                100.740827328,14.361749844,0
                100.741034913,14.3618935060001,0
                100.741300225,14.362063129,0
                100.741531355,14.3621901130001,0
                100.741653626,14.3622453130001,0
                100.741782648,14.3622971560001,0
                100.741928584,14.362348883,0
                100.742054074,14.3623809530001,0
                100.742287933,14.3624221370001,0
                100.742681375,14.3625281280001,0
                100.743200549,14.362699176,0
                100.743615441,14.3628555390001,0
                100.743886059,14.362958758,0
                100.744225523,14.3631036420001,0
                100.744732612,14.3633036690001,0
                100.744746207,14.3633090320001,0
                100.745001723,14.3634336600001,0
                100.745507478,14.363725684,0
                100.745730971,14.3638651470001,0
                100.745810506,14.3639199730001,0
                100.745875403,14.363969507,0
                100.745949119,14.3640025980001,0
                100.74601502,14.364011394,0
                100.746107868,14.3640093720001,0
                100.746230892,14.36400123,0
                100.746301875,14.363988573,0
                100.746378091,14.3639585650001,0
                100.74646043,14.363905813,0
                100.746551598,14.3638474150001,0
                100.74664878,14.3637851720001,0
                100.74672513,14.36373359,0
                100.747128099,14.363457656,0
                100.747267957,14.363378848,0
                100.747351979,14.3633315010001,0
                100.747424601,14.3632966340001,0
                100.747505069,14.3632620400001,0
                100.747607282,14.3632315780001,0
                100.747918415,14.363165166,0
                100.748073682,14.363139044,0
                100.748253862,14.3631088920001,0
                100.748359411,14.3630914460001,0
                100.748438968,14.36308827,0
                100.748514707,14.3630929890001,0
                100.748568343,14.363113046,0
                100.74865563,14.3631544190001,0
                100.749120696,14.363371661,0
                100.749296262,14.3634529130001,0
                100.749386525,14.3634833190001,0
                100.74959189,14.3635148180001,0
                100.749749537,14.3635365970001,0
                100.74980481,14.3635478790001,0
                100.74987426,14.3635766080001,0
                100.749912879,14.3636178250001,0
                100.74994428,14.363653705,0
                100.750191405,14.363633608,0
                100.750391056,14.3635227500001,0
                100.750928432,14.3633042120001,0
                100.751736267,14.362999713,0
                100.752324286,14.3627310480001,0
                100.752992431,14.362511537,0
              </coordinates>
                
            </LinearRing>
            
          </outerBoundaryIs>
        
        </Polygon>
        
      <styleUrl>
        #tambonStyle</styleUrl>
    </Placemark>

  </Document>
</kml>