<?xml version="1.0" encoding="UTF-8"?>
<kml xmlns="http://www.opengis.net/kml/2.2">
  <Document id="tambon_doc">
    <name>บ้านโฮ่ง, บ้านโฮ่ง, Lamphun</name>
    <description>ข้อมูลขอบเขตตำบลบ้านโฮ่ง อำเภอบ้านโฮ่ง จังหวัดLamphun</description>
    
    <!-- Schema สำหรับข้อมูลตำบล -->
    <Schema id="tambon.schema">
      <SimpleField name="ADM3_EN" type="string">
        <displayName>Subdistrict Name (English)</displayName>
      </SimpleField>
      <SimpleField name="ADM3_TH" type="string">
        <displayName>ชื่อตำบล</displayName>
      </SimpleField>
      <SimpleField name="ADM2_EN" type="string">
        <displayName>District Name (English)</displayName>
      </SimpleField>
      <SimpleField name="ADM2_TH" type="string">
        <displayName>ชื่ออำเภอ</displayName>
      </SimpleField>
      <SimpleField name="ADM1_EN" type="string">
        <displayName>Province Name (English)</displayName>
      </SimpleField>
      <SimpleField name="ADM1_TH" type="string">
        <displayName>ชื่อจังหวัด</displayName>
      </SimpleField>
      <SimpleField name="ADM0_EN" type="string">
        <displayName>Country Name (English)</displayName>
      </SimpleField>
      <SimpleField name="ADM0_TH" type="string">
        <displayName>ชื่อประเทศ</displayName>
      </SimpleField>
    </Schema>

    <!-- Style สำหรับตำบล -->
    <Style id="tambonStyle">
      <LineStyle>
        <color>ffff0000</color>
        <width>1.5</width>
      </LineStyle>
      <PolyStyle>
        <color>33ff0000</color>
        <fill>1</fill>
        <outline>1</outline>
      </PolyStyle>
    </Style>

    <Placemark id="Lamphun.22">
        
        <ExtendedData>
            
          <SchemaData schemaUrl="#tambon.schema">
                
            <SimpleData name="Shape_Leng">
                0.41284448816</SimpleData>
                
            <SimpleData name="Shape_Area">
                0.00675615680223</SimpleData>
                
            <SimpleData name="ADM3_EN">
                Ban Hong</SimpleData>
                
            <SimpleData name="ADM3_TH">
                บ้านโฮ่ง</SimpleData>
                
            <SimpleData name="ADM3_PCODE">
                TH510301</SimpleData>
                
            <SimpleData name="ADM2_EN">
                Ban Hong</SimpleData>
                
            <SimpleData name="ADM2_TH">
                บ้านโฮ่ง</SimpleData>
                
            <SimpleData name="ADM2_PCODE">
                TH5103</SimpleData>
                
            <SimpleData name="ADM1_EN">
                Lamphun</SimpleData>
                
            <SimpleData name="ADM1_TH">
                ลำพูน</SimpleData>
                
            <SimpleData name="ADM1_PCODE">
                TH51</SimpleData>
                
            <SimpleData name="ADM0_EN">
                Thailand</SimpleData>
                
            <SimpleData name="ADM0_TH">
                ประเทศไทย</SimpleData>
                
            <SimpleData name="ADM0_PCODE">
                TH</SimpleData>
            
          </SchemaData>
        
        </ExtendedData>
        
        <Polygon>
            
          <outerBoundaryIs>
                
            <LinearRing>
                    
              <coordinates>
                    
                98.8712813160001,18.3403674580001,0
                98.8714006120001,18.3397575020001,0
                98.871475262,18.3392610070001,0
                98.87147565,18.3387360890001,0
                98.871357232,18.3381543450001,0
                98.8712527910001,18.337687283,0
                98.8712239700001,18.337558401,0
                98.871001451,18.337132641,0
                98.8708085170001,18.3368771460001,0
                98.8703629840001,18.336692413,0
                98.8702545850001,18.336671629,0
                98.8690048020001,18.3364489730001,0
                98.868612119,18.336368904,0
                98.8683364280001,18.3362809290001,0
                98.86815268,18.3361611,0
                98.8680608660001,18.3360253750001,0
                98.8679774230001,18.335865714,0
                98.8679190390001,18.3357220280001,0
                98.867885803,18.335474623,0
                98.8678859780001,18.335243196,0
                98.8679446470001,18.3350118120001,0
                98.8680617380001,18.3348762310001,0
                98.8681955640001,18.3347047510001,0
                98.8685374980001,18.334364496,0
                98.8688645110001,18.334109358,0
                98.869340106,18.3338117590001,0
                98.869637384,18.333584968,0
                98.869979275,18.3333014630001,0
                98.8703063550001,18.332947013,0
                98.870395698,18.3326633340001,0
                98.8703958340001,18.332481032,0
                98.8703958990001,18.332393779,0
                98.8702772130001,18.332180893,0
                98.8699802290001,18.332024635,0
                98.8696832380001,18.331868377,0
                98.869282318,18.3316411100001,0
                98.8690744510001,18.3314990980001,0
                98.8688220530001,18.331314492,0
                98.8686766110001,18.331150845,0
                98.86856973,18.3310305800001,0
                98.8684145220001,18.330783126,0
                98.868403126,18.3306895630001,0
                98.868451329,18.330448833,0
                98.868600148,18.330094262,0
                98.869001584,18.329626364,0
                98.8696410520001,18.328690464,0
                98.8699831230001,18.3281515900001,0
                98.870325333,18.327414103,0
                98.8704148840001,18.326846683,0
                98.870489552,18.3263218170001,0
                98.8706087790001,18.3257969740001,0
                98.8709062200001,18.325329009,0
                98.8713224640001,18.324903679,0
                98.8717090100001,18.3244641410001,0
                98.8718926510001,18.3240390510001,0
                98.8719173280001,18.3239819230001,0
                98.8720067900001,18.3235279990001,0
                98.872006926,18.3233435710001,0
                98.8719626110001,18.3230030510001,0
                98.8718588930001,18.3226483070001,0
                98.8717254730001,18.322279355,0
                98.8714733360001,18.3217542670001,0
                98.8712656690001,18.321356893,0
                98.870909671,18.320675674,0
                98.8707317660001,18.3202073850001,0
                98.8704202390001,18.3196538820001,0
                98.8699898420001,18.3191570400001,0
                98.869692989,18.318844728,0
                98.8695594760001,18.318617642,0
                98.8695002250001,18.3183906090001,0
                98.869515316,18.3180785070001,0
                98.8696940410001,18.3174402130001,0
                98.869932298,18.3166459020001,0
                98.870200444,18.3156104330001,0
                98.870498259,18.314617544,0
                98.870661892,18.314291354,0
                98.8710335790001,18.313823438,0
                98.8715540350001,18.313043501,0
                98.871736017,18.312719595,0
                98.871777131,18.3126464170001,0
                98.872119502,18.3116393660001,0
                98.87225356,18.3111287250001,0
                98.8722687970001,18.3106038170001,0
                98.872239478,18.3100788740001,0
                98.872165689,18.309426226,0
                98.8720475310001,18.308518174,0
                98.871945709,18.307961543,0
                98.8718995930001,18.307709415,0
                98.871796207,18.3069148760001,0
                98.8718794330001,18.3066857420001,0
                98.8719301520001,18.3065461030001,0
                98.8721086080001,18.3062482920001,0
                98.8725691870001,18.306064172,0
                98.8731337500001,18.305865926,0
                98.873713137,18.3056960690001,0
                98.8744113710001,18.305497911,0
                98.875065039,18.3053139090001,0
                98.87562956,18.305158217,0
                98.8761644090001,18.304959948,0
                98.8766695890001,18.3047049080001,0
                98.877249066,18.3044073520001,0
                98.877709671,18.3041664720001,0
                98.8779474790001,18.303939631,0
                98.878304283,18.3034574960001,0
                98.8786164570001,18.3030746470001,0
                98.878824626,18.302748476,0
                98.879077394,18.3023514010001,0
                98.8794043710001,18.3020394960001,0
                98.8797015230001,18.301897812,0
                98.8801918190001,18.3016711280001,0
                98.8806968960001,18.301543759,0
                98.880953586,18.3014894720001,0
                98.8815791630001,18.301357164,0
                98.8812026470001,18.30089796,0
                98.8808900990001,18.3007123890001,0
                98.8805882930001,18.300588615,0
                98.8799306450001,18.3005264120001,0
                98.8795748810001,18.300474691,0
                98.8791221120001,18.300381718,0
                98.8788418290001,18.30031975,0
                98.8786815660001,18.3002635070001,0
                98.8781950810001,18.300092766,0
                98.8777639300001,18.2999174170001,0
                98.877419031,18.299752413,0
                98.877181997,18.299515392,0
                98.876977346,18.299226897,0
                98.8766110170001,18.298876507,0
                98.876309297,18.2986394390001,0
                98.8762397420001,18.2986085950001,0
                98.8758673900001,18.298443482,0
                98.875522501,18.298268181,0
                98.8752315070001,18.298113507,0
                98.874972922,18.2978661710001,0
                98.8747898110001,18.297618884,0
                98.8746602180001,18.297348963,0
                98.874606799,18.297237711,0
                98.874348377,18.296774101,0
                98.874208362,18.2965680340001,0
                98.8739605380001,18.2963618960001,0
                98.8736910980001,18.2962242990001,0
                98.8734215950001,18.296176169,0
                98.873205978,18.296155427,0
                98.872979576,18.2960741570001,0
                98.8727816110001,18.295945632,0
                98.872602466,18.29580487,0
                98.8722684840001,18.2954750860001,0
                98.8720422220001,18.2952689640001,0
                98.871815961,18.295062838,0
                98.8715573530001,18.2948669890001,0
                98.8712556310001,18.294650511,0
                98.870899981,18.294464896,0
                98.8705011740001,18.294320446,0
                98.8695116150001,18.293830966,0
                98.8693183560001,18.293735371,0
                98.8691648810001,18.293686387,0
                98.8690625560001,18.293673283,0
                98.8689909120001,18.293676492,0
                98.868939739,18.2936862330001,0
                98.8688749030001,18.293709001,0
                98.8688237140001,18.2937382910001,0
                98.8687622610001,18.293803423,0
                98.8686734920001,18.2939011180001,0
                98.8685915770001,18.2939597160001,0
                98.8684892030001,18.2940052660001,0
                98.868393682,18.294014975,0
                98.868308396,18.294014916,0
                98.868219728,18.293982268,0
                98.868143493,18.293951457,0
                98.86806627,18.2939202480001,0
                98.867970782,18.293877821,0
                98.8678820910001,18.2938777590001,0
                98.867769508,18.2938874600001,0
                98.8676466620001,18.2939395130001,0
                98.8674692160001,18.294017593,0
                98.867360031,18.2940468470001,0
                98.86727475,18.2940467880001,0
                98.867213361,18.2940271910001,0
                98.86712471,18.293971733,0
                98.8670599260001,18.2939325890001,0
                98.866961051,18.2938608270001,0
                98.86692844,18.293829632,0
                98.8668792400001,18.2937825670001,0
                98.8667769470001,18.293720582,0
                98.866708751,18.293681431,0
                98.8666269020001,18.293655308,0
                98.8665313870001,18.293651982,0
                98.8663471610001,18.2936714030001,0
                98.866244813,18.293687623,0
                98.866002564,18.2937461080001,0
                98.8657910310001,18.2937915800001,0
                98.8656955110001,18.2937947720001,0
                98.8656170520001,18.293794717,0
                98.865545442,18.2937588250001,0
                98.8654772630001,18.293693605,0
                98.865450014,18.2936414490001,0
                98.8654262200001,18.293533897,0
                98.8654194960001,18.29340681,0
                98.8654161640001,18.293305791,0
                98.8653620300001,18.2931592580001,0
                98.865259037,18.293025947,0
                98.865143903,18.2929042100001,0
                98.865034827,18.292799862,0
                98.8649318860001,18.292597033,0
                98.864901687,18.2924406010001,0
                98.8648229710001,18.2922783390001,0
                98.8646168910001,18.2921333680001,0
                98.864435024,18.2920463450001,0
                98.86426528,18.2919709170001,0
                98.8640287950001,18.291935992,0
                98.8635376080001,18.2918892970001,0
                98.863501941,18.2918887750001,0
                98.863119166,18.291883205,0
                98.862803849,18.291836634,0
                98.8623673430001,18.2916625280001,0
                98.8620884530001,18.2915696370001,0
                98.8617974520001,18.2914535680001,0
                98.8614579520001,18.291314292,0
                98.8612094200001,18.291175078,0
                98.861003311,18.291076446,0
                98.8609184470001,18.2910300410001,0
                98.860779021,18.290954632,0
                98.860663888,18.290844479,0
                98.860512365,18.2907343040001,0
                98.860391162,18.29062994,0
                98.8602760520001,18.2904850310001,0
                98.8602276020001,18.2904038940001,0
                98.8601306450001,18.290311134,0
                98.8599487420001,18.2902762430001,0
                98.859512092,18.2902933,0
                98.8594202630001,18.2902834860001,0
                98.859348363,18.2902758020001,0
                98.8592695710001,18.290223607,0
                98.859166611,18.2900555320001,0
                98.8591494340001,18.290006179,0
                98.8591121570001,18.2898990840001,0
                98.8590576890001,18.2897600100001,0
                98.8589546650001,18.28967304,0
                98.8586879840001,18.289487466,0
                98.8585001340001,18.289307744,0
                98.8582819740001,18.289110619,0
                98.8579850080001,18.2888844730001,0
                98.857742595,18.288687328,0
                98.8574153060001,18.288455363,0
                98.8571364850001,18.288287159,0
                98.8568212790001,18.2881189280001,0
                98.8566091310001,18.2879913190001,0
                98.856409103,18.2878753100001,0
                98.8561908570001,18.287794042,0
                98.8559180290001,18.2877127350001,0
                98.855681599,18.287614079,0
                98.855527425,18.2875538260001,0
                98.8553845490001,18.287497993,0
                98.855129961,18.2873587670001,0
                98.8550026660001,18.287294945,0
                98.8548753410001,18.287260093,0
                98.8547297840001,18.2872773620001,0
                98.8546023680001,18.287358366,0
                98.8544688800001,18.2874451600001,0
                98.854238347,18.28754926,0
                98.8540382190001,18.287560693,0
                98.8538199110001,18.28754894,0
                98.8536622510001,18.287537232,0
                98.85350456,18.287560285,0
                98.853401423,18.287612344,0
                98.8532740680001,18.287618035,0
                98.8530133120001,18.2876062510001,0
                98.8528252770001,18.287652452,0
                98.852691801,18.2877276560001,0
                98.8525644470001,18.287727558,0
                98.8524553290001,18.2876811310001,0
                98.8523826420001,18.287582591,0
                98.8522675450001,18.2874376770001,0
                98.8522070080001,18.2873101860001,0
                98.8521222040001,18.287194261,0
                98.8520009590001,18.287147819,0
                98.8516977630001,18.2871244150001,0
                98.8514881020001,18.2871197000001,0
                98.8514309400001,18.287118413,0
                98.8511944540001,18.2870950600001,0
                98.8510307010001,18.2871123080001,0
                98.8509154230001,18.287181736,0
                98.8508182800001,18.287314899,0
                98.8507696620001,18.287436513,0
                98.8506907140001,18.287563897,0
                98.8505857690001,18.2876749640001,0
                98.8504987370001,18.28773111,0
                98.850398903,18.2877970160001,0
                98.850258124,18.287877555,0
                98.85015831,18.287919022,0
                98.850061064,18.28795072,0
                98.8499919810001,18.28795555,0
                98.8499177890001,18.2879579360001,0
                98.8497822200001,18.287928505,0
                98.8496620080001,18.2878917520001,0
                98.8494471990001,18.2877791600001,0
                98.849348708,18.2877507910001,0
                98.8490558620001,18.287666432,0
                98.848979134,18.287639487,0
                98.848930539,18.2876272290001,0
                98.848830772,18.2876149300001,0
                98.8487463480001,18.287607533,0
                98.848682372,18.2876319220001,0
                98.8486362900001,18.287668545,0
                98.848549254,18.2877222400001,0
                98.848477609,18.2877670730001,0
                98.8484673410001,18.287773499,0
                98.8483854310001,18.287822314,0
                98.848316336,18.287846695,0
                98.8482395790001,18.287851523,0
                98.8480323580001,18.287841585,0
                98.847850732,18.287821889,0
                98.8476844560001,18.2877997620001,0
                98.8476307380001,18.28778994,0
                98.847602613,18.2877679220001,0
                98.8475668450001,18.287711684,0
                98.8475464270001,18.2876578990001,0
                98.8475296780001,18.287599616,0
                98.847497966,18.287489232,0
                98.8474724370001,18.287425672,0
                98.847436638,18.2874060880001,0
                98.8473931410001,18.287406054,0
                98.8473291750001,18.287418223,0
                98.8472206110001,18.287457304,0
                98.8472140110001,18.287459681,0
                98.8470553540001,18.2875010990001,0
                98.8469581300001,18.287508351,0
                98.8468686020001,18.2874887290001,0
                98.8468123430001,18.287461798,0
                98.846774027,18.2873933390001,0
                98.8467459410001,18.2873273320001,0
                98.8467306680001,18.287239336,0
                98.846723061,18.2871611250001,0
                98.8467180360001,18.2870609230001,0
                98.8467283200001,18.2870022770001,0
                98.846733494,18.2869362920001,0
                98.8467667910001,18.2868898880001,0
                98.846815441,18.2868483780001,0
                98.846912736,18.286760477,0
                98.8469680440001,18.286722286,0
                98.84698697,18.2867092130001,0
                98.8470381760001,18.2866652640001,0
                98.8470689050001,18.286635959,0
                98.8470715110001,18.2865821950001,0
                98.8470434100001,18.286533295,0
                98.8469769270001,18.286491696,0
                98.8469155490001,18.286472093,0
                98.8468753940001,18.2864707370001,0
                98.8468413530001,18.286469589,0
                98.8467697070001,18.2864841960001,0
                98.8466852490001,18.286520787,0
                98.8465624030001,18.2865695690001,0
                98.8464395670001,18.2866085740001,0
                98.8463218510001,18.28664758,0
                98.846245084,18.286662183,0
                98.8461580970001,18.2866670020001,0
                98.8460890320001,18.286654722,0
                98.8460148680001,18.2866228930001,0
                98.8459355790001,18.2865983890001,0
                98.8458460730001,18.286559218,0
                98.8457232970001,18.286529789,0
                98.845633761,18.2865199410001,0
                98.845526319,18.28651008,0
                98.8453854150001,18.286470595,0
                98.8452520590001,18.286400972,0
                98.845136928,18.286302398,0
                98.8450460830001,18.286169086,0
                98.8449551730001,18.286105288,0
                98.844852094,18.2860936160001,0
                98.8447004830001,18.2860992870001,0
                98.8445671040001,18.286058627,0
                98.8444519510001,18.285983227,0
                98.8443368050001,18.285896237,0
                98.8442459090001,18.285820852,0
                98.844173234,18.285716522,0
                98.8441491230001,18.285554296,0
                98.844191707,18.2854037110001,0
                98.844246436,18.285229965,0
                98.8442995870001,18.2851337010001,0
                98.8442450940001,18.285038071,0
                98.8441724030001,18.284951119,0
                98.84400873,18.2848814710001,0
                98.8438450790001,18.2847857510001,0
                98.843713241,18.2847248160001,0
                98.843640485,18.284707376,0
                98.843585879,18.2847377460001,0
                98.8435539590001,18.2848289610001,0
                98.8435356480001,18.284963632,0
                98.843471863,18.2850852350001,0
                98.8434560920001,18.2850931940001,0
                98.8433945080001,18.2851242720001,0
                98.8433399340001,18.285119885,0
                98.8432808430001,18.2850807300001,0
                98.8432082,18.2849372970001,0
                98.843135589,18.284763447,0
                98.843099286,18.2846721760001,0
                98.843040231,18.284593924,0
                98.8429720830001,18.284511314,0
                98.8428766800001,18.284389585,0
                98.8428131220001,18.2842591900001,0
                98.8427586490001,18.284141834,0
                98.842699623,18.284033166,0
                98.8426087460001,18.283937511,0
                98.84249966,18.283859211,0
                98.8424042110001,18.283793964,0
                98.8423133080001,18.283728717,0
                98.8422224050001,18.2836591270001,0
                98.8421360710001,18.283572158,0
                98.842067946,18.2834678310001,0
                98.842040775,18.283333117,0
                98.8420272210001,18.283233179,0
                98.8419170540001,18.283097449,0
                98.8418403740001,18.283019182,0
                98.841766238,18.282962911,0
                98.8416971990001,18.282921306,0
                98.841605122,18.2828992340001,0
                98.8414720900001,18.282899123,0
                98.841374865,18.2829039320001,0
                98.8413294590001,18.2829105650001,0
                98.841241816,18.2829233730001,0
                98.841203211,18.2829467990001,0
                98.8411291910001,18.2829917080001,0
                98.8410037740001,18.2830551480001,0
                98.840873242,18.283121023,0
                98.8407324660001,18.283194226,0
                98.8406249670001,18.2832503440001,0
                98.840522589,18.2832966940001,0
                98.840456063,18.2833113030001,0
                98.8403946600001,18.283313693,0
                98.8403537460001,18.283291664,0
                98.8403230820001,18.283254979,0
                98.8403001170001,18.283188974,0
                98.8402874160001,18.2830863200001,0
                98.8402874830001,18.2830130020001,0
                98.84025941,18.282942103,0
                98.840210879,18.2828589700001,0
                98.8401751150001,18.2828002850001,0
                98.8401367870001,18.2827489330001,0
                98.8400933340001,18.282704903,0
                98.8400217390001,18.2826657430001,0
                98.8399552480001,18.282641246,0
                98.8398887660001,18.282602087,0
                98.839840193,18.282562947,0
                98.8397967430001,18.2825213620001,0
                98.8397784270001,18.282503251,0
                98.839720061,18.2824455370001,0
                98.8396714900001,18.282406392,0
                98.839617768,18.282401458,0
                98.839558905,18.282425851,0
                98.839502581,18.2824722350001,0
                98.8394181030001,18.2825332630001,0
                98.839374589,18.282552778,0
                98.8393106440001,18.282542947,0
                98.8392671780001,18.2825135860001,0
                98.839187914,18.2824646400001,0
                98.839136769,18.2824450470001,0
                98.8390830290001,18.2824596630001,0
                98.839049743,18.28249141,0
                98.8390317800001,18.282550047,0
                98.8390138190001,18.2826086860001,0
                98.8390035250001,18.2826771090001,0
                98.839003496,18.282708063,0
                98.839003457,18.2827504270001,0
                98.8390033780001,18.282835961,0
                98.8390007710001,18.282887284,0
                98.8389777150001,18.282921479,0
                98.8389418830001,18.2829385580001,0
                98.8389035040001,18.28294341,0
                98.8388395590001,18.282928692,0
                98.8387781920001,18.282891981,0
                98.838737268,18.282884617,0
                98.8386860590001,18.282931008,0
                98.8386450890001,18.2829700770001,0
                98.838601581,18.282989591,0
                98.8385555250001,18.2829919970001,0
                98.8384839330001,18.282950387,0
                98.8384071990001,18.282930772,0
                98.838348361,18.2829282770001,0
                98.838274154,18.282945323,0
                98.8382204120001,18.282967274,0
                98.8381589670001,18.283016101,0
                98.8380796480001,18.283025809,0
                98.8379773060001,18.283035496,0
                98.837908219,18.283047658,0
                98.8378186620001,18.283064691,0
                98.8377342040001,18.283106165,0
                98.837680461,18.283123228,0
                98.837636966,18.2831256320001,0
                98.837573057,18.283076699,0
                98.8375449600001,18.2830278000001,0
                98.8374836030001,18.282981314,0
                98.8374401460001,18.282947058,0
                98.837373647,18.282927451,0
                98.8372943540001,18.282912722,0
                98.8372150450001,18.2829126550001,0
                98.8371306180001,18.282915025,0
                98.8370538920001,18.282890519,0
                98.8369771650001,18.282868459,0
                98.8368569310001,18.282861026,0
                98.8367494870001,18.2828536010001,0
                98.8366701890001,18.282846201,0
                98.8366062580001,18.282816822,0
                98.8365627950001,18.2827874550001,0
                98.836514229,18.2827385350001,0
                98.83645798,18.282704273,0
                98.8363812530001,18.282679767,0
                98.8363096310001,18.2826674890001,0
                98.8362584880001,18.282643002,0
                98.8362329380001,18.282606324,0
                98.836215085,18.2825500970001,0
                98.836215128,18.282503666,0
                98.8362126170001,18.282452339,0
                98.8362024180001,18.282418116,0
                98.8360924940001,18.2823300420001,0
                98.8360183620001,18.2822664350001,0
                98.8359467650001,18.282229714,0
                98.8359058440001,18.2822150150001,0
                98.835839332,18.2822149580001,0
                98.8357881590001,18.282219803,0
                98.835726746,18.2822344150001,0
                98.8356704560001,18.2822441430001,0
                98.8356218630001,18.2822245460001,0
                98.8355605140001,18.2821756180001,0
                98.835534979,18.282124273,0
                98.8355171320001,18.2820582680001,0
                98.8355174450001,18.2820517910001,0
                98.8355197420001,18.282004505,0
                98.8355454640001,18.281855449,0
                98.8355558040001,18.281743039,0
                98.835548175,18.281694154,0
                98.8355175230001,18.281642802,0
                98.8354612750001,18.281608539,0
                98.835374313,18.281586469,0
                98.835272,18.2815643860001,0
                98.835121073,18.2815544810001,0
                98.8350085060001,18.2815568290001,0
                98.834854991,18.2815713580001,0
                98.8347117120001,18.2815883430001,0
                98.834593999,18.2816249000001,0
                98.8345018680001,18.2816565900001,0
                98.8344501280001,18.281686182,0
                98.834386684,18.2817224790001,0
                98.8342996540001,18.2817712790001,0
                98.8342484460001,18.2818152250001,0
                98.834186994,18.2818713840001,0
                98.8341383200001,18.281939773,0
                98.8340691670001,18.2820252500001,0
                98.8340179670001,18.282061862,0
                98.8339591220001,18.2820667,0
                98.8339181970001,18.282054444,0
                98.833846613,18.2820055030001,0
                98.833805742,18.2819394840001,0
                98.8337955520001,18.2818954850001,0
                98.8338160630001,18.281846624,0
                98.8338647190001,18.2817953410001,0
                98.8339005650001,18.2817636030001,0
                98.833903164,18.2817220590001,0
                98.8338546090001,18.281665805,0
                98.833785559,18.2816437490001,0
                98.833716468,18.2816632400001,0
                98.833649929,18.2816851810001,0
                98.833596184,18.281709569,0
                98.8335450120001,18.281716858,0
                98.8334989620001,18.281711929,0
                98.8334657180001,18.28169968,0
                98.8334350490001,18.2816703290001,0
                98.8334069470001,18.2816263140001,0
                98.8333916440001,18.2815774220001,0
                98.8333810930001,18.2815186500001,0
                98.8333789210001,18.2815065360001,0
                98.8333585250001,18.2814332,0
                98.833309989,18.281357395,0
                98.833207724,18.281286435,0
                98.833131005,18.2812545940001,0
                98.833010776,18.281244714,0
                98.8329058940001,18.2812397380001,0
                98.8328189100001,18.2812396620001,0
                98.8327498340001,18.281244486,0
                98.8326449260001,18.281263945,0
                98.8325041890001,18.2812955960001,0
                98.832424862,18.2813150750001,0
                98.8323557800001,18.2813223480001,0
                98.8322815960001,18.281317394,0
                98.832217658,18.2812953440001,0
                98.83216909,18.2812561960001,0
                98.8321103150001,18.281187716,0
                98.83206433,18.2811216910001,0
                98.8319952940001,18.281084971,0
                98.831915983,18.281087347,0
                98.8318417740001,18.281104385,0
                98.831731727,18.281148278,0
                98.8316293610001,18.2811824030001,0
                98.8315577070001,18.2812092240001,0
                98.8314707120001,18.281218923,0
                98.8313447210001,18.281218509,0
                98.831248782,18.2812202540001,0
                98.8310818560001,18.281220107,0
                98.83098399,18.2812291860001,0
                98.8308976430001,18.281232774,0
                98.830828582,18.2812217170001,0
                98.8307442030001,18.2811758180001,0
                98.830686685,18.2811299430001,0
                98.8306329980001,18.2810932360001,0
                98.830573529,18.281080353,0
                98.83050446,18.2810766280001,0
                98.8304334640001,18.2810802290001,0
                98.830349024,18.2810966530001,0
                98.8302780020001,18.281127751,0
                98.8301839470001,18.2811661580001,0
                98.8301148420001,18.2812009200001,0
                98.830032294,18.2812430060001,0
                98.829945917,18.281277754,0
                98.8298461090001,18.2813124940001,0
                98.8297618730001,18.281338685,0
                98.8297520680001,18.2813417350001,0
                98.8296637890001,18.2813581520001,0
                98.8295793500001,18.281372742,0
                98.829517948,18.2813763520001,0
                98.8294488760001,18.2813762910001,0
                98.8294066720001,18.281367087,0
                98.8292973330001,18.281339496,0
                98.8292090960001,18.281315593,0
                98.829130444,18.2812971920001,0
                98.8290230100001,18.28128243,0
                98.8289059840001,18.2812676620001,0
                98.82878514,18.281234564,0
                98.828654687,18.281210618,0
                98.828441749,18.281170101,0
                98.8283247310001,18.2811480030001,0
                98.8282499350001,18.281113105,0
                98.828173243,18.281059882,0
                98.8281291370001,18.2810323470001,0
                98.8280965420001,18.2810103250001,0
                98.828071605,18.28100297,0
                98.8280389830001,18.2810066060001,0
                98.8280025130001,18.281021239,0
                98.827952591,18.2810560190001,0
                98.8278853990001,18.2810962830001,0
                98.827829739,18.281110896,0
                98.827766421,18.2811145060001,0
                98.827705026,18.2811107840001,0
                98.827660902,18.281101581,0
                98.8276206190001,18.281084218,0
                98.8275841880001,18.281068518,0
                98.827520893,18.2810446340001,0
                98.8274364810001,18.281033559,0
                98.8273482210001,18.281033479,0
                98.8272906480001,18.2810462570001,0
                98.827234966,18.281084697,0
                98.827133206,18.281152428,0
                98.8270794630001,18.281174374,0
                98.8270199710001,18.281183485,0
                98.826948976,18.2811852510001,0
                98.8268511260001,18.281181498,0
                98.826747513,18.2811850680001,0
                98.8266343050001,18.281188635,0
                98.826569051,18.2812069020001,0
                98.8264404590001,18.2812452800001,0
                98.8263061100001,18.281285482,0
                98.826206304,18.2813183860001,0
                98.8261141670001,18.281353127,0
                98.826041225,18.2813878860001,0
                98.8259721150001,18.2814208180001,0
                98.8258982680001,18.281446256,0
                98.8258819050001,18.281451894,0
                98.8258166700001,18.2814536650001,0
                98.8257380090001,18.2814462630001,0
                98.825665116,18.281429701,0
                98.825627023,18.2814171850001,0
                98.825597982,18.281407642,0
                98.825527014,18.281381917,0
                98.8254445350001,18.2813543460001,0
                98.8253601320001,18.28133411,0
                98.825296827,18.281324886,0
                98.82521624,18.281324813,0
                98.8251337350001,18.281322903,0
                98.825047409,18.281309994,0
                98.8249630190001,18.2812769230001,0
                98.8249323420001,18.2812512350001,0
                98.824899756,18.281220046,0
                98.8248852790001,18.281193391,0
                98.824874858,18.2811741990001,0
                98.824847413,18.2811201010001,0
                98.8248346930001,18.2810492150001,0
                98.8248245300001,18.280978335,0
                98.8247990120001,18.280914769,0
                98.824745347,18.2808536200001,0
                98.824673783,18.28078757,0
                98.824589421,18.2807263940001,0
                98.8244871320001,18.2806823110001,0
                98.8243618120001,18.2806504220001,0
                98.8242927580001,18.2806283630001,0
                98.8242160500001,18.280591633,0
                98.824149585,18.280540252,0
                98.8240780250001,18.280469313,0
                98.8239630210001,18.280349453,0
                98.8239016960001,18.2802760810001,0
                98.823848018,18.2802344830001,0
                98.8237943120001,18.280214883,0
                98.8237329190001,18.2802099370001,0
                98.823663825,18.280231868,0
                98.8235870300001,18.2802782310001,0
                98.8234897730001,18.280319691,0
                98.8233925170001,18.2803611460001,0
                98.8232543110001,18.280417228,0
                98.8231877640001,18.280451381,0
                98.823095622,18.280492844,0
                98.8230188300001,18.280539209,0
                98.8229522760001,18.280575807,0
                98.8227972620001,18.280679106,0
                98.8227210520001,18.2806914290001,0
                98.822527097,18.2805109610001,0
                98.822488541,18.280479493,0
                98.8223865800001,18.28039626,0
                98.822202669,18.280238432,0
                98.822053651,18.2800988330001,0
                98.8219299830001,18.279995639,0
                98.821784155,18.2798378480001,0
                98.8216890090001,18.2797771260001,0
                98.821606547,18.2797285400001,0
                98.8214796760001,18.279655658,0
                98.821365503,18.279576724,0
                98.821289413,18.2795008570001,0
                98.82122603,18.2794159100001,0
                98.8211880360001,18.279330982,0
                98.8211754380001,18.279233951,0
                98.8211692150001,18.279112678,0
                98.8211756530001,18.2790247610001,0
                98.8211884460001,18.278930786,0
                98.821239371,18.2787822760001,0
                98.8212839820001,18.278609504,0
                98.8213031600001,18.278476126,0
                98.8213064760001,18.2783366670001,0
                98.8212971180001,18.2781759740001,0
                98.8212845910001,18.278015275,0
                98.8212911300001,18.277824282,0
                98.821294246,18.2777935870001,0
                98.8213135710001,18.277602981,0
                98.8213486970001,18.2773938180001,0
                98.8213774710001,18.2771876840001,0
                98.821425247,18.277017949,0
                98.821469827,18.2768724630001,0
                98.8215493800001,18.276663344,0
                98.821227074,18.276582638,0
                98.8210556930001,18.2765252880001,0
                98.820949618,18.276473191,0
                98.8208680270001,18.2764263230001,0
                98.8207809820001,18.276392447,0
                98.8207020780001,18.27638197,0
                98.8206258820001,18.2763845010001,0
                98.8205496830001,18.2763896280001,0
                98.8203891260001,18.2763920790001,0
                98.8202693730001,18.2764075640001,0
                98.820155072,18.276417854,0
                98.8200353340001,18.276417742,0
                98.819910168,18.276409824,0
                98.8198013320001,18.2763967240001,0
                98.819684319,18.2763966140001,0
                98.8196441790001,18.2763934440001,0
                98.8195509860001,18.276386089,0
                98.8195172970001,18.276385561,0
                98.8193741060001,18.2763833230001,0
                98.819209249,18.276390114,0
                98.819004003,18.2763985710001,0
                98.8188706490001,18.276408842,0
                98.8187998940001,18.2764139770001,0
                98.8187400300001,18.276408718,0
                98.8186693230001,18.276364458,0
                98.8186067820001,18.2763176030001,0
                98.8184925030001,18.276307097,0
                98.8183972630001,18.2763044070001,0
                98.8183156200001,18.276306929,0
                98.8182421280001,18.2763250570001,0
                98.8181549920001,18.2763795660001,0
                98.818067839,18.276449674,0
                98.8179970250001,18.276506802,0
                98.8179098640001,18.2765847110001,0
                98.8178227220001,18.2766470190001,0
                98.8177437720001,18.276675541,0
                98.8176430540001,18.2767066380001,0
                98.817547764,18.276750743,0
                98.8174279740001,18.2768052210001,0
                98.8173381450001,18.276828535,0
                98.817264659,18.2768440610001,0
                98.8172020600001,18.2768518010001,0
                98.8171422070001,18.276836143,0
                98.8170905300001,18.2768101,0
                98.8170416040001,18.276755458,0
                98.8169954140001,18.2766878240001,0
                98.816930196,18.2766019700001,0
                98.8168486200001,18.276544702,0
                98.81676974,18.276508227,0
                98.8167044470001,18.2764925700001,0
                98.816611933,18.2764820840001,0
                98.8165303250001,18.2764581710001,0
                98.8164687060001,18.27639572,0
                98.8164035200001,18.2762778060001,0
                98.8163528520001,18.2761564410001,0
                98.8162817510001,18.2760076230001,0
                98.8162551030001,18.2759518400001,0
                98.8161247130001,18.2757333390001,0
                98.8160558710001,18.275643152,0
                98.8159906210001,18.2755841630001,0
                98.815885488,18.275500869,0
                98.8157114030001,18.275431381,0
                98.8156170760001,18.2754243540001,0
                98.8155263620001,18.275431203,0
                98.8153920330001,18.275503864,0
                98.8152939930001,18.27557656,0
                98.8151742380001,18.2755972410001,0
                98.8150726420001,18.275600609,0
                98.814971029,18.275621308,0
                98.8148358340001,18.2756588720001,0
                98.8147514670001,18.2756665900001,0
                98.8146154200001,18.2756508580001,0
                98.8144875290001,18.2756455370001,0
                98.814370507,18.2756532240001,0
                98.8142779490001,18.275686928,0
                98.8142071570001,18.2757258560001,0
                98.814120029,18.275767366,0
                98.814041059,18.275819282,0
                98.8139675240001,18.2758764000001,0
                98.8138912640001,18.275938722,0
                98.813825894,18.275995849,0
                98.8137605040001,18.2760711780001,0
                98.8136955580001,18.2761563060001,0
                98.8136733000001,18.2761854780001,0
                98.8135261950001,18.276336116,0
                98.8134471870001,18.2764192290001,0
                98.8133736290001,18.276497149,0
                98.8133012660001,18.276590233,0
                98.8131753490001,18.276714891,0
                98.8130881900001,18.2767887540001,0
                98.8129768940001,18.2768163750001,0
                98.8128559300001,18.276834745,0
                98.8127398080001,18.2768484970001,0
                98.8125801520001,18.2768575810001,0
                98.8124543790001,18.2768482170001,0
                98.8123527850001,18.276848117,0
                98.8121840810001,18.276836541,0
                98.8120833830001,18.276844241,0
                98.8119200780001,18.2768726730001,0
                98.8117867400001,18.276872542,0
                98.811658853,18.2768594190001,0
                98.811566353,18.2768385310001,0
                98.8115119500001,18.27681768,0
                98.8114793440001,18.2767734550001,0
                98.8114440090001,18.2767318260001,0
                98.8113569710001,18.2766927430001,0
                98.8112617470001,18.2766744510001,0
                98.811177414,18.276650971,0
                98.81112303,18.2766145200001,0
                98.8110713950001,18.27654948,0
                98.811038813,18.276481855,0
                98.8110307090001,18.276429853,0
                98.8110498140001,18.27637528,0
                98.8110907060001,18.2763077280001,0
                98.8111220070001,18.276272917,0
                98.811211325,18.276206686,0
                98.8112712610001,18.2761443540001,0
                98.811295806,18.2760949830001,0
                98.8112985860001,18.2760377920001,0
                98.811279589,18.275988378,0
                98.811236109,18.2759337430001,0
                98.8111572390001,18.275894669,0
                98.811056583,18.275863374,0
                98.8109205440001,18.2758424420001,0
                98.8107787490001,18.2758308910001,0
                98.8104885060001,18.2758121200001,0
                98.8102176180001,18.275788741,0
                98.810043475,18.275774702,0
                98.8098935390001,18.2757422060001,0
                98.80973391,18.275723559,0
                98.8095839800001,18.275686438,0
                98.809467876,18.2756863220001,0
                98.8093517060001,18.275746285,0
                98.8092645200001,18.2758432530001,0
                98.8091434990001,18.275912455,0
                98.8089983630001,18.2759169330001,0
                98.8088677700001,18.275889073,0
                98.808698468,18.275875039,0
                98.808582282,18.2759442460001,0
                98.8084612120001,18.2760596680001,0
                98.8083324630001,18.2761485400001,0
                98.808320811,18.2761565800001,0
                98.8081029730001,18.276281151,0
                98.8080110340001,18.2763041640001,0
                98.8079336230001,18.276308709,0
                98.8078272280001,18.2762762510001,0
                98.8077063960001,18.276174451,0
                98.8076395990001,18.27608918,0
                98.8075614670001,18.2759894390001,0
                98.807493843,18.275892318,0
                98.80731984,18.275753491,0
                98.807218354,18.2756563340001,0
                98.8070684560001,18.275591482,0
                98.8069282040001,18.275549746,0
                98.8067927720001,18.275526503,0
                98.8066282990001,18.275517091,0
                98.8064783140001,18.275530803,0
                98.806246119,18.275516704,0
                98.806004278,18.275474864,0
                98.805786637,18.2754238040001,0
                98.805641554,18.275377441,0
                98.805467509,18.275275589,0
                98.80534183,18.2751830290001,0
                98.80521128,18.2751228160001,0
                98.805071045,18.2750718300001,0
                98.804872742,18.275030035,0
                98.804698639,18.274979021,0
                98.8045874250001,18.2749326900001,0
                98.804305576,18.2747792870001,0
                98.8040734800001,18.2746742910001,0
                98.8037833860001,18.2745261040001,0
                98.8036093700001,18.274396519,0
                98.8033838260001,18.2742052570001,0
                98.8032420600001,18.27408187,0
                98.802939097,18.2739028510001,0
                98.80276502,18.2738348890001,0
                98.8025070770001,18.2737729990001,0
                98.8022426670001,18.273729594,0
                98.8019717550001,18.273729314,0
                98.801662143,18.2737289930001,0
                98.8016397040001,18.27373278,0
                98.801371825,18.2737779870001,0
                98.8009782560001,18.2738700100001,0
                98.8004879260001,18.2739619330001,0
                98.8002105180001,18.2740047790001,0
                98.799984716,18.274041515,0
                98.799745977,18.2741090530001,0
                98.799552399,18.274170468,0
                98.799313619,18.2742749770001,0
                98.7991136090001,18.2743179030001,0
                98.7989587480001,18.2743670360001,0
                98.7988490280001,18.2744223830001,0
                98.798687671,18.2745084800001,0
                98.7985457490001,18.2745206590001,0
                98.798307132,18.274483431,0
                98.7979653090001,18.2744461,0
                98.797959861,18.2744455660001,0
                98.7979181620001,18.274441467,0
                98.7975847880001,18.274408721,0
                98.7972687100001,18.2744207150001,0
                98.7970106530001,18.2744574120001,0
                98.7967849290001,18.274426362,0
                98.7965334340001,18.274370634,0
                98.7962690450001,18.274308729,0
                98.7960820150001,18.2742838840001,0
                98.7956949910001,18.2742896340001,0
                98.79543053,18.274289351,0
                98.7951243640001,18.2742548260001,0
                98.7947168250001,18.2741120360001,0
                98.7941319600001,18.27365723,0
                98.793475286,18.273191049,0
                98.792772771,18.2724818990001,0
                98.792500024,18.2721099120001,0
                98.7920387930001,18.271380686,0
                98.79167333,18.270675297,0
                98.791356379,18.2699462460001,0
                98.7909797680001,18.2691719170001,0
                98.790507436,18.268338735,0
                98.7897954850001,18.267399106,0
                98.7891303710001,18.2665860440001,0
                98.7885350800001,18.2659933750001,0
                98.787748649,18.265295431,0
                98.7873785580001,18.2650148160001,0
                98.7866376810001,18.2645360970001,0
                98.785669925,18.263915888,0
                98.785026137,18.263357048,0
                98.7843499250001,18.26247505,0
                98.7837186020001,18.261882326,0
                98.782368288,18.2612029100001,0
                98.7816169910001,18.26085383,0
                98.781161835,18.260505089,0
                98.7807752140001,18.2600040730001,0
                98.780411562,18.2593507390001,0
                98.7799565440001,18.25889317,0
                98.779228404,18.258261179,0
                98.7787732560001,18.25791243,0
                98.7782269420001,18.2576071020001,0
                98.7775209820001,18.257453936,0
                98.77699626,18.2573621510001,0
                98.7767694330001,18.257322475,0
                98.776268486,18.2571695440001,0
                98.776109203,18.257038773,0
                98.7759729420001,18.256712152,0
                98.7757912440001,18.256298428,0
                98.7756554030001,18.255645347,0
                98.77533779,18.254643833,0
                98.7749971430001,18.253838165,0
                98.7746567250001,18.252858384,0
                98.7742708070001,18.2518350240001,0
                98.773880739,18.250803505,0
                98.7738408640001,18.2510249530001,0
                98.773621162,18.2522455870001,0
                98.7736111730001,18.2523010890001,0
                98.7735170390001,18.2530094210001,0
                98.7735169920001,18.2530097600001,0
                98.7734687560001,18.2533569010001,0
                98.7733676810001,18.253983352,0
                98.773056899,18.255909521,0
                98.7727544400001,18.2577840750001,0
                98.772362103,18.260215615,0
                98.7721777830001,18.2613579220001,0
                98.7719613940001,18.262698958,0
                98.771897799,18.263093058,0
                98.771794212,18.263394873,0
                98.7714472160001,18.264177965,0
                98.7712415700001,18.264655164,0
                98.7711771,18.2649611430001,0
                98.771227921,18.2652917450001,0
                98.7712786010001,18.265732524,0
                98.7713804530001,18.2662345750001,0
                98.7713794430001,18.267005834,0
                98.771462661,18.2676831790001,0
                98.771468197,18.2677282330001,0
                98.771480227,18.2683281120001,0
                98.7714667710001,18.268817789,0
                98.7713507540001,18.2693440640001,0
                98.7712348350001,18.269796887,0
                98.7710029570001,18.2703726230001,0
                98.7709908480001,18.2703726080001,0
                98.7708386360001,18.2711716210001,0
                98.7707353800001,18.271734639,0
                98.770567815,18.272481213,0
                98.77045179,18.273007487,0
                98.7703485520001,18.273558263,0
                98.7702581730001,18.2740723270001,0
                98.770270296,18.274598757,0
                98.770377979,18.275383592,0
                98.7703845300001,18.2754313670001,0
                98.7704095510001,18.2758966010001,0
                98.7703706070001,18.2762760590001,0
                98.7702931530001,18.2767044460001,0
                98.7701131360001,18.2771694320001,0
                98.7699544710001,18.27743471,0
                98.7698514740001,18.27764634,0
                98.7697647050001,18.2778476600001,0
                98.7696670400001,18.2781161030001,0
                98.7696127190001,18.2783122980001,0
                98.769590839,18.278503362,0
                98.7695852050001,18.278678954,0
                98.7696282480001,18.2788339460001,0
                98.769714552,18.2789838300001,0
                98.769827891,18.279128574,0
                98.7699681750001,18.2793404970001,0
                98.770026187,18.2794340950001,0
                98.770070677,18.2795058900001,0
                98.770162365,18.2796712700001,0
                98.770194637,18.2798004270001,0
                98.770216099,18.279924404,0
                98.7702105280001,18.280048349,0
                98.7701616990001,18.2801774060001,0
                98.7700425780001,18.2803167120001,0
                98.76988565,18.2804249770001,0
                98.769702877,18.280547278,0
                98.7692797290001,18.280739582,0
                98.7689431540001,18.2808769000001,0
                98.7686931260001,18.2809775970001,0
                98.7684163210001,18.2811358980001,0
                98.767954591,18.2814291510001,0
                98.7676978790001,18.281738976,0
                98.7675437300001,18.282016277,0
                98.767526225,18.2823263930001,0
                98.7675084240001,18.2828650270001,0
                98.7676102030001,18.28342013,0
                98.767660574,18.2840894300001,0
                98.7676173520001,18.285696059,0
                98.767487465,18.2864449150001,0
                98.7673469300001,18.2871219350001,0
                98.767163183,18.2879835950001,0
                98.767098285,18.28832211,0
                98.7670009720001,18.2888042340001,0
                98.7668926710001,18.289471034,0
                98.7668598000001,18.2899532380001,0
                98.7668902020001,18.2904579020001,0
                98.7668913270001,18.290476558,0
                98.7668906680001,18.290969064,0
                98.7668470710001,18.291440992,0
                98.766771142,18.291994964,0
                98.7666846340001,18.2924257970001,0
                98.766683948,18.2929388220001,0
                98.766672343,18.2935852200001,0
                98.7666723180001,18.293604014,0
                98.7666715460001,18.294180323,0
                98.7666494050001,18.294672801,0
                98.7665736920001,18.295062608,0
                98.766405191,18.2953606040001,0
                98.766347582,18.295462489,0
                98.7660354230001,18.295954608,0
                98.7655942160001,18.296549176,0
                98.76517447,18.297164287,0
                98.764582519,18.298025442,0
                98.7641520620001,18.2986097560001,0
                98.763538758,18.2993682740001,0
                98.7630222640001,18.300024303,0
                98.7625166170001,18.3005982620001,0
                98.7619358040001,18.301151604,0
                98.761430165,18.3017152960001,0
                98.760978359,18.302186713,0
                98.7605802470001,18.302668457,0
                98.7602789350001,18.303057976,0
                98.7600744710001,18.303324493,0
                98.7598484550001,18.3036422810001,0
                98.7595684680001,18.3041446930001,0
                98.7593208060001,18.3045753230001,0
                98.759094631,18.305005973,0
                98.758943645,18.3054367240001,0
                98.758792428,18.3060316410001,0
                98.758555362,18.3065648850001,0
                98.75839362,18.3070058800001,0
                98.758210375,18.3074571060001,0
                98.7580915980001,18.307898154,0
                98.758011825,18.3083009490001,0
                98.7581240120001,18.3086238390001,0
                98.75846698,18.30918974,0
                98.7587340170001,18.3094272050001,0
                98.759058296,18.3097012280001,0
                98.759573399,18.3100849360001,0
                98.7599930440001,18.310450277,0
                98.760278881,18.310906658,0
                98.760431086,18.3113263880001,0
                98.760411434,18.3117276630001,0
                98.7602961440001,18.312238258,0
                98.760153018,18.3128112420001,0
                98.7601311660001,18.3130779840001,0
                98.7601307560001,18.3133755370001,0
                98.760119515,18.3137346410001,0
                98.760205232,18.313898916,0
                98.7603554290001,18.3140427490001,0
                98.7606238260001,18.3141662100001,0
                98.761568799,18.314444426,0
                98.7619016250001,18.314588486,0
                98.762298839,18.3147839320001,0
                98.762674523,18.3150101260001,0
                98.7629748000001,18.3153901380001,0
                98.7631464030001,18.3155955610001,0
                98.7632533870001,18.3159240270001,0
                98.7633282080001,18.3162011530001,0
                98.7633063040001,18.3165089390001,0
                98.7632198850001,18.3168576850001,0
                98.7630044460001,18.317288358,0
                98.7626171320001,18.317708554,0
                98.7624459680001,18.3178377570001,0
                98.7620471690001,18.3181387860001,0
                98.7616708480001,18.3183743060001,0
                98.761486753,18.318461611,0
                98.7613476400001,18.318553782,0
                98.761256873,18.318646012,0
                98.7611297660001,18.3187959110001,0
                98.761093341,18.3189170680001,0
                98.761081082,18.3190440230001,0
                98.761129188,18.31921723,0
                98.7612134250001,18.3194828210001,0
                98.7617537830001,18.320570145,0
                98.7621075060001,18.321155431,0
                98.7624074830001,18.321761171,0
                98.7628465990001,18.3227569790001,0
                98.7629169860001,18.322987734,0
                98.7629573630001,18.3231428400001,0
                98.7629976920001,18.3233311760001,0
                98.763037979,18.3235527360001,0
                98.763037775,18.3237022590001,0
                98.763020156,18.3238683700001,0
                98.7630146100001,18.323888386,0
                98.7629618860001,18.324078731,0
                98.762903593,18.324305709,0
                98.7627697870001,18.324632271,0
                98.762647551,18.3249754600001,0
                98.7625368960001,18.3253297380001,0
                98.7624611640001,18.3255899220001,0
                98.7624493020001,18.3257837300001,0
                98.762454876,18.3259498690001,0
                98.762472066,18.32609941,0
                98.762506704,18.3262102080001,0
                98.7625819350001,18.326321056,0
                98.762715169,18.3264153650001,0
                98.762894728,18.3265540310001,0
                98.7630567630001,18.3267923550001,0
                98.7631521270001,18.327179609,0
                98.7632051320001,18.3277029600001,0
                98.7633223060001,18.328441857,0
                98.7633975080001,18.3292161690001,0
                98.7634279390001,18.3295780070001,0
                98.76341976,18.3299102620001,0
                98.763380307,18.3304935260001,0
                98.7633565840001,18.330884831,0
                98.763301912,18.331290869,0
                98.7632012280001,18.331796684,0
                98.7637193640001,18.331916958,0
                98.7640320350001,18.332033445,0
                98.7641377720001,18.332063883,0
                98.764277887,18.332091833,0
                98.764462951,18.3321274200001,0
                98.7646744090001,18.3321983920001,0
                98.7647669300001,18.332221233,0
                98.7648779680001,18.3322415760001,0
                98.7650286430001,18.332284697,0
                98.7651792930001,18.332342967,0
                98.765303493,18.3324113050001,0
                98.765409215,18.332449318,0
                98.7655334720001,18.3324747240001,0
                98.7656788510001,18.332522887,0
                98.7658823470001,18.332614053,0
                98.7661070030001,18.3327027230001,0
                98.7664294740001,18.332814233,0
                98.7668629660001,18.3329587170001,0
                98.7671484420001,18.333052508,0
                98.767233047,18.333062711,0
                98.767338829,18.333060314,0
                98.7674208220001,18.333060414,0
                98.767502785,18.3330605140001,0
                98.7676429320001,18.333065737,0
                98.7677566150001,18.333086081,0
                98.7678676230001,18.333129147,0
                98.767965384,18.333192404,0
                98.7681292140001,18.333286044,0
                98.7682745560001,18.3333619850001,0
                98.7684780960001,18.3334253690001,0
                98.7687688970001,18.3334913850001,0
                98.7704564310001,18.334315458,0
                98.7709309290001,18.3345629620001,0
                98.774332708,18.336053108,0
                98.7753896900001,18.336678426,0
                98.7770104470001,18.3376141840001,0
                98.7778701670001,18.338104565,0
                98.7795520330001,18.3390673160001,0
                98.780807924,18.339607444,0
                98.781179093,18.3397361360001,0
                98.78152656,18.3398647980001,0
                98.7823471760001,18.3407107680001,0
                98.7830969710001,18.341330306,0
                98.7842258910001,18.3425962540001,0
                98.7846560180001,18.342328272,0
                98.784947591,18.3422189620001,0
                98.7851389670001,18.3421919640001,0
                98.7853627430001,18.342160397,0
                98.78549781,18.342157915,0
                98.7857273320001,18.3421536990001,0
                98.785795492,18.3421524460001,0
                98.7863872240001,18.3421278120001,0
                98.7867581960001,18.3420860580001,0
                98.787173356,18.3420190520001,0
                98.787650447,18.341859345,0
                98.788041262,18.341735666,0
                98.788366829,18.3415448490001,0
                98.7885115030001,18.3414675720001,0
                98.7886592560001,18.341395827,0
                98.7888098830001,18.341329724,0
                98.7889631260001,18.341269375,0
                98.789118751,18.3412148830001,0
                98.7892765080001,18.3411663050001,0
                98.78943617,18.341123731,0
                98.78959747,18.341087214,0
                98.7897601450001,18.341056844,0
                98.7899239490001,18.341032657,0
                98.7900886520001,18.341014671,0
                98.7902539560001,18.341002922,0
                98.7904196090001,18.3409974460001,0
                98.7907247840001,18.341019384,0
                98.791104454,18.3410872650001,0
                98.7916076990001,18.341205888,0
                98.7921196760001,18.3414088550001,0
                98.7926757270001,18.3416793380001,0
                98.7933201020001,18.341949911,0
                98.7939998400001,18.342186789,0
                98.7945119180001,18.3423054140001,0
                98.7949092870001,18.34234801,0
                98.7953597470001,18.342297893,0
                98.7959428010001,18.3421467110001,0
                98.796464072,18.341961726,0
                98.7970985300001,18.3417449780001,0
                98.797555775,18.3415557050001,0
                98.797824205,18.3414041820001,0
                98.7978903730001,18.341361729,0
                98.7980678000001,18.3412478930001,0
                98.7982120030001,18.3411247010001,0
                98.798286654,18.341006183,0
                98.7983465200001,18.3407880280001,0
                98.7984305990001,18.340516146,0
                98.7985210410001,18.3402236860001,0
                98.798625626,18.339996086,0
                98.798705291,18.339839623,0
                98.7988048080001,18.3396974070001,0
                98.798934102,18.3395789470001,0
                98.7990832610001,18.3394652490001,0
                98.7992771570001,18.3393278820001,0
                98.7994710190001,18.339218976,0
                98.7997542900001,18.339114904,0
                98.8000375500001,18.3390203220001,0
                98.800330736,18.338935239,0
                98.8007034060001,18.338845497,0
                98.801051192,18.338798422,0
                98.801364177,18.3387750270001,0
                98.801716893,18.338761162,0
                98.8021441000001,18.338761606,0
                98.8026607020001,18.3387858630001,0
                98.803321354,18.3388197530001,0
                98.8039969320001,18.338829935,0
                98.8045980260001,18.33881632,0
                98.805214027,18.338797974,0
                98.8058648100001,18.338770176,0
                98.8063268330001,18.3387374390001,0
                98.8068584470001,18.3386620750001,0
                98.807280769,18.3385913430001,0
                98.8074993820001,18.3385536120001,0
                98.807824328,18.3384373280001,0
                98.808162215,18.3383188340001,0
                98.808464567,18.338177672,0
                98.8086246780001,18.3380646590001,0
                98.808703601,18.33814406,0
                98.808855517,18.3382968970001,0
                98.8089797950001,18.3384384890001,0
                98.8090863850001,18.3385008390001,0
                98.80921083,18.338495305,0
                98.8093886550001,18.338438898,0
                98.8095724040001,18.338382494,0
                98.8097442800001,18.3383487130001,0
                98.8099338980001,18.3383489020001,0
                98.8100997970001,18.3383603840001,0
                98.8102538030001,18.3384114680001,0
                98.810336674,18.3384907710001,0
                98.8103543500001,18.3385813300001,0
                98.8103245490001,18.338739741,0
                98.8103303950001,18.338813309,0
                98.810348123,18.338858599,0
                98.8103952330001,18.338871156,0
                98.8104352410001,18.3388616450001,0
                98.8104977740001,18.338828289,0
                98.8105478300001,18.338773431,0
                98.8106078810001,18.3387209700001,0
                98.8106654150001,18.3386876070001,0
                98.810740417,18.338680519,0
                98.8107903820001,18.338709217,0
                98.810820328,18.338756989,0
                98.8108252600001,18.3388214510001,0
                98.8108252050001,18.3388715830001,0
                98.8108526450001,18.3389217450001,0
                98.8108876050001,18.3389575850001,0
                98.8109275780001,18.3389791130001,0
                98.8109650680001,18.3389863090001,0
                98.8110300800001,18.338972052,0
                98.811132586,18.3389578270001,0
                98.811247591,18.3389460060001,0
                98.8113650980001,18.3389318010001,0
                98.8114751160001,18.338908035,0
                98.8115501380001,18.3388818500001,0
                98.811645142,18.338874779,0
                98.8117276250001,18.338882025,0
                98.8117926050001,18.338896413,0
                98.8118450490001,18.3389442110001,0
                98.8118649950001,18.3389919750001,0
                98.8118674550001,18.3390325600001,0
                98.811842411,18.3390731210001,0
                98.8117848520001,18.339130358,0
                98.8117397970001,18.3391828310001,0
                98.8117147400001,18.339240105,0
                98.8117271930001,18.339280698,0
                98.811752143,18.339328467,0
                98.811852845,18.3394680550001,0
                98.811945355,18.339463838,0
                98.8120243130001,18.3394789970001,0
                98.812082946,18.339504914,0
                98.81211899,18.3395588180001,0
                98.81214091,18.339603262,0
                98.81215726,18.3396364220001,0
                98.8121887920001,18.3396881640001,0
                98.812218091,18.3397226710001,0
                98.8123015230001,18.3397680030001,0
                98.8124007360001,18.3398284310001,0
                98.8124909270001,18.339884544,0
                98.812569834,18.3399449520001,0
                98.8126577950001,18.3399773580001,0
                98.8127660550001,18.340016249,0
                98.8128811030001,18.340035754,0
                98.8129916460001,18.3400509460001,0
                98.8130976610001,18.340081216,0
                98.8132006610001,18.340114713,0
                98.8133179430001,18.3401607970001,0
                98.813444255,18.3401982660001,0
                98.813585618,18.3402300070001,0
                98.8137300020001,18.3402445150001,0
                98.8138894290001,18.34026478,0
                98.8139887150001,18.3402562590001,0
                98.8140759830001,18.3402333600001,0
                98.8141271650001,18.3401960640001,0
                98.814172397,18.340098427,0
                98.8142085570001,18.3400438740001,0
                98.8142260480001,18.3399891980001,0
                98.8142296870001,18.339977817,0
                98.8142628460001,18.339914645,0
                98.8143230360001,18.3398917230001,0
                98.8143862470001,18.3398630520001,0
                98.8144494620001,18.339825766,0
                98.8145157310001,18.3397453870001,0
                98.814539902,18.3396506080001,0
                98.81454904,18.339544317,0
                98.8145402420001,18.3393317110001,0
                98.814540321,18.3392570130001,0
                98.814570421,18.3392398070001,0
                98.8146396240001,18.3392341260001,0
                98.8149826010001,18.339214348,0
                98.8154187820001,18.339246374,0
                98.815512019,18.3392665740001,0
                98.8156323170001,18.3393069110001,0
                98.815763884,18.3393394120001,0
                98.815830814,18.339355944,0
                98.8159270680001,18.339373274,0
                98.816059388,18.3394193720001,0
                98.8162488580001,18.3394770100001,0
                98.816363138,18.339511596,0
                98.816495472,18.3395462,0
                98.816624834,18.3395434510001,0
                98.8167421620001,18.3395464380001,0
                98.816841405,18.3395781340001,0
                98.8169376130001,18.3396356850001,0
                98.8170278380001,18.339661628,0
                98.817100037,18.339661698,0
                98.8171933500001,18.3396158190001,0
                98.817274641,18.339549822,0
                98.8173498840001,18.339518292,0
                98.817440155,18.339501139,0
                98.8175514580001,18.339509863,0
                98.8176296500001,18.3395357960001,0
                98.8176937150001,18.339592387,0
                98.817708812,18.3395928480001,0
                98.8178091010001,18.3395852850001,0
                98.8178853320001,18.339566205,0
                98.817957596,18.3395049860001,0
                98.8180178910001,18.3393862940001,0
                98.818090209,18.3392714460001,0
                98.8181665430001,18.339156603,0
                98.8182387900001,18.339114534,0
                98.8183430870001,18.3391069730001,0
                98.81841524,18.33915684,0
                98.8184592740001,18.339241154,0
                98.8184431280001,18.3393369030001,0
                98.818451032,18.339447996,0
                98.8184710040001,18.3395284600001,0
                98.8185551650001,18.3396013220001,0
                98.8186795070001,18.339609099,0
                98.8189082360001,18.339521211,0
                98.8190567360001,18.339437079,0
                98.8192453130001,18.339387462,0
                98.8193536740001,18.3393301040001,0
                98.819470053,18.3392804170001,0
                98.819586443,18.339215407,0
                98.819726905,18.339146591,0
                98.8198352900001,18.339070081,0
                98.8199396940001,18.338959093,0
                98.820020034,18.338848081,0
                98.8200522020001,18.338771502,0
                98.8200643200001,18.3386910680001,0
                98.820068458,18.3385684940001,0
                98.8200605520001,18.338453569,0
                98.8200806990001,18.3383654840001,0
                98.8201289520001,18.338250612,0
                98.8201851960001,18.3381663920001,0
                98.820233408,18.3380936560001,0
                98.8203297490001,18.338020967,0
                98.8204220170001,18.338009561,0
                98.8205584010001,18.338005862,0
                98.820654673,18.338002121,0
                98.820811151,18.3379601300001,0
                98.8208914560001,18.3378835940001,0
                98.8209554570001,18.337829917,0
                98.8209918210001,18.3377994150001,0
                98.821108166,18.33777654,0
                98.8212164710001,18.3377728140001,0
                98.8213608060001,18.33783807,0
                98.8215171750001,18.3379033360001,0
                98.8216815500001,18.3379839310001,0
                98.8218780230001,18.3380568960001,0
                98.8220744420001,18.338179656,0
                98.8222147000001,18.3383138610001,0
                98.8222948380001,18.338394377,0
                98.8223348770001,18.3384671960001,0
                98.8223909220001,18.3385783320001,0
                98.8224309190001,18.3386894600001,0
                98.822466938,18.338769934,0
                98.8225710790001,18.338915592,0
                98.8226352250001,18.3389462960001,0
                98.822711434,18.3389540310001,0
                98.822855862,18.338923521,0
                98.822972194,18.3389197970001,0
                98.823076459,18.3389428780001,0
                98.8231807240001,18.3389697870001,0
                98.8232897830001,18.3391014040001,0
                98.8234019980001,18.339197272,0
                98.8235994890001,18.3392900860001,0
                98.8236225100001,18.339300902,0
                98.823762861,18.33933934,0
                98.8238430640001,18.339362399,0
                98.8239032060001,18.3393854350001,0
                98.823955315,18.3394237910001,0
                98.8240475170001,18.339477505,0
                98.8241076720001,18.3394928810001,0
                98.8241798820001,18.339481456,0
                98.8242320850001,18.3394278760001,0
                98.8242682640001,18.339347468,0
                98.82429641,18.339282371,0
                98.8243365640001,18.339240273,0
                98.824392731,18.3392288320001,0
                98.824501022,18.339240424,0
                98.8246815030001,18.3392635760001,0
                98.824841903,18.339309691,0
                98.8249501480001,18.3393672460001,0
                98.8250423410001,18.339432452,0
                98.8251906250001,18.339558998,0
                98.8252827960001,18.339647186,0
                98.825374917,18.3397851720001,0
                98.825426931,18.3399154580001,0
                98.8254829690001,18.3400342580001,0
                98.825539065,18.3400956,0
                98.8256272460001,18.3401608,0
                98.8256913600001,18.3402259800001,0
                98.8257714970001,18.3403141530001,0
                98.8258516230001,18.340409992,0
                98.825907708,18.340482825,0
                98.826007942,18.340528884,0
                98.8261723560001,18.3405749990001,0
                98.826300668,18.3406249120001,0
                98.8264409490001,18.34073613,0
                98.8267496390001,18.340912616,0
                98.8268698950001,18.34099317,0
                98.826889861,18.341081289,0
                98.8268897720001,18.341171075,0
                98.826889754,18.3411885470001,0
                98.826897564,18.3414030640001,0
                98.8269054250001,18.3415677900001,0
                98.826897316,18.341652056,0
                98.8269132710001,18.341744002,0
                98.8269532720001,18.3418551280001,0
                98.8270213340001,18.341985428,0
                98.8271213900001,18.342211525,0
                98.827193428,18.342376304,0
                98.8272775830001,18.342460653,0
                98.8273577570001,18.342510523,0
                98.827429931,18.342541232,0
                98.8275943780001,18.342556705,0
                98.827818994,18.3425722280001,0
                98.828131834,18.3426108190001,0
                98.828456692,18.342668568,0
                98.828685277,18.3427262340001,0
                98.8288296790001,18.3427301950001,0
                98.8290102060001,18.342707374,0
                98.8293311420001,18.342673184,0
                98.829856701,18.34258938,0
                98.830099922,18.342560566,0
                98.830113452,18.3425589660001,0
                98.830330071,18.3425476670001,0
                98.8305506980001,18.3425402020001,0
                98.830763291,18.342548052,0
                98.8309437770001,18.342571197,0
                98.8310801360001,18.3425943010001,0
                98.831204433,18.342648039,0
                98.8313487060001,18.34278607,0
                98.8315571100001,18.342973952,0
                98.831753436,18.343207788,0
                98.831953791,18.34342631,0
                98.8320330640001,18.3435846450001,0
                98.8321329140001,18.343784059,0
                98.8322182650001,18.3440156730001,0
                98.832296484,18.34424728,0
                98.8323534030001,18.344383527,0
                98.83243882,18.344547043,0
                98.832510014,18.344669681,0
                98.8326240260001,18.3447583130001,0
                98.832738062,18.3448265120001,0
                98.8329661970001,18.3448948110001,0
                98.8332228690001,18.3449495130001,0
                98.8334082530001,18.3449769160001,0
                98.8336436170001,18.3449430700001,0
                98.8338290500001,18.3449228060001,0
                98.8341285810001,18.344902636,0
                98.8344369860001,18.3448243880001,0
                98.8344495650001,18.3448211950001,0
                98.8346707310001,18.344719237,0
                98.8349133120001,18.344590059,0
                98.83520587,18.344406443,0
                98.8354342120001,18.3442568250001,0
                98.835612628,18.3441139670001,0
                98.8358124160001,18.3439915610001,0
                98.8359836550001,18.3438963680001,0
                98.836269036,18.343753604,0
                98.8365044760001,18.34363804,0
                98.8367898430001,18.3435088960001,0
                98.8370181110001,18.3434341830001,0
                98.837210725,18.343359438,0
                98.837453237,18.343305162,0
                98.8376814470001,18.3432917420001,0
                98.8378597210001,18.3432986980001,0
                98.837995188,18.343326055,0
                98.8380807500001,18.3433397480001,0
                98.838168297,18.343350958,0
                98.8382482660001,18.343347705,0
                98.8383734600001,18.343317929,0
                98.838529985,18.3432483350001,0
                98.83865869,18.343182041,0
                98.8387665230001,18.343129005,0
                98.8389160790001,18.3430726880001,0
                98.839041288,18.34302963,0
                98.8392082270001,18.342976649,0
                98.8394099650001,18.3428904940001,0
                98.8395665030001,18.34280098,0
                98.839640612,18.342748408,0
                98.8397066150001,18.342701587,0
                98.83971611,18.342694855,0
                98.8398135210001,18.342625211,0
                98.8399144130001,18.342558893,0
                98.8400500700001,18.3424926010001,0
                98.84019613,18.342459524,0
                98.8403386950001,18.342443039,0
                98.8404812590001,18.342429877,0
                98.8406377140001,18.3424300080001,0
                98.8407698410001,18.3424234780001,0
                98.840888078,18.342397019,0
                98.840999374,18.342360587,0
                98.8411558830001,18.3423042750001,0
                98.841263709,18.342257881,0
                98.8413576360001,18.3421948710001,0
                98.8414550800001,18.3420953460001,0
                98.8415664440001,18.3419825500001,0
                98.8416951820001,18.341876412,0
                98.841753221,18.341819505,0
                98.841816979,18.3417569810001,0
                98.8419283170001,18.3416707490001,0
                98.8420396650001,18.341574555,0
                98.8421196850001,18.341514857,0
                98.8422379190001,18.341491713,0
                98.8423909050001,18.3414852010001,0
                98.8426029940001,18.341482054,0
                98.843016736,18.3414857170001,0
                98.843292868,18.3414703080001,0
                98.8433554730001,18.3414429690001,0
                98.8434780950001,18.341373344,0
                98.8435876730001,18.3413086910001,0
                98.84372074,18.34121915,0
                98.843827715,18.341154497,0
                98.844522608,18.3406551840001,0
                98.8447081460001,18.3405123310001,0
                98.8449293520001,18.340349073,0
                98.845171931,18.3402130710001,0
                98.8454929930001,18.3400294620001,0
                98.8463758020001,18.3395043630001,0
                98.8465976680001,18.339439014,0
                98.8469215630001,18.3394155570001,0
                98.8485682790001,18.339680392,0
                98.8485731810001,18.3396809390001,0
                98.8495119840001,18.3397432510001,0
                98.8510712060001,18.3398534360001,0
                98.8516670270001,18.339878115,0
                98.8525797790001,18.3399030350001,0
                98.8535178960001,18.339915865,0
                98.8542024860001,18.3399042820001,0
                98.8550391480001,18.339965454,0
                98.855736354,18.340026514,0
                98.8563067860001,18.340087479,0
                98.8569659550001,18.340160611,0
                98.857663184,18.340197452,0
                98.8581322250001,18.340222016,0
                98.858842145,18.3402467550001,0
                98.859247774,18.3403075890001,0
                98.859628016,18.34040472,0
                98.8599954900001,18.3406229080001,0
                98.8600281920001,18.3406559260001,0
                98.8601989250001,18.3408282940001,0
                98.8602235000001,18.3408531040001,0
                98.8602375350001,18.3408702570001,0
                98.8604514690001,18.341131719,0
                98.8606667050001,18.341482969,0
                98.8608185530001,18.341834169,0
                98.8610211660001,18.342124874,0
                98.8611984200001,18.342415562,0
                98.8614517490001,18.342694194,0
                98.8618064600001,18.3430213300001,0
                98.8621738260001,18.3433847960001,0
                98.8625792710001,18.343687749,0
                98.863048136,18.343954432,0
                98.8635677330001,18.3441969360001,0
                98.8640802030001,18.344398873,0
                98.864214098,18.3444516340001,0
                98.8645356250001,18.3446615350001,0
                98.865012392,18.3449727820001,0
                98.8658614000001,18.345493963,0
                98.8665102750001,18.345823137,0
                98.8667280800001,18.345778921,0
                98.8669460560001,18.345734667,0
                98.86719186,18.345684767,0
                98.867851595,18.3456064800001,0
                98.8679050370001,18.345600141,0
                98.868147536,18.3455476870001,0
                98.868387645,18.345495747,0
                98.8685588260001,18.345458723,0
                98.8692571820001,18.3453173340001,0
                98.869732694,18.3451757890001,0
                98.8700596900001,18.3449632100001,0
                98.8703867850001,18.3446229420001,0
                98.8705208280001,18.344169053,0
                98.8706401360001,18.3435590940001,0
                98.8706943700001,18.3431932600001,0
                98.8707894460001,18.3425519210001,0
                98.870953537,18.341644063,0
                98.8711174920001,18.340920641,0
                98.8712813160001,18.3403674580001,0
              </coordinates>
                
            </LinearRing>
            
          </outerBoundaryIs>
        
        </Polygon>
        
      <styleUrl>
        #tambonStyle</styleUrl>
    </Placemark>

  </Document>
</kml>