<?xml version="1.0" encoding="UTF-8"?>
<kml xmlns="http://www.opengis.net/kml/2.2">
  <Document id="tambon_doc">
    <name>บึงคอไห, ลำลูกกา, Pathum Thani</name>
    <description>ข้อมูลขอบเขตตำบลบึงคอไห อำเภอลำลูกกา จังหวัดPathum Thani</description>
    
    <!-- Schema สำหรับข้อมูลตำบล -->
    <Schema id="tambon.schema">
      <SimpleField name="ADM3_EN" type="string">
        <displayName>Subdistrict Name (English)</displayName>
      </SimpleField>
      <SimpleField name="ADM3_TH" type="string">
        <displayName>ชื่อตำบล</displayName>
      </SimpleField>
      <SimpleField name="ADM2_EN" type="string">
        <displayName>District Name (English)</displayName>
      </SimpleField>
      <SimpleField name="ADM2_TH" type="string">
        <displayName>ชื่ออำเภอ</displayName>
      </SimpleField>
      <SimpleField name="ADM1_EN" type="string">
        <displayName>Province Name (English)</displayName>
      </SimpleField>
      <SimpleField name="ADM1_TH" type="string">
        <displayName>ชื่อจังหวัด</displayName>
      </SimpleField>
      <SimpleField name="ADM0_EN" type="string">
        <displayName>Country Name (English)</displayName>
      </SimpleField>
      <SimpleField name="ADM0_TH" type="string">
        <displayName>ชื่อประเทศ</displayName>
      </SimpleField>
    </Schema>

    <!-- Style สำหรับตำบล -->
    <Style id="tambonStyle">
      <LineStyle>
        <color>ffff0000</color>
        <width>1.5</width>
      </LineStyle>
      <PolyStyle>
        <color>33ff0000</color>
        <fill>1</fill>
        <outline>1</outline>
      </PolyStyle>
    </Style>

    <Placemark id="Pathum_Thani.48">
        
        <ExtendedData>
            
          <SchemaData schemaUrl="#tambon.schema">
                
            <SimpleData name="Shape_Leng">
                0.242584299265</SimpleData>
                
            <SimpleData name="Shape_Area">
                0.0033485725603</SimpleData>
                
            <SimpleData name="ADM3_EN">
                Bueng Kho Hai</SimpleData>
                
            <SimpleData name="ADM3_TH">
                บึงคอไห</SimpleData>
                
            <SimpleData name="ADM3_PCODE">
                TH130607</SimpleData>
                
            <SimpleData name="ADM2_EN">
                Lam Luk Ka</SimpleData>
                
            <SimpleData name="ADM2_TH">
                ลำลูกกา</SimpleData>
                
            <SimpleData name="ADM2_PCODE">
                TH1306</SimpleData>
                
            <SimpleData name="ADM1_EN">
                Pathum Thani</SimpleData>
                
            <SimpleData name="ADM1_TH">
                ปทุมธานี</SimpleData>
                
            <SimpleData name="ADM1_PCODE">
                TH13</SimpleData>
                
            <SimpleData name="ADM0_EN">
                Thailand</SimpleData>
                
            <SimpleData name="ADM0_TH">
                ประเทศไทย</SimpleData>
                
            <SimpleData name="ADM0_PCODE">
                TH</SimpleData>
            
          </SchemaData>
        
        </ExtendedData>
        
        <Polygon>
            
          <outerBoundaryIs>
                
            <LinearRing>
                    
              <coordinates>
                    
                100.914473243,14.0095129690001,0
                100.914462846,14.0085235810001,0
                100.914462841,14.008523112,0
                100.914461622,14.008405539,0
                100.913176301,14.008426775,0
                100.912128777,14.00844785,0
                100.910926332,14.0084736260001,0
                100.909767764,14.008472284,0
                100.90886436,14.0084817310001,0
                100.907779638,14.0084739820001,0
                100.906537765,14.0084884090001,0
                100.90540552,14.0084996430001,0
                100.904409147,14.008509804,0
                100.904046844,14.0085149760001,0
                100.903995706,14.008529347,0
                100.903969725,14.0085586490001,0
                100.903952162,14.0085971890001,0
                100.903942896,14.0086298470001,0
                100.903940632,14.0087893100001,0
                100.903936501,14.008866159,0
                100.903920294,14.0089244750001,0
                100.903897844,14.0089479260001,0
                100.903868151,14.008960963,0
                100.903825321,14.008970612,0
                100.903766976,14.008978052,0
                100.903632248,14.008973288,0
                100.902872771,14.0089593320001,0
                100.899929471,14.008867975,0
                100.897107446,14.008779578,0
                100.894354031,14.008678774,0
                100.894411411,14.006803669,0
                100.894228295,14.006800034,0
                100.893628836,14.0067933080001,0
                100.893501553,14.006791363,0
                100.893391779,14.006788559,0
                100.891964722,14.006749255,0
                100.891817738,14.0067445940001,0
                100.888800329,14.006643431,0
                100.884688656,14.006534317,0
                100.884559729,14.006530287,0
                100.882663097,14.006467962,0
                100.882571028,14.00646513,0
                100.882534197,14.006464276,0
                100.882497748,14.0064638100001,0
                100.882425619,14.0064638480001,0
                100.882191139,14.006465759,0
                100.881956047,14.0064683320001,0
                100.881919754,14.0064681320001,0
                100.881901602,14.006467705,0
                100.881871949,14.00646627,0
                100.881842408,14.006463716,0
                100.881824231,14.00646139,0
                100.881806199,14.006458438,0
                100.881788347,14.006454756,0
                100.881771156,14.0064503350001,0
                100.881754298,14.006445066,0
                100.881738194,14.006439046,0
                100.881722523,14.0064322850001,0
                100.881707348,14.0064248740001,0
                100.881692793,14.0064168320001,0
                100.881679037,14.006408128,0
                100.881666359,14.006398635,0
                100.881655113,14.006388182,0
                100.881645815,14.006376475,0
                100.881639144,14.006363977,0
                100.881634259,14.0063503690001,0
                100.881630732,14.0063359380001,0
                100.881628217,14.006320886,0
                100.88162648,14.0063053980001,0
                100.881625331,14.006289591,0
                100.881624599,14.0062720510001,0
                100.881624131,14.006236513,0
                100.881625754,14.0060753070001,0
                100.88162569,14.006036281,0
                100.881625299,14.006013592,0
                100.881623702,14.005966534,0
                100.881622475,14.0059442240001,0
                100.881619747,14.0059090930001,0
                100.8816027,14.0058349010001,0
                100.881369241,14.0058280480001,0
                100.881314317,14.005829835,0
                100.881241784,14.005833485,0
                100.880898663,14.005853358,0
                100.880789286,14.005858807,0
                100.878176222,14.0059697890001,0
                100.878102611,14.005972709,0
                100.878030457,14.0059750230001,0
                100.877618365,14.0059856930001,0
                100.877528787,14.005988302,0
                100.877384892,14.005993849,0
                100.876934401,14.006012464,0
                100.87575658,14.006066709,0
                100.875701413,14.00606981,0
                100.875665901,14.0060723020001,0
                100.875546061,14.006082432,0
                100.875511797,14.0060849920001,0
                100.875475183,14.006087182,0
                100.875438551,14.006088984,0
                100.874247103,14.0061370330001,0
                100.874119041,14.0061429150001,0
                100.873424078,14.00617614,0
                100.873278222,14.006183508,0
                100.872772424,14.0062122790001,0
                100.872682084,14.006216898,0
                100.872645739,14.0062182450001,0
                100.872590913,14.006219631,0
                100.872408104,14.0062227540001,0
                100.872317136,14.0062235400001,0
                100.872138758,14.00622314,0
                100.872084829,14.0062240880001,0
                100.872030035,14.006226181,0
                100.871518748,14.0062515770001,0
                100.871409201,14.0062572950001,0
                100.871317265,14.00626307,0
                100.871077846,14.0062794350001,0
                100.871022566,14.006282803,0
                100.870967261,14.00628557,0
                100.870487734,14.0063058700001,0
                100.87037706,14.006310292,0
                100.870268231,14.0063135120001,0
                100.869924738,14.006322025,0
                100.869870518,14.0063237300001,0
                100.869816625,14.0063259030001,0
                100.869511295,14.0063401900001,0
                100.869403556,14.0063454990001,0
                100.869349728,14.0063486650001,0
                100.869258075,14.006355534,0
                100.869204232,14.0063589390001,0
                100.869078516,14.0063658400001,0
                100.868809061,14.006379974,0
                100.868755152,14.0063822880001,0
                100.868718259,14.0063834540001,0
                100.868515295,14.006387908,0
                100.868441521,14.0063902590001,0
                100.868370513,14.0063940970001,0
                100.868175326,14.0064066690001,0
                100.868103843,14.0064104950001,0
                100.867905898,14.00641864,0
                100.867699515,14.0064254550001,0
                100.867627775,14.00642831,0
                100.866825554,14.006464899,0
                100.866855694,14.008360533,0
                100.866674676,14.008361662,0
                100.865776066,14.0083830300001,0
                100.86570272,14.008385059,0
                100.865629273,14.0083878780001,0
                100.863241518,14.008499979,0
                100.860792394,14.0086195000001,0
                100.858490024,14.0087263890001,0
                100.85832412,14.0087332430001,0
                100.85618484,14.0088156840001,0
                100.855841699,14.0088317610001,0
                100.855733391,14.008837515,0
                100.85567935,14.00884152,0
                100.855580688,14.008851758,0
                100.855547799,14.0088544970001,0
                100.855531329,14.0088554000001,0
                100.855497873,14.008856053,0
                100.855414067,14.00885492,0
                100.855378934,14.008855007,0
                100.855342215,14.0088559060001,0
                100.855287123,14.0088580710001,0
                100.853542871,14.0089433810001,0
                100.853359101,14.008951962,0
                100.851777239,14.009022272,0
                100.849159786,14.009132203,0
                100.849104577,14.009135026,0
                100.849031151,14.0091394180001,0
                100.847783095,14.0092186090001,0
                100.847654545,14.0092263510001,0
                100.844344558,14.009392711,0
                100.844346067,14.0094163200001,0
                100.844347214,14.009449116,0
                100.844347286,14.0094793010001,0
                100.844345007,14.009554947,0
                100.844344453,14.0096478310001,0
                100.844343891,14.009663287,0
                100.84434275,14.009681126,0
                100.844339203,14.0097167370001,0
                100.844334376,14.0097522460001,0
                100.844318066,14.0098491750001,0
                100.844313599,14.0098815640001,0
                100.84431097,14.009910102,0
                100.844310126,14.009924406,0
                100.844309493,14.009942397,0
                100.84430923,14.009978437,0
                100.844310599,14.010050624,0
                100.84431703,14.010267287,0
                100.844319027,14.010321429,0
                100.844320716,14.0103575050001,0
                100.84434786,14.010844283,0
                100.84435201,14.010933632,0
                100.844367626,14.0112910780001,0
                100.84437034,14.011344669,0
                100.844373753,14.0113983740001,0
                100.844380507,14.011487935,0
                100.844421415,14.0120073050001,0
                100.844429579,14.0121147790001,0
                100.844436412,14.0122222750001,0
                100.844459148,14.0126165240001,0
                100.844462561,14.01267026,0
                100.844466487,14.0127227250001,0
                100.844475451,14.012826326,0
                100.844483777,14.0129125670001,0
                100.844489665,14.0129626250001,0
                100.844502506,14.0130562520001,0
                100.844508509,14.0131061270001,0
                100.844515286,14.013172753,0
                100.844517958,14.013206113,0
                100.844519095,14.013224112,0
                100.844520863,14.0132601490001,0
                100.844522863,14.0133142380001,0
                100.844539051,14.01383731,0
                100.84454092,14.0139260350001,0
                100.844543646,14.0141191070001,0
                100.844545299,14.0141892560001,0
                100.844549264,14.0142942960001,0
                100.844558844,14.014521159,0
                100.844563861,14.014621956,0
                100.844565847,14.014655534,0
                100.844568284,14.014690133,0
                100.844575919,14.0147791530001,0
                100.844602094,14.0150639020001,0
                100.844606299,14.0151173360001,0
                100.844609211,14.015171163,0
                100.844612064,14.015261272,0
                100.844639891,14.0163428990001,0
                100.844643041,14.0164510450001,0
                100.844645242,14.0165047360001,0
                100.844648782,14.0165760580001,0
                100.844688215,14.0173248560001,0
                100.844690745,14.017378347,0
                100.844692053,14.017414004,0
                100.844692727,14.0174496720001,0
                100.844692714,14.0174664420001,0
                100.844692186,14.0174999870001,0
                100.844690202,14.0175838660001,0
                100.844690034,14.017617359,0
                100.844690879,14.017667494,0
                100.844692752,14.0177176030001,0
                100.844696053,14.017769592,0
                100.844700434,14.0178225020001,0
                100.844738849,14.01824556,0
                100.844749543,14.018368837,0
                100.844781447,14.018788697,0
                100.844786208,14.0188587110001,0
                100.84478917,14.0189126240001,0
                100.844818344,14.0195419930001,0
                100.844822978,14.019649891,0
                100.844824635,14.019703346,0
                100.844825863,14.0197565570001,0
                100.844832417,14.020093581,0
                100.844834445,14.0201822670001,0
                100.844839159,14.02032666,0
                100.844846995,14.0205430680001,0
                100.844860116,14.0208472,0
                100.844865154,14.0209535170001,0
                100.844874015,14.0211054220001,0
                100.844877438,14.021156021,0
                100.844884033,14.0212446630001,0
                100.844886096,14.021280093,0
                100.844888822,14.021350926,0
                100.844893459,14.021510386,0
                100.844895658,14.0215634950001,0
                100.844897868,14.0215983410001,0
                100.844900744,14.021632633,0
                100.844904165,14.02166687,0
                100.844908154,14.0217010320001,0
                100.844912956,14.02173508,0
                100.844926109,14.021810981,0
                100.844931482,14.0218451920001,0
                100.844936178,14.0218794900001,0
                100.844938058,14.021895425,0
                100.844942807,14.021943331,0
                100.844946602,14.0219929950001,0
                100.844949754,14.022046048,0
                100.844964306,14.0223291300001,0
                100.844968562,14.022417605,0
                100.844972043,14.0225066140001,0
                100.84498094,14.0227558730001,0
                100.844984892,14.0228805090001,0
                100.844986699,14.0229866440001,0
                100.844992375,14.023446585,0
                100.84499401,14.023535016,0
                100.84499518,14.023570454,0
                100.844997596,14.023623711,0
                100.845005214,14.0237656900001,0
                100.84500955,14.0238366520001,0
                100.845013553,14.0238894070001,0
                100.845035688,14.024134416,0
                100.845042864,14.0242223130001,0
                100.845084192,14.024824073,0
                100.845090562,14.024912547,0
                100.845096652,14.024982703,0
                100.845112471,14.025139165,0
                100.845115737,14.025173952,0
                100.845118581,14.0252084740001,0
                100.845122148,14.025259858,0
                100.845127425,14.025345562,0
                100.845134479,14.02546556,0
                100.845138093,14.0255335630001,0
                100.845142417,14.025632998,0
                100.845145166,14.0257158800001,0
                100.845146165,14.025785087,0
                100.845147607,14.0260446630001,0
                100.845148693,14.0261321310001,0
                100.845164252,14.0268609870001,0
                100.845165571,14.026914311,0
                100.845167344,14.0269676180001,0
                100.84516993,14.027020744,0
                100.845172968,14.027073848,0
                100.845212414,14.0277287590001,0
                100.845230194,14.0280665280001,0
                100.845236415,14.02819098,0
                100.845238623,14.0282447600001,0
                100.845241134,14.0283167650001,0
                100.845276463,14.0293969320001,0
                100.845278404,14.029450933,0
                100.845280816,14.029504909,0
                100.845284084,14.0295586460001,0
                100.84528783,14.0296123640001,0
                100.845324303,14.030113618,0
                100.845328632,14.0301837120001,0
                100.845333866,14.03028656,0
                100.845336759,14.030355157,0
                100.845338374,14.030409304,0
                100.845348396,14.030878758,0
                100.845350012,14.0309329020001,0
                100.845351704,14.0309689530001,0
                100.845353876,14.0309997740001,0
                100.845355239,14.031015165,0
                100.845356807,14.0310305300001,0
                100.845361109,14.0310653930001,0
                100.845368684,14.03111757,0
                100.845384643,14.0312218560001,0
                100.845391716,14.031274092,0
                100.845395297,14.0313071410001,0
                100.845398191,14.0313402510001,0
                100.845400382,14.0313734050001,0
                100.845401203,14.031391189,0
                100.845402689,14.0314445870001,0
                100.845404715,14.031587103,0
                100.845406653,14.031675858,0
                100.845427729,14.032438396,0
                100.8454292,14.0325261940001,0
                100.845431236,14.032735512,0
                100.845432874,14.032806141,0
                100.845436031,14.032895481,0
                100.845483641,14.034146209,0
                100.845488719,14.034271264,0
                100.84549419,14.0343791710001,0
                100.845553079,14.0354760720001,0
                100.845559557,14.0356019540001,0
                100.845564935,14.035728098,0
                100.845623158,14.037169853,0
                100.845627207,14.037259937,0
                100.845630578,14.037313962,0
                100.845636567,14.0373859970001,0
                100.845682841,14.037889959,0
                100.84568715,14.037943995,0
                100.845690241,14.0379978620001,0
                100.845694132,14.038105495,0
                100.845731988,14.039307735,0
                100.845734536,14.039379496,0
                100.845736198,14.039415353,0
                100.845739772,14.039468979,0
                100.845745942,14.0395403410001,0
                100.845810879,14.0402358000001,0
                100.845815417,14.040289323,0
                100.845818906,14.0403429670001,0
                100.845820475,14.040378859,0
                100.845822788,14.040450686,0
                100.845853604,14.0415462990001,0
                100.845857409,14.041652873,0
                100.845874405,14.042095928,0
                100.845879035,14.04220223,0
                100.845882327,14.04225546,0
                100.845887643,14.0423264790001,0
                100.845951096,14.043125209,0
                100.845956229,14.043196231,0
                100.845959217,14.0432500260001,0
                100.845963626,14.043358176,0
                100.845984642,14.043783294,0
                100.84700852,14.044114274,0
                100.848403889,14.044564162,0
                100.849882627,14.0450416370001,0
                100.852175203,14.045802257,0
                100.853496302,14.0462297450001,0
                100.853535407,14.0467193860001,0
                100.854733189,14.047135628,0
                100.856345109,14.0477105950001,0
                100.85749163,14.048113442,0
                100.858781747,14.048601295,0
                100.859586825,14.0488879110001,0
                100.860028793,14.0489981870001,0
                100.860520872,14.0491959230001,0
                100.862007316,14.049742527,0
                100.8626899,14.049935347,0
                100.862902478,14.050008947,0
                100.864920151,14.050760935,0
                100.86750401,14.051708584,0
                100.871074913,14.052918656,0
                100.87203508,14.053253399,0
                100.874884935,14.0542655940001,0
                100.876144684,14.0547001910001,0
                100.877220416,14.055069035,0
                100.878305037,14.055446417,0
                100.879711852,14.055955636,0
                100.881745412,14.0567286530001,0
                100.884432967,14.057644672,0
                100.88503278,14.057851842,0
                100.888092291,14.0589406,0
                100.889469021,14.059434488,0
                100.891556606,14.060119152,0
                100.892827395,14.0606017920001,0
                100.893813656,14.0609429510001,0
                100.894242155,14.061093251,0
                100.894317328,14.0611194900001,0
                100.894453842,14.0611611030001,0
                100.894700609,14.0612408800001,0
                100.895470987,14.061490937,0
                100.896084769,14.0616885640001,0
                100.896666153,14.0618962,0
                100.897385433,14.062161287,0
                100.897745116,14.0622987100001,0
                100.898296573,14.0625126730001,0
                100.89892956,14.0627662370001,0
                100.899230297,14.062876073,0
                100.899818036,14.0630958420001,0
                100.900262749,14.0632423480001,0
                100.901332707,14.063611983,0
                100.902082007,14.063880479,0
                100.903053029,14.064220397,0
                100.903861169,14.0645030540001,0
                100.904121765,14.0645924630001,0
                100.904799432,14.064809075,0
                100.905548521,14.065050732,0
                100.905918034,14.065167328,0
                100.906444224,14.065346106,0
                100.907352288,14.065652105,0
                100.909337008,14.066352642,0
                100.911048739,14.0668865970001,0
                100.913348261,14.067687909,0
                100.914836203,14.0682091470001,0
                100.914831239,14.0660777800001,0
                100.914813153,14.065540292,0
                100.9147795,14.0645401420001,0
                100.914778965,14.0644758170001,0
                100.914803802,14.064106791,0
                100.91481362,14.06396091,0
                100.914818345,14.0638088220001,0
                100.914802528,14.063610709,0
                100.914788249,14.063431859,0
                100.914765436,14.062850154,0
                100.914789427,14.062133573,0
                100.914758869,14.0617010560001,0
                100.914751686,14.061557835,0
                100.914747962,14.0614701420001,0
                100.914761478,14.061294592,0
                100.914768566,14.0610664600001,0
                100.914770636,14.0609553300001,0
                100.914782815,14.060618968,0
                100.914782866,14.060265158,0
                100.914792999,14.0598969340001,0
                100.914781205,14.056897856,0
                100.914761009,14.054396765,0
                100.914759745,14.0543176080001,0
                100.914742274,14.0532243700001,0
                100.914745821,14.052918923,0
                100.914751001,14.05247282,0
                100.914739779,14.052395452,0
                100.914719227,14.0522537680001,0
                100.914691615,14.052175038,0
                100.914691299,14.0521370280001,0
                100.914694002,14.0521019180001,0
                100.914717331,14.052025708,0
                100.914725781,14.0519613110001,0
                100.914728362,14.0519115820001,0
                100.914727779,14.0518414090001,0
                100.914717895,14.0517332970001,0
                100.914675313,14.051295028,0
                100.914675094,14.0512687130001,0
                100.914674802,14.051233627,0
                100.914725057,14.0511199310001,0
                100.914763,14.0510340930001,0
                100.914765753,14.0510048300001,0
                100.914765607,14.0509872870001,0
                100.914756329,14.0509522720001,0
                100.914720244,14.050702818,0
                100.914683238,14.0504469910001,0
                100.914679952,14.0504119280001,0
                100.914679684,14.050379766,0
                100.914714117,14.050198202,0
                100.914714383,14.050194827,0
                100.914724955,14.0500606850001,0
                100.914706782,14.048955538,0
                100.914702986,14.048792656,0
                100.914692815,14.048356218,0
                100.914700375,14.0482940630001,0
                100.914715243,14.0481718250001,0
                100.914735334,14.0480664,0
                100.914737891,14.048013747,0
                100.914734313,14.0479435990001,0
                100.914702103,14.0476719170001,0
                100.914696626,14.047577969,0
                100.91468813,14.047432256,0
                100.914691082,14.047066726,0
                100.914690717,14.045581311,0
                100.914692462,14.0453153450001,0
                100.914701289,14.0439700750001,0
                100.914698223,14.042519769,0
                100.914683471,14.0411046450001,0
                100.91465267,14.0403510090001,0
                100.914627082,14.0397249390001,0
                100.914634918,14.038834072,0
                100.914640946,14.038148764,0
                100.914623203,14.0367336630001,0
                100.914619335,14.0355465280001,0
                100.914605335,14.034965619,0
                100.914587348,14.034219261,0
                100.914573128,14.0332281190001,0
                100.914581579,14.033163723,0
                100.914584029,14.0331527180001,0
                100.91460179,14.0330729180001,0
                100.914623195,14.0329455520001,0
                100.914589859,14.0314954850001,0
                100.914595096,14.0282776830001,0
                100.914541137,14.0262817300001,0
                100.914533973,14.024763004,0
                100.914557795,14.022534351,0
                100.914558932,14.0224276980001,0
                100.914568476,14.0215350670001,0
                100.914540856,14.0191788700001,0
                100.914544612,14.0186508900001,0
                100.914524691,14.0170422800001,0
                100.914538912,14.0158468390001,0
                100.914546818,14.0146835790001,0
                100.914516214,14.013638444,0
                100.914507549,14.012593135,0
                100.914502922,14.012424303,0
                100.914476094,14.011445182,0
                100.914485171,14.0106753430001,0
                100.914490266,14.010243313,0
                100.914473243,14.0095129690001,0
              </coordinates>
                
            </LinearRing>
            
          </outerBoundaryIs>
        
        </Polygon>
        
      <styleUrl>
        #tambonStyle</styleUrl>
    </Placemark>

  </Document>
</kml>