<?xml version="1.0" encoding="UTF-8"?>
<kml xmlns="http://www.opengis.net/kml/2.2">
  <Document id="tambon_doc">
    <name>พนัสนิคม, พนัสนิคม, Chon Buri</name>
    <description>ข้อมูลขอบเขตตำบลพนัสนิคม อำเภอพนัสนิคม จังหวัดChon Buri</description>
    
    <!-- Schema สำหรับข้อมูลตำบล -->
    <Schema id="tambon.schema">
      <SimpleField name="ADM3_EN" type="string">
        <displayName>Subdistrict Name (English)</displayName>
      </SimpleField>
      <SimpleField name="ADM3_TH" type="string">
        <displayName>ชื่อตำบล</displayName>
      </SimpleField>
      <SimpleField name="ADM2_EN" type="string">
        <displayName>District Name (English)</displayName>
      </SimpleField>
      <SimpleField name="ADM2_TH" type="string">
        <displayName>ชื่ออำเภอ</displayName>
      </SimpleField>
      <SimpleField name="ADM1_EN" type="string">
        <displayName>Province Name (English)</displayName>
      </SimpleField>
      <SimpleField name="ADM1_TH" type="string">
        <displayName>ชื่อจังหวัด</displayName>
      </SimpleField>
      <SimpleField name="ADM0_EN" type="string">
        <displayName>Country Name (English)</displayName>
      </SimpleField>
      <SimpleField name="ADM0_TH" type="string">
        <displayName>ชื่อประเทศ</displayName>
      </SimpleField>
    </Schema>

    <!-- Style สำหรับตำบล -->
    <Style id="tambonStyle">
      <LineStyle>
        <color>ffff0000</color>
        <width>1.5</width>
      </LineStyle>
      <PolyStyle>
        <color>33ff0000</color>
        <fill>1</fill>
        <outline>1</outline>
      </PolyStyle>
    </Style>

    <Placemark id="Chon_Buri.51">
        
        <ExtendedData>
            
          <SchemaData schemaUrl="#tambon.schema">
                
            <SimpleData name="Shape_Leng">
                0.060919787929</SimpleData>
                
            <SimpleData name="Shape_Area">
                0.000219809467333</SimpleData>
                
            <SimpleData name="ADM3_EN">
                Phanat Nikhom</SimpleData>
                
            <SimpleData name="ADM3_TH">
                พนัสนิคม</SimpleData>
                
            <SimpleData name="ADM3_PCODE">
                TH200601</SimpleData>
                
            <SimpleData name="ADM2_EN">
                Phanat Nikhom</SimpleData>
                
            <SimpleData name="ADM2_TH">
                พนัสนิคม</SimpleData>
                
            <SimpleData name="ADM2_PCODE">
                TH2006</SimpleData>
                
            <SimpleData name="ADM1_EN">
                Chon Buri</SimpleData>
                
            <SimpleData name="ADM1_TH">
                ชลบุรี</SimpleData>
                
            <SimpleData name="ADM1_PCODE">
                TH20</SimpleData>
                
            <SimpleData name="ADM0_EN">
                Thailand</SimpleData>
                
            <SimpleData name="ADM0_TH">
                ประเทศไทย</SimpleData>
                
            <SimpleData name="ADM0_PCODE">
                TH</SimpleData>
            
          </SchemaData>
        
        </ExtendedData>
        
        <Polygon>
            
          <outerBoundaryIs>
                
            <LinearRing>
                    
              <coordinates>
                    
                101.1857848,13.457505945,0
                101.186120669,13.457219073,0
                101.186150358,13.457199539,0
                101.186394042,13.457039228,0
                101.186480711,13.456931992,0
                101.186522211,13.456842898,0
                101.186532961,13.45668354,0
                101.187152955,13.456414441,0
                101.187188702,13.4563579310001,0
                101.187198444,13.4562476420001,0
                101.187157002,13.455995316,0
                101.18707782,13.4555787730001,0
                101.186997627,13.4551071110001,0
                101.186898517,13.454498664,0
                101.186834002,13.4540998410001,0
                101.186771392,13.4537327620001,0
                101.186721061,13.4533930810001,0
                101.186560227,13.4524309280001,0
                101.186564914,13.4522962840001,0
                101.186580894,13.452224544,0
                101.186619761,13.452110297,0
                101.186678342,13.451969831,0
                101.186795707,13.451711694,0
                101.186943981,13.451378436,0
                101.187109815,13.4509652890001,0
                101.187228811,13.45070388,0
                101.187256272,13.450615767,0
                101.187267145,13.4505310500001,0
                101.187271383,13.450448023,0
                101.187265533,13.450373197,0
                101.187238824,13.450158641,0
                101.18720071,13.4498058500001,0
                101.187151818,13.449367737,0
                101.187060911,13.4483845450001,0
                101.18704024,13.4481362710001,0
                101.186952068,13.44727169,0
                101.18686244,13.446361831,0
                101.186838611,13.4462041800001,0
                101.186580093,13.445730854,0
                101.186217179,13.4450884570001,0
                101.18600662,13.4446777540001,0
                101.18587327,13.44438861,0
                101.18584084,13.4442551920001,0
                101.18583039,13.4441788840001,0
                101.185827815,13.4441101570001,0
                101.185836949,13.444041323,0
                101.185857594,13.4439513790001,0
                101.185933365,13.4437005240001,0
                101.186015292,13.4432662670001,0
                101.18604324,13.4431208670001,0
                101.186061858,13.4428074840001,0
                101.186065154,13.4424973800001,0
                101.186102304,13.442154701,0
                101.186118318,13.442037521,0
                101.186421607,13.440987281,0
                101.186497041,13.440671455,0
                101.185673052,13.440547146,0
                101.185275961,13.440508284,0
                101.185113762,13.44049761,0
                101.184970544,13.4405057930001,0
                101.184831158,13.4405247450001,0
                101.18463405,13.440574349,0
                101.184493159,13.4406270220001,0
                101.184323441,13.440699454,0
                101.184204358,13.44075904,0
                101.184078122,13.4408293230001,0
                101.183888145,13.440665983,0
                101.183753024,13.440555384,0
                101.183596244,13.44045563,0
                101.183439596,13.4403700610001,0
                101.18317955,13.4402747400001,0
                101.183001481,13.440224841,0
                101.182878014,13.440198986,0
                101.182798106,13.4401822520001,0
                101.182407987,13.4401341760001,0
                101.182054675,13.4401265770001,0
                101.181561261,13.440089954,0
                101.181020777,13.440059273,0
                101.180590857,13.4400186450001,0
                101.18033956,13.4400027450001,0
                101.178963974,13.439900149,0
                101.17892015,13.439887363,0
                101.178852378,13.439828715,0
                101.178777732,13.4397536720001,0
                101.1786878,13.439695323,0
                101.178054138,13.439577382,0
                101.175828769,13.4459041980001,0
                101.175675425,13.44634016,0
                101.175303945,13.44811487,0
                101.174615465,13.449804548,0
                101.174238849,13.451008184,0
                101.173787044,13.452452099,0
                101.172613601,13.4578854000001,0
                101.173769972,13.457808583,0
                101.173771649,13.457808334,0
                101.173990256,13.4577760610001,0
                101.174729324,13.457458429,0
                101.174798546,13.457455413,0
                101.174857944,13.4574597380001,0
                101.174934941,13.4574953850001,0
                101.175111732,13.4576269930001,0
                101.175272636,13.4578038010001,0
                101.175304082,13.4578383510001,0
                101.175325129,13.4578593370001,0
                101.175530418,13.458064054,0
                101.175685696,13.4581933110001,0
                101.175827449,13.458279229,0
                101.17591565,13.4583232460001,0
                101.177189832,13.45882863,0
                101.177755711,13.4590464290001,0
                101.178233675,13.4592318110001,0
                101.178765053,13.4594379060001,0
                101.180249756,13.4598833480001,0
                101.180662962,13.459992729,0
                101.181016694,13.4600897180001,0
                101.18157808,13.4601519600001,0
                101.182748823,13.4597435540001,0
                101.184187272,13.4591411430001,0
                101.184518205,13.4590299700001,0
                101.184706981,13.458955777,0
                101.184794054,13.4588929070001,0
                101.184886095,13.45871168,0
                101.184966342,13.458563091,0
                101.185046244,13.4583760520001,0
                101.185117021,13.45818318,0
                101.185119668,13.4581806420001,0
                101.185521484,13.457795144,0
                101.1857848,13.457505945,0
              </coordinates>
                
            </LinearRing>
            
          </outerBoundaryIs>
        
        </Polygon>
        
      <styleUrl>
        #tambonStyle</styleUrl>
    </Placemark>

  </Document>
</kml>