<?xml version="1.0" encoding="UTF-8"?>
<kml xmlns="http://www.opengis.net/kml/2.2">
  <Document id="tambon_doc">
    <name>บ้านหลุม, เมืองสุโขทัย, Sukhothai</name>
    <description>ข้อมูลขอบเขตตำบลบ้านหลุม อำเภอเมืองสุโขทัย จังหวัดSukhothai</description>
    
    <!-- Schema สำหรับข้อมูลตำบล -->
    <Schema id="tambon.schema">
      <SimpleField name="ADM3_EN" type="string">
        <displayName>Subdistrict Name (English)</displayName>
      </SimpleField>
      <SimpleField name="ADM3_TH" type="string">
        <displayName>ชื่อตำบล</displayName>
      </SimpleField>
      <SimpleField name="ADM2_EN" type="string">
        <displayName>District Name (English)</displayName>
      </SimpleField>
      <SimpleField name="ADM2_TH" type="string">
        <displayName>ชื่ออำเภอ</displayName>
      </SimpleField>
      <SimpleField name="ADM1_EN" type="string">
        <displayName>Province Name (English)</displayName>
      </SimpleField>
      <SimpleField name="ADM1_TH" type="string">
        <displayName>ชื่อจังหวัด</displayName>
      </SimpleField>
      <SimpleField name="ADM0_EN" type="string">
        <displayName>Country Name (English)</displayName>
      </SimpleField>
      <SimpleField name="ADM0_TH" type="string">
        <displayName>ชื่อประเทศ</displayName>
      </SimpleField>
    </Schema>

    <!-- Style สำหรับตำบล -->
    <Style id="tambonStyle">
      <LineStyle>
        <color>ffff0000</color>
        <width>1.5</width>
      </LineStyle>
      <PolyStyle>
        <color>33ff0000</color>
        <fill>1</fill>
        <outline>1</outline>
      </PolyStyle>
    </Style>

    <Placemark id="Sukhothai.7">
        
        <ExtendedData>
            
          <SchemaData schemaUrl="#tambon.schema">
                
            <SimpleData name="Shape_Leng">
                0.353848031422</SimpleData>
                
            <SimpleData name="Shape_Area">
                0.00391993192388</SimpleData>
                
            <SimpleData name="ADM3_EN">
                Ban Lum</SimpleData>
                
            <SimpleData name="ADM3_TH">
                บ้านหลุม</SimpleData>
                
            <SimpleData name="ADM3_PCODE">
                TH640107</SimpleData>
                
            <SimpleData name="ADM2_EN">
                Mueang Sukhothai</SimpleData>
                
            <SimpleData name="ADM2_TH">
                เมืองสุโขทัย</SimpleData>
                
            <SimpleData name="ADM2_PCODE">
                TH6401</SimpleData>
                
            <SimpleData name="ADM1_EN">
                Sukhothai</SimpleData>
                
            <SimpleData name="ADM1_TH">
                สุโขทัย</SimpleData>
                
            <SimpleData name="ADM1_PCODE">
                TH64</SimpleData>
                
            <SimpleData name="ADM0_EN">
                Thailand</SimpleData>
                
            <SimpleData name="ADM0_TH">
                ประเทศไทย</SimpleData>
                
            <SimpleData name="ADM0_PCODE">
                TH</SimpleData>
            
          </SchemaData>
        
        </ExtendedData>
        
        <Polygon>
            
          <outerBoundaryIs>
                
            <LinearRing>
                    
              <coordinates>
                    
                99.8391536600001,17.023163373,0
                99.840429214,17.022768931,0
                99.840759297,17.022666857,0
                99.841818199,17.022401114,0
                99.843351447,17.02216767,0
                99.8462266550001,17.0215617870001,0
                99.848793416,17.0210095630001,0
                99.8495899500001,17.020868922,0
                99.8532519710001,17.0202222830001,0
                99.855221419,17.0200917330001,0
                99.8556752950001,17.020081089,0
                99.8561563110001,17.0200484960001,0
                99.857458577,17.019938199,0
                99.8577762570001,17.0199237580001,0
                99.8584646190001,17.019929211,0
                99.8592152530001,17.0199351530001,0
                99.8600505220001,17.0199447260001,0
                99.8600641790001,17.019953404,0
                99.860064359,17.0199927080001,0
                99.8599967910001,17.020353686,0
                99.8599580110001,17.0205608900001,0
                99.8599672060001,17.020587055,0
                99.8600036010001,17.020604373,0
                99.8604750850001,17.020550009,0
                99.860593398,17.020536371,0
                99.860618737,17.020521219,0
                99.8606522460001,17.020501183,0
                99.861066077,17.0196740330001,0
                99.8611818350001,17.0191800490001,0
                99.861273822,17.018450338,0
                99.86132566,17.017873649,0
                99.861320005,17.017831648,0
                99.8613078640001,17.01779723,0
                99.861299122,17.0177857200001,0
                99.861275209,17.017760314,0
                99.8612297550001,17.017747405,0
                99.861158479,17.0177477070001,0
                99.8611117410001,17.017747905,0
                99.8610572320001,17.017739399,0
                99.8610344750001,17.017726394,0
                99.8610105560001,17.017688424,0
                99.8610026710001,17.0176641890001,0
                99.860849638,17.0170109600001,0
                99.860846059,17.016956513,0
                99.86085288,17.0169256940001,0
                99.860889871,17.0168754040001,0
                99.8615227390001,17.016378929,0
                99.8617698880001,17.016185046,0
                99.861791403,17.016161762,0
                99.8618458860001,17.016060786,0
                99.861870228,17.015980885,0
                99.8618854790001,17.0158996390001,0
                99.861905817,17.015818192,0
                99.861947001,17.015389624,0
                99.8619763060001,17.0147149700001,0
                99.861981927,17.014511445,0
                99.8619860080001,17.014380864,0
                99.861988496,17.0143106190001,0
                99.8619957020001,17.0142502590001,0
                99.86199931,17.0142205290001,0
                99.8620169450001,17.0141880420001,0
                99.8620290690001,17.0141789840001,0
                99.862057087,17.01416626,0
                99.8644266370001,17.0141704590001,0
                99.864853752,17.0141712110001,0
                99.8648798360001,17.014161148,0
                99.864894946,17.0141292050001,0
                99.8649027470001,17.0138844000001,0
                99.864923252,17.0132412020001,0
                99.8649230500001,17.0131972070001,0
                99.8649267760001,17.013186236,0
                99.86494917,17.0131601460001,0
                99.8660989160001,17.012862254,0
                99.8665633730001,17.0125910730001,0
                99.866763807,17.012483622,0
                99.8669341890001,17.0123744910001,0
                99.8670038110001,17.0123348220001,0
                99.8673687090001,17.012126923,0
                99.8674249000001,17.0120959700001,0
                99.8674959960001,17.012039659,0
                99.8677446550001,17.0118019170001,0
                99.8678027000001,17.011765537,0
                99.8680762100001,17.0116234450001,0
                99.86839446,17.0114106990001,0
                99.868469287,17.011348953,0
                99.8685757710001,17.011200866,0
                99.8686334810001,17.011120605,0
                99.8686595790001,17.011078938,0
                99.8686857690001,17.011057142,0
                99.8687194770001,17.0110371270001,0
                99.8687889650001,17.0109980770001,0
                99.8688393480001,17.010969765,0
                99.8691242040001,17.010845691,0
                99.8691597330001,17.010813018,0
                99.8691765330001,17.0107912670001,0
                99.86919699,17.010747817,0
                99.869248428,17.010540006,0
                99.8692596660001,17.0104946060001,0
                99.869267085,17.0104747030001,0
                99.869295128,17.010447481,0
                99.869358795,17.010409269,0
                99.8696325530001,17.0103213740001,0
                99.8698259820001,17.010268598,0
                99.8699420010001,17.0102369410001,0
                99.8699870520001,17.0102331370001,0
                99.870020852,17.010232993,0
                99.870084719,17.010238139,0
                99.8703497130001,17.010285787,0
                99.8704887160001,17.0102960350001,0
                99.8706126600001,17.010297312,0
                99.8707572160001,17.0102894680001,0
                99.8710424870001,17.010255726,0
                99.8714986370001,17.01020426,0
                99.871674979,17.010184361,0
                99.8717331730001,17.010180496,0
                99.8717688520001,17.0101803430001,0
                99.8719323120001,17.010199519,0
                99.872021766,17.010215261,0
                99.8720525860001,17.0102206830001,0
                99.8721671660001,17.0102274180001,0
                99.8724645670001,17.010224576,0
                99.8725089150001,17.010224151,0
                99.8726197000001,17.0102236760001,0
                99.8727077380001,17.010229689,0
                99.8727192590001,17.0102304750001,0
                99.8727215860001,17.0102309850001,0
                99.8728320390001,17.0102552860001,0
                99.873170642,17.010383919,0
                99.8735091940001,17.010501708,0
                99.8736935050001,17.010555299,0
                99.8737192360001,17.0105594450001,0
                99.8738856350001,17.010586254,0
                99.874039166,17.010593381,0
                99.874159256,17.0105748020001,0
                99.8742041840001,17.0105686430001,0
                99.874235486,17.0105757220001,0
                99.8742595050001,17.010599499,0
                99.8742792580001,17.010628265,0
                99.8742987360001,17.0106714630001,0
                99.8743698630001,17.0108725750001,0
                99.874407676,17.0110347200001,0
                99.8744811700001,17.011617136,0
                99.8746030820001,17.012274206,0
                99.8746223150001,17.012321328,0
                99.8746537470001,17.012357289,0
                99.8747162820001,17.0124041290001,0
                99.874783817,17.012434308,0
                99.8750530770001,17.012459047,0
                99.876273408,17.0125055870001,0
                99.8803328480001,17.012433624,0
                99.880512341,17.0124022970001,0
                99.8806655660001,17.0123806830001,0
                99.880781594,17.012359234,0
                99.881058904,17.012292566,0
                99.881218329,17.012237753,0
                99.8813079750001,17.0122007040001,0
                99.8813639860001,17.012149831,0
                99.8814000690001,17.012086472,0
                99.8814791630001,17.0119636700001,0
                99.8814899700001,17.0119453560001,0
                99.8815251560001,17.011882923,0
                99.881559285,17.0117944450001,0
                99.8815694240001,17.0117668550001,0
                99.881590267,17.0116979000001,0
                99.8816170100001,17.0116271200001,0
                99.8816533950001,17.0115551000001,0
                99.881695773,17.0114998220001,0
                99.881734856,17.0114724050001,0
                99.881773631,17.011446188,0
                99.8818707760001,17.0113897730001,0
                99.8818915780001,17.0113792020001,0
                99.8819803650001,17.0113333080001,0
                99.8820834830001,17.0112894440001,0
                99.8821325930001,17.011276654,0
                99.8822230470001,17.011253805,0
                99.8823051290001,17.011237582,0
                99.8823906310001,17.011220445,0
                99.882447825,17.0112067200001,0
                99.882542635,17.011183256,0
                99.8826252810001,17.0111550500001,0
                99.8826628370001,17.011133628,0
                99.8826904110001,17.0111068580001,0
                99.8826973880001,17.0110691,0
                99.882698324,17.0110023280001,0
                99.8826889920001,17.0109443310001,0
                99.882660904,17.0107640690001,0
                99.8826596490001,17.010755944,0
                99.8826539240001,17.0107189600001,0
                99.8826510310001,17.0106989880001,0
                99.8826343490001,17.010626299,0
                99.8826114860001,17.010528487,0
                99.8825974280001,17.010467465,0
                99.8825877310001,17.0104088100001,0
                99.8825892360001,17.010375266,0
                99.8826012740001,17.010347004,0
                99.8826254190001,17.0103043140001,0
                99.8827014860001,17.0102443650001,0
                99.8827974000001,17.0101699590001,0
                99.882837109,17.010142639,0
                99.882926985,17.0100778400001,0
                99.882979333,17.0100334320001,0
                99.8830465670001,17.0099772500001,0
                99.883178232,17.009856907,0
                99.883312673,17.0097397480001,0
                99.8833892690001,17.0096744730001,0
                99.8834140900001,17.0096578650001,0
                99.8835464640001,17.0095715910001,0
                99.8836706450001,17.009508238,0
                99.88386325,17.0094062630001,0
                99.883965296,17.0093403490001,0
                99.8840519030001,17.0092867400001,0
                99.8841462560001,17.0092331010001,0
                99.8842292250001,17.0092029,0
                99.8843186020001,17.009176015,0
                99.8844217720001,17.009154746,0
                99.8846726830001,17.009110971,0
                99.8848383370001,17.0090752620001,0
                99.8849356050001,17.0090363530001,0
                99.884992158,17.008998321,0
                99.8850485720001,17.008931601,0
                99.8851091940001,17.0088319710001,0
                99.8851915160001,17.008707056,0
                99.8852565340001,17.008614407,0
                99.885346842,17.0084866600001,0
                99.8854062,17.0084269230001,0
                99.8854793190001,17.008355932,0
                99.8855300210001,17.0083123260001,0
                99.885604679,17.0082588220001,0
                99.8857075370001,17.008170207,0
                99.885835097,17.0080765860001,0
                99.8859633650001,17.007978763,0
                99.8860580560001,17.0079243540001,0
                99.8861548200001,17.007880394,0
                99.8864607560001,17.0077770520001,0
                99.88666987,17.007705233,0
                99.886837648,17.00764106,0
                99.8870286580001,17.007568077,0
                99.8872722570001,17.0074733610001,0
                99.887439677,17.0074052800001,0
                99.887655565,17.0073169670001,0
                99.887816693,17.0072501280001,0
                99.888071649,17.0071555750001,0
                99.888313016,17.0070915860001,0
                99.888488872,17.0070584600001,0
                99.888650209,17.0070372610001,0
                99.8887958130001,17.0070074980001,0
                99.8888764390001,17.006987731,0
                99.8891037550001,17.0069306450001,0
                99.889310675,17.0069109,0
                99.889518378,17.0068910790001,0
                99.8897448420001,17.0068911700001,0
                99.889855836,17.00689284,0
                99.889961494,17.006898434,0
                99.8901554240001,17.006919107,0
                99.8902761320001,17.006926832,0
                99.890315038,17.006926784,0
                99.890353281,17.0069267380001,0
                99.890866208,17.006868378,0
                99.8909643680001,17.0068516750001,0
                99.8909793490001,17.0068462130001,0
                99.890992994,17.006836251,0
                99.8909970050001,17.006830431,0
                99.8910005800001,17.0068145980001,0
                99.8909882030001,17.00662771,0
                99.8909954700001,17.006540488,0
                99.8909958840001,17.006535523,0
                99.8910021980001,17.0064980080001,0
                99.8910063120001,17.0064870350001,0
                99.8910107090001,17.0064753020001,0
                99.8910165200001,17.006465443,0
                99.8910284510001,17.0064515880001,0
                99.8910426520001,17.0064431380001,0
                99.891056625,17.0064359410001,0
                99.8911411380001,17.0064161020001,0
                99.891302931,17.006403006,0
                99.891768201,17.006405262,0
                99.8919221680001,17.006409934,0
                99.8921464270001,17.006416734,0
                99.8925621990001,17.0064240040001,0
                99.8930536670001,17.0064536690001,0
                99.8938047970001,17.0064458260001,0
                99.893894512,17.0064363400001,0
                99.8939210790001,17.0064266200001,0
                99.8939447270001,17.0064054920001,0
                99.89394738,17.006402231,0
                99.893955797,17.006372651,0
                99.8939563660001,17.0060410670001,0
                99.893956883,17.005738939,0
                99.8939662290001,17.0056684240001,0
                99.8939671410001,17.0056656990001,0
                99.893990063,17.005624283,0
                99.8940170750001,17.005604293,0
                99.894052157,17.005600289,0
                99.894079553,17.005597159,0
                99.8961237650001,17.005648025,0
                99.8962345530001,17.005650782,0
                99.8965215640001,17.005634279,0
                99.896555698,17.0056284070001,0
                99.8978565090001,17.005420653,0
                99.8989220430001,17.005189683,0
                99.900063161,17.004958373,0
                99.9010918120001,17.00496001,0
                99.9014069620001,17.0049605090001,0
                99.9021797380001,17.0049813270001,0
                99.9027691750001,17.0049242430001,0
                99.9032315030001,17.004875156,0
                99.9037891300001,17.0048159730001,0
                99.90440198,17.0048019130001,0
                99.905269935,17.004730008,0
                99.9053132240001,17.0047449370001,0
                99.9053447460001,17.004763702,0
                99.9053606250001,17.004797652,0
                99.905392674,17.0049260390001,0
                99.9054483640001,17.005069446,0
                99.9054878350001,17.005107074,0
                99.905539005,17.005125747,0
                99.9056175970001,17.00512918,0
                99.9069666460001,17.005010581,0
                99.9069815410001,17.005013768,0
                99.9070001090001,17.0050285180001,0
                99.9070119840001,17.0050473650001,0
                99.907023919,17.0050775550001,0
                99.9070486630001,17.0052005860001,0
                99.907413445,17.0070025540001,0
                99.9083349100001,17.0069408690001,0
                99.911093167,17.0067891460001,0
                99.9111246940001,17.0067950650001,0
                99.9111500930001,17.0068373780001,0
                99.9111628370001,17.0068676230001,0
                99.9112711600001,17.0076729780001,0
                99.911287175,17.0076882500001,0
                99.9113004750001,17.0076907430001,0
                99.91224105,17.0076584070001,0
                99.913510972,17.0075913490001,0
                99.91417498,17.0075193320001,0
                99.9145836920001,17.007410109,0
                99.9149978460001,17.0073264260001,0
                99.9151174840001,17.007316786,0
                99.915300587,17.0073339910001,0
                99.9154901790001,17.007354704,0
                99.9155387380001,17.007350048,0
                99.9155983200001,17.007343308,0
                99.915858767,17.007313837,0
                99.921590451,17.005837076,0
                99.9194982610001,17.003831373,0
                99.9193898940001,17.0037274800001,0
                99.9167359740001,17.000685839,0
                99.9140296840001,16.9971291890001,0
                99.9125823300001,16.9954621100001,0
                99.9110088190001,16.993743269,0
                99.9098820620001,16.9926405740001,0
                99.9090645240001,16.991840484,0
                99.9062019830001,16.9893223660001,0
                99.9050761440001,16.988107821,0
                99.9034546090001,16.9860611070001,0
                99.9031915990001,16.98571646,0
                99.902082115,16.9847148010001,0
                99.9019413450001,16.9845709000001,0
                99.9018909150001,16.984504175,0
                99.9017918390001,16.9843184530001,0
                99.9016443550001,16.9838640520001,0
                99.9015766810001,16.983646353,0
                99.901547866,16.9835827530001,0
                99.9014553680001,16.983445965,0
                99.900557856,16.982540569,0
                99.8977940610001,16.980182035,0
                99.8969222580001,16.979343376,0
                99.8960677410001,16.978521341,0
                99.8943412350001,16.976526517,0
                99.8919836350001,16.9734904690001,0
                99.8911676310001,16.9724243970001,0
                99.8895870140001,16.9703593290001,0
                99.8884004000001,16.969219781,0
                99.8884435350001,16.9691811880001,0
                99.888532636,16.969079666,0
                99.8886398590001,16.968946353,0
                99.888664217,16.968923171,0
                99.8887229970001,16.9688929610001,0
                99.8888649720001,16.968832741,0
                99.8890730430001,16.968733236,0
                99.8891091520001,16.9687014250001,0
                99.889121194,16.9686817320001,0
                99.889234494,16.9683909020001,0
                99.8892804750001,16.968258511,0
                99.8893244260001,16.9680860070001,0
                99.8893309750001,16.968044671,0
                99.8893338130001,16.9679962660001,0
                99.8893348610001,16.967958493,0
                99.8893328670001,16.967926049,0
                99.8893240080001,16.9678676660001,0
                99.8893133430001,16.9678157810001,0
                99.8892782460001,16.96765542,0
                99.889252926,16.967226515,0
                99.8892519660001,16.9668919210001,0
                99.8892547290001,16.9666977590001,0
                99.8892391480001,16.966513121,0
                99.8892320940001,16.9664482360001,0
                99.889215671,16.966346216,0
                99.889205013,16.966296695,0
                99.8891874640001,16.966215925,0
                99.8891578450001,16.9661120100001,0
                99.889042686,16.9657320380001,0
                99.8888763210001,16.9652809510001,0
                99.8886878710001,16.964769808,0
                99.8886739920001,16.964738482,0
                99.8886435050001,16.9646824480001,0
                99.8886365480001,16.9646709990001,0
                99.8885854310001,16.964608652,0
                99.888229165,16.964278027,0
                99.887910751,16.9639465010001,0
                99.8878830030001,16.9639186430001,0
                99.8878567500001,16.9638991750001,0
                99.8876759840001,16.9637852600001,0
                99.8873070710001,16.963533683,0
                99.8869615020001,16.963300184,0
                99.8869279150001,16.9632667600001,0
                99.8869016100001,16.963236098,0
                99.886881132,16.963208212,0
                99.886869393,16.9631844830001,0
                99.8868590600001,16.963150958,0
                99.8868530490001,16.963109017,0
                99.8868482780001,16.9630209160001,0
                99.8868447940001,16.9628978370001,0
                99.8868431280001,16.962853081,0
                99.8868469450001,16.9627369620001,0
                99.8868535860001,16.962604051,0
                99.8868561780001,16.9625368960001,0
                99.8868614990001,16.962431961,0
                99.886896903,16.9622331780001,0
                99.88700391,16.9618060780001,0
                99.8870324320001,16.9616898520001,0
                99.8870452790001,16.961639442,0
                99.887076832,16.961549781,0
                99.8871213830001,16.9614418780001,0
                99.8872826910001,16.961126446,0
                99.8873114030001,16.9610507840001,0
                99.887327149,16.960998961,0
                99.887336927,16.9609149890001,0
                99.8873378500001,16.960801686,0
                99.8873267810001,16.9606114970001,0
                99.887290351,16.960281535,0
                99.8872799920001,16.960242416,0
                99.887260799,16.9601781530001,0
                99.8871752200001,16.9599057560001,0
                99.887155937,16.959823312,0
                99.8871411140001,16.959761827,0
                99.8871291660001,16.9596933390001,0
                99.887117178,16.959616458,0
                99.8870406810001,16.9591118220001,0
                99.8869043710001,16.9585584880001,0
                99.8868040890001,16.958249788,0
                99.8867806000001,16.958199531,0
                99.8867556740001,16.958153479,0
                99.8867249680001,16.9581144470001,0
                99.8866928240001,16.9580782200001,0
                99.8864542590001,16.957821089,0
                99.885722075,16.9570670470001,0
                99.885163047,16.9564577300001,0
                99.8849292190001,16.956184578,0
                99.8848979510001,16.956128759,0
                99.884866619,16.956058023,0
                99.8848312630001,16.9559574620001,0
                99.8847092170001,16.9555514040001,0
                99.8846737480001,16.955426598,0
                99.8846538980001,16.95532597,0
                99.8846434340001,16.9551600250001,0
                99.884638958,16.9550313560001,0
                99.884649886,16.9548821020001,0
                99.884672214,16.954684307,0
                99.8847823290001,16.9537829980001,0
                99.8848632310001,16.953264156,0
                99.8848686430001,16.9531783420001,0
                99.88486442,16.953103755,0
                99.8848355870001,16.95274019,0
                99.884792766,16.9522853,0
                99.8847842800001,16.952128669,0
                99.884783896,16.952046609,0
                99.8848152610001,16.9517088960001,0
                99.884826521,16.9516305130001,0
                99.8848436550001,16.9515651620001,0
                99.8849867270001,16.9510814870001,0
                99.884998022,16.951010565,0
                99.885005242,16.950896764,0
                99.8849764490001,16.950540661,0
                99.8849223720001,16.950166015,0
                99.8847902400001,16.949260161,0
                99.884702508,16.948318677,0
                99.884680523,16.9481751610001,0
                99.8846585430001,16.9480335120001,0
                99.8846287980001,16.9478881630001,0
                99.8845990740001,16.9477484130001,0
                99.8845656730001,16.947649706,0
                99.8843865530001,16.9470555230001,0
                99.884347156,16.946917682,0
                99.884337229,16.946867366,0
                99.884331172,16.946815171,0
                99.884328936,16.946751765,0
                99.8843266790001,16.9466827690001,0
                99.8843321090001,16.946600683,0
                99.8843901720001,16.946171464,0
                99.88453939,16.945344591,0
                99.884542798,16.945243862,0
                99.8845519700001,16.945133781,0
                99.884545808,16.945059207,0
                99.8844996170001,16.9447125020001,0
                99.8844858,16.9446584740001,0
                99.884458421,16.944604505,0
                99.884425278,16.944561751,0
                99.8843999740001,16.9445376140001,0
                99.884365018,16.944520981,0
                99.884299006,16.9444932920001,0
                99.8842290810001,16.944458158,0
                99.8841804730001,16.9444229320001,0
                99.8841493560001,16.944398821,0
                99.8841259600001,16.944369081,0
                99.8841005340001,16.944318832,0
                99.8840769080001,16.944238738,0
                99.884039525,16.944117669,0
                99.8840079810001,16.9440021680001,0
                99.8840038370001,16.9439443700001,0
                99.883995353,16.9437877390001,0
                99.8839930830001,16.943716877,0
                99.884000643,16.943675813,0
                99.884013929,16.943616073,0
                99.8840349800001,16.9435600320001,0
                99.8842301650001,16.943031368,0
                99.884260838,16.9429603630001,0
                99.8842781540001,16.9429341790001,0
                99.8843070350001,16.942894885,0
                99.884337873,16.9428593150001,0
                99.8843745330001,16.9428255870001,0
                99.884417022,16.9427955620001,0
                99.884451826,16.9427786260001,0
                99.8844982590001,16.942763502,0
                99.8845718220001,16.942748265,0
                99.8853967470001,16.9426290540001,0
                99.885441223,16.9426102100001,0
                99.885481149,16.9425842360001,0
                99.8855222770001,16.942539298,0
                99.8855530020001,16.9424794830001,0
                99.8856015090001,16.9423549310001,0
                99.8856780890001,16.942155658,0
                99.8859409930001,16.941224332,0
                99.8863622850001,16.9399713810001,0
                99.8864018470001,16.939914984,0
                99.8864914710001,16.939831643,0
                99.886688431,16.9397269240001,0
                99.8869161330001,16.9396058610001,0
                99.887443348,16.939344455,0
                99.8876585620001,16.939184846,0
                99.8877353380001,16.9391251770001,0
                99.8877948150001,16.939048316,0
                99.887854653,16.9389083040001,0
                99.888135666,16.938106896,0
                99.8882311190001,16.9378942750001,0
                99.888317601,16.937725906,0
                99.8884408230001,16.9375573720001,0
                99.888852005,16.9370913880001,0
                99.8891362510001,16.9367818280001,0
                99.889179067,16.93676473,0
                99.8892279030001,16.9364539750001,0
                99.8892261350001,16.936421367,0
                99.8892119110001,16.9363559710001,0
                99.889175036,16.936276374,0
                99.889133927,16.936209015,0
                99.889127525,16.9361985310001,0
                99.8891072500001,16.936177491,0
                99.8890642010001,16.936139892,0
                99.8889617610001,16.936092194,0
                99.8888395640001,16.936047649,0
                99.8888089150001,16.9360220040001,0
                99.8887982510001,16.936002902,0
                99.8887902540001,16.935975559,0
                99.888790376,16.935936665,0
                99.888811757,16.935863381,0
                99.8890668000001,16.935287537,0
                99.8890843200001,16.935220041,0
                99.889083993,16.9351504310001,0
                99.8890795080001,16.9351211740001,0
                99.8890672040001,16.9350797760001,0
                99.8890153620001,16.935020319,0
                99.8889592370001,16.9349918200001,0
                99.888876565,16.9349921800001,0
                99.8887664570001,16.9350191830001,0
                99.8885143040001,16.93511754,0
                99.8880778390001,16.9353159070001,0
                99.887963858,16.9353552690001,0
                99.8879054780001,16.9353754260001,0
                99.887656925,16.9354395730001,0
                99.8872623080001,16.9355208640001,0
                99.8871612840001,16.9355257230001,0
                99.8870785700001,16.9355172370001,0
                99.8870004110001,16.9354998970001,0
                99.886917511,16.9354516240001,0
                99.8867976590001,16.935359308,0
                99.886503824,16.9350553410001,0
                99.8863503220001,16.9349722050001,0
                99.8862675720001,16.9349548800001,0
                99.8861987370001,16.9349684420001,0
                99.8861575870001,16.935008409,0
                99.886125812,16.9350881240001,0
                99.886112466,16.935181018,0
                99.886131418,16.935304725,0
                99.88624837,16.9357595700001,0
                99.886262543,16.93584351,0
                99.8862445440001,16.935923164,0
                99.8862081510001,16.9359984750001,0
                99.8861395480001,16.9360606650001,0
                99.886020359,16.9361098140001,0
                99.88588731,16.9361413350001,0
                99.8855981620001,16.9361868010001,0
                99.8854375320001,16.9362140220001,0
                99.8853458620001,16.936254207,0
                99.8852726210001,16.936307573,0
                99.8851855950001,16.936376124,0
                99.885098123,16.936442621,0
                99.885034514,16.9364633380001,0
                99.8849702750001,16.93647688,0
                99.8849013820001,16.9364771790001,0
                99.8848795700001,16.9364746470001,0
                99.8847995880001,16.936445844,0
                99.884767916,16.9364202840001,0
                99.8844120080001,16.935939944,0
                99.883520451,16.935735902,0
                99.8825833170001,16.9354350360001,0
                99.8818171330001,16.935092098,0
                99.881708286,16.9350202580001,0
                99.881687055,16.934991344,0
                99.88159068,16.9348600750001,0
                99.8814217610001,16.934434981,0
                99.881379731,16.9343718910001,0
                99.8813356540001,16.934317849,0
                99.8812729410001,16.9342940180001,0
                99.8810412880001,16.934288988,0
                99.8805905770001,16.93429696,0
                99.8803963440001,16.934261642,0
                99.880252022,16.934189954,0
                99.879824623,16.9338242170001,0
                99.879711576,16.9337463690001,0
                99.8795800840001,16.9337409070001,0
                99.878898113,16.9338282040001,0
                99.8763157050001,16.93388893,0
                99.874384207,16.93422249,0
                99.8726702980001,16.9348413500001,0
                99.8712224660001,16.9354850340001,0
                99.8676792840001,16.937446946,0
                99.8664178980001,16.938586941,0
                99.8637374130001,16.941422361,0
                99.8614341960001,16.9434715670001,0
                99.860994523,16.944040995,0
                99.8605606880001,16.944579133,0
                99.8604249700001,16.944823141,0
                99.8604114970001,16.9448804400001,0
                99.8604119660001,16.9449836970001,0
                99.8604180630001,16.9452979440001,0
                99.8604070220001,16.9454349230001,0
                99.8603911860001,16.945542736,0
                99.8603750540001,16.945585458,0
                99.8603518340001,16.9456080030001,0
                99.8603006900001,16.9456441340001,0
                99.8600898760001,16.945728291,0
                99.8597981950001,16.9458196680001,0
                99.8592227890001,16.9459437780001,0
                99.859105657,16.945961191,0
                99.8590567350001,16.945972623,0
                99.8590078780001,16.9459997640001,0
                99.8589474710001,16.946051647,0
                99.8588780030001,16.9461619370001,0
                99.8588480510001,16.9462428740001,0
                99.8588284080001,16.946539269,0
                99.8588219820001,16.946665002,0
                99.85881521,16.946714419,0
                99.8587967130001,16.946750412,0
                99.8587665470001,16.9467842130001,0
                99.858668896,16.9468519660001,0
                99.8585340210001,16.9469400780001,0
                99.8582832260001,16.9471813280001,0
                99.858064981,16.9473999890001,0
                99.8578050070001,16.9476749460001,0
                99.857621442,16.947826117,0
                99.857158537,16.9481664080001,0
                99.856808083,16.948424033,0
                99.8567422670001,16.9484723630001,0
                99.8567166170001,16.9484988240001,0
                99.856687831,16.9485438990001,0
                99.8566640550001,16.9486068360001,0
                99.8566597180001,16.9486786850001,0
                99.856665773,16.9489861980001,0
                99.856677544,16.949524899,0
                99.856647578,16.949901706,0
                99.8566443570001,16.949921537,0
                99.8566214040001,16.950003275,0
                99.856605259,16.95005058,0
                99.856566032,16.9501191360001,0
                99.8565311630001,16.9501630340001,0
                99.8564107340001,16.9503415350001,0
                99.856380615,16.9504064870001,0
                99.85635727,16.95047843,0
                99.8563429820001,16.9505398220001,0
                99.8563413530001,16.950665504,0
                99.856345021,16.9507766420001,0
                99.8563382180001,16.9508193250001,0
                99.8563220440001,16.950853062,0
                99.8562988530001,16.9508823410001,0
                99.8560360710001,16.951054049,0
                99.8559709830001,16.951101464,0
                99.8559407750001,16.95112628,0
                99.8559152600001,16.9511578140001,0
                99.855813481,16.951344561,0
                99.855774055,16.95139411,0
                99.8557298950001,16.9514279690001,0
                99.8556670190001,16.9514506800001,0
                99.8556108270001,16.9514664170001,0
                99.8555216490001,16.951474369,0
                99.8554375790001,16.9514747220001,0
                99.8553846840001,16.9514824230001,0
                99.85537607,16.9514850800001,0
                99.8553407320001,16.951504169,0
                99.855168129,16.951631159,0
                99.8550183150001,16.9517917360001,0
                99.8549887330001,16.9518365070001,0
                99.8548735300001,16.952052871,0
                99.854861709,16.9520795670001,0
                99.8548357910001,16.9521464220001,0
                99.8548207460001,16.952186978,0
                99.8548013640001,16.9522570460001,0
                99.854783028,16.9523487220001,0
                99.8547640800001,16.952510428,0
                99.8547483090001,16.9527946000001,0
                99.8546916130001,16.9530221210001,0
                99.8546424100001,16.9531662740001,0
                99.8546294500001,16.953201683,0
                99.8546072880001,16.9532333440001,0
                99.8545772510001,16.953263776,0
                99.8544423820001,16.9533224240001,0
                99.8541224860001,16.9534246530001,0
                99.8540399340001,16.953441173,0
                99.853983392,16.953452487,0
                99.8538907060001,16.9534540810001,0
                99.8537117180001,16.953431198,0
                99.8534428440001,16.9533886150001,0
                99.8533341950001,16.953388875,0
                99.8532264600001,16.9534052880001,0
                99.853151971,16.953437529,0
                99.8530568720001,16.953497785,0
                99.8530378820001,16.953515345,0
                99.852926256,16.953641459,0
                99.8524222460001,16.954370421,0
                99.8519441210001,16.9550069420001,0
                99.8518037890001,16.9551511940001,0
                99.851651018,16.9552954980001,0
                99.8515711800001,16.9554069490001,0
                99.8515017860001,16.955535191,0
                99.8513145100001,16.9559018740001,0
                99.8512774260001,16.9559536580001,0
                99.851240256,16.9559874870001,0
                99.851179797,16.956028147,0
                99.850953931,16.9561121460001,0
                99.8508306250001,16.9561822490001,0
                99.8507492260001,16.9562342180001,0
                99.8506261520001,16.95635595,0
                99.8503340810001,16.956758984,0
                99.8502110370001,16.9568874500001,0
                99.8500112400001,16.9570633760001,0
                99.84995309,16.9570995340001,0
                99.8499158330001,16.957113157,0
                99.8498785360001,16.9571178040001,0
                99.8498108740001,16.9571135940001,0
                99.8497571990001,16.957107083,0
                99.849553798,16.957000184,0
                99.849341015,16.9568820920001,0
                99.8492637800001,16.95682405,0
                99.8492380060001,16.956797217,0
                99.8492121770001,16.9567591630001,0
                99.8491884520001,16.956685582,0
                99.8491861570001,16.95667846,0
                99.8491314340001,16.956438497,0
                99.8491077880001,16.956366759,0
                99.8490560690001,16.956277184,0
                99.8490138380001,16.9562212380001,0
                99.8489646850001,16.9561832800001,0
                99.8489109000001,16.956152081,0
                99.8488385040001,16.956132176,0
                99.8487382230001,16.9561348390001,0
                99.8480761160001,16.9562026880001,0
                99.8480364660001,16.956202853,0
                99.8479851100001,16.956194091,0
                99.8479615480001,16.9561848700001,0
                99.8479320690001,16.9561685100001,0
                99.8478936600001,16.95613876,0
                99.8478800730001,16.956125652,0
                99.847785177,16.956014001,0
                99.8477333710001,16.9559769410001,0
                99.8477006900001,16.9559607030001,0
                99.8476152300001,16.955937475,0
                99.847566456,16.9559376780001,0
                99.847529234,16.955939157,0
                99.8474814,16.955949149,0
                99.8474745570001,16.9559520610001,0
                99.847360258,16.95600068,0
                99.8472606450001,16.956066521,0
                99.847215045,16.9561033300001,0
                99.8470675990001,16.9562223410001,0
                99.846653749,16.956556382,0
                99.8465561230001,16.956614147,0
                99.8463989360001,16.956687791,0
                99.846017224,16.9568689600001,0
                99.845649489,16.9570455790001,0
                99.844946366,16.957331332,0
                99.8447297160001,16.957390596,0
                99.8445991780001,16.957409092,0
                99.84445235,16.957421992,0
                99.8443846760001,16.9574279400001,0
                99.844137544,16.95745141,0
                99.8440163370001,16.9574698710001,0
                99.8439464560001,16.957490362,0
                99.8438812570001,16.957515325,0
                99.8438114360001,16.957549283,0
                99.8435137000001,16.957732342,0
                99.8432834100001,16.9578724730001,0
                99.843250846,16.957892809,0
                99.8432344890001,16.957910457,0
                99.843230051,16.957921986,0
                99.8432301270001,16.957926248,0
                99.8432644110001,16.958047257,0
                99.8432669810001,16.9580738110001,0
                99.843275797,16.958164832,0
                99.843273363,16.9582275710001,0
                99.8432591920001,16.9583015750001,0
                99.8432494370001,16.9583275520001,0
                99.8432375670001,16.958355238,0
                99.8430281770001,16.958695124,0
                99.842800621,16.9589989890001,0
                99.8427630630001,16.959070415,0
                99.8427629190001,16.959070836,0
                99.8427593860001,16.95909356,0
                99.8427595860001,16.9591384600001,0
                99.8428006490001,16.9594548050001,0
                99.8428037830001,16.9596343740001,0
                99.8427926040001,16.9597421720001,0
                99.8427650120001,16.959832077,0
                99.8426652890001,16.9599604410001,0
                99.8425352300001,16.96008669,0
                99.8423864040001,16.9601883170001,0
                99.842300284,16.96022908,0
                99.842253676,16.9602382520001,0
                99.842195368,16.9602384930001,0
                99.842124363,16.9602368340001,0
                99.84211372,16.960236584,0
                99.8416911460001,16.9601485360001,0
                99.841529225,16.960126345,0
                99.8413160050001,16.960113182,0
                99.8411615160001,16.960112558,0
                99.84090266,16.960124851,0
                99.840811923,16.960144346,0
                99.8407587780001,16.960162074,0
                99.840695135,16.96020127,0
                99.8406650030001,16.960242851,0
                99.840652645,16.960273769,0
                99.8406076000001,16.9603864600001,0
                99.840509023,16.960772971,0
                99.8405001620001,16.960878517,0
                99.8405193670001,16.9610018980001,0
                99.8405760160001,16.96115207,0
                99.840710018,16.961387218,0
                99.8407688660001,16.961508194,0
                99.840811381,16.9616269960001,0
                99.8409534150001,16.9620955730001,0
                99.841061945,16.9623734790001,0
                99.8411725450001,16.9625907710001,0
                99.8413274550001,16.962807877,0
                99.8414588110001,16.96297345,0
                99.84167467,16.963257651,0
                99.8419186420001,16.9635686670001,0
                99.8420171130001,16.9636827460001,0
                99.8421435380001,16.963787729,0
                99.8425064580001,16.9640549310001,0
                99.8426256210001,16.964142661,0
                99.8428781810001,16.964287531,0
                99.8430162210001,16.964381244,0
                99.8432386590001,16.964571133,0
                99.843468306,16.9648081290001,0
                99.843625515,16.965016248,0
                99.8436655180001,16.9650946470001,0
                99.8436845310001,16.9651731380001,0
                99.8437014450001,16.965305513,0
                99.8437470490001,16.9655926570001,0
                99.8437780120001,16.965736196,0
                99.8438393980001,16.9659020560001,0
                99.8439757370001,16.966137196,0
                99.8440931640001,16.966316292,0
                99.844156452,16.9664389440001,0
                99.8441639260001,16.966491094,0
                99.8441642070001,16.9665539480001,0
                99.8441458460001,16.9666213680001,0
                99.8440972930001,16.9667180930001,0
                99.844024329,16.9668009280001,0
                99.843359445,16.9672800930001,0
                99.8433303610001,16.967321972,0
                99.8433052170001,16.9674036870001,0
                99.8433012880001,16.9674240680001,0
                99.8432746880001,16.967726795,0
                99.843155358,16.9682936300001,0
                99.8429709850001,16.9689379650001,0
                99.8427631770001,16.9696666610001,0
                99.842756803,16.969679134,0
                99.842741806,16.9696955380001,0
                99.8427244010001,16.9697068090001,0
                99.8427047690001,16.9697325870001,0
                99.8427000820001,16.9697472450001,0
                99.8426985440001,16.969766824,0
                99.8427032380001,16.969801085,0
                99.84277094,16.9700784660001,0
                99.8428285210001,16.9703143620001,0
                99.8428621040001,16.970514445,0
                99.8428951560001,16.9712608510001,0
                99.8429523990001,16.9720986830001,0
                99.8429771460001,16.972315968,0
                99.8429865190001,16.9724188980001,0
                99.843164411,16.9729845040001,0
                99.843324566,16.973614454,0
                99.843128338,16.9736460190001,0
                99.8425978860001,16.9738049440001,0
                99.8426452080001,16.973918144,0
                99.8427045650001,16.9740614570001,0
                99.8427663300001,16.974209726,0
                99.8428052350001,16.9743046350001,0
                99.842817262,16.974332077,0
                99.842841702,16.974385811,0
                99.842863735,16.9744326800001,0
                99.8429021910001,16.9745153710001,0
                99.8429562260001,16.974634242,0
                99.8429610920001,16.9746449420001,0
                99.8430147810001,16.974763082,0
                99.8430548470001,16.9748495850001,0
                99.843100125,16.9749498140001,0
                99.8431449930001,16.975046605,0
                99.8432095050001,16.975188368,0
                99.8432687980001,16.9753171740001,0
                99.843330505,16.975453223,0
                99.8433669660001,16.975532871,0
                99.8434370780001,16.975685684,0
                99.8435208110001,16.9758670750001,0
                99.8435520460001,16.975932238,0
                99.843565793,16.9759597940001,0
                99.843593195,16.9759994830001,0
                99.8435951430001,16.9760011920001,0
                99.8436294990001,16.9760313840001,0
                99.8436326250001,16.976034128,0
                99.8436360060001,16.976035971,0
                99.8436808750001,16.9760603980001,0
                99.843725212,16.9760790830001,0
                99.843750872,16.9760976920001,0
                99.843757903,16.9761064080001,0
                99.843771223,16.976132917,0
                99.8437829200001,16.9761619290001,0
                99.8438258530001,16.976319527,0
                99.843837417,16.976354418,0
                99.8438690790001,16.9764479240001,0
                99.8438984960001,16.9765390800001,0
                99.8439077790001,16.9765682460001,0
                99.8439294990001,16.9766343060001,0
                99.8439419430001,16.9766729140001,0
                99.8439559770001,16.9767162370001,0
                99.843971143,16.9767638540001,0
                99.843987208,16.9768129670001,0
                99.844010741,16.9768854600001,0
                99.8440424240001,16.976983476,0
                99.84408361,16.9771104490001,0
                99.8441139350001,16.977205031,0
                99.844142004,16.9772929710001,0
                99.8441759600001,16.9774004270001,0
                99.8442056090001,16.9774930830001,0
                99.8442348140001,16.977585311,0
                99.8442674070001,16.9776871920001,0
                99.844300908,16.977792504,0
                99.844332819,16.9778922360001,0
                99.844370627,16.978012349,0
                99.8444059550001,16.9781262400001,0
                99.8444444390001,16.978248497,0
                99.8444804150001,16.978358096,0
                99.8445005500001,16.978419436,0
                99.844530821,16.978500921,0
                99.844543021,16.978534156,0
                99.8445525100001,16.978559891,0
                99.8445647290001,16.9785974230001,0
                99.8445762750001,16.97863367,0
                99.8446079500001,16.978729752,0
                99.8446337460001,16.978809326,0
                99.844665653,16.9789069120001,0
                99.8446896410001,16.9789811200001,0
                99.844721093,16.9790778490001,0
                99.8447595660001,16.979196454,0
                99.8448007280001,16.9793178410001,0
                99.8448351050001,16.979419498,0
                99.844864279,16.979505498,0
                99.8449011430001,16.9796140180001,0
                99.844907021,16.979630313,0
                99.844914427,16.979671291,0
                99.8449991270001,16.9799345600001,0
                99.8450355210001,16.980021041,0
                99.8450470700001,16.9800484800001,0
                99.845070036,16.9800905590001,0
                99.8450887390001,16.980117142,0
                99.8451026170001,16.980131822,0
                99.8451220050001,16.9801446220001,0
                99.8451371690001,16.9801550660001,0
                99.845141003,16.980157419,0
                99.8451426860001,16.9801588670001,0
                99.8451539160001,16.9801685050001,0
                99.8454047380001,16.980614427,0
                99.8455496720001,16.9808999520001,0
                99.8457246570001,16.9811821340001,0
                99.8458709820001,16.9814049600001,0
                99.8459089410001,16.981466171,0
                99.8459181040001,16.9814777070001,0
                99.845946558,16.9814962680001,0
                99.8459839610001,16.981514072,0
                99.8459906290001,16.981515911,0
                99.846032945,16.9815215470001,0
                99.846033537,16.9815216260001,0
                99.846080311,16.9815230410001,0
                99.84613039,16.981514798,0
                99.8461904650001,16.9815016860001,0
                99.8462414680001,16.981498501,0
                99.8462812650001,16.981507817,0
                99.846302398,16.9815127640001,0
                99.8463204710001,16.9815246520001,0
                99.8463335870001,16.981540099,0
                99.8463466580001,16.981559998,0
                99.846515647,16.982067332,0
                99.8465611870001,16.982221886,0
                99.846569763,16.9822501510001,0
                99.846572354,16.9822550390001,0
                99.8465799850001,16.9822623150001,0
                99.846585271,16.98226491,0
                99.8465996420001,16.982267914,0
                99.84660847,16.982266725,0
                99.8466598830001,16.9822531790001,0
                99.846685876,16.9822443080001,0
                99.8470151430001,16.982131967,0
                99.8470279960001,16.9821294820001,0
                99.8470407520001,16.982128548,0
                99.8470511080001,16.982129554,0
                99.8470600090001,16.9821331680001,0
                99.8470750760001,16.9821457460001,0
                99.847077788,16.982149432,0
                99.8471095420001,16.982199872,0
                99.8475388620001,16.9830725310001,0
                99.8476438580001,16.983338448,0
                99.847647054,16.983357814,0
                99.8476471180001,16.983372135,0
                99.8476454870001,16.983388516,0
                99.847641427,16.983399623,0
                99.8476361420001,16.9834086160001,0
                99.8476257870001,16.9834203460001,0
                99.847614557,16.9834265260001,0
                99.847358215,16.983514788,0
                99.847340079,16.98352049,0
                99.846777724,16.983697234,0
                99.8466492950001,16.9837521220001,0
                99.8465041000001,16.983821623,0
                99.8464896660001,16.9838285340001,0
                99.8464547200001,16.983847643,0
                99.846449136,16.9838506940001,0
                99.8464339550001,16.983862973,0
                99.8464276600001,16.9838739950001,0
                99.846425206,16.9838935510001,0
                99.846427884,16.9839240860001,0
                99.8464381530001,16.983964406,0
                99.846564829,16.9842881810001,0
                99.8467738630001,16.9848224560001,0
                99.8469450270001,16.985243962,0
                99.847208843,16.985962995,0
                99.8473960150001,16.9864765930001,0
                99.847545708,16.9869437620001,0
                99.8475752750001,16.9869776790001,0
                99.8476134860001,16.986993166,0
                99.847669249,16.9869860050001,0
                99.8481766630001,16.9868313480001,0
                99.8487146140001,16.986688293,0
                99.8492564380001,16.986502198,0
                99.8492760450001,16.986494555,0
                99.8492996730001,16.986490281,0
                99.8493092250001,16.9864902410001,0
                99.8493178580001,16.9864902050001,0
                99.8493380400001,16.986497727,0
                99.8493558550001,16.9865136240001,0
                99.8494652000001,16.986725262,0
                99.8494833460001,16.9867425680001,0
                99.8495122840001,16.986749403,0
                99.849521484,16.986749364,0
                99.849550396,16.9867492440001,0
                99.8495535960001,16.9867485840001,0
                99.8496530090001,16.9867070930001,0
                99.849717894,16.9866739620001,0
                99.850057436,16.9865005980001,0
                99.850391889,16.98630167,0
                99.8504507060001,16.9862740470001,0
                99.8504710190001,16.986272005,0
                99.8504913630001,16.986275829,0
                99.8505076750001,16.986287498,0
                99.850536682,16.9864105880001,0
                99.8506053830001,16.986772113,0
                99.8507046400001,16.9871491600001,0
                99.8507397390001,16.987270268,0
                99.8507807710001,16.98735615,0
                99.850836072,16.9874497960001,0
                99.8508771260001,16.9875395870001,0
                99.8509470110001,16.9877133580001,0
                99.8509840730001,16.9878188120001,0
                99.8510459250001,16.9880141290001,0
                99.8511141700001,16.9882739560001,0
                99.8511535170001,16.988436118,0
                99.8511910510001,16.9886471830001,0
                99.8512538000001,16.989040028,0
                99.8512726970001,16.989174893,0
                99.8512728910001,16.989217921,0
                99.8512628730001,16.9892492550001,0
                99.8512488900001,16.989268656,0
                99.8512055140001,16.989294101,0
                99.8511472630001,16.9893101210001,0
                99.8511326380001,16.9893122570001,0
                99.8506278230001,16.989386042,0
                99.8505905810001,16.9893988650001,0
                99.8505768640001,16.989403586,0
                99.8505748850001,16.9894051630001,0
                99.850548696,16.989425957,0
                99.850535451,16.9894478640001,0
                99.8505190010001,16.989519049,0
                99.8505231820001,16.9895714830001,0
                99.8505326060001,16.989614798,0
                99.850578268,16.9897742950001,0
                99.8506323170001,16.990042009,0
                99.8507106010001,16.990274415,0
                99.850875322,16.990745061,0
                99.8510153730001,16.9911532250001,0
                99.8511699410001,16.9916258700001,0
                99.8512400390001,16.991846578,0
                99.8512918760001,16.992073229,0
                99.8513171130001,16.992260871,0
                99.8513446870001,16.9925169590001,0
                99.8513939090001,16.9930643640001,0
                99.8514303380001,16.993480784,0
                99.8514522400001,16.9937942550001,0
                99.8514469260001,16.9940029000001,0
                99.8514002950001,16.994629907,0
                99.8510919500001,16.995962843,0
                99.850768508,16.997552252,0
                99.8506231630001,16.998082117,0
                99.8505707530001,16.9981220970001,0
                99.8505453220001,16.9981331000001,0
                99.8505405480001,16.9981336440001,0
                99.8505017040001,16.9981366850001,0
                99.85045948,16.9981294,0
                99.8503835610001,16.998116312,0
                99.850336042,16.9981138220001,0
                99.850247245,16.998121627,0
                99.8501049260001,16.9981561880001,0
                99.8500893450001,16.998159973,0
                99.8500856730001,16.9981613300001,0
                99.8500146580001,16.9981875230001,0
                99.8499162630001,16.9982353780001,0
                99.849883742,16.9982511910001,0
                99.849818187,16.998285337,0
                99.8497525500001,16.9983014150001,0
                99.8496985850001,16.9983039000001,0
                99.8496281850001,16.9983041940001,0
                99.849473409,16.998284267,0
                99.849339372,16.9982670110001,0
                99.8492830530001,16.9982672460001,0
                99.849184532,16.9982766910001,0
                99.8491194910001,16.99828949,0
                99.849040759,16.9982951690001,0
                99.848846559,16.998290261,0
                99.848676927,16.998286132,0
                99.8486706360001,16.9982856070001,0
                99.8486292100001,16.9982784900001,0
                99.848523125,16.9982446390001,0
                99.848386243,16.998188053,0
                99.8483409120001,16.998175109,0
                99.8482589170001,16.998151696,0
                99.8482078540001,16.9981468290001,0
                99.8481356930001,16.9981471300001,0
                99.8480829270001,16.9981541240001,0
                99.8479756850001,16.9981816690001,0
                99.8478667860001,16.9982312340001,0
                99.8477832730001,16.9982610660001,0
                99.847689308,16.998294634,0
                99.8475205440001,16.9983393640001,0
                99.8474150790001,16.99837029,0
                99.8473834370001,16.9983788860001,0
                99.847360554,16.9983789820001,0
                99.8473165550001,16.9983791650001,0
                99.8472357100001,16.998375406,0
                99.8471827650001,16.9983729470001,0
                99.8471141190001,16.998371542,0
                99.847052546,16.9983785680001,0
                99.8468186760001,16.9984269620001,0
                99.8465303470001,16.998497596,0
                99.8462666870001,16.9985748980001,0
                99.8462340450001,16.9985845780001,0
                99.84611025,16.9986212750001,0
                99.8460486970001,16.99863169,0
                99.846018766,16.998630124,0
                99.8459888090001,16.9986217790001,0
                99.8459683730001,16.998613322,0
                99.8457983690001,16.9985429750001,0
                99.845771938,16.9985363100001,0
                99.8457543390001,16.998536383,0
                99.8457262000001,16.9985415800001,0
                99.8455926450001,16.998587861,0
                99.8454357630001,16.998643143,0
                99.8453835270001,16.9986615500001,0
                99.8451831510001,16.998721658,0
                99.8450248500001,16.998744328,0
                99.8448507450001,16.9987755340001,0
                99.844559341,16.998790178,0
                99.8445568800001,16.998790302,0
                99.8445164110001,16.9987921640001,0
                99.8444671650001,16.9988008330001,0
                99.844321252,16.9988386960001,0
                99.844168375,16.9988935260001,0
                99.8441167460001,16.998912337,0
                99.843980355,16.998962046,0
                99.843917112,16.9989894010001,0
                99.84385382,16.999004907,0
                99.8435495020001,16.9990434260001,0
                99.8433921330001,16.999060221,0
                99.8433348820001,16.999066328,0
                99.843148467,16.9991009730001,0
                99.8429374770001,16.999149263,0
                99.842599862,16.999220096,0
                99.842519188,16.999250583,0
                99.8425137680001,16.9992526300001,0
                99.8424364850001,16.9992885130001,0
                99.8422835870001,16.9993399520001,0
                99.842141176,16.9993744130001,0
                99.8416646030001,16.999464448,0
                99.8413057500001,16.9995275250001,0
                99.8410809840001,16.9995528850001,0
                99.840868345,16.9995768750001,0
                99.84070912,16.999595782,0
                99.8406416120001,16.999614029,0
                99.8406005570001,16.99963516,0
                99.8405738880001,16.9996498090001,0
                99.8405674850001,16.999651806,0
                99.840551067,16.999655557,0
                99.8404036950001,16.999658171,0
                99.8397384520001,16.9996548780001,0
                99.8391206160001,16.9996697120001,0
                99.8386049060001,16.9996816620001,0
                99.8385819140001,16.999679298,0
                99.8380014630001,16.999487603,0
                99.8379614190001,16.9994720990001,0
                99.8379325770001,16.9994567790001,0
                99.83789821,16.999430369,0
                99.8378555410001,16.9993939880001,0
                99.8376491240001,16.9990953830001,0
                99.8376272520001,16.9990722750001,0
                99.8375992730001,16.999053395,0
                99.8375234160001,16.9990189810001,0
                99.8374907780001,16.9990140210001,0
                99.837402882,16.9990006800001,0
                99.8373070210001,16.998997978,0
                99.837208977,16.9990041890001,0
                99.831792013,16.999347373,0
                99.8320205750001,17.0010793450001,0
                99.8321696290001,17.002437491,0
                99.832268803,17.0033411320001,0
                99.8322720770001,17.0034411460001,0
                99.8322771580001,17.0035962530001,0
                99.832286062,17.003868251,0
                99.8322913580001,17.004026277,0
                99.832288082,17.004064971,0
                99.8322746380001,17.004142394,0
                99.83225659,17.004216517,0
                99.8322418490001,17.004260786,0
                99.8321713120001,17.0044147020001,0
                99.8320117660001,17.0047016020001,0
                99.8319584870001,17.0048334910001,0
                99.8319004130001,17.004977259,0
                99.8318258140001,17.0052516550001,0
                99.831816964,17.0053290590001,0
                99.83181712,17.0053644270001,0
                99.831820684,17.005390936,0
                99.831829998,17.005419632,0
                99.8318450470001,17.005446095,0
                99.8318785290001,17.005484644,0
                99.8320353070001,17.005611102,0
                99.832191036,17.0057596730001,0
                99.83223136,17.005787135,0
                99.8322601260001,17.0057980710001,0
                99.8322969280001,17.005807868,0
                99.8323279570001,17.0058121610001,0
                99.832363565,17.005812016,0
                99.832432413,17.005807228,0
                99.832650647,17.005792055,0
                99.8328297730001,17.00577695,0
                99.8328539070001,17.0057790660001,0
                99.833096422,17.005812335,0
                99.8331097600001,17.0058139940001,0
                99.8333113420001,17.0058390830001,0
                99.833404419,17.005846439,0
                99.8335859250001,17.00585012,0
                99.8336242170001,17.0058513010001,0
                99.8336491100001,17.005852072,0
                99.8336766960001,17.005855271,0
                99.833700859,17.0058651200001,0
                99.833725051,17.005880495,0
                99.8337584940001,17.005910199,0
                99.833852236,17.0060689650001,0
                99.8339866640001,17.0063358800001,0
                99.834043583,17.0064793220001,0
                99.8340494600001,17.0065091390001,0
                99.83405421,17.0065444890001,0
                99.8340675740001,17.0067091110001,0
                99.8340891860001,17.0069214910001,0
                99.834090394,17.0069333770001,0
                99.8340989390001,17.00704718,0
                99.8341005790001,17.007158798,0
                99.8340884580001,17.0072748960001,0
                99.8340875220001,17.007322425,0
                99.8340901070001,17.007387625,0
                99.834099725,17.0074848420001,0
                99.834110234,17.00752348,0
                99.8341357830001,17.0075863760001,0
                99.8342376750001,17.007768319,0
                99.8343004050001,17.0079063100001,0
                99.8343525110001,17.008020942,0
                99.8343988000001,17.0080970130001,0
                99.8344634190001,17.0081641680001,0
                99.8345095270001,17.0082004500001,0
                99.8347317760001,17.008324427,0
                99.8347375550001,17.008332141,0
                99.8347115400001,17.0086074270001,0
                99.8347094630001,17.0086294220001,0
                99.8346945370001,17.0087155320001,0
                99.8346520750001,17.00886086,0
                99.8346434680001,17.008890325,0
                99.834603686,17.008961976,0
                99.8345677620001,17.0090192120001,0
                99.8344831700001,17.009111207,0
                99.834479876,17.009114117,0
                99.8342186560001,17.0092961390001,0
                99.834113206,17.0093558240001,0
                99.8340225950001,17.009407111,0
                99.833995493,17.0094360420001,0
                99.8339684620001,17.0094806870001,0
                99.833919962,17.009596156,0
                99.8337713020001,17.009996508,0
                99.833650558,17.0103651330001,0
                99.8335690150001,17.0105584840001,0
                99.8335405180001,17.0105958,0
                99.8333631880001,17.0108279950001,0
                99.8329887580001,17.011339525,0
                99.8329417240001,17.011455174,0
                99.8329452570001,17.0115402280001,0
                99.832954945,17.0115832710001,0
                99.832955251,17.0115846300001,0
                99.8329773020001,17.011625463,0
                99.8330029530001,17.0116604730001,0
                99.833744181,17.012266084,0
                99.8340507120001,17.0126700170001,0
                99.8341294740001,17.012773807,0
                99.834134739,17.0127841660001,0
                99.834142377,17.012816141,0
                99.8341375320001,17.0128495050001,0
                99.834135641,17.0128554510001,0
                99.8338899920001,17.0133176460001,0
                99.833841566,17.013374535,0
                99.833825398,17.013380775,0
                99.8338184030001,17.0133817660001,0
                99.8337852370001,17.013381902,0
                99.8337219740001,17.013360672,0
                99.8335582240001,17.0133057050001,0
                99.8334810750001,17.0134223580001,0
                99.833413776,17.013550509,0
                99.833106087,17.0142590730001,0
                99.833149839,17.014692568,0
                99.8331804430001,17.014833077,0
                99.833214759,17.0148929980001,0
                99.8332977680001,17.0149586590001,0
                99.83337592,17.0150090560001,0
                99.8339558010001,17.0152382210001,0
                99.834301753,17.015436622,0
                99.8344730350001,17.0155487590001,0
                99.834498382,17.015566891,0
                99.834528414,17.0155991180001,0
                99.834537761,17.0156403770001,0
                99.8345311320001,17.0156848120001,0
                99.8345114910001,17.0157373800001,0
                99.8343380740001,17.016043564,0
                99.834327149,17.016063779,0
                99.8341978660001,17.016302873,0
                99.834126574,17.0164862720001,0
                99.8340549590001,17.016731366,0
                99.83392932,17.0171664270001,0
                99.8338615000001,17.017476517,0
                99.8338084600001,17.0181232570001,0
                99.8337700420001,17.0185702220001,0
                99.833781119,17.018736028,0
                99.833806145,17.018838375,0
                99.83383695,17.018935975,0
                99.83408417,17.0194347,0
                99.8342229900001,17.0196397940001,0
                99.834293593,17.0197248430001,0
                99.8343336010001,17.019759691,0
                99.8344377800001,17.0198711090001,0
                99.8346667150001,17.020060991,0
                99.834756058,17.0201581480001,0
                99.8347975490001,17.020229799,0
                99.8348012170001,17.0202371010001,0
                99.83491315,17.020552487,0
                99.8350182550001,17.020894632,0
                99.8350570380001,17.0211224390001,0
                99.8350611920001,17.0212816430001,0
                99.8350417840001,17.0215703120001,0
                99.8350343660001,17.0216665730001,0
                99.8350198730001,17.021854665,0
                99.8350365360001,17.0219418520001,0
                99.835048687,17.021997621,0
                99.835056282,17.0220325020001,0
                99.8350758380001,17.022064256,0
                99.8351061440001,17.022087067,0
                99.8351075770001,17.0220881500001,0
                99.835109915,17.0220889,0
                99.8351590970001,17.0221047150001,0
                99.8352743330001,17.0221243120001,0
                99.8353379850001,17.022140565,0
                99.8354411880001,17.022166918,0
                99.835442303,17.022167203,0
                99.8354781420001,17.0221835740001,0
                99.835519967,17.022219195,0
                99.8356055960001,17.022386268,0
                99.8358586520001,17.0230714480001,0
                99.8359702160001,17.0233735200001,0
                99.8368082950001,17.0233265800001,0
                99.836952581,17.023317508,0
                99.8370873200001,17.0233091800001,0
                99.837204436,17.0233012780001,0
                99.837285288,17.023295707,0
                99.837408644,17.023287033,0
                99.8377023450001,17.023265726,0
                99.8378276540001,17.0232570430001,0
                99.838086762,17.0232377580001,0
                99.83822661,17.0232279310001,0
                99.8382956180001,17.0232230820001,0
                99.8386304380001,17.023199087,0
                99.838930008,17.0231771260001,0
                99.8390384780001,17.0231688370001,0
                99.8391536600001,17.023163373,0
              </coordinates>
                
            </LinearRing>
            
          </outerBoundaryIs>
        
        </Polygon>
        
      <styleUrl>
        #tambonStyle</styleUrl>
    </Placemark>

  </Document>
</kml>