<?xml version="1.0" encoding="UTF-8"?>
<kml xmlns="http://www.opengis.net/kml/2.2">
  <Document id="tambon_doc">
    <name>บ้านสวน, เมืองสุโขทัย, Sukhothai</name>
    <description>ข้อมูลขอบเขตตำบลบ้านสวน อำเภอเมืองสุโขทัย จังหวัดSukhothai</description>
    
    <!-- Schema สำหรับข้อมูลตำบล -->
    <Schema id="tambon.schema">
      <SimpleField name="ADM3_EN" type="string">
        <displayName>Subdistrict Name (English)</displayName>
      </SimpleField>
      <SimpleField name="ADM3_TH" type="string">
        <displayName>ชื่อตำบล</displayName>
      </SimpleField>
      <SimpleField name="ADM2_EN" type="string">
        <displayName>District Name (English)</displayName>
      </SimpleField>
      <SimpleField name="ADM2_TH" type="string">
        <displayName>ชื่ออำเภอ</displayName>
      </SimpleField>
      <SimpleField name="ADM1_EN" type="string">
        <displayName>Province Name (English)</displayName>
      </SimpleField>
      <SimpleField name="ADM1_TH" type="string">
        <displayName>ชื่อจังหวัด</displayName>
      </SimpleField>
      <SimpleField name="ADM0_EN" type="string">
        <displayName>Country Name (English)</displayName>
      </SimpleField>
      <SimpleField name="ADM0_TH" type="string">
        <displayName>ชื่อประเทศ</displayName>
      </SimpleField>
    </Schema>

    <!-- Style สำหรับตำบล -->
    <Style id="tambonStyle">
      <LineStyle>
        <color>ffff0000</color>
        <width>1.5</width>
      </LineStyle>
      <PolyStyle>
        <color>33ff0000</color>
        <fill>1</fill>
        <outline>1</outline>
      </PolyStyle>
    </Style>

    <Placemark id="Sukhothai.2">
        
        <ExtendedData>
            
          <SchemaData schemaUrl="#tambon.schema">
                
            <SimpleData name="Shape_Leng">
                0.392854184529</SimpleData>
                
            <SimpleData name="Shape_Area">
                0.00593198756329</SimpleData>
                
            <SimpleData name="ADM3_EN">
                Ban Suan</SimpleData>
                
            <SimpleData name="ADM3_TH">
                บ้านสวน</SimpleData>
                
            <SimpleData name="ADM3_PCODE">
                TH640102</SimpleData>
                
            <SimpleData name="ADM2_EN">
                Mueang Sukhothai</SimpleData>
                
            <SimpleData name="ADM2_TH">
                เมืองสุโขทัย</SimpleData>
                
            <SimpleData name="ADM2_PCODE">
                TH6401</SimpleData>
                
            <SimpleData name="ADM1_EN">
                Sukhothai</SimpleData>
                
            <SimpleData name="ADM1_TH">
                สุโขทัย</SimpleData>
                
            <SimpleData name="ADM1_PCODE">
                TH64</SimpleData>
                
            <SimpleData name="ADM0_EN">
                Thailand</SimpleData>
                
            <SimpleData name="ADM0_TH">
                ประเทศไทย</SimpleData>
                
            <SimpleData name="ADM0_PCODE">
                TH</SimpleData>
            
          </SchemaData>
        
        </ExtendedData>
        
        <Polygon>
            
          <outerBoundaryIs>
                
            <LinearRing>
                    
              <coordinates>
                    
                99.949623188,17.0797520580001,0
                99.9500933520001,17.0794342290001,0
                99.9507640750001,17.078977966,0
                99.951293509,17.078595304,0
                99.9516229500001,17.0782675250001,0
                99.9521140850001,17.077614403,0
                99.9529939370001,17.0788973260001,0
                99.9533575730001,17.0794194490001,0
                99.9535686440001,17.079677783,0
                99.9539061010001,17.080088001,0
                99.9540392250001,17.0802482140001,0
                99.954205544,17.080431241,0
                99.9544873890001,17.0807462830001,0
                99.954689681,17.080956536,0
                99.954767217,17.0810259840001,0
                99.9548373100001,17.081077792,0
                99.9549405490001,17.0811426990001,0
                99.9550013530001,17.0811742280001,0
                99.9550056210001,17.0811754960001,0
                99.9551214420001,17.08121519,0
                99.955203354,17.081226563,0
                99.9552249050001,17.081227966,0
                99.9553801200001,17.081214861,0
                99.9555224480001,17.0811809160001,0
                99.9555773980001,17.081161794,0
                99.955980002,17.081012317,0
                99.956389001,17.0808557410001,0
                99.9569034030001,17.080648291,0
                99.9571248550001,17.080537108,0
                99.9576023500001,17.0802550880001,0
                99.957740701,17.0801565350001,0
                99.9580609210001,17.07988814,0
                99.958195845,17.079770076,0
                99.9583638390001,17.079576628,0
                99.9585407230001,17.0793279540001,0
                99.9586982850001,17.0790324120001,0
                99.9587991120001,17.078843299,0
                99.959041513,17.078343417,0
                99.9591010330001,17.078162611,0
                99.9591050280001,17.078145383,0
                99.9591428100001,17.0779824630001,0
                99.9591638320001,17.0778573710001,0
                99.9592503530001,17.077361679,0
                99.9592777010001,17.0772205050001,0
                99.959343387,17.0770051390001,0
                99.9595611390001,17.0764287590001,0
                99.9596416000001,17.0762635940001,0
                99.9598431650001,17.07593028,0
                99.9602494310001,17.075308321,0
                99.960753233,17.074454087,0
                99.961012311,17.0740115720001,0
                99.961213833,17.073669878,0
                99.9614354610001,17.073286195,0
                99.9616856960001,17.072818586,0
                99.9617636130001,17.072723254,0
                99.9618589760001,17.0726334300001,0
                99.9619168390001,17.072591258,0
                99.962229456,17.072397063,0
                99.9624731710001,17.0722464610001,0
                99.962539184,17.072205674,0
                99.9626955370001,17.072118349,0
                99.962817209,17.0720619140001,0
                99.9629476490001,17.0720166090001,0
                99.963562611,17.0718907990001,0
                99.9636496640001,17.071879214,0
                99.9637513530001,17.0718899020001,0
                99.964178587,17.07196328,0
                99.9644550670001,17.0720430540001,0
                99.9645147530001,17.0720622750001,0
                99.9645822640001,17.0720910260001,0
                99.964652024,17.0721275130001,0
                99.9651539210001,17.0724251560001,0
                99.965334269,17.072556263,0
                99.9654235900001,17.072619387,0
                99.965452864,17.0726379220001,0
                99.9655104330001,17.072666665,0
                99.9655625220001,17.072685945,0
                99.96569522,17.0727260630001,0
                99.9657096720001,17.0727304320001,0
                99.9657167130001,17.072731989,0
                99.9657838310001,17.0727406720001,0
                99.9658079700001,17.0727420220001,0
                99.9658770830001,17.072737783,0
                99.9659660410001,17.0727240370001,0
                99.966112378,17.072688226,0
                99.9659887820001,17.072097608,0
                99.9659633630001,17.072021869,0
                99.965919489,17.071931771,0
                99.9658925700001,17.0718942720001,0
                99.9656993140001,17.071716367,0
                99.9656821190001,17.0716975720001,0
                99.9656535610001,17.0716399070001,0
                99.9656430110001,17.0716141620001,0
                99.9656174830001,17.0715345420001,0
                99.965599205,17.071474112,0
                99.965569293,17.071358924,0
                99.965517359,17.0711028870001,0
                99.965489958,17.07095693,0
                99.9654435130001,17.070734182,0
                99.9653757,17.070501286,0
                99.9653350710001,17.0703733280001,0
                99.9652699920001,17.070153227,0
                99.9652076560001,17.0699484960001,0
                99.9651418820001,17.069703583,0
                99.9651178430001,17.069579898,0
                99.9650431370001,17.0693104430001,0
                99.9573680030001,17.058517373,0
                99.9561002600001,17.0557756590001,0
                99.9560406030001,17.0556466400001,0
                99.955439975,17.0539256440001,0
                99.9550534580001,17.052180971,0
                99.9547682610001,17.0503659610001,0
                99.954598134,17.0483268620001,0
                99.9543647240001,17.042403861,0
                99.954169816,17.041203189,0
                99.954051076,17.04070076,0
                99.953647033,17.03835537,0
                99.9531254730001,17.0357450610001,0
                99.9529297320001,17.0343767310001,0
                99.9528416570001,17.033756436,0
                99.95283478,17.033511575,0
                99.9528379440001,17.033023225,0
                99.952837973,17.033018741,0
                99.9528376530001,17.0328191150001,0
                99.9528370890001,17.032469346,0
                99.952819903,17.032229677,0
                99.9527512100001,17.031621009,0
                99.9527313820001,17.0312629380001,0
                99.952724914,17.030950391,0
                99.9527233680001,17.0306451640001,0
                99.9527097500001,17.030367611,0
                99.9526702490001,17.0298908350001,0
                99.95266774,17.029701491,0
                99.9526580390001,17.029652055,0
                99.952614526,17.0295463150001,0
                99.952551235,17.02944411,0
                99.9521161490001,17.0289250210001,0
                99.952090615,17.028895634,0
                99.9520619900001,17.0288430150001,0
                99.9520323770001,17.0287843990001,0
                99.952002103,17.0286473370001,0
                99.9519211960001,17.027725564,0
                99.9514035290001,17.0244375890001,0
                99.9511993240001,17.0228247810001,0
                99.9512087350001,17.0225313290001,0
                99.9513494510001,17.021812084,0
                99.9516968080001,17.015830453,0
                99.9516523250001,17.015649028,0
                99.9515190880001,17.015146659,0
                99.951194533,17.0141421920001,0
                99.950986787,17.0132629300001,0
                99.9508817490001,17.012592764,0
                99.9508653220001,17.012215597,0
                99.9500311950001,17.008069812,0
                99.9490816470001,17.004064279,0
                99.948774809,17.003688465,0
                99.948058862,17.002811561,0
                99.9469793120001,17.001388079,0
                99.9466246110001,17.0021120050001,0
                99.9465966070001,17.002158422,0
                99.946556538,17.002224842,0
                99.946387181,17.0024284450001,0
                99.9461117500001,17.002692827,0
                99.9459410800001,17.0028266800001,0
                99.945731155,17.0029956590001,0
                99.9455507040001,17.0031508020001,0
                99.9448718180001,17.0037487880001,0
                99.9423300230001,17.0058643520001,0
                99.9420045140001,17.006109496,0
                99.941680574,17.006498811,0
                99.9415004800001,17.0065093870001,0
                99.9412407740001,17.0065366150001,0
                99.9409739060001,17.0065779070001,0
                99.9406830630001,17.0066340020001,0
                99.9405715290001,17.006666098,0
                99.940280859,17.0067579930001,0
                99.9400277380001,17.006839686,0
                99.939856954,17.006896898,0
                99.939551103,17.0070140710001,0
                99.9391907150001,17.0071758920001,0
                99.9387953830001,17.0073587570001,0
                99.937987267,17.0077289990001,0
                99.9375766730001,17.0079225170001,0
                99.9374543200001,17.0079716170001,0
                99.9373036010001,17.0080165100001,0
                99.9368012410001,17.0081734940001,0
                99.936635655,17.008197571,0
                99.9350060620001,17.0081144370001,0
                99.9313391590001,17.008805527,0
                99.9303473250001,17.008992442,0
                99.925001674,17.0091360550001,0
                99.9244705560001,17.0083952950001,0
                99.9242208300001,17.008027768,0
                99.9237593440001,17.0075069600001,0
                99.921590451,17.005837076,0
                99.915858767,17.007313837,0
                99.9155983200001,17.007343308,0
                99.9155387380001,17.007350048,0
                99.9154901790001,17.007354704,0
                99.915300587,17.0073339910001,0
                99.9151174840001,17.007316786,0
                99.9149978460001,17.0073264260001,0
                99.9145836920001,17.007410109,0
                99.91417498,17.0075193320001,0
                99.913510972,17.0075913490001,0
                99.91224105,17.0076584070001,0
                99.9113004750001,17.0076907430001,0
                99.911287175,17.0076882500001,0
                99.9112711600001,17.0076729780001,0
                99.9111628370001,17.0068676230001,0
                99.9111500930001,17.0068373780001,0
                99.9111246940001,17.0067950650001,0
                99.911093167,17.0067891460001,0
                99.9083349100001,17.0069408690001,0
                99.907413445,17.0070025540001,0
                99.9070486630001,17.0052005860001,0
                99.907023919,17.0050775550001,0
                99.9070119840001,17.0050473650001,0
                99.9070001090001,17.0050285180001,0
                99.9069815410001,17.005013768,0
                99.9069666460001,17.005010581,0
                99.9056175970001,17.00512918,0
                99.905539005,17.005125747,0
                99.9054878350001,17.005107074,0
                99.9054483640001,17.005069446,0
                99.905392674,17.0049260390001,0
                99.9053606250001,17.004797652,0
                99.9053447460001,17.004763702,0
                99.9053132240001,17.0047449370001,0
                99.905269935,17.004730008,0
                99.90440198,17.0048019130001,0
                99.9037891300001,17.0048159730001,0
                99.9032315030001,17.004875156,0
                99.9027691750001,17.0049242430001,0
                99.9021797380001,17.0049813270001,0
                99.9014069620001,17.0049605090001,0
                99.9010918120001,17.00496001,0
                99.900063161,17.004958373,0
                99.8989220430001,17.005189683,0
                99.8978565090001,17.005420653,0
                99.896555698,17.0056284070001,0
                99.8965215640001,17.005634279,0
                99.8962345530001,17.005650782,0
                99.8961237650001,17.005648025,0
                99.894079553,17.005597159,0
                99.894052157,17.005600289,0
                99.8940170750001,17.005604293,0
                99.893990063,17.005624283,0
                99.8939671410001,17.0056656990001,0
                99.8939662290001,17.0056684240001,0
                99.893956883,17.005738939,0
                99.8939563660001,17.0060410670001,0
                99.893955797,17.006372651,0
                99.89394738,17.006402231,0
                99.8939447270001,17.0064054920001,0
                99.8939210790001,17.0064266200001,0
                99.893894512,17.0064363400001,0
                99.8938047970001,17.0064458260001,0
                99.8930536670001,17.0064536690001,0
                99.8925621990001,17.0064240040001,0
                99.8921464270001,17.006416734,0
                99.8919221680001,17.006409934,0
                99.891768201,17.006405262,0
                99.891302931,17.006403006,0
                99.8911411380001,17.0064161020001,0
                99.891056625,17.0064359410001,0
                99.8910426520001,17.0064431380001,0
                99.8910284510001,17.0064515880001,0
                99.8910165200001,17.006465443,0
                99.8910107090001,17.0064753020001,0
                99.8910063120001,17.0064870350001,0
                99.8910021980001,17.0064980080001,0
                99.8909958840001,17.006535523,0
                99.8909954700001,17.006540488,0
                99.8909882030001,17.00662771,0
                99.8910005800001,17.0068145980001,0
                99.8909970050001,17.006830431,0
                99.890992994,17.006836251,0
                99.8909793490001,17.0068462130001,0
                99.8909643680001,17.0068516750001,0
                99.890866208,17.006868378,0
                99.890353281,17.0069267380001,0
                99.890315038,17.006926784,0
                99.8902761320001,17.006926832,0
                99.8901554240001,17.006919107,0
                99.889961494,17.006898434,0
                99.889855836,17.00689284,0
                99.8897448420001,17.0068911700001,0
                99.889518378,17.0068910790001,0
                99.889310675,17.0069109,0
                99.8891037550001,17.0069306450001,0
                99.8888764390001,17.006987731,0
                99.8887958130001,17.0070074980001,0
                99.888650209,17.0070372610001,0
                99.888488872,17.0070584600001,0
                99.888313016,17.0070915860001,0
                99.888071649,17.0071555750001,0
                99.887816693,17.0072501280001,0
                99.887655565,17.0073169670001,0
                99.887439677,17.0074052800001,0
                99.8872722570001,17.0074733610001,0
                99.8870286580001,17.007568077,0
                99.886837648,17.00764106,0
                99.88666987,17.007705233,0
                99.8864607560001,17.0077770520001,0
                99.8861548200001,17.007880394,0
                99.8860580560001,17.0079243540001,0
                99.8859633650001,17.007978763,0
                99.885835097,17.0080765860001,0
                99.8857075370001,17.008170207,0
                99.885604679,17.0082588220001,0
                99.8855300210001,17.0083123260001,0
                99.8854793190001,17.008355932,0
                99.8854062,17.0084269230001,0
                99.885346842,17.0084866600001,0
                99.8852565340001,17.008614407,0
                99.8851915160001,17.008707056,0
                99.8851091940001,17.0088319710001,0
                99.8850485720001,17.008931601,0
                99.884992158,17.008998321,0
                99.8849356050001,17.0090363530001,0
                99.8848383370001,17.0090752620001,0
                99.8846726830001,17.009110971,0
                99.8844217720001,17.009154746,0
                99.8843186020001,17.009176015,0
                99.8842292250001,17.0092029,0
                99.8841462560001,17.0092331010001,0
                99.8840519030001,17.0092867400001,0
                99.883965296,17.0093403490001,0
                99.88386325,17.0094062630001,0
                99.8836706450001,17.009508238,0
                99.8835464640001,17.0095715910001,0
                99.8834140900001,17.0096578650001,0
                99.8833892690001,17.0096744730001,0
                99.883312673,17.0097397480001,0
                99.883178232,17.009856907,0
                99.8830465670001,17.0099772500001,0
                99.882979333,17.0100334320001,0
                99.882926985,17.0100778400001,0
                99.882837109,17.010142639,0
                99.8827974000001,17.0101699590001,0
                99.8827014860001,17.0102443650001,0
                99.8826254190001,17.0103043140001,0
                99.8826012740001,17.010347004,0
                99.8825892360001,17.010375266,0
                99.8825877310001,17.0104088100001,0
                99.8825974280001,17.010467465,0
                99.8826114860001,17.010528487,0
                99.8826343490001,17.010626299,0
                99.8826510310001,17.0106989880001,0
                99.8826539240001,17.0107189600001,0
                99.8826596490001,17.010755944,0
                99.882660904,17.0107640690001,0
                99.8826889920001,17.0109443310001,0
                99.882698324,17.0110023280001,0
                99.8826973880001,17.0110691,0
                99.8826904110001,17.0111068580001,0
                99.8826628370001,17.011133628,0
                99.8826252810001,17.0111550500001,0
                99.882542635,17.011183256,0
                99.882447825,17.0112067200001,0
                99.8823906310001,17.011220445,0
                99.8823051290001,17.011237582,0
                99.8822230470001,17.011253805,0
                99.8821325930001,17.011276654,0
                99.8820834830001,17.0112894440001,0
                99.8819803650001,17.0113333080001,0
                99.8818915780001,17.0113792020001,0
                99.8818707760001,17.0113897730001,0
                99.881773631,17.011446188,0
                99.881734856,17.0114724050001,0
                99.881695773,17.0114998220001,0
                99.8816533950001,17.0115551000001,0
                99.8816170100001,17.0116271200001,0
                99.881590267,17.0116979000001,0
                99.8815694240001,17.0117668550001,0
                99.881559285,17.0117944450001,0
                99.8815251560001,17.011882923,0
                99.8814899700001,17.0119453560001,0
                99.8814791630001,17.0119636700001,0
                99.8814000690001,17.012086472,0
                99.8813639860001,17.012149831,0
                99.8813079750001,17.0122007040001,0
                99.881218329,17.012237753,0
                99.881058904,17.012292566,0
                99.880781594,17.012359234,0
                99.8806655660001,17.0123806830001,0
                99.880512341,17.0124022970001,0
                99.8803328480001,17.012433624,0
                99.876273408,17.0125055870001,0
                99.8750530770001,17.012459047,0
                99.874783817,17.012434308,0
                99.8747162820001,17.0124041290001,0
                99.8746537470001,17.012357289,0
                99.8746223150001,17.012321328,0
                99.8746030820001,17.012274206,0
                99.8744811700001,17.011617136,0
                99.874407676,17.0110347200001,0
                99.8743698630001,17.0108725750001,0
                99.8742987360001,17.0106714630001,0
                99.8742792580001,17.010628265,0
                99.8742595050001,17.010599499,0
                99.874235486,17.0105757220001,0
                99.8742041840001,17.0105686430001,0
                99.874159256,17.0105748020001,0
                99.874039166,17.010593381,0
                99.8738856350001,17.010586254,0
                99.8737192360001,17.0105594450001,0
                99.8736935050001,17.010555299,0
                99.8735091940001,17.010501708,0
                99.873170642,17.010383919,0
                99.8728320390001,17.0102552860001,0
                99.8727215860001,17.0102309850001,0
                99.8727192590001,17.0102304750001,0
                99.8727077380001,17.010229689,0
                99.8726197000001,17.0102236760001,0
                99.8725089150001,17.010224151,0
                99.8724645670001,17.010224576,0
                99.8721671660001,17.0102274180001,0
                99.8720525860001,17.0102206830001,0
                99.872021766,17.010215261,0
                99.8719323120001,17.010199519,0
                99.8717688520001,17.0101803430001,0
                99.8717331730001,17.010180496,0
                99.871674979,17.010184361,0
                99.8714986370001,17.01020426,0
                99.8710424870001,17.010255726,0
                99.8707572160001,17.0102894680001,0
                99.8706126600001,17.010297312,0
                99.8704887160001,17.0102960350001,0
                99.8703497130001,17.010285787,0
                99.870084719,17.010238139,0
                99.870020852,17.010232993,0
                99.8699870520001,17.0102331370001,0
                99.8699420010001,17.0102369410001,0
                99.8698259820001,17.010268598,0
                99.8696325530001,17.0103213740001,0
                99.869358795,17.010409269,0
                99.869295128,17.010447481,0
                99.869267085,17.0104747030001,0
                99.8692596660001,17.0104946060001,0
                99.869248428,17.010540006,0
                99.86919699,17.010747817,0
                99.8691765330001,17.0107912670001,0
                99.8691597330001,17.010813018,0
                99.8691242040001,17.010845691,0
                99.8688393480001,17.010969765,0
                99.8687889650001,17.0109980770001,0
                99.8687194770001,17.0110371270001,0
                99.8686857690001,17.011057142,0
                99.8686595790001,17.011078938,0
                99.8686334810001,17.011120605,0
                99.8685757710001,17.011200866,0
                99.868469287,17.011348953,0
                99.86839446,17.0114106990001,0
                99.8680762100001,17.0116234450001,0
                99.8678027000001,17.011765537,0
                99.8677446550001,17.0118019170001,0
                99.8674959960001,17.012039659,0
                99.8674249000001,17.0120959700001,0
                99.8673687090001,17.012126923,0
                99.8670038110001,17.0123348220001,0
                99.8669341890001,17.0123744910001,0
                99.866763807,17.012483622,0
                99.8665633730001,17.0125910730001,0
                99.8660989160001,17.012862254,0
                99.86494917,17.0131601460001,0
                99.8649267760001,17.013186236,0
                99.8649230500001,17.0131972070001,0
                99.864923252,17.0132412020001,0
                99.8649027470001,17.0138844000001,0
                99.864894946,17.0141292050001,0
                99.8648798360001,17.014161148,0
                99.864853752,17.0141712110001,0
                99.8644266370001,17.0141704590001,0
                99.862057087,17.01416626,0
                99.8620290690001,17.0141789840001,0
                99.8620169450001,17.0141880420001,0
                99.86199931,17.0142205290001,0
                99.8619957020001,17.0142502590001,0
                99.861988496,17.0143106190001,0
                99.8619860080001,17.014380864,0
                99.861981927,17.014511445,0
                99.8619763060001,17.0147149700001,0
                99.861947001,17.015389624,0
                99.861905817,17.015818192,0
                99.8618854790001,17.0158996390001,0
                99.861870228,17.015980885,0
                99.8618458860001,17.016060786,0
                99.861791403,17.016161762,0
                99.8617698880001,17.016185046,0
                99.8615227390001,17.016378929,0
                99.860889871,17.0168754040001,0
                99.86085288,17.0169256940001,0
                99.860846059,17.016956513,0
                99.860849638,17.0170109600001,0
                99.8610026710001,17.0176641890001,0
                99.8610105560001,17.017688424,0
                99.8610344750001,17.017726394,0
                99.8610572320001,17.017739399,0
                99.8611117410001,17.017747905,0
                99.861158479,17.0177477070001,0
                99.8612297550001,17.017747405,0
                99.861275209,17.017760314,0
                99.861299122,17.0177857200001,0
                99.8613078640001,17.01779723,0
                99.861320005,17.017831648,0
                99.86132566,17.017873649,0
                99.861273822,17.018450338,0
                99.8611818350001,17.0191800490001,0
                99.861066077,17.0196740330001,0
                99.8606522460001,17.020501183,0
                99.860618737,17.020521219,0
                99.860593398,17.020536371,0
                99.8604750850001,17.020550009,0
                99.8600036010001,17.020604373,0
                99.8599672060001,17.020587055,0
                99.8599580110001,17.0205608900001,0
                99.8599967910001,17.020353686,0
                99.860064359,17.0199927080001,0
                99.8600641790001,17.019953404,0
                99.8600505220001,17.0199447260001,0
                99.8592152530001,17.0199351530001,0
                99.8584646190001,17.019929211,0
                99.8577762570001,17.0199237580001,0
                99.857458577,17.019938199,0
                99.8561563110001,17.0200484960001,0
                99.8556752950001,17.020081089,0
                99.855221419,17.0200917330001,0
                99.8532519710001,17.0202222830001,0
                99.8495899500001,17.020868922,0
                99.848793416,17.0210095630001,0
                99.8462266550001,17.0215617870001,0
                99.843351447,17.02216767,0
                99.841818199,17.022401114,0
                99.840759297,17.022666857,0
                99.840429214,17.022768931,0
                99.8391536600001,17.023163373,0
                99.8393048670001,17.0233803240001,0
                99.839405701,17.023502916,0
                99.8396303040001,17.023687667,0
                99.8397308930001,17.0237951600001,0
                99.8397895200001,17.02385781,0
                99.839834802,17.0239164020001,0
                99.8399472390001,17.024075859,0
                99.8399994820001,17.0241805110001,0
                99.840002934,17.024190887,0
                99.840012286,17.024218999,0
                99.8400293120001,17.0242805680001,0
                99.8400279000001,17.0243557900001,0
                99.840018076,17.0244240270001,0
                99.839963416,17.0245535660001,0
                99.8398276350001,17.024752748,0
                99.839823036,17.0247611680001,0
                99.8397696110001,17.024859038,0
                99.8397605540001,17.0248918500001,0
                99.8397478940001,17.0249432700001,0
                99.839735385,17.025034987,0
                99.8397319460001,17.0250601970001,0
                99.8397240510001,17.0251247890001,0
                99.8397097100001,17.0252114480001,0
                99.8396615610001,17.02542421,0
                99.8396100740001,17.025622818,0
                99.839569952,17.025800906,0
                99.839538028,17.025982115,0
                99.8395336550001,17.0261033740001,0
                99.8395389900001,17.0261978250001,0
                99.8395529030001,17.0263819900001,0
                99.8395799300001,17.026570823,0
                99.839610125,17.026736026,0
                99.8396388610001,17.0269406030001,0
                99.8396606260001,17.0270491540001,0
                99.8396954280001,17.027146632,0
                99.83977487,17.0273447000001,0
                99.839807261,17.0274544540001,0
                99.8398525470001,17.0275748120001,0
                99.8398873360001,17.027635553,0
                99.8399634520001,17.027736658,0
                99.8401140510001,17.027868832,0
                99.840277439,17.0279920730001,0
                99.8403789810001,17.028105456,0
                99.840515381,17.0283157060001,0
                99.840756877,17.0287081540001,0
                99.840830032,17.028808719,0
                99.840966839,17.0289544720001,0
                99.8410385610001,17.0290308830001,0
                99.8410684510001,17.0290516790001,0
                99.8411116230001,17.0290768900001,0
                99.841314014,17.029161695,0
                99.8413211150001,17.029170718,0
                99.8413275790001,17.029192714,0
                99.8413276900001,17.029217606,0
                99.8414080890001,17.02986552,0
                99.841494814,17.030564441,0
                99.8415177460001,17.030689194,0
                99.8415584090001,17.030775132,0
                99.8416079040001,17.030835198,0
                99.841673944,17.030890775,0
                99.8416842660001,17.030899463,0
                99.841778434,17.030942125,0
                99.8418631050001,17.0309778430001,0
                99.8426707670001,17.030968866,0
                99.8430600940001,17.030962995,0
                99.8434737840001,17.030963408,0
                99.8443785790001,17.030959653,0
                99.8451638710001,17.030947876,0
                99.845522256,17.030948514,0
                99.8462921600001,17.030958083,0
                99.8471814760001,17.030956508,0
                99.847725649,17.030947854,0
                99.848552984,17.030938017,0
                99.8490617510001,17.030927379,0
                99.8492210420001,17.030928842,0
                99.849329051,17.0309370050001,0
                99.849340742,17.0309398530001,0
                99.8494217020001,17.0309576280001,0
                99.849513421,17.030981925,0
                99.8495605090001,17.0309920060001,0
                99.8495751200001,17.030993219,0
                99.8496184300001,17.030996825,0
                99.8496397930001,17.030994381,0
                99.8497182140001,17.030985404,0
                99.849783131,17.030988544,0
                99.8498958660001,17.030995815,0
                99.849968312,17.0309955120001,0
                99.850040746,17.0309913410001,0
                99.850196269,17.0309668100001,0
                99.8510677940001,17.030916335,0
                99.8512532330001,17.0309055930001,0
                99.852643066,17.0308739550001,0
                99.852656875,17.030873382,0
                99.8540220530001,17.0308165390001,0
                99.854240184,17.0308020150001,0
                99.8543778680001,17.0307822070001,0
                99.8544846650001,17.0307522960001,0
                99.854546746,17.030713282,0
                99.85477819,17.0304835090001,0
                99.8548766540001,17.030405064,0
                99.8549708400001,17.030356184,0
                99.8550893270001,17.0303401620001,0
                99.8553399480001,17.030306275,0
                99.8555587720001,17.0302674280001,0
                99.8555835180001,17.030263039,0
                99.8557173010001,17.0302421390001,0
                99.856023641,17.03023295,0
                99.8561586180001,17.0302504860001,0
                99.8562017520001,17.030262742,0
                99.8564362070001,17.0303701240001,0
                99.8565271640001,17.030425112,0
                99.8566525900001,17.0305174690001,0
                99.856734939,17.030578102,0
                99.85671396,17.0306589640001,0
                99.8566723810001,17.030818848,0
                99.8566239410001,17.0310009200001,0
                99.8565649120001,17.0312098260001,0
                99.8565206360001,17.0313656000001,0
                99.8565027400001,17.0314341980001,0
                99.85648331,17.0315187730001,0
                99.8564638590001,17.0315987120001,0
                99.856421701,17.031749329,0
                99.856413403,17.0318086130001,0
                99.856417938,17.03186372,0
                99.856435784,17.031901766,0
                99.856478327,17.0319536220001,0
                99.8565675250001,17.0320191930001,0
                99.8567237080001,17.0320942700001,0
                99.8568819800001,17.0321574880001,0
                99.8569715140001,17.032179265,0
                99.8570374190001,17.032187745,0
                99.8571482830001,17.0321893390001,0
                99.857253239,17.0321873510001,0
                99.8574427830001,17.032179339,0
                99.8576226970001,17.032173428,0
                99.8577463940001,17.0321718750001,0
                99.85788884,17.032170244,0
                99.8579889630001,17.0321651850001,0
                99.8580148680001,17.032164542,0
                99.8580639300001,17.0321633230001,0
                99.8582042570001,17.032166852,0
                99.858315141,17.0321741120001,0
                99.8584399920001,17.032189556,0
                99.8585793380001,17.0322126670001,0
                99.8587738890001,17.032245849,0
                99.8589185920001,17.032270483,0
                99.8590622780001,17.0323059400001,0
                99.8591989930001,17.032339366,0
                99.8594633660001,17.0324165600001,0
                99.8596499770001,17.032470893,0
                99.8597154010001,17.032490194,0
                99.8598022200001,17.0325037370001,0
                99.8598638390001,17.03251069,0
                99.8599077810001,17.0325166860001,0
                99.860022396,17.0325187770001,0
                99.8602505540001,17.0325239950001,0
                99.8604310460001,17.032527353,0
                99.860655992,17.032531552,0
                99.860870762,17.0325368260001,0
                99.861043221,17.0325402170001,0
                99.861188901,17.0325432060001,0
                99.8613431520001,17.032546675,0
                99.8615927420001,17.0325538600001,0
                99.861794122,17.0325576440001,0
                99.861904462,17.032561813,0
                99.861985862,17.032561468,0
                99.8620940650001,17.0325677060001,0
                99.8621626170001,17.032568446,0
                99.8622247550001,17.032571789,0
                99.862249401,17.032574261,0
                99.86237693,17.0325896910001,0
                99.8625065990001,17.032604597,0
                99.8626057540001,17.0326222090001,0
                99.8626683700001,17.0326355230001,0
                99.862710281,17.0326444340001,0
                99.8628040930001,17.032664644,0
                99.8628845260001,17.032686972,0
                99.86300579,17.0327374620001,0
                99.8631394060001,17.032795628,0
                99.8632300800001,17.032832338,0
                99.8632933910001,17.03285886,0
                99.8633722750001,17.0328935590001,0
                99.8633862220001,17.032898651,0
                99.86349083,17.032937363,0
                99.863508009,17.0329465630001,0
                99.863673835,17.033021594,0
                99.863843946,17.0330966020001,0
                99.8640135190001,17.0331721310001,0
                99.8641697200001,17.033250293,0
                99.864273321,17.0333029190001,0
                99.8643339710001,17.0333320280001,0
                99.864478353,17.0334019970001,0
                99.864693048,17.033507216,0
                99.864779996,17.033548577,0
                99.864819158,17.033563352,0
                99.8649210790001,17.0336000130001,0
                99.8650669950001,17.033653999,0
                99.8651211850001,17.033675922,0
                99.8652183440001,17.0337259990001,0
                99.865347748,17.0337996370001,0
                99.8654997630001,17.033898939,0
                99.8655394900001,17.0339198940001,0
                99.865579735,17.0339372390001,0
                99.8661885550001,17.0341510320001,0
                99.8666460520001,17.0343545710001,0
                99.8670516750001,17.034579883,0
                99.8673847490001,17.0347925300001,0
                99.8677257570001,17.035028493,0
                99.8678236110001,17.0350925390001,0
                99.8679423020001,17.035165191,0
                99.868118983,17.035270568,0
                99.868284922,17.0353692940001,0
                99.8684041010001,17.035432665,0
                99.8685356010001,17.0355008970001,0
                99.8686354640001,17.035559483,0
                99.868670954,17.035580301,0
                99.8689319650001,17.035834085,0
                99.8689475190001,17.0358484440001,0
                99.868986013,17.035883982,0
                99.869063043,17.035945052,0
                99.8691786810001,17.036052231,0
                99.86930506,17.036166065,0
                99.869397904,17.0362487740001,0
                99.8694196040001,17.0362681010001,0
                99.8695712560001,17.0364050110001,0
                99.8696911320001,17.036501872,0
                99.8698056200001,17.0365920580001,0
                99.8698620330001,17.0366309670001,0
                99.8698958510001,17.0366478240001,0
                99.86993555,17.0366625950001,0
                99.8699720160001,17.0366732580001,0
                99.8700969800001,17.0367123940001,0
                99.8703168490001,17.0367768840001,0
                99.8705297540001,17.0368398570001,0
                99.870760912,17.036912541,0
                99.870987256,17.0369873060001,0
                99.8712886210001,17.0371183130001,0
                99.8714041380001,17.037168529,0
                99.8714635480001,17.037186053,0
                99.8717231140001,17.037262609,0
                99.8721082580001,17.037356532,0
                99.8725586360001,17.0374674280001,0
                99.8731370620001,17.0386125900001,0
                99.8732102690001,17.0391398290001,0
                99.8733720880001,17.039700731,0
                99.8739980380001,17.0411615850001,0
                99.8743562710001,17.0421130510001,0
                99.875171681,17.043664461,0
                99.8758895300001,17.0434332150001,0
                99.8761815270001,17.0432970680001,0
                99.8762918680001,17.0432456190001,0
                99.876581103,17.043035972,0
                99.8768862740001,17.042814773,0
                99.877421573,17.042319536,0
                99.877614437,17.042245974,0
                99.877858072,17.0422530020001,0
                99.878160698,17.0423001820001,0
                99.879204497,17.042610208,0
                99.879174542,17.043094347,0
                99.879181185,17.0432681130001,0
                99.879311832,17.0437889410001,0
                99.87937788,17.044203523,0
                99.8794912580001,17.044769275,0
                99.8795383040001,17.044858775,0
                99.8795618510001,17.044909127,0
                99.8797350030001,17.045794184,0
                99.8797684240001,17.045960816,0
                99.8798881100001,17.046290808,0
                99.879993433,17.0465302050001,0
                99.8802426120001,17.047691054,0
                99.8802766060001,17.04784943,0
                99.880553702,17.0488741300001,0
                99.881565143,17.050792722,0
                99.8821563320001,17.0513339720001,0
                99.8828216590001,17.0519586090001,0
                99.8833154310001,17.052422172,0
                99.8841583760001,17.053203394,0
                99.8841877820001,17.053259328,0
                99.8841950120001,17.053283258,0
                99.8841987800001,17.053306277,0
                99.8841697980001,17.0535730140001,0
                99.8841767810001,17.05362732,0
                99.8841896280001,17.0536517630001,0
                99.884224702,17.053674039,0
                99.8843911860001,17.053762557,0
                99.884786911,17.053978795,0
                99.8849043580001,17.0540837500001,0
                99.884992696,17.0542169560001,0
                99.8850665510001,17.0543783480001,0
                99.8851130630001,17.0545586010001,0
                99.885190923,17.0548610590001,0
                99.8852920590001,17.0551285810001,0
                99.885323359,17.055186586,0
                99.885344918,17.0552152880001,0
                99.8853614980001,17.0552322090001,0
                99.885368848,17.0552414860001,0
                99.8853773490001,17.055248992,0
                99.885528832,17.055382821,0
                99.885540565,17.0553950720001,0
                99.885631845,17.05549037,0
                99.8856518360001,17.0555112340001,0
                99.8857365440001,17.0556334510001,0
                99.885762905,17.055649348,0
                99.8857745050001,17.055652208,0
                99.8857795590001,17.055652895,0
                99.88597408,17.0556647550001,0
                99.886060919,17.0556778070001,0
                99.8861709710001,17.0557118450001,0
                99.8862820850001,17.055755645,0
                99.8866392320001,17.0559744380001,0
                99.8868674980001,17.0560711260001,0
                99.8873038560001,17.056234535,0
                99.8876183510001,17.056318671,0
                99.8878549930001,17.0563631050001,0
                99.8879991460001,17.056359333,0
                99.8884983010001,17.0562948690001,0
                99.889014704,17.0562079360001,0
                99.8890762760001,17.056187338,0
                99.889120683,17.056168244,0
                99.8892648760001,17.056106245,0
                99.8893388440001,17.0560831170001,0
                99.8894780310001,17.0560654060001,0
                99.889901659,17.056043598,0
                99.8901415130001,17.0560083440001,0
                99.8901451990001,17.0560080160001,0
                99.8906341380001,17.055964358,0
                99.8908374360001,17.055919783,0
                99.8912338210001,17.055775528,0
                99.8919521750001,17.055417198,0
                99.8922594100001,17.0558451310001,0
                99.892352014,17.056004649,0
                99.8925282390001,17.056433573,0
                99.8926019670001,17.0565764830001,0
                99.892706574,17.0567138480001,0
                99.892880054,17.0568544490001,0
                99.892965647,17.056912692,0
                99.8932216460001,17.057036913,0
                99.893446225,17.0571586780001,0
                99.893462109,17.0571742590001,0
                99.893528411,17.0574399500001,0
                99.8935958630001,17.057592721,0
                99.8936546190001,17.0577258050001,0
                99.8936777590001,17.057778393,0
                99.893703337,17.0578545930001,0
                99.8938054120001,17.0591411560001,0
                99.8938236160001,17.059315462,0
                99.8938979120001,17.059757072,0
                99.893953191,17.0606460660001,0
                99.8939532000001,17.0616599690001,0
                99.894031838,17.0640299030001,0
                99.8938933330001,17.066612956,0
                99.8938935190001,17.0666284700001,0
                99.8937716980001,17.0711678600001,0
                99.893979599,17.073837466,0
                99.894182556,17.0747586860001,0
                99.8942983620001,17.0752776360001,0
                99.894390581,17.0756999130001,0
                99.8944686070001,17.076055517,0
                99.8944732520001,17.0760599430001,0
                99.8948614440001,17.0759770330001,0
                99.8949811430001,17.0759598330001,0
                99.895183278,17.075937014,0
                99.8952766100001,17.0759301210001,0
                99.8953649900001,17.075941179,0
                99.8954097820001,17.0759578020001,0
                99.8954834040001,17.076003515,0
                99.895587655,17.0760871040001,0
                99.8958035030001,17.076264473,0
                99.8959017220001,17.0763451830001,0
                99.8959069840001,17.076347979,0
                99.8959588800001,17.076380257,0
                99.8959937600001,17.076394054,0
                99.8960107070001,17.076400758,0
                99.8975148600001,17.0768953780001,0
                99.897911918,17.077026393,0
                99.898089498,17.0770849850001,0
                99.8982705490001,17.0771521180001,0
                99.8985193600001,17.0772896710001,0
                99.8985529180001,17.077308224,0
                99.898560935,17.0773142030001,0
                99.8987751330001,17.077473905,0
                99.8990123990001,17.0776730900001,0
                99.899104327,17.0777840330001,0
                99.8992163450001,17.077947545,0
                99.8993091930001,17.078081803,0
                99.8995257280001,17.0783698870001,0
                99.900213303,17.079319378,0
                99.9006056800001,17.079954849,0
                99.9010702940001,17.080698397,0
                99.9018103120001,17.0818972750001,0
                99.9019376200001,17.082093785,0
                99.9021914050001,17.0824058100001,0
                99.9025468520001,17.082938578,0
                99.9028832830001,17.083442841,0
                99.903373973,17.083923494,0
                99.9040528030001,17.084466627,0
                99.904479091,17.084733333,0
                99.905584628,17.0877442990001,0
                99.9064544080001,17.0902214160001,0
                99.9113357190001,17.0882320330001,0
                99.9143825680001,17.086915855,0
                99.9150559730001,17.0866249490001,0
                99.918145951,17.085251977,0
                99.9223743950001,17.083078626,0
                99.924083609,17.0821744790001,0
                99.925941257,17.08141901,0
                99.9261688880001,17.0813264330001,0
                99.929192463,17.079964349,0
                99.931583344,17.0788872420001,0
                99.935457156,17.0778229470001,0
                99.9373337860001,17.077334928,0
                99.9394428680001,17.076964875,0
                99.9422178300001,17.07647795,0
                99.9434311270001,17.076536371,0
                99.9440472650001,17.0767323960001,0
                99.9447393770001,17.0769525860001,0
                99.9462280650001,17.0776233,0
                99.949623188,17.0797520580001,0
              </coordinates>
                
            </LinearRing>
            
          </outerBoundaryIs>
        
        </Polygon>
        
      <styleUrl>
        #tambonStyle</styleUrl>
    </Placemark>

  </Document>
</kml>