<?xml version="1.0" encoding="UTF-8"?>
<kml xmlns="http://www.opengis.net/kml/2.2">
  <Document id="tambon_doc">
    <name>ทุ่ม, เมืองศรีสะเกษ, Si Sa Ket</name>
    <description>ข้อมูลขอบเขตตำบลทุ่ม อำเภอเมืองศรีสะเกษ จังหวัดSi Sa Ket</description>
    
    <!-- Schema สำหรับข้อมูลตำบล -->
    <Schema id="tambon.schema">
      <SimpleField name="ADM3_EN" type="string">
        <displayName>Subdistrict Name (English)</displayName>
      </SimpleField>
      <SimpleField name="ADM3_TH" type="string">
        <displayName>ชื่อตำบล</displayName>
      </SimpleField>
      <SimpleField name="ADM2_EN" type="string">
        <displayName>District Name (English)</displayName>
      </SimpleField>
      <SimpleField name="ADM2_TH" type="string">
        <displayName>ชื่ออำเภอ</displayName>
      </SimpleField>
      <SimpleField name="ADM1_EN" type="string">
        <displayName>Province Name (English)</displayName>
      </SimpleField>
      <SimpleField name="ADM1_TH" type="string">
        <displayName>ชื่อจังหวัด</displayName>
      </SimpleField>
      <SimpleField name="ADM0_EN" type="string">
        <displayName>Country Name (English)</displayName>
      </SimpleField>
      <SimpleField name="ADM0_TH" type="string">
        <displayName>ชื่อประเทศ</displayName>
      </SimpleField>
    </Schema>

    <!-- Style สำหรับตำบล -->
    <Style id="tambonStyle">
      <LineStyle>
        <color>ffff0000</color>
        <width>1.5</width>
      </LineStyle>
      <PolyStyle>
        <color>33ff0000</color>
        <fill>1</fill>
        <outline>1</outline>
      </PolyStyle>
    </Style>

    <Placemark id="Si_Sa_Ket.12">
        
        <ExtendedData>
            
          <SchemaData schemaUrl="#tambon.schema">
                
            <SimpleData name="Shape_Leng">
                0.248091336372</SimpleData>
                
            <SimpleData name="Shape_Area">
                0.00362337692311</SimpleData>
                
            <SimpleData name="ADM3_EN">
                Thum</SimpleData>
                
            <SimpleData name="ADM3_TH">
                ทุ่ม</SimpleData>
                
            <SimpleData name="ADM3_PCODE">
                TH330118</SimpleData>
                
            <SimpleData name="ADM2_EN">
                Mueang Si Sa Ket</SimpleData>
                
            <SimpleData name="ADM2_TH">
                เมืองศรีสะเกษ</SimpleData>
                
            <SimpleData name="ADM2_PCODE">
                TH3301</SimpleData>
                
            <SimpleData name="ADM1_EN">
                Si Sa Ket</SimpleData>
                
            <SimpleData name="ADM1_TH">
                ศรีสะเกษ</SimpleData>
                
            <SimpleData name="ADM1_PCODE">
                TH33</SimpleData>
                
            <SimpleData name="ADM0_EN">
                Thailand</SimpleData>
                
            <SimpleData name="ADM0_TH">
                ประเทศไทย</SimpleData>
                
            <SimpleData name="ADM0_PCODE">
                TH</SimpleData>
            
          </SchemaData>
        
        </ExtendedData>
        
        <Polygon>
            
          <outerBoundaryIs>
                
            <LinearRing>
                    
              <coordinates>
                    
                104.336494987,15.0049933440001,0
                104.33680866,15.0054665960001,0
                104.336889964,15.0055919500001,0
                104.336984207,15.0057230210001,0
                104.337086379,15.005854689,0
                104.33731225,15.0060547570001,0
                104.337564792,15.006278454,0
                104.338326588,15.0067195890001,0
                104.338746801,15.0070886500001,0
                104.338852715,15.007181669,0
                104.338951032,15.0072628340001,0
                104.339058222,15.0073867940001,0
                104.339094116,15.007439425,0
                104.339177076,15.007561068,0
                104.339263204,15.0076754040001,0
                104.339328149,15.0077750610001,0
                104.339415347,15.007932376,0
                104.339497597,15.0080999260001,0
                104.339548968,15.0081771330001,0
                104.339675149,15.008396066,0
                104.33992176,15.008637606,0
                104.34013555,15.0088619260001,0
                104.340368624,15.009117272,0
                104.340576003,15.0092697900001,0
                104.341027084,15.009546985,0
                104.341571879,15.0098714440001,0
                104.341989025,15.010086476,0
                104.342410906,15.0103058940001,0
                104.342593934,15.010409516,0
                104.342744481,15.0105094040001,0
                104.34305902,15.010780891,0
                104.353299376,15.001936158,0
                104.361024332,14.9960523010001,0
                104.361442594,14.9956839550001,0
                104.361754597,14.9954240320001,0
                104.362108573,14.995102903,0
                104.36422566,14.993687402,0
                104.364458217,14.993514336,0
                104.364840643,14.9928668640001,0
                104.365313711,14.992304716,0
                104.36578872,14.9916824150001,0
                104.366416704,14.990769696,0
                104.36710508,14.989753514,0
                104.367869723,14.9884294340001,0
                104.368593416,14.987147131,0
                104.369118516,14.9863184700001,0
                104.369700943,14.985263977,0
                104.37035403,14.983677248,0
                104.371148872,14.9818831110001,0
                104.371680653,14.980482909,0
                104.372418151,14.978914597,0
                104.372889534,14.9776178550001,0
                104.37365725,14.975579483,0
                104.374136274,14.9745886600001,0
                104.376646731,14.968650632,0
                104.375896512,14.968473509,0
                104.375103181,14.967857956,0
                104.3743326,14.9670693680001,0
                104.371351954,14.964360331,0
                104.366893242,14.959909985,0
                104.365181615,14.957943825,0
                104.364169378,14.956434928,0
                104.362098763,14.9538640870001,0
                104.36039209,14.952092828,0
                104.358985095,14.9508439960001,0
                104.355233685,14.948198985,0
                104.353186125,14.946892409,0
                104.352344441,14.94634496,0
                104.351828422,14.946027728,0
                104.351428893,14.9458541380001,0
                104.350976569,14.945828168,0
                104.35009255,14.9458489300001,0
                104.348800185,14.946098846,0
                104.347959233,14.946338159,0
                104.347484421,14.9465330150001,0
                104.347255132,14.946714726,0
                104.34688965,14.9472232570001,0
                104.345850218,14.948565086,0
                104.345343986,14.949400365,0
                104.344866294,14.949869016,0
                104.344499297,14.950063131,0
                104.344331604,14.9501032420001,0
                104.343279863,14.9501977950001,0
                104.341704268,14.9504210800001,0
                104.341059547,14.9505060760001,0
                104.340299731,14.9507800980001,0
                104.339157981,14.951109651,0
                104.337333421,14.9519210350001,0
                104.334864684,14.9528406640001,0
                104.33208194,14.953780952,0
                104.329857019,14.9547513810001,0
                104.329661,14.954862952,0
                104.327748214,14.955569473,0
                104.327499937,14.9556702680001,0
                104.32533711,14.956256851,0
                104.324914365,14.956474859,0
                104.324576228,14.9567270790001,0
                104.324536053,14.9567732080001,0
                104.324141811,14.957225867,0
                104.323845585,14.957667132,0
                104.32360932,14.957898874,0
                104.323497225,14.9579425320001,0
                104.323355706,14.957997651,0
                104.322886093,14.9580974790001,0
                104.322728494,14.9581572970001,0
                104.322654982,14.9581865100001,0
                104.322515745,14.9582264250001,0
                104.322479268,14.958228422,0
                104.322371989,14.9582263500001,0
                104.322316705,14.958233051,0
                104.32220844,14.958260019,0
                104.322079642,14.958303765,0
                104.321965098,14.9583308800001,0
                104.321751646,14.9583399410001,0
                104.321324114,14.9583527670001,0
                104.320897083,14.958353092,0
                104.320644225,14.958368658,0
                104.320401532,14.958393637,0
                104.320099286,14.958420012,0
                104.319797277,14.9584560320001,0
                104.319435716,14.9584934480001,0
                104.31909992,14.9585688760001,0
                104.318744752,14.958664072,0
                104.318374222,14.958740311,0
                104.31798832,14.9587976,0
                104.317523255,14.958866394,0
                104.317221602,14.958916887,0
                104.317064106,14.9589736680001,0
                104.31670977,14.959102633,0
                104.316074944,14.9593346930001,0
                104.315662244,14.959513295,0
                104.315223655,14.9596490490001,0
                104.314972462,14.959732156,0
                104.314825248,14.9598031800001,0
                104.314550554,14.959939934,0
                104.314129593,14.9601863090001,0
                104.313565188,14.960455343,0
                104.313299937,14.960572568,0
                104.312984824,14.9606813020001,0
                104.312481711,14.960818557,0
                104.311888558,14.96092895,0
                104.31134539,14.9610526590001,0
                104.310856092,14.9611461430001,0
                104.31049039,14.961217434,0
                104.309956193,14.961302312,0
                104.309561191,14.961393592,0
                104.309175873,14.961474996,0
                104.308652072,14.961578935,0
                104.308266518,14.961650686,0
                104.307826849,14.9617430060001,0
                104.30754019,14.9617979660001,0
                104.30694679,14.961898698,0
                104.306422866,14.961997808,0
                104.305746281,14.962148755,0
                104.305222597,14.9622575130001,0
                104.304866696,14.96232374,0
                104.304422887,14.962449943,0
                104.303866361,14.9626367070001,0
                104.30338416,14.9628169060001,0
                104.303009355,14.962922195,0
                104.302539302,14.9629910740001,0
                104.302083545,14.9630354880001,0
                104.301794388,14.96298912,0
                104.301490935,14.962967221,0
                104.301203319,14.9629835760001,0
                104.300745777,14.9629556130001,0
                104.300696132,14.963154106,0
                104.300635066,14.963293488,0
                104.300614786,14.96335881,0
                104.30060529,14.9634075540001,0
                104.300611024,14.963475725,0
                104.300633545,14.963546873,0
                104.300676026,14.963618458,0
                104.300725494,14.963705485,0
                104.300733815,14.9637348310001,0
                104.300727559,14.9637776280001,0
                104.300720001,14.9637959670001,0
                104.300689962,14.9638293960001,0
                104.300607004,14.9639217230001,0
                104.300551371,14.9640009070001,0
                104.300468441,14.9641561870001,0
                104.300398941,14.9643763290001,0
                104.300350032,14.964549796,0
                104.300334806,14.964627723,0
                104.300340531,14.964726564,0
                104.300355845,14.964868054,0
                104.300377822,14.9649595540001,0
                104.300385885,14.9650025080001,0
                104.300386764,14.9650278170001,0
                104.30038232,14.965043575,0
                104.300368565,14.965073643,0
                104.300343208,14.9651111420001,0
                104.300338014,14.9651159960001,0
                104.300263267,14.965158785,0
                104.300210264,14.9651798580001,0
                104.300115862,14.9652110160001,0
                104.300055805,14.9652308350001,0
                104.30004851,14.965234874,0
                104.300014477,14.965261523,0
                104.299996823,14.965281143,0
                104.29995646,14.9653455230001,0
                104.29995391,14.965360472,0
                104.299988179,14.9654708530001,0
                104.300033971,14.965611908,0
                104.300038772,14.9656762770001,0
                104.300033956,14.965742144,0
                104.300011738,14.9658209460001,0
                104.299997508,14.965895459,0
                104.299986996,14.965950519,0
                104.2999458,14.9661662720001,0
                104.299891658,14.9663548680001,0
                104.299847855,14.966497739,0
                104.299784724,14.9666563910001,0
                104.299748896,14.966802909,0
                104.299729121,14.9669605560001,0
                104.299714892,14.967183247,0
                104.299726456,14.9673324940001,0
                104.299733273,14.9674585270001,0
                104.299736132,14.967472872,0
                104.299780079,14.9675881090001,0
                104.299814066,14.9676869950001,0
                104.29983729,14.96775165,0
                104.2998461,14.9677912670001,0
                104.299848444,14.96782096,0
                104.299837111,14.967883854,0
                104.299815086,14.967970479,0
                104.299787657,14.968033743,0
                104.299753519,14.9680862050001,0
                104.299719033,14.9681245830001,0
                104.299679126,14.9681569360001,0
                104.299657846,14.96816833,0
                104.29959746,14.968190824,0
                104.299590996,14.9681928210001,0
                104.299520741,14.9682145300001,0
                104.299471536,14.9682438570001,0
                104.299449426,14.9682615940001,0
                104.299440635,14.9682746840001,0
                104.299435988,14.9682855520001,0
                104.299427594,14.968320755,0
                104.299427165,14.968323819,0
                104.299432602,14.968379188,0
                104.299437902,14.968391796,0
                104.299442272,14.968402188,0
                104.29952975,14.9685392590001,0
                104.299607229,14.968660664,0
                104.299629015,14.968706829,0
                104.299647096,14.9687528370001,0
                104.299657866,14.968815369,0
                104.299656456,14.968831111,0
                104.299644557,14.968871048,0
                104.299630046,14.9688922610001,0
                104.299613607,14.9689120960001,0
                104.299594704,14.9689267410001,0
                104.299558548,14.968946585,0
                104.299532869,14.9689571540001,0
                104.299474546,14.968972939,0
                104.299338755,14.969009686,0
                104.299296228,14.969029151,0
                104.299283621,14.96903811,0
                104.299237178,14.969070507,0
                104.299197377,14.969111094,0
                104.299174749,14.9691512860001,0
                104.299156545,14.969207237,0
                104.299153122,14.9692262230001,0
                104.299148791,14.9693356760001,0
                104.299155659,14.969454361,0
                104.299172395,14.9696533270001,0
                104.299180585,14.969825658,0
                104.299170865,14.9698953770001,0
                104.299153166,14.9699507760001,0
                104.299107139,14.970045892,0
                104.299079159,14.970090725,0
                104.299040981,14.97017048,0
                104.299025677,14.970213492,0
                104.299000947,14.9703691330001,0
                104.298998516,14.970384417,0
                104.29897236,14.970497585,0
                104.298897874,14.9706756740001,0
                104.298838116,14.970811247,0
                104.2987886,14.970943757,0
                104.298723762,14.9710757020001,0
                104.298586411,14.971319335,0
                104.298618014,14.971392506,0
                104.298646389,14.971433645,0
                104.298682483,14.9714708070001,0
                104.298747881,14.9715072820001,0
                104.299079278,14.971660518,0
                104.299185043,14.971709425,0
                104.299231072,14.971742536,0
                104.299243062,14.9717543850001,0
                104.299301585,14.97185474,0
                104.299404277,14.972021032,0
                104.299541969,14.9721673400001,0
                104.299657242,14.972274155,0
                104.299725543,14.9723657650001,0
                104.299751758,14.972409444,0
                104.29975333,14.972413267,0
                104.299761485,14.9724634880001,0
                104.299763957,14.972528595,0
                104.299759129,14.972570503,0
                104.29974658,14.972616396,0
                104.299728215,14.972664325,0
                104.299688943,14.972752122,0
                104.299642693,14.972855521,0
                104.299622564,14.9729130530001,0
                104.29962077,14.9729203320001,0
                104.29959679,14.973064822,0
                104.299593861,14.9731168640001,0
                104.299600895,14.97327776,0
                104.299649165,14.9734759950001,0
                104.299709257,14.973673949,0
                104.299804254,14.97384809,0
                104.299961659,14.973993938,0
                104.300166543,14.9741463460001,0
                104.300339431,14.9742803350001,0
                104.300468674,14.9744038380001,0
                104.300651805,14.9746334280001,0
                104.300862147,14.9748470490001,0
                104.301325179,14.9753921510001,0
                104.301453506,14.975638357,0
                104.301513914,14.9760088250001,0
                104.301557137,14.976322184,0
                104.301569465,14.9765020830001,0
                104.301592196,14.9766242310001,0
                104.301587525,14.976754688,0
                104.301569042,14.97728418,0
                104.301579883,14.977563791,0
                104.301659337,14.977906976,0
                104.301700576,14.978139877,0
                104.301670208,14.9783476050001,0
                104.301673895,14.978497034,0
                104.301670449,14.9791565240001,0
                104.301683213,14.979673785,0
                104.301676523,14.9800419790001,0
                104.301623857,14.9804649210001,0
                104.30152553,14.98111512,0
                104.301503168,14.9814875170001,0
                104.301510922,14.981801703,0
                104.301497203,14.982204569,0
                104.301504231,14.9826491200001,0
                104.301529008,14.983173766,0
                104.301534966,14.9838943730001,0
                104.301540415,14.98443481,0
                104.301557191,14.9847947910001,0
                104.301588342,14.985257947,0
                104.3015984,14.9858251100001,0
                104.301664335,14.986578821,0
                104.30167578,14.987042441,0
                104.301694919,14.987498212,0
                104.301714057,14.9879539830001,0
                104.301719893,14.988509741,0
                104.301692365,14.9888324200001,0
                104.301692871,14.989491812,0
                104.30165478,14.9900255950001,0
                104.301597927,14.990598151,0
                104.301547537,14.991113048,0
                104.301485448,14.991793074,0
                104.301446601,14.9922962040001,0
                104.301396495,14.992822597,0
                104.301315361,14.993529901,0
                104.301235205,14.9939573180001,0
                104.301157476,14.994323342,0
                104.301001639,14.9950400550001,0
                104.300797614,14.9955623750001,0
                104.300191849,14.9977824060001,0
                104.299564093,14.9992833580001,0
                104.298993739,15.000416783,0
                104.298592343,15.001114768,0
                104.297918784,15.002037753,0
                104.297664421,15.00260667,0
                104.297466535,15.0031742640001,0
                104.297409837,15.0037385690001,0
                104.297431529,15.0046168640001,0
                104.297594751,15.005505584,0
                104.297755515,15.006278019,0
                104.297798786,15.006419351,0
                104.298116498,15.0071823480001,0
                104.298492193,15.00809357,0
                104.298700499,15.0090910860001,0
                104.29888023,15.010075536,0
                104.299109656,15.0107842030001,0
                104.299382801,15.011546772,0
                104.299661615,15.0121997840001,0
                104.299742702,15.0123897010001,0
                104.300207548,15.0134773350001,0
                104.300389199,15.0139674160001,0
                104.300479479,15.01452785,0
                104.300541141,15.0152630640001,0
                104.306577448,15.013787951,0
                104.308134399,15.0133797550001,0
                104.310631153,15.0128056500001,0
                104.314099191,15.0118429980001,0
                104.315794673,15.011385508,0
                104.316250754,15.0112829180001,0
                104.319003574,15.010588802,0
                104.320348363,15.010335416,0
                104.321348463,15.010114092,0
                104.322268556,15.009900639,0
                104.323402064,15.0095862320001,0
                104.324596894,15.0091679780001,0
                104.32511012,15.00896706,0
                104.326152956,15.0084871990001,0
                104.327541068,15.0079933220001,0
                104.327790935,15.0079237630001,0
                104.328305381,15.0077722780001,0
                104.328917157,15.0076274960001,0
                104.329409149,15.007503517,0
                104.329721131,15.007397257,0
                104.329960464,15.007317292,0
                104.330218123,15.007212587,0
                104.33039831,15.007132465,0
                104.330680006,15.007052491,0
                104.331026664,15.0069684600001,0
                104.331306574,15.006921413,0
                104.33154772,15.00688539,0
                104.331796356,15.0068365500001,0
                104.332083942,15.006784259,0
                104.332399764,15.0067161270001,0
                104.332694586,15.006640905,0
                104.332776687,15.0065934400001,0
                104.332864961,15.0064800650001,0
                104.332941983,15.0064377780001,0
                104.333066397,15.0064171510001,0
                104.333306008,15.006424168,0
                104.333456931,15.0064231530001,0
                104.333635461,15.006381011,0
                104.33378842,15.006357182,0
                104.333885478,15.0063877870001,0
                104.334083071,15.006484329,0
                104.334238483,15.006559093,0
                104.334366752,15.0065889640001,0
                104.334468004,15.006578996,0
                104.334555309,15.0065314130001,0
                104.334631392,15.0064512050001,0
                104.334694152,15.0063586640001,0
                104.334745104,15.006314462,0
                104.334809877,15.00630282,0
                104.334881427,15.0063542620001,0
                104.334920233,15.006449474,0
                104.33494427,15.0064742050001,0
                104.334986013,15.0064782860001,0
                104.335060625,15.0064436480001,0
                104.335148496,15.006418813,0
                104.335249622,15.00640379,0
                104.335423265,15.0063744120001,0
                104.335565944,15.006355881,0
                104.335663901,15.0063181630001,0
                104.335709338,15.0062614450001,0
                104.335718297,15.006203053,0
                104.33570271,15.0060997030001,0
                104.335695182,15.006006287,0
                104.335696145,15.0059404950001,0
                104.335707643,15.005879512,0
                104.33572973,15.005825869,0
                104.33576927,15.0057414620001,0
                104.335829621,15.005656566,0
                104.335856032,15.00556741,0
                104.335897667,15.00546272,0
                104.335955793,15.005393053,0
                104.336115192,15.0052097,0
                104.336268865,15.005109964,0
                104.336494987,15.0049933440001,0
              </coordinates>
                
            </LinearRing>
            
          </outerBoundaryIs>
        
        </Polygon>
        
      <styleUrl>
        #tambonStyle</styleUrl>
    </Placemark>

  </Document>
</kml>