<?xml version="1.0" encoding="UTF-8"?>
<kml xmlns="http://www.opengis.net/kml/2.2">
  <Document id="tambon_doc">
    <name>บ้านใหม่, สามพราน, Nakhon Pathom</name>
    <description>ข้อมูลขอบเขตตำบลบ้านใหม่ อำเภอสามพราน จังหวัดNakhon Pathom</description>
    
    <!-- Schema สำหรับข้อมูลตำบล -->
    <Schema id="tambon.schema">
      <SimpleField name="ADM3_EN" type="string">
        <displayName>Subdistrict Name (English)</displayName>
      </SimpleField>
      <SimpleField name="ADM3_TH" type="string">
        <displayName>ชื่อตำบล</displayName>
      </SimpleField>
      <SimpleField name="ADM2_EN" type="string">
        <displayName>District Name (English)</displayName>
      </SimpleField>
      <SimpleField name="ADM2_TH" type="string">
        <displayName>ชื่ออำเภอ</displayName>
      </SimpleField>
      <SimpleField name="ADM1_EN" type="string">
        <displayName>Province Name (English)</displayName>
      </SimpleField>
      <SimpleField name="ADM1_TH" type="string">
        <displayName>ชื่อจังหวัด</displayName>
      </SimpleField>
      <SimpleField name="ADM0_EN" type="string">
        <displayName>Country Name (English)</displayName>
      </SimpleField>
      <SimpleField name="ADM0_TH" type="string">
        <displayName>ชื่อประเทศ</displayName>
      </SimpleField>
    </Schema>

    <!-- Style สำหรับตำบล -->
    <Style id="tambonStyle">
      <LineStyle>
        <color>ffff0000</color>
        <width>1.5</width>
      </LineStyle>
      <PolyStyle>
        <color>33ff0000</color>
        <fill>1</fill>
        <outline>1</outline>
      </PolyStyle>
    </Style>

    <Placemark id="Nakhon_Pathom.102">
        
        <ExtendedData>
            
          <SchemaData schemaUrl="#tambon.schema">
                
            <SimpleData name="Shape_Leng">
                0.142632733129</SimpleData>
                
            <SimpleData name="Shape_Area">
                0.000766219341069</SimpleData>
                
            <SimpleData name="ADM3_EN">
                Ban Mai</SimpleData>
                
            <SimpleData name="ADM3_TH">
                บ้านใหม่</SimpleData>
                
            <SimpleData name="ADM3_PCODE">
                TH730615</SimpleData>
                
            <SimpleData name="ADM2_EN">
                Sam Phran</SimpleData>
                
            <SimpleData name="ADM2_TH">
                สามพราน</SimpleData>
                
            <SimpleData name="ADM2_PCODE">
                TH7306</SimpleData>
                
            <SimpleData name="ADM1_EN">
                Nakhon Pathom</SimpleData>
                
            <SimpleData name="ADM1_TH">
                นครปฐม</SimpleData>
                
            <SimpleData name="ADM1_PCODE">
                TH73</SimpleData>
                
            <SimpleData name="ADM0_EN">
                Thailand</SimpleData>
                
            <SimpleData name="ADM0_TH">
                ประเทศไทย</SimpleData>
                
            <SimpleData name="ADM0_PCODE">
                TH</SimpleData>
            
          </SchemaData>
        
        </ExtendedData>
        
        <Polygon>
            
          <outerBoundaryIs>
                
            <LinearRing>
                    
              <coordinates>
                    
                100.250179127,13.7056465000001,0
                100.250648364,13.7049605610001,0
                100.251486201,13.7037079680001,0
                100.251711158,13.7034933940001,0
                100.252138089,13.7031405970001,0
                100.251469854,13.702204565,0
                100.251357774,13.7020090880001,0
                100.25134519,13.7019502050001,0
                100.25132368,13.7015965420001,0
                100.251312594,13.7015459240001,0
                100.251100671,13.7010526830001,0
                100.251610935,13.7007909000001,0
                100.25118668,13.6994846850001,0
                100.250872933,13.699616173,0
                100.250451138,13.6980843420001,0
                100.250291403,13.697526523,0
                100.249750047,13.696947589,0
                100.249811961,13.696923687,0
                100.250743469,13.6964573330001,0
                100.252266626,13.695775686,0
                100.252300877,13.695735079,0
                100.252297141,13.695681183,0
                100.251298992,13.694226004,0
                100.251545152,13.694109487,0
                100.252928293,13.6934018650001,0
                100.253349372,13.6931410170001,0
                100.253380267,13.693097831,0
                100.253392239,13.6930684770001,0
                100.253455435,13.692988959,0
                100.253774208,13.692620117,0
                100.253929052,13.692402384,0
                100.254263838,13.691896682,0
                100.254384232,13.6917107470001,0
                100.254536683,13.691479465,0
                100.254715631,13.6912085050001,0
                100.254829573,13.691023467,0
                100.255124505,13.690343394,0
                100.255214942,13.690215939,0
                100.255338074,13.6900390380001,0
                100.255559086,13.6896777800001,0
                100.255770547,13.689063807,0
                100.255795821,13.688990426,0
                100.25601739,13.688661584,0
                100.256245596,13.6886709500001,0
                100.256309744,13.6886670050001,0
                100.256451507,13.6886445230001,0
                100.256749285,13.688544134,0
                100.257040358,13.6883883780001,0
                100.257488625,13.688111909,0
                100.257535805,13.688073311,0
                100.258745439,13.6868926880001,0
                100.258884377,13.686721311,0
                100.259852933,13.6852589060001,0
                100.26016024,13.6846820850001,0
                100.260310095,13.6844008260001,0
                100.260347164,13.684271397,0
                100.260504795,13.6837211070001,0
                100.260530718,13.682997057,0
                100.260469828,13.682474655,0
                100.260341144,13.6819340590001,0
                100.260275146,13.6817751300001,0
                100.259866401,13.6810295940001,0
                100.259025746,13.680000814,0
                100.258945608,13.6799163270001,0
                100.258653245,13.6796687990001,0
                100.258577971,13.679619415,0
                100.258489345,13.679607268,0
                100.258387257,13.6796564040001,0
                100.257461759,13.680101861,0
                100.256210974,13.6806856380001,0
                100.256079944,13.680725281,0
                100.256051516,13.680731155,0
                100.256049142,13.680731581,0
                100.255854154,13.680737602,0
                100.255805466,13.6807333290001,0
                100.255749172,13.6807213070001,0
                100.255704731,13.6807058530001,0
                100.25559349,13.6806516190001,0
                100.255534498,13.680614486,0
                100.255464212,13.680543508,0
                100.255402193,13.6804685000001,0
                100.255339534,13.68036103,0
                100.255325104,13.6803318550001,0
                100.254763003,13.679029853,0
                100.254756983,13.6790203320001,0
                100.254699724,13.678929849,0
                100.254659963,13.678889342,0
                100.254614028,13.678861093,0
                100.254562956,13.6788460810001,0
                100.25451507,13.6788412390001,0
                100.254490072,13.678840225,0
                100.254440697,13.678835867,0
                100.254422551,13.678834264,0
                100.253744847,13.67884775,0
                100.253189232,13.6788767030001,0
                100.252290513,13.678946233,0
                100.252184456,13.67894526,0
                100.252090564,13.6789326310001,0
                100.251739187,13.678782948,0
                100.251321643,13.678575134,0
                100.246644082,13.67616882,0
                100.243702353,13.6746517600001,0
                100.243665973,13.67464066,0
                100.24364395,13.674639906,0
                100.243628278,13.674643991,0
                100.243620497,13.6746491170001,0
                100.242094991,13.677538392,0
                100.241838279,13.6780081430001,0
                100.240839276,13.6798361800001,0
                100.240833141,13.6798424260001,0
                100.240791282,13.6798658380001,0
                100.240787698,13.679867841,0
                100.240774021,13.67986791,0
                100.240748949,13.679868035,0
                100.240738715,13.6798656780001,0
                100.240711108,13.6798593090001,0
                100.239803353,13.679413663,0
                100.23930456,13.679168786,0
                100.237876699,13.6784254350001,0
                100.237276506,13.6780624670001,0
                100.23543084,13.67710164,0
                100.233429079,13.676001317,0
                100.230396954,13.6744210750001,0
                100.228771609,13.673559046,0
                100.227244703,13.672759689,0
                100.227173876,13.6727288390001,0
                100.227155694,13.6727378470001,0
                100.226923074,13.675233039,0
                100.226817638,13.6759863950001,0
                100.226818452,13.6759885440001,0
                100.22681414,13.6760290880001,0
                100.226808309,13.676083738,0
                100.22680567,13.676149385,0
                100.226818092,13.676191107,0
                100.226842171,13.6762328,0
                100.226888446,13.6762871830001,0
                100.226914989,13.6763183750001,0
                100.22692166,13.6763301990001,0
                100.226922724,13.676335244,0
                100.226921939,13.676361689,0
                100.226742753,13.676875706,0
                100.22674058,13.6768919790001,0
                100.226750918,13.6769264120001,0
                100.226955778,13.6772630350001,0
                100.226959991,13.6772831070001,0
                100.226953338,13.6773007090001,0
                100.226940303,13.677308296,0
                100.22649616,13.6774682770001,0
                100.226443738,13.6774993930001,0
                100.226413462,13.6775233170001,0
                100.226408724,13.67752862,0
                100.225562669,13.678848121,0
                100.225565688,13.678874901,0
                100.22557617,13.678885365,0
                100.226116031,13.679220948,0
                100.226125492,13.6792467500001,0
                100.2261211,13.6792671040001,0
                100.225886775,13.6797550850001,0
                100.225723005,13.6800716720001,0
                100.225624854,13.680276387,0
                100.22562114,13.680280829,0
                100.225619711,13.680282144,0
                100.225594717,13.680292068,0
                100.225564748,13.6802898670001,0
                100.224952095,13.680075001,0
                100.22492593,13.6800712360001,0
                100.224895277,13.6800836240001,0
                100.224892336,13.680085634,0
                100.224880395,13.68010056,0
                100.224304206,13.6811263750001,0
                100.224190331,13.681373668,0
                100.224172438,13.681410784,0
                100.224234541,13.6814185120001,0
                100.224316144,13.6814516380001,0
                100.225633536,13.68220991,0
                100.227934016,13.683515938,0
                100.228569045,13.683857904,0
                100.228523181,13.683876132,0
                100.227944662,13.684125431,0
                100.227908982,13.6841552540001,0
                100.227887086,13.684185008,0
                100.227887338,13.684233528,0
                100.227901368,13.6842819730001,0
                100.228056906,13.684507598,0
                100.228057143,13.6845534180001,0
                100.22803817,13.6846155050001,0
                100.227944885,13.6846995120001,0
                100.227302796,13.6852633030001,0
                100.226564714,13.6859192090001,0
                100.226525474,13.6859649410001,0
                100.226525705,13.686009498,0
                100.226594638,13.686050509,0
                100.227298301,13.6864691210001,0
                100.227376124,13.6865355750001,0
                100.227431343,13.6866378,0
                100.227210429,13.687980226,0
                100.227291934,13.6891104600001,0
                100.227348663,13.689359398,0
                100.227484068,13.6899536170001,0
                100.227607414,13.690494888,0
                100.228099231,13.6926530280001,0
                100.228167031,13.692950555,0
                100.228626199,13.694444376,0
                100.228776152,13.6947682470001,0
                100.229077659,13.6957221660001,0
                100.229207936,13.697404466,0
                100.229380862,13.698276761,0
                100.229390135,13.698328716,0
                100.230177255,13.7002801940001,0
                100.23029433,13.700623233,0
                100.230462552,13.7010782030001,0
                100.230481077,13.701192059,0
                100.230454749,13.70130176,0
                100.230402042,13.701450853,0
                100.230391423,13.7014716620001,0
                100.230371936,13.7015098090001,0
                100.230334372,13.701553097,0
                100.230251298,13.701629,0
                100.230240174,13.701634212,0
                100.230180705,13.701662061,0
                100.230096871,13.701701315,0
                100.228993727,13.7020535820001,0
                100.228961682,13.70209369,0
                100.228984904,13.702552036,0
                100.229001647,13.702882377,0
                100.229195559,13.7047494820001,0
                100.229296258,13.7052300550001,0
                100.229638349,13.7063634830001,0
                100.230499828,13.707915611,0
                100.231663881,13.707297979,0
                100.234742071,13.70543158,0
                100.237591116,13.7029933220001,0
                100.23910698,13.701378952,0
                100.239873091,13.7021728820001,0
                100.240499533,13.702779117,0
                100.241074091,13.7031928490001,0
                100.24170631,13.703687126,0
                100.242006523,13.7039343440001,0
                100.24334178,13.7050842030001,0
                100.244069634,13.705621519,0
                100.24458033,13.706055771,0
                100.245186782,13.706411815,0
                100.245863077,13.706818804,0
                100.246615557,13.707317862,0
                100.247412638,13.707885687,0
                100.247778817,13.708289053,0
                100.248519902,13.7075114090001,0
                100.249909969,13.706039957,0
                100.250179127,13.7056465000001,0
              </coordinates>
                
            </LinearRing>
            
          </outerBoundaryIs>
        
        </Polygon>
        
      <styleUrl>
        #tambonStyle</styleUrl>
    </Placemark>

  </Document>
</kml>