<?xml version="1.0" encoding="UTF-8"?>
<kml xmlns="http://www.opengis.net/kml/2.2">
  <Document id="tambon_doc">
    <name>ลำเพียก, ครบุรี, Nakhon Ratchasima</name>
    <description>ข้อมูลขอบเขตตำบลลำเพียก อำเภอครบุรี จังหวัดNakhon Ratchasima</description>
    
    <!-- Schema สำหรับข้อมูลตำบล -->
    <Schema id="tambon.schema">
      <SimpleField name="ADM3_EN" type="string">
        <displayName>Subdistrict Name (English)</displayName>
      </SimpleField>
      <SimpleField name="ADM3_TH" type="string">
        <displayName>ชื่อตำบล</displayName>
      </SimpleField>
      <SimpleField name="ADM2_EN" type="string">
        <displayName>District Name (English)</displayName>
      </SimpleField>
      <SimpleField name="ADM2_TH" type="string">
        <displayName>ชื่ออำเภอ</displayName>
      </SimpleField>
      <SimpleField name="ADM1_EN" type="string">
        <displayName>Province Name (English)</displayName>
      </SimpleField>
      <SimpleField name="ADM1_TH" type="string">
        <displayName>ชื่อจังหวัด</displayName>
      </SimpleField>
      <SimpleField name="ADM0_EN" type="string">
        <displayName>Country Name (English)</displayName>
      </SimpleField>
      <SimpleField name="ADM0_TH" type="string">
        <displayName>ชื่อประเทศ</displayName>
      </SimpleField>
    </Schema>

    <!-- Style สำหรับตำบล -->
    <Style id="tambonStyle">
      <LineStyle>
        <color>ffff0000</color>
        <width>1.5</width>
      </LineStyle>
      <PolyStyle>
        <color>33ff0000</color>
        <fill>1</fill>
        <outline>1</outline>
      </PolyStyle>
    </Style>

    <Placemark id="Nakhon_Ratchasima.34">
        
        <ExtendedData>
            
          <SchemaData schemaUrl="#tambon.schema">
                
            <SimpleData name="Shape_Leng">
                1.00981583705</SimpleData>
                
            <SimpleData name="Shape_Area">
                0.0342830557069</SimpleData>
                
            <SimpleData name="ADM3_EN">
                Lamphiak</SimpleData>
                
            <SimpleData name="ADM3_TH">
                ลำเพียก</SimpleData>
                
            <SimpleData name="ADM3_PCODE">
                TH300209</SimpleData>
                
            <SimpleData name="ADM2_EN">
                Khon Buri</SimpleData>
                
            <SimpleData name="ADM2_TH">
                ครบุรี</SimpleData>
                
            <SimpleData name="ADM2_PCODE">
                TH3002</SimpleData>
                
            <SimpleData name="ADM1_EN">
                Nakhon Ratchasima</SimpleData>
                
            <SimpleData name="ADM1_TH">
                นครราชสีมา</SimpleData>
                
            <SimpleData name="ADM1_PCODE">
                TH30</SimpleData>
                
            <SimpleData name="ADM0_EN">
                Thailand</SimpleData>
                
            <SimpleData name="ADM0_TH">
                ประเทศไทย</SimpleData>
                
            <SimpleData name="ADM0_PCODE">
                TH</SimpleData>
            
          </SchemaData>
        
        </ExtendedData>
        
        <Polygon>
            
          <outerBoundaryIs>
                
            <LinearRing>
                    
              <coordinates>
                    
                102.378738848,14.422370302,0
                102.379178274,14.417658762,0
                102.378626256,14.416271346,0
                102.377882779,14.4144365710001,0
                102.377679596,14.413978125,0
                102.377665676,14.4138207880001,0
                102.37768623,14.4128865270001,0
                102.377922931,14.4086746670001,0
                102.37804111,14.4065574850001,0
                102.378396247,14.4048420070001,0
                102.378822152,14.403226788,0
                102.379061259,14.4014870250001,0
                102.37911347,14.401107133,0
                102.379259975,14.400103556,0
                102.379376594,14.3994154800001,0
                102.379371509,14.399077972,0
                102.379355903,14.3988081360001,0
                102.379191278,14.397842767,0
                102.379112881,14.3972362490001,0
                102.378882909,14.3965306270001,0
                102.378772424,14.3960933590001,0
                102.378655333,14.3952173270001,0
                102.378579252,14.394530966,0
                102.378508382,14.3938916220001,0
                102.378469355,14.393599614,0
                102.378193563,14.3929171500001,0
                102.378022834,14.39231195,0
                102.377850751,14.3916167470001,0
                102.377280465,14.390157963,0
                102.376865299,14.3885021400001,0
                102.376360364,14.3854417810001,0
                102.37620858,14.384042117,0
                102.376065613,14.383228548,0
                102.375564806,14.3812221590001,0
                102.375118591,14.3793679090001,0
                102.374302203,14.3772385730001,0
                102.373385096,14.3753655470001,0
                102.372369403,14.3740638040001,0
                102.371739579,14.374077105,0
                102.371433541,14.374081468,0
                102.370673411,14.3740834170001,0
                102.369777815,14.374062237,0
                102.369110893,14.374032949,0
                102.368325051,14.374034453,0
                102.367347162,14.3740440600001,0
                102.367226008,14.374045256,0
                102.366191243,14.374030894,0
                102.365684023,14.374038114,0
                102.365654921,14.3727585070001,0
                102.365580549,14.3701170910001,0
                102.365523829,14.36732512,0
                102.365471939,14.3651876440001,0
                102.365378178,14.3629101490001,0
                102.36528891,14.3609332020001,0
                102.365138473,14.3581910520001,0
                102.364978072,14.355114487,0
                102.364921063,14.3542339420001,0
                102.364952085,14.3541385930001,0
                102.365120642,14.354017556,0
                102.365476112,14.353917586,0
                102.365558777,14.3539164110001,0
                102.365695111,14.353914474,0
                102.365913756,14.353887641,0
                102.366107241,14.353805799,0
                102.366276507,14.353732209,0
                102.366381837,14.353722804,0
                102.366609537,14.3537591080001,0
                102.366877434,14.353771124,0
                102.367079857,14.353744512,0
                102.367232556,14.3536474320001,0
                102.367450362,14.353565244,0
                102.367717556,14.353529811,0
                102.367927735,14.353479362,0
                102.368355254,14.3533150980001,0
                102.368701191,14.3531203530001,0
                102.369293354,14.3525740960001,0
                102.369531237,14.352206896,0
                102.369785346,14.351839447,0
                102.370009729,14.351654347,0
                102.370217774,14.3514615620001,0
                102.370416278,14.3511740050001,0
                102.370615984,14.350965522,0
                102.371017499,14.350690892,0
                102.371266693,14.35053707,0
                102.371522211,14.350264517,0
                102.371843572,14.3500543100001,0
                102.37213438,14.34997107,0
                102.372295648,14.3499055080001,0
                102.372391672,14.349817133,0
                102.372526241,14.3495937590001,0
                102.372781647,14.3493132990001,0
                102.372964755,14.349081326,0
                102.373084644,14.348960978,0
                102.373325833,14.3488151770001,0
                102.373631673,14.348652639,0
                102.373792347,14.348547535,0
                102.373952082,14.34837916,0
                102.374101802,14.3480843880001,0
                102.374522312,14.347453569,0
                102.374797657,14.3468801830001,0
                102.37501729,14.3463787750001,0
                102.375137829,14.346225938,0
                102.375686023,14.3455308710001,0
                102.376443976,14.3446817020001,0
                102.37731511,14.343807177,0
                102.378224305,14.342766026,0
                102.379051785,14.341686489,0
                102.379883027,14.3397764320001,0
                102.379973235,14.3395539370001,0
                102.379985054,14.339429194,0
                102.379983853,14.339349133,0
                102.37995112,14.339296217,0
                102.379845118,14.3392265470001,0
                102.379739392,14.3391746630001,0
                102.37965171,14.3391091830001,0
                102.379599991,14.339007591,0
                102.37954344,14.3388882850001,0
                102.379492997,14.338871204,0
                102.379442946,14.3388808120001,0
                102.379386166,14.339050683,0
                102.379338793,14.339238219,0
                102.37928451,14.3392701330001,0
                102.379238891,14.3392707830001,0
                102.379197761,14.339266917,0
                102.379165496,14.3392451330001,0
                102.379137054,14.339174357,0
                102.379126664,14.339089974,0
                102.379124863,14.3389698780001,0
                102.379091189,14.3388546890001,0
                102.379049935,14.3388419290001,0
                102.378931313,14.33884362,0
                102.378904056,14.338850683,0
                102.378822231,14.338871871,0
                102.378735951,14.3388997970001,0
                102.37869932,14.338891414,0
                102.378653426,14.3388742770001,0
                102.378511069,14.33881402,0
                102.378470006,14.338814605,0
                102.378438675,14.338855096,0
                102.378402645,14.338886748,0
                102.378352461,14.338887464,0
                102.378274911,14.3388885690001,0
                102.37820245,14.338925193,0
                102.378152733,14.33895705,0
                102.378120659,14.3389486020001,0
                102.378092559,14.338900063,0
                102.378077939,14.3388379940001,0
                102.378075271,14.3386600750001,0
                102.378060782,14.3386068900001,0
                102.378005833,14.3385943260001,0
                102.377964713,14.3385904680001,0
                102.377941369,14.3385552010001,0
                102.377954048,14.33848829,0
                102.378033994,14.338037811,0
                102.378030059,14.33777538,0
                102.377982906,14.3376737300001,0
                102.377851172,14.3374086690001,0
                102.377822062,14.337293414,0
                102.377820729,14.3372044500001,0
                102.377846704,14.337110663,0
                102.377954385,14.3369890070001,0
                102.378155618,14.336714747,0
                102.378230501,14.336535724,0
                102.378225211,14.3364868680001,0
                102.378165705,14.336474369,0
                102.378115521,14.336475084,0
                102.378042461,14.3364716730001,0
                102.378000866,14.3364366750001,0
                102.377981888,14.336388006,0
                102.378003831,14.3363298580001,0
                102.378057305,14.3362445650001,0
                102.37811032,14.33612814,0
                102.378131862,14.3360433030001,0
                102.378130795,14.3359721360001,0
                102.378120398,14.3358877530001,0
                102.378119531,14.335829931,0
                102.378118864,14.335785453,0
                102.378150538,14.3357672020001,0
                102.378188311,14.335763834,0
                102.378209776,14.335761915,0
                102.378250905,14.3357657710001,0
                102.378291424,14.3357296030001,0
                102.378313643,14.3356892520001,0
                102.378285134,14.3356140230001,0
                102.378201352,14.3355039910001,0
                102.378122927,14.335447274,0
                102.378067846,14.33542049,0
                102.377989629,14.3353824430001,0
                102.377883829,14.335326116,0
                102.377814535,14.335269268,0
                102.377694591,14.335181995,0
                102.37762972,14.3351161890001,0
                102.377546006,14.3350106070001,0
                102.377418696,14.3347365860001,0
                102.377376568,14.3346660030001,0
                102.377375168,14.334572597,0
                102.377487423,14.3344508750001,0
                102.377541038,14.334374477,0
                102.377559562,14.3342553520001,0
                102.377561847,14.33424072,0
                102.377568236,14.33405822,0
                102.37756557,14.333880301,0
                102.377553982,14.3337158570001,0
                102.377487378,14.3335343970001,0
                102.377408288,14.333433202,0
                102.377240927,14.3332264810001,0
                102.37705638,14.333091197,0
                102.37684975,14.3330051660001,0
                102.376827291,14.3329950740001,0
                102.376744094,14.332957731,0
                102.376716129,14.3329180870001,0
                102.37669681,14.3328471790001,0
                102.37669926,14.3327747270001,0
                102.376699976,14.332753708,0
                102.376751517,14.332539425,0
                102.376891837,14.3321592610001,0
                102.376890504,14.332070306,0
                102.376884806,14.3319947520001,0
                102.376815447,14.3319334620001,0
                102.376034142,14.331255003,0
                102.375720002,14.330996988,0
                102.375419729,14.3307816120001,0
                102.375032735,14.3305040380001,0
                102.374967941,14.3304426820001,0
                102.374764487,14.330259332,0
                102.374724759,14.330190725,0
                102.374722783,14.330058711,0
                102.374720806,14.329926689,0
                102.374693885,14.3298516140001,0
                102.374523231,14.3296528270001,0
                102.374078765,14.3292567130001,0
                102.37386877,14.329014466,0
                102.373737646,14.3288717090001,0
                102.37369727,14.328759099,0
                102.373694448,14.3285705050001,0
                102.373659191,14.3283697840001,0
                102.373605453,14.328225924,0
                102.373497865,14.327931914,0
                102.373381481,14.327480834,0
                102.373312679,14.327192558,0
                102.373304053,14.3271574680001,0
                102.373223404,14.326829123,0
                102.37308217,14.326441274,0
                102.372824127,14.3260047790001,0
                102.372116212,14.324996637,0
                102.371525186,14.3238805230001,0
                102.370708178,14.3226419750001,0
                102.3691266,14.3206179160001,0
                102.367622697,14.3185630450001,0
                102.36742186,14.318288619,0
                102.367365522,14.318182635,0
                102.36734754,14.3180810260001,0
                102.367191123,14.317197446,0
                102.367137558,14.3169713080001,0
                102.36708889,14.3167673450001,0
                102.367087961,14.3167050700001,0
                102.367100984,14.316660397,0
                102.367100055,14.3165981230001,0
                102.367094436,14.316527019,0
                102.367021957,14.3162566620001,0
                102.366796322,14.315201007,0
                102.366726229,14.314783805,0
                102.366735018,14.314761436,0
                102.366775736,14.314738607,0
                102.367308067,14.3146376280001,0
                102.36738971,14.3146053310001,0
                102.367448348,14.3145600030001,0
                102.367460574,14.314461959,0
                102.367503837,14.3136916760001,0
                102.367524286,14.3129217160001,0
                102.367520396,14.3128318880001,0
                102.367501808,14.3124017280001,0
                102.367526,14.3122081650001,0
                102.367744081,14.311700811,0
                102.368651935,14.310572731,0
                102.370087446,14.308930963,0
                102.372038946,14.3065383910001,0
                102.37239155,14.3062068090001,0
                102.374438546,14.30428182,0
                102.376891879,14.302910298,0
                102.377575241,14.302505119,0
                102.378239792,14.3019262080001,0
                102.378694202,14.3013977420001,0
                102.37930595,14.3005427570001,0
                102.379439656,14.300264042,0
                102.379491926,14.299962742,0
                102.379453817,14.299583646,0
                102.379392484,14.2993256010001,0
                102.379274928,14.2990447650001,0
                102.379244418,14.2990062920001,0
                102.379210739,14.2989638,0
                102.379151915,14.298960537,0
                102.379004994,14.298962627,0
                102.378815791,14.2989448550001,0
                102.378668198,14.298901911,0
                102.378532716,14.298826051,0
                102.378451679,14.2987412270001,0
                102.378344105,14.2985667030001,0
                102.378292323,14.2984732730001,0
                102.378227765,14.298367743,0
                102.378186579,14.298296599,0
                102.378176054,14.2982784020001,0
                102.37809507,14.2981976680001,0
                102.378002116,14.298158055,0
                102.377897174,14.2981595470001,0
                102.377842728,14.2981685020001,0
                102.377613698,14.2982945860001,0
                102.377372129,14.298424939,0
                102.377351676,14.298430802,0
                102.377296878,14.2984464800001,0
                102.377183538,14.2984480910001,0
                102.377120083,14.298416241,0
                102.377060464,14.298359765,0
                102.377046894,14.2982944520001,0
                102.377045426,14.2981962150001,0
                102.377045978,14.2981412550001,0
                102.377047112,14.298028329,0
                102.377043869,14.2978113790001,0
                102.377029381,14.2976846660001,0
                102.376956499,14.297583344,0
                102.376841385,14.2974662510001,0
                102.376730964,14.297381843,0
                102.376629849,14.2973587180001,0
                102.376546148,14.2973762780001,0
                102.376475643,14.297434604,0
                102.376342599,14.297522471,0
                102.376272428,14.297547052,0
                102.376196422,14.297573673,0
                102.376108213,14.297570835,0
                102.376045002,14.2975553520001,0
                102.375982617,14.2975097500001,0
                102.375951611,14.297487083,0
                102.375835528,14.2973044890001,0
                102.375585766,14.2968863350001,0
                102.37531575,14.2965176010001,0
                102.37527345,14.2964505360001,0
                102.375208249,14.296347166,0
                102.375206688,14.296339447,0
                102.37519011,14.296257355,0
                102.375189254,14.296200044,0
                102.375188093,14.296122274,0
                102.375161138,14.2960039270001,0
                102.375129918,14.2958815420001,0
                102.37506525,14.295767821,0
                102.374949833,14.2956302600001,0
                102.374624929,14.2953714330001,0
                102.374601414,14.2953527060001,0
                102.374183323,14.2951039640001,0
                102.374097313,14.2950527990001,0
                102.373928622,14.29500197,0
                102.373794233,14.294999778,0
                102.373723369,14.2950335360001,0
                102.373675875,14.295089665,0
                102.373653229,14.2951164180001,0
                102.37349313,14.2953602480001,0
                102.373366671,14.295607702,0
                102.373312775,14.2956535010001,0
                102.373245616,14.295654454,0
                102.373203029,14.295614115,0
                102.373181307,14.2955652900001,0
                102.373170283,14.295389394,0
                102.373125468,14.295359137,0
                102.37311091,14.295349302,0
                102.373018681,14.2953587920001,0
                102.372910278,14.295409464,0
                102.372752112,14.295501777,0
                102.37261013,14.2955529330001,0
                102.372450925,14.2955756550001,0
                102.372254069,14.29560711,0
                102.372128138,14.295608897,0
                102.372002208,14.2956106840001,0
                102.371871045,14.2955429400001,0
                102.371802908,14.295478401,0
                102.371751313,14.295397247,0
                102.371750092,14.2953153870001,0
                102.37182345,14.2951669460001,0
                102.3718639,14.2950640230001,0
                102.371875636,14.295006533,0
                102.371866628,14.294965717,0
                102.371807256,14.2949256260001,0
                102.371731639,14.2949225990001,0
                102.371618613,14.294944673,0
                102.371455755,14.295004299,0
                102.37134723,14.2950467810001,0
                102.371125976,14.295131805,0
                102.37102542,14.295145513,0
                102.370966659,14.2951463470001,0
                102.370894746,14.2951105230001,0
                102.370856354,14.2950701240001,0
                102.370829523,14.2949599570001,0
                102.370849995,14.294361908,0
                102.370848408,14.294255482,0
                102.370822362,14.2941985370001,0
                102.370754592,14.294158554,0
                102.370624346,14.294152211,0
                102.370464776,14.294150383,0
                102.370409964,14.2941347880001,0
                102.370342256,14.294098896,0
                102.370312321,14.294062468,0
                102.370306967,14.293984757,0
                102.370301003,14.293866112,0
                102.370294969,14.293743368,0
                102.370277085,14.2936699250001,0
                102.370225552,14.29359286,0
                102.370124509,14.2935738300001,0
                102.370002651,14.293567368,0
                102.369847406,14.2935736590001,0
                102.369684191,14.293608727,0
                102.369575849,14.2936634870001,0
                102.369438365,14.2937350400001,0
                102.369028652,14.293851396,0
                102.368956986,14.2938319410001,0
                102.368923039,14.2938078510001,0
                102.368867496,14.293743132,0
                102.368808054,14.293698932,0
                102.368752693,14.2936464920001,0
                102.36864313,14.293619391,0
                102.36859696,14.2936200460001,0
                102.368487946,14.293629782,0
                102.36846182,14.2936323650001,0
                102.368391523,14.293639329,0
                102.368257388,14.293653512,0
                102.368039413,14.293677071,0
                102.367875466,14.293663023,0
                102.367719479,14.293620199,0
                102.367529252,14.293532816,0
                102.367368401,14.2934450180001,0
                102.36724521,14.293348505,0
                102.367138196,14.293210819,0
                102.367105312,14.2931439010001,0
                102.367060261,14.2930522410001,0
                102.366999722,14.292934368,0
                102.36693567,14.292861579,0
                102.366833886,14.292793424,0
                102.366715927,14.2927664320001,0
                102.366602353,14.2927516680001,0
                102.366468157,14.2927617510001,0
                102.36632586,14.292792428,0
                102.366191665,14.2928025190001,0
                102.366069755,14.2927919640001,0
                102.36581631,14.2926890950001,0
                102.365397945,14.292506691,0
                102.365021139,14.292295027,0
                102.364856086,14.2922072870001,0
                102.364772324,14.292220753,0
                102.364638789,14.292275868,0
                102.364387854,14.2923408350001,0
                102.364300406,14.292350792,0
                102.364182478,14.292364213,0
                102.363993035,14.29233005,0
                102.363912272,14.2922843330001,0
                102.363823676,14.292234179,0
                102.363581789,14.292061555,0
                102.363012046,14.2912731230001,0
                102.362064983,14.2899625200001,0
                102.361484925,14.2890079590001,0
                102.361331752,14.288423064,0
                102.361175439,14.2876268840001,0
                102.361089437,14.2867005570001,0
                102.361045646,14.2853744340001,0
                102.3610249,14.284768034,0
                102.360947583,14.283876515,0
                102.36082165,14.2831743360001,0
                102.360766263,14.2828654320001,0
                102.360504208,14.282017669,0
                102.359695168,14.2807316240001,0
                102.358080104,14.27844156,0
                102.357962939,14.278257363,0
                102.356864841,14.276839598,0
                102.356337233,14.2760304500001,0
                102.355997679,14.2753100910001,0
                102.355604044,14.273997895,0
                102.355534357,14.2735388950001,0
                102.355450215,14.272984695,0
                102.355453009,14.2728224590001,0
                102.355505763,14.2726654430001,0
                102.35568407,14.2723391870001,0
                102.355757986,14.2722401240001,0
                102.356021937,14.271775979,0
                102.356195347,14.271371979,0
                102.356312591,14.2710294980001,0
                102.356423081,14.270417443,0
                102.356468483,14.2701639900001,0
                102.356507524,14.2699460860001,0
                102.356782374,14.2694234140001,0
                102.357049148,14.2689170690001,0
                102.357358679,14.2684911800001,0
                102.35783995,14.267876426,0
                102.358058789,14.2675004560001,0
                102.358217178,14.266971315,0
                102.358285029,14.2665450690001,0
                102.358325943,14.266001212,0
                102.358333033,14.2659069170001,0
                102.358350956,14.265178115,0
                102.358419304,14.2630055130001,0
                102.358496355,14.2619046070001,0
                102.358572148,14.2612030080001,0
                102.358694657,14.260745937,0
                102.358722314,14.260678612,0
                102.358992753,14.260020194,0
                102.359411984,14.2592296870001,0
                102.360083013,14.2581640290001,0
                102.36055579,14.2574132080001,0
                102.361504953,14.256033788,0
                102.36214197,14.2549743660001,0
                102.363018169,14.253469431,0
                102.363730804,14.2522954460001,0
                102.364076636,14.251948231,0
                102.364353703,14.2516978300001,0
                102.364687114,14.2514603440001,0
                102.365008122,14.2513325670001,0
                102.365455861,14.251230402,0
                102.366183304,14.2510558000001,0
                102.367118042,14.250659189,0
                102.367814769,14.250307014,0
                102.368678505,14.2498566250001,0
                102.369471036,14.2493387710001,0
                102.369998508,14.2489342160001,0
                102.371150066,14.248014175,0
                102.372685464,14.2464725090001,0
                102.373469219,14.24536597,0
                102.374368696,14.2435457400001,0
                102.374985672,14.242021822,0
                102.37503221,14.24190686,0
                102.375176624,14.241233848,0
                102.37529846,14.2409308690001,0
                102.375546823,14.2406398000001,0
                102.375917631,14.2400868280001,0
                102.376151551,14.23976857,0
                102.376231487,14.2394798770001,0
                102.37622721,14.239192383,0
                102.376166992,14.238919374,0
                102.376021349,14.238565414,0
                102.37592166,14.2383987060001,0
                102.375859769,14.238269603,0
                102.375821588,14.2381661540001,0
                102.37577959,14.2380302720001,0
                102.375737358,14.237878144,0
                102.375718279,14.237715946,0
                102.375703365,14.237608923,0
                102.375719053,14.2375437170001,0
                102.375744397,14.237455617,0
                102.375765827,14.237328588,0
                102.375721896,14.237062754,0
                102.375689457,14.2368974830001,0
                102.375655134,14.236829738,0
                102.375607877,14.2367881600001,0
                102.375497386,14.236750737,0
                102.375397033,14.236722905,0
                102.375320334,14.236717492,0
                102.375219886,14.236683172,0
                102.375135986,14.236642111,0
                102.375061703,14.236574923,0
                102.375007545,14.2365172020001,0
                102.374912066,14.23636908,0
                102.374860315,14.236249575,0
                102.374735297,14.236131115,0
                102.374251103,14.235829267,0
                102.373823911,14.235552612,0
                102.37355326,14.235273734,0
                102.373230957,14.234835101,0
                102.372911405,14.234400211,0
                102.372449987,14.233638421,0
                102.371854201,14.2329998340001,0
                102.371474402,14.2325488290001,0
                102.370185186,14.231076612,0
                102.369598989,14.230476557,0
                102.369361325,14.2302332740001,0
                102.367936388,14.228791846,0
                102.36735752,14.2280952290001,0
                102.367120356,14.2276768670001,0
                102.367004439,14.227447424,0
                102.36688268,14.2272238460001,0
                102.366708661,14.2270703300001,0
                102.366224619,14.2267767540001,0
                102.365757822,14.226448276,0
                102.365207538,14.226080542,0
                102.364822015,14.225641152,0
                102.364658554,14.225400827,0
                102.36453868,14.2253043100001,0
                102.364396158,14.2252774360001,0
                102.364254141,14.2252852120001,0
                102.364041926,14.2253517520001,0
                102.363941271,14.2253531700001,0
                102.363846032,14.2253198450001,0
                102.363509924,14.2250184120001,0
                102.363190908,14.224670512,0
                102.363189882,14.2246012030001,0
                102.36325321,14.2244789970001,0
                102.363310116,14.2243222230001,0
                102.363308406,14.2242067080001,0
                102.363223627,14.2240808130001,0
                102.362851963,14.223754082,0
                102.362725613,14.2236430020001,0
                102.362377159,14.223307074,0
                102.362286984,14.2232159210001,0
                102.362213882,14.223078302,0
                102.362193211,14.2228821800001,0
                102.362220677,14.222737372,0
                102.362500373,14.221637812,0
                102.363042781,14.218839571,0
                102.363720537,14.215982491,0
                102.36441345,14.2141503030001,0
                102.365302941,14.2111383700001,0
                102.3664273,14.208218039,0
                102.366775031,14.20673243,0
                102.366874635,14.205573024,0
                102.367052406,14.2031216410001,0
                102.367090834,14.2017732620001,0
                102.36706014,14.2010143530001,0
                102.366819468,14.1992143050001,0
                102.36633019,14.1963926330001,0
                102.365386926,14.19233239,0
                102.36527678,14.191938221,0
                102.364670459,14.189774648,0
                102.364153202,14.187627133,0
                102.363758246,14.1861422530001,0
                102.363473391,14.184776856,0
                102.363424963,14.184132092,0
                102.363372885,14.1832405970001,0
                102.36336168,14.1824814,0
                102.363384905,14.181417993,0
                102.363509029,14.18059995,0
                102.363961407,14.1798911340001,0
                102.364193655,14.179527251,0
                102.364606766,14.1785153120001,0
                102.364808699,14.177696176,0
                102.364936189,14.1771058950001,0
                102.36510174,14.1764581250001,0
                102.365076966,14.1760977820001,0
                102.36489656,14.175739627,0
                102.364316473,14.1746657140001,0
                102.363661668,14.173801656,0
                102.359960483,14.1673875330001,0
                102.359266644,14.1658547860001,0
                102.358803863,14.1645598220001,0
                102.358698202,14.1639375080001,0
                102.358653709,14.1633731960001,0
                102.358738933,14.1626069750001,0
                102.358850866,14.1620169220001,0
                102.35909391,14.16131911,0
                102.359696418,14.1596393740001,0
                102.360181267,14.158161378,0
                102.360579961,14.156566889,0
                102.360855059,14.155523841,0
                102.360922683,14.155267435,0
                102.361173201,14.1534396230001,0
                102.361224085,14.151979479,0
                102.361167587,14.149779355,0
                102.361158791,14.1497182910001,0
                102.36095266,14.148287624,0
                102.360517911,14.1466106500001,0
                102.35989673,14.144697234,0
                102.359869124,14.144612207,0
                102.359729696,14.144318964,0
                102.359717991,14.144302667,0
                102.359157825,14.143522505,0
                102.358908605,14.1432906100001,0
                102.356958371,14.1414758810001,0
                102.356848749,14.14135199,0
                102.356738069,14.141092789,0
                102.356687922,14.140711046,0
                102.356641588,14.139981596,0
                102.356676158,14.139303156,0
                102.356843414,14.1385620250001,0
                102.357198055,14.1376754930001,0
                102.357392473,14.1371894860001,0
                102.357444813,14.1370586400001,0
                102.357830478,14.136027628,0
                102.358013874,14.1351732800001,0
                102.358037809,14.134900277,0
                102.358052016,14.1347381620001,0
                102.358000221,14.134243451,0
                102.357915748,14.1339450190001,0
                102.357831133,14.1336460960001,0
                102.357544626,14.132937382,0
                102.357161958,14.132351687,0
                102.356620019,14.131837763,0
                102.355838937,14.1314140910001,0
                102.355396229,14.131230967,0
                102.355005578,14.1310693670001,0
                102.354328397,14.130888423,0
                102.35392365,14.1307802700001,0
                102.3531899,14.13054715,0
                102.352677366,14.1302153240001,0
                102.352225512,14.1297696570001,0
                102.351563106,14.128621035,0
                102.351549256,14.1285970180001,0
                102.351201147,14.1280204280001,0
                102.35099245,14.127674757,0
                102.350675449,14.1273141360001,0
                102.350458688,14.1271085490001,0
                102.350234165,14.1269813000001,0
                102.349696715,14.1267715000001,0
                102.349408462,14.12654954,0
                102.349126317,14.126136262,0
                102.348842638,14.1256187130001,0
                102.34861571,14.1253263510001,0
                102.348381004,14.1251123280001,0
                102.348202681,14.125006985,0
                102.348165391,14.1249849600001,0
                102.348058841,14.124939268,0
                102.347775303,14.124817695,0
                102.347753111,14.1248081750001,0
                102.34730637,14.124710097,0
                102.34691381,14.124663415,0
                102.34638844,14.124670731,0
                102.345899203,14.124712307,0
                102.344743896,14.124884851,0
                102.343760626,14.1251229810001,0
                102.343563536,14.125170715,0
                102.342918558,14.1253505020001,0
                102.342250733,14.125536654,0
                102.341159659,14.1258386600001,0
                102.340414587,14.126048929,0
                102.33987255,14.1261346950001,0
                102.339355445,14.1260984150001,0
                102.338871547,14.125896536,0
                102.33845687,14.1255546300001,0
                102.337440486,14.1240285320001,0
                102.335577214,14.1211354590001,0
                102.335246851,14.120810482,0
                102.334954721,14.120626219,0
                102.334664305,14.120559627,0
                102.334266746,14.1205886830001,0
                102.333809752,14.1206774140001,0
                102.332898667,14.121054911,0
                102.33239635,14.1213443560001,0
                102.331465605,14.1220281510001,0
                102.330836121,14.1226959900001,0
                102.330507571,14.1233243560001,0
                102.330410033,14.1236494680001,0
                102.33028675,14.1240603970001,0
                102.330286716,14.124060521,0
                102.330035967,14.124896289,0
                102.329871167,14.1253101400001,0
                102.32969439,14.1256373910001,0
                102.32945793,14.1259315500001,0
                102.32908835,14.126240884,0
                102.328930468,14.1264082180001,0
                102.328835932,14.1266442130001,0
                102.328786802,14.1269404230001,0
                102.328705975,14.1275065130001,0
                102.328629621,14.127768335,0
                102.32846359,14.1279879250001,0
                102.328225307,14.1281389960001,0
                102.32819966,14.128148502,0
                102.327781518,14.1282623710001,0
                102.326812345,14.1283584770001,0
                102.325956347,14.12839752,0
                102.324882711,14.128362989,0
                102.324294489,14.128292086,0
                102.323857381,14.1281696990001,0
                102.32338934,14.128008214,0
                102.322837443,14.1276502850001,0
                102.322160795,14.1270668510001,0
                102.321514232,14.126463232,0
                102.321185884,14.1261614920001,0
                102.320797958,14.125939617,0
                102.320197045,14.125691042,0
                102.319019612,14.125359351,0
                102.318698018,14.1252938220001,0
                102.318226301,14.1251580680001,0
                102.31792452,14.125012057,0
                102.31774443,14.124880175,0
                102.317604366,14.124716123,0
                102.317522663,14.124527555,0
                102.317388877,14.124218758,0
                102.317386503,14.12421328,0
                102.317286809,14.1240407610001,0
                102.317147672,14.1239399300001,0
                102.316943496,14.123878984,0
                102.316919904,14.123871939,0
                102.316914854,14.123870686,0
                102.316497236,14.1237671210001,0
                102.316074682,14.1236702,0
                102.315781005,14.123524074,0
                102.315420135,14.123212897,0
                102.315099415,14.1228774480001,0
                102.314889419,14.1227021730001,0
                102.314628332,14.122563558,0
                102.314144579,14.12230671,0
                102.313289068,14.121952938,0
                102.312474605,14.1216381240001,0
                102.310979997,14.121194357,0
                102.308964325,14.1204218280001,0
                102.3087161,14.120342092,0
                102.308374415,14.1202323430001,0
                102.308128959,14.120219762,0
                102.307790995,14.1202024410001,0
                102.307766539,14.12020119,0
                102.307250755,14.12023793,0
                102.306940076,14.120318286,0
                102.306887665,14.1203318440001,0
                102.306576316,14.120504091,0
                102.305945069,14.120957376,0
                102.305153148,14.12150179,0
                102.304845759,14.1216900540001,0
                102.304758659,14.1217433940001,0
                102.30441055,14.121956605,0
                102.303435005,14.122404735,0
                102.302267568,14.122885151,0
                102.301870259,14.1230130340001,0
                102.301209469,14.123225731,0
                102.300846503,14.12332952,0
                102.300665451,14.123411042,0
                102.300576483,14.1235604680001,0
                102.300567012,14.123725644,0
                102.300649367,14.124418957,0
                102.300771813,14.125382437,0
                102.300800684,14.1257116100001,0
                102.300805267,14.126029348,0
                102.300749215,14.1263243670001,0
                102.300657836,14.1266787340001,0
                102.300378105,14.127353488,0
                102.299530376,14.128707326,0
                102.299530305,14.12870745,0
                102.299280084,14.1291407860001,0
                102.298983107,14.129609239,0
                102.298663331,14.1299001560001,0
                102.298282246,14.1301523880001,0
                102.29756653,14.130605383,0
                102.296822958,14.130898078,0
                102.296161925,14.1310601600001,0
                102.295646288,14.1312673370001,0
                102.294675281,14.1316808450001,0
                102.29384898,14.1320923660001,0
                102.292869472,14.1327531700001,0
                102.291627708,14.1336294320001,0
                102.290512253,14.1344152230001,0
                102.290512208,14.134415259,0
                102.290097077,14.1347502560001,0
                102.289524497,14.1350643860001,0
                102.289030483,14.1352094750001,0
                102.288565126,14.135235607,0
                102.28787509,14.135126492,0
                102.287232961,14.134828994,0
                102.286568469,14.1343836020001,0
                102.286025584,14.1339464110001,0
                102.285521069,14.1333605040001,0
                102.28535501,14.133068398,0
                102.285225769,14.132841053,0
                102.285064039,14.132556568,0
                102.284710236,14.131889551,0
                102.284432387,14.1315771870001,0
                102.284044188,14.131335483,0
                102.283515695,14.1311945090001,0
                102.28291762,14.1311433970001,0
                102.282269045,14.131196469,0
                102.282047938,14.1312145680001,0
                102.281946111,14.131225763,0
                102.281330235,14.131293526,0
                102.280107681,14.1314683140001,0
                102.279652453,14.131494289,0
                102.279124809,14.131412572,0
                102.278656905,14.1312608760001,0
                102.278206707,14.130931086,0
                102.277746675,14.13045092,0
                102.277590014,14.130287401,0
                102.277346234,14.1300492500001,0
                102.277240904,14.1299463450001,0
                102.276893483,14.1297238400001,0
                102.276455812,14.1295618410001,0
                102.274778108,14.129061054,0
                102.273660687,14.1287996350001,0
                102.273047852,14.128700388,0
                102.272871307,14.128690837,0
                102.272687138,14.128693346,0
                102.272510077,14.128695758,0
                102.272485571,14.128698049,0
                102.272113726,14.1287327740001,0
                102.271912413,14.1288145620001,0
                102.271768564,14.128950896,0
                102.271695148,14.1291267770001,0
                102.271689128,14.1294133920001,0
                102.271766615,14.129876713,0
                102.271832582,14.130241385,0
                102.271869168,14.1306756290001,0
                102.271876091,14.13115967,0
                102.271913384,14.131643298,0
                102.272013976,14.131969584,0
                102.272226991,14.1322684690001,0
                102.272336222,14.132421724,0
                102.27267825,14.1327231,0
                102.272875404,14.133014679,0
                102.272963356,14.133260663,0
                102.273002735,14.133483766,0
                102.273042618,14.1337421740001,0
                102.273046997,14.134048152,0
                102.272806215,14.13492245,0
                102.272773573,14.135170085,0
                102.272775762,14.135323069,0
                102.272839092,14.1355340750001,0
                102.273012129,14.135825982,0
                102.273234249,14.136176074,0
                102.273298024,14.1364263020001,0
                102.273241241,14.136703724,0
                102.273153532,14.1369420410001,0
                102.272815857,14.137401144,0
                102.272488591,14.1378798640001,0
                102.272212079,14.138367777,0
                102.271977894,14.1389835530001,0
                102.271877771,14.1392536930001,0
                102.271812438,14.1394299840001,0
                102.271617203,14.1399567400001,0
                102.271291538,14.1412555100001,0
                102.270936072,14.142594205,0
                102.27066747,14.1436353080001,0
                102.270476453,14.144438215,0
                102.270208698,14.145586683,0
                102.270150925,14.1457604280001,0
                102.270012102,14.1461778940001,0
                102.269788354,14.146557597,0
                102.269467449,14.146891548,0
                102.269048384,14.147109126,0
                102.268604516,14.1472799580001,0
                102.268207719,14.1473677600001,0
                102.267786128,14.1474088140001,0
                102.267255487,14.1474160400001,0
                102.266651811,14.147377175,0
                102.266337577,14.147334377,0
                102.266083308,14.147267211,0
                102.265824597,14.147204136,0
                102.265339351,14.1469854490001,0
                102.265124684,14.146868279,0
                102.26406251,14.146124303,0
                102.263919243,14.146040424,0
                102.263513985,14.1458458540001,0
                102.262872827,14.1456174410001,0
                102.262415701,14.1455125040001,0
                102.261859035,14.1454060450001,0
                102.261243973,14.1454144040001,0
                102.261124873,14.145440314,0
                102.260666781,14.145539958,0
                102.2601266,14.145723854,0
                102.259646215,14.145871632,0
                102.259345553,14.145934563,0
                102.259128474,14.1459375110001,0
                102.258886761,14.145905488,0
                102.25866834,14.1458142860001,0
                102.258388283,14.1456297600001,0
                102.258106699,14.1453393040001,0
                102.257041676,14.1444596310001,0
                102.256268993,14.1439389670001,0
                102.255943596,14.1437700330001,0
                102.255170318,14.143328492,0
                102.254910902,14.1431792930001,0
                102.254427627,14.142901345,0
                102.254065615,14.1426882800001,0
                102.253738401,14.1424957,0
                102.253279376,14.142257381,0
                102.252752756,14.14207185,0
                102.252491687,14.142009558,0
                102.25192982,14.14187551,0
                102.251746061,14.1418303410001,0
                102.251358286,14.1417350400001,0
                102.250999224,14.141584285,0
                102.250677394,14.1413811530001,0
                102.250664188,14.141370054,0
                102.250408395,14.1411550670001,0
                102.25033408,14.1410791070001,0
                102.250107866,14.1408479,0
                102.249928306,14.140672873,0
                102.249410983,14.140336905,0
                102.248986885,14.1402013900001,0
                102.248466974,14.1401142560001,0
                102.248069003,14.14011964,0
                102.247599164,14.140161311,0
                102.246985454,14.140263781,0
                102.246384129,14.140389617,0
                102.245580626,14.140718296,0
                102.244035419,14.141480745,0
                102.242798082,14.142139839,0
                102.241848463,14.1426491670001,0
                102.24155477,14.142823575,0
                102.241337113,14.1430043610001,0
                102.241226058,14.1432059470001,0
                102.241215063,14.1432462500001,0
                102.241161094,14.1434439610001,0
                102.241083773,14.1438822270001,0
                102.240965969,14.144143183,0
                102.240771505,14.1443533,0
                102.240387426,14.1445808010001,0
                102.2400022,14.1447267990001,0
                102.239517215,14.1448000410001,0
                102.238894731,14.1448158490001,0
                102.238294172,14.1447720790001,0
                102.237511403,14.144730775,0
                102.237063749,14.144759042,0
                102.236685163,14.1448382500001,0
                102.236322507,14.1449691240001,0
                102.236043887,14.145135908,0
                102.235727087,14.1452883920001,0
                102.235416425,14.1453370470001,0
                102.235081928,14.1453119120001,0
                102.234594632,14.14522214,0
                102.234206673,14.145175495,0
                102.233661072,14.1451996710001,0
                102.232618245,14.145307308,0
                102.232076538,14.145385232,0
                102.23164236,14.145391079,0
                102.231340019,14.145336292,0
                102.230976052,14.1451881730001,0
                102.230500877,14.144853208,0
                102.230001573,14.144518566,0
                102.229868301,14.144461608,0
                102.229601093,14.144347393,0
                102.228024758,14.14408044,0
                102.227538205,14.1440425170001,0
                102.227098136,14.1440706720001,0
                102.226689181,14.144150272,0
                102.226386627,14.1442358580001,0
                102.226053308,14.144392759,0
                102.225949066,14.1444418190001,0
                102.225685205,14.144578758,0
                102.225359561,14.1446424230001,0
                102.224828482,14.1446792040001,0
                102.224395904,14.1446998380001,0
                102.223918505,14.1447729380001,0
                102.223572506,14.1448413900001,0
                102.223572469,14.1448413900001,0
                102.223395964,14.144876298,0
                102.22281352,14.1450397410001,0
                102.221935992,14.145281256,0
                102.221496449,14.145346438,0
                102.22120751,14.145320671,0
                102.220932914,14.1452354310001,0
                102.220604124,14.1450768060001,0
                102.21983099,14.144642542,0
                102.219479748,14.1445064540001,0
                102.21914452,14.144429432,0
                102.218673559,14.144420934,0
                102.218180752,14.1444794070001,0
                102.217696073,14.1445748400001,0
                102.217622097,14.1445955040001,0
                102.217166555,14.144722739,0
                102.216623526,14.1449893870001,0
                102.216186899,14.145262025,0
                102.215806038,14.1455331660001,0
                102.215580533,14.1457951530001,0
                102.215333877,14.1462693020001,0
                102.215213739,14.146614668,0
                102.214931992,14.147083009,0
                102.214840082,14.147182302,0
                102.214661659,14.1473612560001,0
                102.214423427,14.1475763280001,0
                102.214041298,14.1478521830001,0
                102.213599682,14.1481876930001,0
                102.213314197,14.148474025,0
                102.213041765,14.148830812,0
                102.212631421,14.149570597,0
                102.212505926,14.149742899,0
                102.2119709,14.150580061,0
                102.211403046,14.1517273640001,0
                102.211328428,14.1518781140001,0
                102.210887113,14.1528992880001,0
                102.210601605,14.153658996,0
                102.210538382,14.1539094890001,0
                102.210472113,14.154172067,0
                102.210425107,14.1546099290001,0
                102.210415231,14.1549880060001,0
                102.210475466,14.15549112,0
                102.210621311,14.1561413060001,0
                102.210773498,14.15670248,0
                102.210956686,14.157307707,0
                102.211063041,14.1575745960001,0
                102.2111535,14.1578015860001,0
                102.211303188,14.1581849400001,0
                102.211467553,14.158531037,0
                102.211631493,14.1588475030001,0
                102.211879275,14.159185076,0
                102.212105828,14.1595161070001,0
                102.212150659,14.1595816120001,0
                102.212268837,14.1598838680001,0
                102.212325222,14.160112839,0
                102.212345261,14.160269199,0
                102.212359351,14.1603791700001,0
                102.212342934,14.160831445,0
                102.212335044,14.161350294,0
                102.212335559,14.161353488,0
                102.212376659,14.1616091080001,0
                102.212470698,14.161815344,0
                102.212726604,14.162189857,0
                102.212729728,14.162194824,0
                102.212990717,14.1626087280001,0
                102.213252742,14.1630504550001,0
                102.213278567,14.1630939770001,0
                102.213404851,14.163433174,0
                102.213431633,14.163566438,0
                102.213470194,14.163758366,0
                102.213498397,14.164143338,0
                102.213474489,14.1646031280001,0
                102.213437516,14.164821826,0
                102.213708227,14.1664832500001,0
                102.213730511,14.1666172710001,0
                102.213895566,14.167610068,0
                102.213868588,14.168440726,0
                102.213865671,14.168530661,0
                102.213706007,14.169369341,0
                102.21325282,14.170672063,0
                102.212588851,14.172228562,0
                102.21202159,14.1736322850001,0
                102.211926052,14.1738687070001,0
                102.211464588,14.1745859500001,0
                102.210613848,14.1750574500001,0
                102.209462496,14.175491154,0
                102.208039989,14.175651143,0
                102.208352072,14.1777870240001,0
                102.208426658,14.1785492930001,0
                102.208420125,14.1792191800001,0
                102.20833377,14.179890146,0
                102.208024617,14.180610813,0
                102.207182152,14.182008442,0
                102.206851109,14.182308833,0
                102.206093021,14.182895328,0
                102.205859564,14.1831872860001,0
                102.205073206,14.1841707080001,0
                102.204541434,14.184956659,0
                102.203722758,14.1857776210001,0
                102.203107659,14.186315462,0
                102.202384756,14.1871351400001,0
                102.201741445,14.187938162,0
                102.20129187,14.1888943660001,0
                102.201078243,14.1895981810001,0
                102.200883619,14.190854974,0
                102.200814761,14.1912995860001,0
                102.200682911,14.1921425090001,0
                102.200324078,14.1927392260001,0
                102.199109352,14.1949206680001,0
                102.197952569,14.1966807430001,0
                102.19736345,14.1979347710001,0
                102.197074141,14.198935566,0
                102.197038943,14.2009766150001,0
                102.197130788,14.2018321210001,0
                102.197280153,14.202235124,0
                102.198018659,14.203658327,0
                102.198447076,14.204602779,0
                102.198625437,14.204948861,0
                102.199005186,14.2056857050001,0
                102.199038325,14.205743812,0
                102.199254454,14.206122851,0
                102.199348971,14.2062886030001,0
                102.199690347,14.206720186,0
                102.199869443,14.206866941,0
                102.200045722,14.207011387,0
                102.200560745,14.2073004600001,0
                102.201171772,14.207603808,0
                102.202387695,14.2080283810001,0
                102.202503599,14.208068853,0
                102.202938574,14.2083434100001,0
                102.203567539,14.2087867130001,0
                102.204340844,14.209274803,0
                102.205021221,14.2099666350001,0
                102.206381321,14.2113035730001,0
                102.207075264,14.2118238780001,0
                102.207574107,14.2120975670001,0
                102.208337517,14.212601133,0
                102.208476691,14.2126929350001,0
                102.209394799,14.2132569550001,0
                102.21047695,14.2141302840001,0
                102.211975287,14.2150759080001,0
                102.212672113,14.215798641,0
                102.213126375,14.216306564,0
                102.213625243,14.2165802380001,0
                102.214092624,14.216885485,0
                102.215163034,14.2180549080001,0
                102.215797555,14.2188875050001,0
                102.216387489,14.2199543570001,0
                102.216858408,14.22050877,0
                102.217265471,14.221064051,0
                102.217692032,14.221642893,0
                102.217867859,14.221881491,0
                102.218632104,14.222852528,0
                102.219038348,14.223205143,0
                102.219391952,14.2235120780001,0
                102.219907907,14.223863379,0
                102.221428275,14.225229197,0
                102.222885243,14.2266270000001,0
                102.223692123,14.227223591,0
                102.224335598,14.227557586,0
                102.224960223,14.22768933,0
                102.225902625,14.2277077590001,0
                102.22666762,14.2276039540001,0
                102.22878901,14.2274350910001,0
                102.229666644,14.2273920590001,0
                102.230433858,14.2274439920001,0
                102.231188212,14.227714153,0
                102.232201107,14.228198892,0
                102.233165663,14.228653121,0
                102.234052399,14.2292485890001,0
                102.234653314,14.2299569620001,0
                102.23563075,14.2313144400001,0
                102.23563738,14.231318494,0
                102.23617846,14.231649686,0
                102.236871183,14.232076438,0
                102.236967624,14.2321372750001,0
                102.237499604,14.2324728990001,0
                102.237822911,14.2327488810001,0
                102.238226936,14.233086079,0
                102.23846997,14.2333320060001,0
                102.238647368,14.2334542150001,0
                102.238984416,14.2335742490001,0
                102.239591107,14.233566013,0
                102.239863406,14.233624621,0
                102.24007429,14.233855401,0
                102.240302691,14.2341949790001,0
                102.240575889,14.234315877,0
                102.241186574,14.2345879590001,0
                102.241430066,14.2348650270001,0
                102.241966037,14.235496373,0
                102.242209523,14.2357734400001,0
                102.242582296,14.236157776,0
                102.242610168,14.236191547,0
                102.242874795,14.2365120600001,0
                102.24305597,14.236899001,0
                102.243077948,14.2373192650001,0
                102.243066428,14.2376309480001,0
                102.24297643,14.238037154,0
                102.243112386,14.2386116280001,0
                102.243277824,14.239014362,0
                102.243621783,14.239617159,0
                102.244408632,14.241039476,0
                102.244820244,14.241906144,0
                102.245241885,14.2434736110001,0
                102.245588163,14.2453536200001,0
                102.24564676,14.246100481,0
                102.245606211,14.246615051,0
                102.245390264,14.2471475790001,0
                102.245112226,14.2478055670001,0
                102.244678536,14.248746049,0
                102.243957667,14.2497060110001,0
                102.243443639,14.2501964190001,0
                102.243105634,14.2503887390001,0
                102.242972931,14.2504315360001,0
                102.242490782,14.250564555,0
                102.242471864,14.2505697760001,0
                102.241978652,14.2506290530001,0
                102.241215997,14.250691994,0
                102.240183158,14.2507060350001,0
                102.239477929,14.250701653,0
                102.239215018,14.2506904480001,0
                102.239068163,14.250667799,0
                102.238931052,14.250620382,0
                102.23833727,14.250291783,0
                102.238279125,14.250259596,0
                102.238242626,14.2502320780001,0
                102.237579345,14.2497319080001,0
                102.237283095,14.249509217,0
                102.237094556,14.24939843,0
                102.236997865,14.249350453,0
                102.236886299,14.2493224030001,0
                102.236693903,14.2492954420001,0
                102.236586964,14.2492944950001,0
                102.236254246,14.249291552,0
                102.235966214,14.249290533,0
                102.235864964,14.249277121,0
                102.235742739,14.249209783,0
                102.235553849,14.2490743540001,0
                102.235413005,14.248935601,0
                102.235287354,14.2488118250001,0
                102.235220838,14.248753589,0
                102.23516491,14.2487297120001,0
                102.235028433,14.2487266260001,0
                102.234336293,14.2487313710001,0
                102.234295842,14.248731637,0
                102.234094115,14.248759018,0
                102.233978269,14.2487852350001,0
                102.233812541,14.248856479,0
                102.233702239,14.2489171140001,0
                102.23355636,14.248963454,0
                102.233440172,14.248965029,0
                102.233369236,14.248951205,0
                102.233287844,14.248912886,0
                102.233119451,14.2487300290001,0
                102.232933704,14.248528336,0
                102.232831681,14.2484607220001,0
                102.232694651,14.2484182210001,0
                102.23255292,14.2484004350001,0
                102.232214295,14.24839516,0
                102.231835468,14.2484052240001,0
                102.231674089,14.2484271280001,0
                102.231512851,14.248458886,0
                102.231343858,14.2485181210001,0
                102.231191075,14.248571676,0
                102.230910342,14.2487282610001,0
                102.230774706,14.248784309,0
                102.230482464,14.248842488,0
                102.230195203,14.2488956610001,0
                102.229791263,14.248915921,0
                102.229705801,14.2489466530001,0
                102.229369067,14.249074421,0
                102.229193091,14.2491359530001,0
                102.228976275,14.249168454,0
                102.228663058,14.2491726970001,0
                102.228355455,14.2492162940001,0
                102.228133865,14.249268585,0
                102.227897478,14.249345711,0
                102.227695958,14.249387863,0
                102.227524262,14.2493951170001,0
                102.22735782,14.2494170860001,0
                102.227221771,14.249443564,0
                102.226985866,14.249555195,0
                102.226404608,14.2498981890001,0
                102.226205049,14.250078316,0
                102.226066182,14.2502625590001,0
                102.22594192,14.250407164,0
                102.225827053,14.25050236,0
                102.225626311,14.250598719,0
                102.225249651,14.250761525,0
                102.224939366,14.2509727240001,0
                102.224829901,14.251092483,0
                102.22467013,14.2512277180001,0
                102.224544877,14.2513033390001,0
                102.224409107,14.2513495270001,0
                102.224303013,14.251350963,0
                102.224040518,14.251369309,0
                102.223894293,14.2513909940001,0
                102.223778794,14.251441846,0
                102.223604074,14.251592062,0
                102.222976692,14.252246182,0
                102.22281754,14.252425761,0
                102.222692435,14.252511237,0
                102.222577005,14.252567008,0
                102.222451409,14.252617996,0
                102.222174875,14.2527153770001,0
                102.221848725,14.2528774960001,0
                102.221658915,14.2530328440001,0
                102.221410723,14.2533467000001,0
                102.221324813,14.253435181,0
                102.221251759,14.2534943900001,0
                102.221144395,14.253540194,0
                102.22091796,14.253607023,0
                102.220620316,14.253663712,0
                102.220487027,14.2536849210001,0
                102.220467633,14.2536911080001,0
                102.220269155,14.253754402,0
                102.220136339,14.253808873,0
                102.219955408,14.2538778540001,0
                102.219808767,14.2539602250001,0
                102.219676738,14.254070131,0
                102.219486255,14.254266769,0
                102.219249616,14.2546165050001,0
                102.21910981,14.2547791810001,0
                102.218983662,14.254902868,0
                102.218854588,14.2550210470001,0
                102.218807063,14.255077134,0
                102.218784991,14.2551245610001,0
                102.218756092,14.2554908980001,0
                102.218746885,14.2556434970001,0
                102.218720475,14.255785243,0
                102.218581844,14.2562306830001,0
                102.218515768,14.25638106,0
                102.218481504,14.25648161,0
                102.218483234,14.2566034380001,0
                102.218524973,14.257029335,0
                102.218545966,14.257250981,0
                102.218565245,14.2573041630001,0
                102.218657417,14.257558444,0
                102.218744452,14.257718276,0
                102.218785486,14.2577978470001,0
                102.21882245,14.257869537,0
                102.218905346,14.2580511780001,0
                102.218948453,14.2582594840001,0
                102.219054329,14.2584886870001,0
                102.219303511,14.2587551190001,0
                102.21954042,14.2591000530001,0
                102.21972665,14.2593325240001,0
                102.219872615,14.2595568360001,0
                102.219961268,14.259829794,0
                102.220022662,14.260068308,0
                102.220134103,14.2606890910001,0
                102.220179743,14.26138909,0
                102.220214126,14.2616105540001,0
                102.220314413,14.262074828,0
                102.220394959,14.2624044670001,0
                102.220511358,14.262746663,0
                102.220723551,14.26323554,0
                102.221112388,14.2639091360001,0
                102.221454445,14.2644310580001,0
                102.222285851,14.265501052,0
                102.223092369,14.266387604,0
                102.223677148,14.26690761,0
                102.224188266,14.2673230240001,0
                102.224806377,14.267649014,0
                102.225839407,14.2679693630001,0
                102.227178099,14.268215184,0
                102.227832551,14.268558263,0
                102.228340419,14.268744939,0
                102.229170504,14.268751282,0
                102.229801889,14.268742719,0
                102.230235843,14.2688072220001,0
                102.230725679,14.2689941460001,0
                102.23123406,14.269216016,0
                102.23205011,14.2695040890001,0
                102.232867928,14.2699153240001,0
                102.233325461,14.2703666400001,0
                102.233803784,14.2710112400001,0
                102.23448508,14.271969831,0
                102.234924327,14.2724037900001,0
                102.235566531,14.2731517390001,0
                102.236186179,14.273583242,0
                102.236772315,14.273699192,0
                102.23701854,14.273747902,0
                102.237715819,14.2737881310001,0
                102.237758926,14.273790622,0
                102.237776842,14.273796039,0
                102.238339451,14.2739662590001,0
                102.238734787,14.274140473,0
                102.238973482,14.274278973,0
                102.240992087,14.2751572340001,0
                102.241815525,14.2756877410001,0
                102.242095871,14.275870136,0
                102.242725977,14.276233989,0
                102.243006801,14.276450235,0
                102.243428661,14.2768169130001,0
                102.243659125,14.277152351,0
                102.243908645,14.277606024,0
                102.244067506,14.2777900720001,0
                102.244296517,14.2780239520001,0
                102.244489603,14.2781736740001,0
                102.244717654,14.278339858,0
                102.244859646,14.278557994,0
                102.244932223,14.278777076,0
                102.244936835,14.2790986530001,0
                102.244854424,14.279404496,0
                102.244654414,14.279982794,0
                102.244042609,14.282107223,0
                102.2433148,14.2839078480001,0
                102.24226464,14.286695466,0
                102.242132408,14.287390595,0
                102.241815606,14.2884348970001,0
                102.24168536,14.289268662,0
                102.24132414,14.290521572,0
                102.240828041,14.292284765,0
                102.24030195,14.2936092520001,0
                102.239953817,14.2941224350001,0
                102.239652076,14.2945656530001,0
                102.239422751,14.2951003260001,0
                102.23921711,14.295634684,0
                102.23890294,14.2968638420001,0
                102.238634822,14.297999932,0
                102.238435139,14.298950196,0
                102.238328918,14.2998067460001,0
                102.238337859,14.3004306130001,0
                102.238344814,14.300915854,0
                102.238598001,14.302044838,0
                102.238821524,14.302758222,0
                102.239116475,14.30349375,0
                102.239265934,14.304000149,0
                102.239272893,14.304485389,0
                102.23916966,14.3055498910001,0
                102.23898015,14.3063973220001,0
                102.238568303,14.308238956,0
                102.238461755,14.3090724,0
                102.238470371,14.309673161,0
                102.238572777,14.3102033210001,0
                102.238724241,14.310848354,0
                102.239664291,14.312607524,0
                102.240900489,14.3142074410001,0
                102.241395037,14.3148513400001,0
                102.242801596,14.3156405140001,0
                102.243820935,14.316218099,0
                102.24471274,14.3163636350001,0
                102.245359673,14.316354791,0
                102.246227577,14.3162443460001,0
                102.246732708,14.316217722,0
                102.247163229,14.316224547,0
                102.247517676,14.3162811550001,0
                102.247868251,14.316438782,0
                102.248924911,14.316798942,0
                102.249959654,14.317041096,0
                102.25136284,14.317593663,0
                102.252852018,14.3184999370001,0
                102.25356984,14.319199896,0
                102.254508058,14.3197588140001,0
                102.255839223,14.3209235470001,0
                102.257539466,14.322869649,0
                102.257671692,14.3230688310001,0
                102.257829705,14.323299084,0
                102.258298581,14.32385894,0
                102.259009976,14.3248427120001,0
                102.259297715,14.3252701590001,0
                102.259437624,14.3256734930001,0
                102.259883334,14.327358872,0
                102.259963971,14.327968092,0
                102.260003065,14.3282634240001,0
                102.25997412,14.329422563,0
                102.259819433,14.3303160300001,0
                102.259401552,14.331240166,0
                102.25925839,14.3315567670001,0
                102.258950512,14.332392912,0
                102.258856331,14.3332558330001,0
                102.258822446,14.3340733650001,0
                102.258848624,14.3348306410001,0
                102.259032094,14.3359274420001,0
                102.259308034,14.337097246,0
                102.259932427,14.338128553,0
                102.26005106,14.3383424140001,0
                102.261011941,14.340074649,0
                102.2623807,14.342001898,0
                102.263098895,14.343195317,0
                102.263490515,14.343932701,0
                102.263882776,14.3447146450001,0
                102.264461294,14.345731706,0
                102.265271997,14.346998114,0
                102.265911311,14.3482152400001,0
                102.26596148,14.3483107600001,0
                102.266616413,14.3493416160001,0
                102.267332073,14.3503567830001,0
                102.26835998,14.351887575,0
                102.269429503,14.3531355310001,0
                102.271679662,14.356981734,0
                102.272441938,14.3580556490001,0
                102.272770948,14.3586750260001,0
                102.272943284,14.3589994660001,0
                102.273129777,14.3592494270001,0
                102.273484294,14.3595267860001,0
                102.273947611,14.359951182,0
                102.274262473,14.3606450340001,0
                102.274440011,14.361325928,0
                102.274616677,14.3619474160001,0
                102.274743525,14.3622873320001,0
                102.274960279,14.3625220230001,0
                102.275190973,14.362667382,0
                102.275955113,14.362820221,0
                102.276566264,14.3629305970001,0
                102.277103387,14.363190564,0
                102.277564346,14.3634515750001,0
                102.278133028,14.363785368,0
                102.280084366,14.3648873430001,0
                102.280959721,14.3653505780001,0
                102.281312236,14.365511758,0
                102.281527327,14.3656101010001,0
                102.281881429,14.3658577360001,0
                102.28197306,14.365977469,0
                102.282144571,14.366252676,0
                102.282207908,14.3664576840001,0
                102.282212093,14.366744409,0
                102.2821914,14.3668770570001,0
                102.282096043,14.3670622060001,0
                102.281924626,14.367204298,0
                102.281737911,14.3673318960001,0
                102.281500131,14.367577856,0
                102.281299512,14.3677865340001,0
                102.28116709,14.3680163170001,0
                102.281087887,14.3682747840001,0
                102.281070457,14.368414194,0
                102.281067622,14.3684368410001,0
                102.281069554,14.3685691750001,0
                102.281071378,14.368694157,0
                102.281073309,14.3688264830001,0
                102.281068557,14.369017737,0
                102.280995931,14.369209933,0
                102.280993541,14.369213545,0
                102.28089261,14.369365787,0
                102.280871586,14.36947638,0
                102.280873624,14.369616057,0
                102.280905837,14.369755325,0
                102.280944542,14.369801968,0
                102.280990298,14.369857102,0
                102.281134869,14.3699433370001,0
                102.281378417,14.370024205,0
                102.281676584,14.370139663,0
                102.281822848,14.3701963030001,0
                102.281990209,14.3703245780001,0
                102.282076282,14.370404131,0
                102.282144323,14.370581837,0
                102.282160575,14.370798528,0
                102.282087458,14.371169583,0
                102.281898226,14.371657101,0
                102.281709934,14.3722083970001,0
                102.281662614,14.3725535790001,0
                102.281655303,14.372739225,0
                102.281653068,14.372796162,0
                102.281645003,14.37314079,0
                102.281648729,14.3733959470001,0
                102.281641055,14.3737660950001,0
                102.281632643,14.3739500200001,0
                102.281447765,14.3744744470001,0
                102.281173412,14.374908243,0
                102.280943608,14.375306998,0
                102.280750097,14.3755010830001,0
                102.280515831,14.37559365,0
                102.280247509,14.3756607400001,0
                102.2801376,14.3756882220001,0
                102.279902598,14.3757297650001,0
                102.279772845,14.3758081230001,0
                102.279608295,14.376193205,0
                102.27942074,14.376795542,0
                102.279351391,14.3773165850001,0
                102.279322805,14.378490565,0
                102.279455537,14.37923148,0
                102.279644659,14.3796596650001,0
                102.280221197,14.3805281320001,0
                102.280914643,14.381053305,0
                102.281868203,14.38164914,0
                102.282682898,14.382128052,0
                102.283387032,14.3823410960001,0
                102.284670586,14.3825758080001,0
                102.286914478,14.382826864,0
                102.288499936,14.3828642290001,0
                102.289918884,14.382978183,0
                102.292023683,14.383097424,0
                102.292147831,14.3831125180001,0
                102.293229754,14.3832440360001,0
                102.294496246,14.383382075,0
                102.2951827,14.3834165910001,0
                102.295596819,14.3834271810001,0
                102.295948697,14.3833895540001,0
                102.296076776,14.3833496,0
                102.296287299,14.383210337,0
                102.29659323,14.3830915560001,0
                102.296765974,14.383045521,0
                102.297061598,14.382986873,0
                102.297195426,14.382957736,0
                102.298396688,14.383840139,0
                102.298433885,14.383867464,0
                102.29888077,14.384204767,0
                102.299638714,14.3847722030001,0
                102.299837106,14.3849493770001,0
                102.300014818,14.385241353,0
                102.300120134,14.385556152,0
                102.300157139,14.38579012,0
                102.300143329,14.3859920690001,0
                102.300079655,14.386227434,0
                102.29994073,14.386671065,0
                102.299709528,14.387306842,0
                102.299921974,14.3872984170001,0
                102.300049653,14.387231204,0
                102.300187877,14.3871202180001,0
                102.300510414,14.386608584,0
                102.30116746,14.385639682,0
                102.302001538,14.384345318,0
                102.302004262,14.3843410910001,0
                102.302107102,14.3843557450001,0
                102.302227837,14.384441399,0
                102.302493704,14.3846473130001,0
                102.302601628,14.384674918,0
                102.302709048,14.3846675890001,0
                102.302940688,14.384577012,0
                102.303313949,14.3843679930001,0
                102.303476625,14.3842894360001,0
                102.303711358,14.3841761040001,0
                102.303895469,14.384103656,0
                102.304108928,14.3839958570001,0
                102.304268986,14.383912099,0
                102.304797437,14.383695081,0
                102.305515033,14.383341498,0
                102.3061143,14.3830652620001,0
                102.306843837,14.3827115080001,0
                102.307787425,14.3822907040001,0
                102.30871873,14.3818467740001,0
                102.310925305,14.380791048,0
                102.312295783,14.3801546220001,0
                102.313814442,14.37944042,0
                102.314143049,14.379289226,0
                102.315576577,14.3786296280001,0
                102.316436861,14.378233258,0
                102.317095049,14.377903765,0
                102.317748023,14.377626751,0
                102.318234293,14.3773870150001,0
                102.318589696,14.3771840470001,0
                102.319118112,14.3769670130001,0
                102.319414569,14.376817277,0
                102.319722619,14.3766440950001,0
                102.32014951,14.376428483,0
                102.320567589,14.3762341550001,0
                102.320950401,14.376056218,0
                102.321051407,14.3760198590001,0
                102.321374982,14.376492784,0
                102.321863251,14.3771963130001,0
                102.322596899,14.3782102750001,0
                102.322963902,14.3787160630001,0
                102.323694649,14.379734249,0
                102.32411282,14.3802917290001,0
                102.324792066,14.3812352950001,0
                102.325207034,14.3818026380001,0
                102.32573125,14.382486359,0
                102.326598428,14.3836401670001,0
                102.327551296,14.3849074,0
                102.328576096,14.3862653320001,0
                102.329748075,14.3878045870001,0
                102.33050196,14.38879293,0
                102.33078609,14.389145936,0
                102.331129223,14.3896258460001,0
                102.33156798,14.390209209,0
                102.331914286,14.3906759700001,0
                102.332325148,14.3911909460001,0
                102.332503141,14.3914111600001,0
                102.332750371,14.391768836,0
                102.332774432,14.391803639,0
                102.333148487,14.3923289630001,0
                102.333587011,14.3928959510001,0
                102.33415928,14.39364447,0
                102.33438188,14.3939262800001,0
                102.33464606,14.394292654,0
                102.334982058,14.394740412,0
                102.335290539,14.3951515110001,0
                102.33569154,14.395679709,0
                102.336438908,14.396677945,0
                102.336657468,14.396997782,0
                102.336876624,14.39737237,0
                102.336954372,14.3975168150001,0
                102.337097809,14.397883259,0
                102.337253171,14.398290065,0
                102.337370996,14.398586858,0
                102.337485261,14.3988984430001,0
                102.337581455,14.3991384280001,0
                102.337676188,14.399377445,0
                102.337754268,14.3995744590001,0
                102.337866097,14.3998492330001,0
                102.338019041,14.400219227,0
                102.338070176,14.400352992,0
                102.338133501,14.4005437070001,0
                102.338166966,14.4006335060001,0
                102.338323738,14.401007131,0
                102.338466851,14.4013514660001,0
                102.338572983,14.401624477,0
                102.338785331,14.402176019,0
                102.338924958,14.4025406710001,0
                102.339211701,14.403264343,0
                102.339362643,14.403626984,0
                102.339535447,14.4040611780001,0
                102.339798717,14.404731752,0
                102.340056164,14.405391351,0
                102.340207027,14.405748472,0
                102.340442725,14.406343903,0
                102.340702167,14.4070108440001,0
                102.340959446,14.407659387,0
                102.341177644,14.408221897,0
                102.341336621,14.4086157460001,0
                102.341572409,14.409216701,0
                102.341800006,14.409775391,0
                102.34207669,14.410456816,0
                102.342426067,14.4113232930001,0
                102.342681368,14.411964498,0
                102.343003612,14.4127853000001,0
                102.343039431,14.412876695,0
                102.343219767,14.413336778,0
                102.343408233,14.413805746,0
                102.343671614,14.414481837,0
                102.343751304,14.414681547,0
                102.343771762,14.414732816,0
                102.344029201,14.4153905640001,0
                102.344360991,14.4162167540001,0
                102.344484784,14.416531881,0
                102.344742174,14.4171859420001,0
                102.344995409,14.417814273,0
                102.345136593,14.4181549410001,0
                102.3454338,14.418942932,0
                102.345698962,14.419650678,0
                102.347296118,14.419802427,0
                102.351116494,14.420009712,0
                102.352620703,14.4202498770001,0
                102.353627368,14.4205451440001,0
                102.356100519,14.4214867530001,0
                102.357679011,14.4222969520001,0
                102.358728167,14.422869153,0
                102.359684971,14.423490702,0
                102.361109148,14.424473748,0
                102.362230663,14.4252478610001,0
                102.362555757,14.4250137060001,0
                102.362708858,14.4249234660001,0
                102.3631312,14.424674559,0
                102.363533667,14.4244873380001,0
                102.364056998,14.4243250820001,0
                102.364533201,14.424204355,0
                102.364914221,14.4241388740001,0
                102.365670597,14.4240409990001,0
                102.366393131,14.423946619,0
                102.367675367,14.42378719,0
                102.369836942,14.4235131090001,0
                102.371755509,14.4232634910001,0
                102.373744678,14.422997846,0
                102.375712595,14.422753502,0
                102.377948005,14.4224752870001,0
                102.378738848,14.422370302,0
              </coordinates>
                
            </LinearRing>
            
          </outerBoundaryIs>
        
        </Polygon>
        
      <styleUrl>
        #tambonStyle</styleUrl>
    </Placemark>

  </Document>
</kml>