<?xml version="1.0" encoding="UTF-8"?>
<kml xmlns="http://www.opengis.net/kml/2.2">
  <Document id="tambon_doc">
    <name>จิกเทิง, ตาลสุม, Ubon Ratchathani</name>
    <description>ข้อมูลขอบเขตตำบลจิกเทิง อำเภอตาลสุม จังหวัดUbon Ratchathani</description>
    
    <!-- Schema สำหรับข้อมูลตำบล -->
    <Schema id="tambon.schema">
      <SimpleField name="ADM3_EN" type="string">
        <displayName>Subdistrict Name (English)</displayName>
      </SimpleField>
      <SimpleField name="ADM3_TH" type="string">
        <displayName>ชื่อตำบล</displayName>
      </SimpleField>
      <SimpleField name="ADM2_EN" type="string">
        <displayName>District Name (English)</displayName>
      </SimpleField>
      <SimpleField name="ADM2_TH" type="string">
        <displayName>ชื่ออำเภอ</displayName>
      </SimpleField>
      <SimpleField name="ADM1_EN" type="string">
        <displayName>Province Name (English)</displayName>
      </SimpleField>
      <SimpleField name="ADM1_TH" type="string">
        <displayName>ชื่อจังหวัด</displayName>
      </SimpleField>
      <SimpleField name="ADM0_EN" type="string">
        <displayName>Country Name (English)</displayName>
      </SimpleField>
      <SimpleField name="ADM0_TH" type="string">
        <displayName>ชื่อประเทศ</displayName>
      </SimpleField>
    </Schema>

    <!-- Style สำหรับตำบล -->
    <Style id="tambonStyle">
      <LineStyle>
        <color>ffff0000</color>
        <width>1.5</width>
      </LineStyle>
      <PolyStyle>
        <color>33ff0000</color>
        <fill>1</fill>
        <outline>1</outline>
      </PolyStyle>
    </Style>

    <Placemark id="Ubon_Ratchathani.167">
        
        <ExtendedData>
            
          <SchemaData schemaUrl="#tambon.schema">
                
            <SimpleData name="Shape_Leng">
                0.307351131683</SimpleData>
                
            <SimpleData name="Shape_Area">
                0.00349968433009</SimpleData>
                
            <SimpleData name="ADM3_EN">
                Chik Thoeng</SimpleData>
                
            <SimpleData name="ADM3_TH">
                จิกเทิง</SimpleData>
                
            <SimpleData name="ADM3_PCODE">
                TH342003</SimpleData>
                
            <SimpleData name="ADM2_EN">
                Tan Sum</SimpleData>
                
            <SimpleData name="ADM2_TH">
                ตาลสุม</SimpleData>
                
            <SimpleData name="ADM2_PCODE">
                TH3420</SimpleData>
                
            <SimpleData name="ADM1_EN">
                Ubon Ratchathani</SimpleData>
                
            <SimpleData name="ADM1_TH">
                อุบลราชธานี</SimpleData>
                
            <SimpleData name="ADM1_PCODE">
                TH34</SimpleData>
                
            <SimpleData name="ADM0_EN">
                Thailand</SimpleData>
                
            <SimpleData name="ADM0_TH">
                ประเทศไทย</SimpleData>
                
            <SimpleData name="ADM0_PCODE">
                TH</SimpleData>
            
          </SchemaData>
        
        </ExtendedData>
        
        <Polygon>
            
          <outerBoundaryIs>
                
            <LinearRing>
                    
              <coordinates>
                    
                105.145998613,15.3821524860001,0
                105.146018003,15.3821382250001,0
                105.146367647,15.381856752,0
                105.146679649,15.3816314590001,0
                105.147484911,15.3810669110001,0
                105.148131051,15.3805467510001,0
                105.148455851,15.380310977,0
                105.15034297,15.378794494,0
                105.150503102,15.378599093,0
                105.150963593,15.3775537230001,0
                105.151827565,15.375243954,0
                105.152585414,15.3740801180001,0
                105.152600703,15.3740126340001,0
                105.152605439,15.3739387370001,0
                105.152599516,15.373855077,0
                105.152573372,15.373788742,0
                105.152486656,15.3736603830001,0
                105.152365804,15.373546382,0
                105.152359581,15.3735408200001,0
                105.152220287,15.3734162980001,0
                105.151879431,15.373107217,0
                105.151548346,15.3727777500001,0
                105.1513247,15.372576064,0
                105.15107747,15.3722777990001,0
                105.151076878,15.372257701,0
                105.151093549,15.372237119,0
                105.151547557,15.3718121200001,0
                105.152297421,15.3711073280001,0
                105.152919231,15.370513379,0
                105.153200489,15.370207169,0
                105.153312854,15.3700330510001,0
                105.153382774,15.3698918600001,0
                105.153619888,15.369428866,0
                105.153808836,15.3690464210001,0
                105.153937466,15.368793898,0
                105.153934994,15.3687863330001,0
                105.153933191,15.368780815,0
                105.153924868,15.368762186,0
                105.153908445,15.3687324650001,0
                105.153900962,15.3687105560001,0
                105.153895681,15.368695099,0
                105.153892753,15.3686629160001,0
                105.153891879,15.3685587910001,0
                105.153907671,15.3683511150001,0
                105.153896784,15.3681303660001,0
                105.15388803,15.368019019,0
                105.15386802,15.367934554,0
                105.153843097,15.367869355,0
                105.153805231,15.3678108930001,0
                105.153694383,15.367691748,0
                105.153527532,15.3675305890001,0
                105.153368003,15.367357532,0
                105.153299866,15.3672754630001,0
                105.153228824,15.367169032,0
                105.153146775,15.3670607830001,0
                105.153057475,15.3669665480001,0
                105.152953756,15.366903533,0
                105.152856543,15.3668754080001,0
                105.152702204,15.3668414270001,0
                105.152572625,15.36683014,0
                105.152350716,15.3668447920001,0
                105.152209661,15.366852952,0
                105.152178833,15.366847433,0
                105.152162163,15.3668393900001,0
                105.152146439,15.366826012,0
                105.15213834,15.3668113570001,0
                105.15210826,15.366719731,0
                105.152075208,15.366638816,0
                105.152039815,15.3665898470001,0
                105.15200817,15.366556716,0
                105.151951324,15.366523221,0
                105.151907048,15.3665074460001,0
                105.151864271,15.3665054420001,0
                105.151828407,15.366514937,0
                105.151799391,15.36653381,0
                105.151782597,15.366558717,0
                105.151779126,15.366589633,0
                105.151768015,15.3667389180001,0
                105.15176343,15.3668004960001,0
                105.151748702,15.366821095,0
                105.151721748,15.366835656,0
                105.151694544,15.3668417260001,0
                105.151669374,15.366842424,0
                105.151642856,15.366834657,0
                105.151622719,15.366820336,0
                105.151604367,15.3667921480001,0
                105.151586731,15.3667139950001,0
                105.151554796,15.366574472,0
                105.151549024,15.36654925,0
                105.151540675,15.366526101,0
                105.151528105,15.3665083810001,0
                105.151512377,15.3664950030001,0
                105.15149249,15.3664891760001,0
                105.151470635,15.3664908480001,0
                105.151452248,15.3664987930001,0
                105.151424331,15.3665137350001,0
                105.151307754,15.366576127,0
                105.151265482,15.366591117,0
                105.151242562,15.366593879,0
                105.151207446,15.3665916630001,0
                105.151161077,15.366579131,0
                105.151076527,15.366534713,0
                105.15098444,15.366457557,0
                105.150946027,15.366395605,0
                105.150938445,15.366383378,0
                105.150913805,15.366327733,0
                105.150896518,15.366224066,0
                105.150877352,15.3661682690001,0
                105.150852994,15.3661221840001,0
                105.150814687,15.3660860470001,0
                105.15077573,15.366064812,0
                105.150699779,15.366052037,0
                105.15063405,15.366051731,0
                105.150563075,15.366059014,0
                105.150218995,15.3661652590001,0
                105.149915562,15.3662756890001,0
                105.149843676,15.3662893710001,0
                105.149811215,15.366290689,0
                105.149761626,15.366292706,0
                105.149561914,15.366280175,0
                105.149357637,15.3662613880001,0
                105.149320054,15.366249677,0
                105.149294415,15.3662344470001,0
                105.149279749,15.366219974,0
                105.149271306,15.366193638,0
                105.149267803,15.3661491020001,0
                105.14927794,15.366083992,0
                105.149287009,15.366053316,0
                105.149312804,15.3659661240001,0
                105.149314557,15.3659139980001,0
                105.149308087,15.365880168,0
                105.14929164,15.3658423680001,0
                105.149262124,15.3658070490001,0
                105.149223974,15.3657762240001,0
                105.149186328,15.3657623880001,0
                105.149116066,15.3657568950001,0
                105.148986866,15.3657583510001,0
                105.148967011,15.3657535840001,0
                105.148941341,15.3657372930001,0
                105.148871863,15.365646757,0
                105.148845819,15.36561772,0
                105.148829029,15.365605433,0
                105.148752484,15.3655724830001,0
                105.148628973,15.3655440220001,0
                105.14856141,15.365530376,0
                105.148536419,15.365525329,0
                105.148522975,15.3655150770001,0
                105.148504806,15.365493261,0
                105.148463376,15.3654253290001,0
                105.148438019,15.365382459,0
                105.148354504,15.3652986860001,0
                105.148215613,15.365156938,0
                105.148095796,15.3650677960001,0
                105.148064339,15.365041036,0
                105.148043797,15.365012908,0
                105.148029759,15.364982481,0
                105.148019474,15.3649306880001,0
                105.148008908,15.3648321470001,0
                105.148008938,15.364768697,0
                105.148009006,15.3646121520001,0
                105.148016359,15.364564122,0
                105.148046347,15.3644665800001,0
                105.148055512,15.364405752,0
                105.148054512,15.3643345720001,0
                105.148041505,15.364264791,0
                105.147995012,15.3641736180001,0
                105.147868133,15.3639932770001,0
                105.147831924,15.363953897,0
                105.147787159,15.3639200430001,0
                105.147708298,15.363886958,0
                105.14755347,15.363830788,0
                105.14736618,15.363730173,0
                105.147234723,15.3636346870001,0
                105.147185782,15.3635991310001,0
                105.147092101,15.3635034800001,0
                105.146991822,15.3633601490001,0
                105.146931052,15.3632358740001,0
                105.146908962,15.3631328970001,0
                105.146900968,15.3630956370001,0
                105.146869995,15.362837024,0
                105.146845022,15.362782291,0
                105.146693756,15.362494263,0
                105.146659226,15.362379337,0
                105.14661773,15.362115977,0
                105.146613659,15.3619775380001,0
                105.146621962,15.3619067710001,0
                105.146643313,15.361838166,0
                105.146692455,15.361743598,0
                105.146696385,15.3617006640001,0
                105.14669483,15.361647802,0
                105.146683197,15.361605298,0
                105.146661109,15.361560565,0
                105.146610712,15.3615241730001,0
                105.146453219,15.361465557,0
                105.146262293,15.3614179410001,0
                105.146207078,15.3613942760001,0
                105.146185809,15.361377233,0
                105.146172174,15.3613549360001,0
                105.146168614,15.361322289,0
                105.146150164,15.36122455,0
                105.14612749,15.361159683,0
                105.146092138,15.3611052410001,0
                105.145843419,15.360769523,0
                105.145634049,15.3605359970001,0
                105.145346121,15.360279457,0
                105.145053824,15.3599625790001,0
                105.145018768,15.359918205,0
                105.145004314,15.3598682190001,0
                105.145003205,15.3598304660001,0
                105.144999048,15.3597928070001,0
                105.144978293,15.3597828330001,0
                105.144941984,15.359769166,0
                105.144918782,15.3597514690001,0
                105.144878102,15.359717749,0
                105.144797548,15.3596136100001,0
                105.144747212,15.359572825,0
                105.144714728,15.3595608860001,0
                105.144684245,15.3595525580001,0
                105.144633254,15.359553969,0
                105.144524803,15.3595936470001,0
                105.144410575,15.3596298190001,0
                105.144359583,15.35963123,0
                105.144295054,15.359622013,0
                105.144239642,15.359601538,0
                105.144191407,15.359568031,0
                105.144169717,15.3595374510001,0
                105.1439353,15.359149641,0
                105.143896082,15.3590819290001,0
                105.14376805,15.358860841,0
                105.143728936,15.358816075,0
                105.143549916,15.3587054920001,0
                105.143517378,15.358691719,0
                105.14348113,15.35868186,0
                105.14344845,15.3586812520001,0
                105.143411235,15.3586853,0
                105.143358789,15.358700335,0
                105.143302165,15.358724265,0
                105.143202069,15.3587665590001,0
                105.143174802,15.358791463,0
                105.143153707,15.358814685,0
                105.143142073,15.3588421750001,0
                105.143098541,15.3590018620001,0
                105.143061102,15.3591040260001,0
                105.143042887,15.3591724550001,0
                105.143035336,15.359233036,0
                105.143036423,15.3593200610001,0
                105.143037634,15.3594171170001,0
                105.143039047,15.3595182060001,0
                105.14304473,15.359552765,0
                105.143056807,15.3595931830001,0
                105.143086156,15.359639159,0
                105.143162001,15.359732154,0
                105.143173768,15.3597620140001,0
                105.143174565,15.35978916,0
                105.143173718,15.359813333,0
                105.143165059,15.3598362160001,0
                105.142922437,15.360155365,0
                105.142861642,15.3602038390001,0
                105.142808039,15.36023249,0
                105.142772468,15.360239511,0
                105.14275848,15.360239898,0
                105.142738187,15.360237441,0
                105.142720732,15.3602258510001,0
                105.142693382,15.3601949100001,0
                105.142585104,15.3600018010001,0
                105.142530867,15.3599050780001,0
                105.142475098,15.3598070030001,0
                105.142455737,15.359783389,0
                105.142430293,15.359764468,0
                105.142313104,15.359693753,0
                105.142235442,15.359644583,0
                105.142200226,15.3596108420001,0
                105.142064446,15.35938366,0
                105.142048459,15.3593690110001,0
                105.142030964,15.359355911,0
                105.141825582,15.3593012150001,0
                105.141502081,15.3591969600001,0
                105.14140616,15.3591618790001,0
                105.141379209,15.3591445110001,0
                105.141343949,15.359109259,0
                105.141289421,15.359053413,0
                105.141252742,15.3590227290001,0
                105.141203898,15.359001441,0
                105.141084577,15.3589639850001,0
                105.141068811,15.358956877,0
                105.141054424,15.358943691,0
                105.140932939,15.3587795080001,0
                105.140920103,15.3587662790001,0
                105.140904209,15.3587546410001,0
                105.140879031,15.358744772,0
                105.140691189,15.358704689,0
                105.140486649,15.358678647,0
                105.140463115,15.35867175,0
                105.140447305,15.3586631330001,0
                105.140433007,15.3586529620001,0
                105.14033265,15.358572721,0
                105.140316889,15.35856561,0
                105.140293484,15.358563239,0
                105.140265552,15.358565518,0
                105.14018975,15.358579691,0
                105.140131271,15.358599849,0
                105.140085031,15.358615791,0
                105.14004018,15.358624579,0
                105.140005988,15.358625524,0
                105.139965266,15.3586160840001,0
                105.139943062,15.358601602,0
                105.139903188,15.3585679890001,0
                105.139846883,15.358504644,0
                105.139825476,15.3584742080001,0
                105.139791691,15.3584261720001,0
                105.139736987,15.3583642940001,0
                105.139657503,15.3583061140001,0
                105.139603945,15.358283445,0
                105.139569329,15.3582702420001,0
                105.139545141,15.3582508580001,0
                105.139526107,15.358218774,0
                105.139523405,15.35821422,0
                105.139518689,15.358154198,0
                105.139523666,15.3581225520001,0
                105.139546507,15.3580990880001,0
                105.139546588,15.358099005,0
                105.139688682,15.3580120070001,0
                105.139708778,15.357995928,0
                105.139714446,15.3579845400001,0
                105.139713803,15.3579626160001,0
                105.139704363,15.3579428250001,0
                105.139608464,15.35789392,0
                105.139585011,15.357873194,0
                105.139523605,15.357818927,0
                105.139507933,15.3577878510001,0
                105.13950684,15.357750642,0
                105.139505999,15.3577219950001,0
                105.13951205,15.357712404,0
                105.139545948,15.3576750870001,0
                105.139633658,15.357587806,0
                105.139637734,15.3575837490001,0
                105.13968878,15.357531312,0
                105.139702521,15.357499945,0
                105.139699432,15.3574731950001,0
                105.139689488,15.357436235,0
                105.139664656,15.357405944,0
                105.139597641,15.357324196,0
                105.139593514,15.357284206,0
                105.13959512,15.3572383310001,0
                105.139611637,15.357197774,0
                105.139650749,15.3571222190001,0
                105.13966137,15.3570818210001,0
                105.139660361,15.3570474740001,0
                105.139644521,15.3570106780001,0
                105.139552422,15.3568900490001,0
                105.139535569,15.3568189060001,0
                105.139534057,15.356767387,0
                105.139547801,15.356732633,0
                105.139576624,15.356708923,0
                105.139774336,15.356606066,0
                105.139800381,15.3565881590001,0
                105.139806429,15.3565742100001,0
                105.139814205,15.3565562680001,0
                105.139813511,15.356532655,0
                105.139812356,15.356493302,0
                105.139808658,15.3563673690001,0
                105.139838592,15.3561803540001,0
                105.139856631,15.35609106,0
                105.13989903,15.3560268700001,0
                105.139979938,15.355967342,0
                105.140102728,15.3559114510001,0
                105.140113935,15.355906351,0
                105.140284262,15.3557756070001,0
                105.140436643,15.3556367640001,0
                105.140542331,15.355516403,0
                105.140598379,15.355414597,0
                105.140651407,15.3552097570001,0
                105.140663021,15.3551424240001,0
                105.140688962,15.355119572,0
                105.140737805,15.355099775,0
                105.140870759,15.355096099,0
                105.141121479,15.3550891680001,0
                105.141291989,15.3550697000001,0
                105.141408447,15.3550222100001,0
                105.141490615,15.3549719800001,0
                105.141574956,15.3548663560001,0
                105.14167634,15.354693851,0
                105.141796944,15.3543990800001,0
                105.141813449,15.3543137730001,0
                105.141811392,15.354243737,0
                105.141809335,15.354173701,0
                105.141784486,15.3541042960001,0
                105.141735113,15.353976545,0
                105.141565828,15.353649209,0
                105.141541628,15.3536019200001,0
                105.141540546,15.353565057,0
                105.141539788,15.353539255,0
                105.141702494,15.3533835060001,0
                105.141845881,15.353217221,0
                105.142100199,15.3529445720001,0
                105.142217211,15.352786398,0
                105.142233062,15.3526789740001,0
                105.142230139,15.3525794510001,0
                105.142169175,15.3521864040001,0
                105.142099189,15.3520038840001,0
                105.142051873,15.351946169,0
                105.14201867,15.351851171,0
                105.141966484,15.351627578,0
                105.141960964,15.3514395870001,0
                105.141971276,15.3514024140001,0
                105.141997217,15.351379562,0
                105.14201871,15.3513346980001,0
                105.142020344,15.3512608720001,0
                105.142015375,15.3509621920001,0
                105.141931116,15.350163991,0
                105.141933349,15.349897592,0
                105.141939562,15.349156637,0
                105.142264787,15.3471555410001,0
                105.142355557,15.3455803310001,0
                105.142327528,15.34414299,0
                105.142310863,15.3432676150001,0
                105.142239291,15.342674023,0
                105.142163839,15.3422557100001,0
                105.141996787,15.3420358340001,0
                105.141846293,15.341945831,0
                105.141721244,15.3419358370001,0
                105.141650417,15.3418839880001,0
                105.141541599,15.341797318,0
                105.141470247,15.34172755,0
                105.141409176,15.3416933660001,0
                105.141236515,15.341635361,0
                105.141110025,15.341576086,0
                105.140987753,15.3415032400001,0
                105.140831586,15.341377521,0
                105.140747302,15.341339497,0
                105.140603279,15.3411551570001,0
                105.140501993,15.3410099870001,0
                105.140380809,15.3406591140001,0
                105.140184423,15.340422414,0
                105.1400073,15.340212084,0
                105.139883847,15.3400989140001,0
                105.13978282,15.3399627060001,0
                105.139686691,15.3398526710001,0
                105.139668077,15.3398313610001,0
                105.139596594,15.339757111,0
                105.139351003,15.339575574,0
                105.138991725,15.339298533,0
                105.138916414,15.339251292,0
                105.138854688,15.3391947060001,0
                105.138802981,15.3391647460001,0
                105.138709598,15.339131453,0
                105.138499117,15.339014661,0
                105.138342281,15.338895408,0
                105.138219868,15.3387979010001,0
                105.138147385,15.338719193,0
                105.137974386,15.3384919330001,0
                105.137724981,15.338140674,0
                105.137687516,15.3381038750001,0
                105.137634246,15.338059947,0
                105.137391448,15.3378391960001,0
                105.137327771,15.3377813010001,0
                105.137230187,15.3376046430001,0
                105.137096342,15.337294468,0
                105.136962239,15.336975335,0
                105.136827213,15.3365854680001,0
                105.136661453,15.3360729990001,0
                105.13664197,15.336013614,0
                105.136590106,15.335855544,0
                105.136452475,15.3353271670001,0
                105.136440167,15.3352619300001,0
                105.136440176,15.3351736550001,0
                105.13638338,15.3349204840001,0
                105.136291835,15.3348120380001,0
                105.136220702,15.334690412,0
                105.136105206,15.334474174,0
                105.136020717,15.334340309,0
                105.135943709,15.3342844220001,0
                105.135755788,15.3341685460001,0
                105.135612899,15.3340816900001,0
                105.135458814,15.3339673990001,0
                105.135372835,15.3338714070001,0
                105.135246574,15.3337311280001,0
                105.13519936,15.3336277600001,0
                105.135184105,15.3335391150001,0
                105.135068746,15.3333004130001,0
                105.134856113,15.3328856100001,0
                105.134766407,15.3327829190001,0
                105.134217334,15.3323511030001,0
                105.134051833,15.3322504980001,0
                105.133945737,15.3321430010001,0
                105.133777928,15.331963585,0
                105.13358505,15.3318532230001,0
                105.13331127,15.331755603,0
                105.133016296,15.3316743460001,0
                105.132851565,15.33160001,0
                105.132509434,15.3313885910001,0
                105.131946583,15.331041283,0
                105.131675912,15.3308647010001,0
                105.131602762,15.330772064,0
                105.131374051,15.3303629600001,0
                105.130953299,15.3295016650001,0
                105.130935212,15.329439059,0
                105.130866555,15.3293147530001,0
                105.130758337,15.3289496470001,0
                105.130714751,15.328756287,0
                105.130706877,15.328672371,0
                105.130638374,15.328553314,0
                105.130581314,15.3284549790001,0
                105.13053153,15.3283391840001,0
                105.130414739,15.327993377,0
                105.130281143,15.3276983160001,0
                105.130004869,15.327318453,0
                105.129727905,15.3269149430001,0
                105.129620124,15.3267729790001,0
                105.129595677,15.3267706930001,0
                105.129492998,15.3268031010001,0
                105.1293536,15.326830601,0
                105.129244748,15.3268602250001,0
                105.129117706,15.326910986,0
                105.128958548,15.326974588,0
                105.128774164,15.3270269920001,0
                105.128652608,15.3270392150001,0
                105.128537143,15.3270512710001,0
                105.128385478,15.3270761530001,0
                105.128309691,15.327090071,0
                105.128209539,15.327104664,0
                105.128151677,15.3271062580001,0
                105.128072324,15.3271025240001,0
                105.127986362,15.327081231,0
                105.127802428,15.327044888,0
                105.127570741,15.32693887,0
                105.127311301,15.326821786,0
                105.127224384,15.3267679800001,0
                105.127164625,15.326704551,0
                105.127148595,15.3266826010001,0
                105.127075721,15.3265827700001,0
                105.126955675,15.3264381820001,0
                105.126783516,15.3262831980001,0
                105.126608483,15.326134209,0
                105.12654645,15.3260974670001,0
                105.126451265,15.326073464,0
                105.126295089,15.3260481880001,0
                105.126148477,15.326037435,0
                105.125984113,15.3260449160001,0
                105.125798087,15.326041167,0
                105.125002034,15.3260216680001,0
                105.124443497,15.326099162,0
                105.124106495,15.3261439290001,0
                105.123882171,15.3261855980001,0
                105.12380647,15.326202471,0
                105.1236802,15.326262147,0
                105.123540201,15.3262689590001,0
                105.123357389,15.326271031,0
                105.123222875,15.3262569880001,0
                105.123094019,15.326227994,0
                105.123033195,15.3262326280001,0
                105.122787557,15.3262748820001,0
                105.122611957,15.326315209,0
                105.122412688,15.326379848,0
                105.122375937,15.326393657,0
                105.12231923,15.326414959,0
                105.122170783,15.3264456640001,0
                105.12184892,15.3264870560001,0
                105.121781919,15.326488899,0
                105.121733625,15.326505018,0
                105.121708958,15.3265148460001,0
                105.121661919,15.3265477530001,0
                105.121570483,15.326586875,0
                105.12148507,15.3265975420001,0
                105.121293987,15.326629419,0
                105.121239852,15.3266542050001,0
                105.121177488,15.3266908580001,0
                105.121086974,15.3267615670001,0
                105.121027843,15.3267914790001,0
                105.120986877,15.326797599,0
                105.120954279,15.326796831,0
                105.120905925,15.3267848510001,0
                105.120833249,15.3267618900001,0
                105.12063652,15.3266591570001,0
                105.120368629,15.3265267640001,0
                105.12009271,15.326412894,0
                105.11984449,15.326308247,0
                105.11970213,15.326247272,0
                105.119672576,15.326229944,0
                105.119550377,15.3261582750001,0
                105.119450401,15.3260811590001,0
                105.119292633,15.325962378,0
                105.119226181,15.3259176180001,0
                105.119126691,15.3258571280001,0
                105.119055293,15.325819161,0
                105.119018589,15.325795214,0
                105.118997351,15.3257725020001,0
                105.118978074,15.3257580580001,0
                105.118941516,15.3257391,0
                105.118885083,15.3257439770001,0
                105.118827569,15.3257705190001,0
                105.118745034,15.325821036,0
                105.118596325,15.325895009,0
                105.118504499,15.3259208260001,0
                105.118332309,15.3259538450001,0
                105.118207838,15.325977235,0
                105.118026934,15.3260055010001,0
                105.117878433,15.3260278880001,0
                105.117740306,15.326053313,0
                105.117373079,15.32609066,0
                105.117304915,15.326097594,0
                105.115890158,15.326096106,0
                105.113575371,15.3261462570001,0
                105.11129668,15.326125179,0
                105.110093102,15.3261140380001,0
                105.109840118,15.325999838,0
                105.109329567,15.3258523330001,0
                105.108994212,15.3257673160001,0
                105.10875567,15.32567291,0
                105.10840685,15.3256017250001,0
                105.107236634,15.3254252080001,0
                105.101114099,15.3252230000001,0
                105.098884918,15.3248802850001,0
                105.096199063,15.3243346890001,0
                105.0943595,15.3240350940001,0
                105.092455907,15.323721904,0
                105.092238117,15.3238981710001,0
                105.092154285,15.3239511,0
                105.091803139,15.324108003,0
                105.091104192,15.324406508,0
                105.090235076,15.3248229380001,0
                105.089754169,15.325084654,0
                105.089521091,15.325224513,0
                105.089283672,15.3253783060001,0
                105.08909378,15.3255353960001,0
                105.088979047,15.3256674150001,0
                105.0888865,15.3257892940001,0
                105.088717629,15.3260116920001,0
                105.08808706,15.3269622130001,0
                105.088069132,15.326986204,0
                105.087678509,15.327429077,0
                105.087452971,15.327665391,0
                105.087198331,15.3278794880001,0
                105.086966451,15.3280607400001,0
                105.086747315,15.328191013,0
                105.086424723,15.3283517360001,0
                105.086115409,15.32847987,0
                105.085571011,15.3286788780001,0
                105.084900786,15.328954975,0
                105.084000699,15.3293960350001,0
                105.083292401,15.3297538350001,0
                105.082946374,15.3299244,0
                105.082624571,15.33011271,0
                105.082405967,15.330261378,0
                105.082248174,15.3303807670001,0
                105.081929574,15.330679462,0
                105.081765235,15.330900291,0
                105.08167379,15.331017866,0
                105.081564455,15.3311727500001,0
                105.081438427,15.331406341,0
                105.080503656,15.33351702,0
                105.079874925,15.3345698690001,0
                105.0793598,15.3353376430001,0
                105.078726654,15.3362650290001,0
                105.078525412,15.336529512,0
                105.078260727,15.3368049910001,0
                105.077937641,15.337113012,0
                105.077622567,15.3373701830001,0
                105.077436464,15.337494947,0
                105.077203091,15.337625605,0
                105.076983274,15.3377328780001,0
                105.076716727,15.3378644420001,0
                105.075737655,15.3382870510001,0
                105.0751673,15.338520003,0
                105.074438027,15.338778254,0
                105.074297575,15.3388419300001,0
                105.074087765,15.3389673410001,0
                105.073938903,15.339068067,0
                105.073758201,15.3392156960001,0
                105.073582632,15.3393769950001,0
                105.073195454,15.3397650150001,0
                105.071651262,15.341301184,0
                105.070275401,15.3424454560001,0
                105.069678256,15.3429542800001,0
                105.069364362,15.34325284,0
                105.068390402,15.344264997,0
                105.06758701,15.345595632,0
                105.067379543,15.346002271,0
                105.066893755,15.3469893270001,0
                105.065731087,15.349774547,0
                105.064610245,15.352288898,0
                105.064402769,15.352695538,0
                105.064032747,15.3533339960001,0
                105.063655128,15.353959791,0
                105.063495605,15.354275106,0
                105.063274596,15.354796682,0
                105.063204917,15.355011344,0
                105.063176664,15.355200332,0
                105.063180693,15.355339337,0
                105.063189474,15.3554332030001,0
                105.063208563,15.3554993330001,0
                105.063210923,15.3555047890001,0
                105.063255452,15.355590976,0
                105.064108583,15.3564702080001,0
                105.065114268,15.357456117,0
                105.065285705,15.3576969320001,0
                105.065393403,15.357921075,0
                105.065442801,15.3580977080001,0
                105.065469588,15.358367021,0
                105.065478127,15.358661382,0
                105.065458895,15.3588705780001,0
                105.065301858,15.359562254,0
                105.065246662,15.3598399470001,0
                105.065227965,15.360067542,0
                105.065234191,15.360282179,0
                105.065369665,15.3617810490001,0
                105.06566969,15.3633021530001,0
                105.065746507,15.363551687,0
                105.065888128,15.363854684,0
                105.066049071,15.364169433,0
                105.066181522,15.364374485,0
                105.066331515,15.3645299560001,0
                105.06647341,15.3646242780001,0
                105.066671294,15.3646863810001,0
                105.06688093,15.3647174770001,0
                105.067032615,15.3647133320001,0
                105.067203261,15.364708669,0
                105.067574549,15.364643288,0
                105.068577411,15.364327422,0
                105.069066468,15.3641790290001,0
                105.069338011,15.3641103580001,0
                105.069822397,15.3640724420001,0
                105.070132617,15.364082373,0
                105.070386849,15.364124519,0
                105.070680957,15.364233089,0
                105.071001775,15.364390024,0
                105.071240074,15.3645369390001,0
                105.071518611,15.3647625400001,0
                105.072245443,15.3656141610001,0
                105.072475205,15.365902471,0
                105.072661434,15.3662165160001,0
                105.072818204,15.3666050160001,0
                105.072905448,15.366995418,0
                105.072940713,15.3673381410001,0
                105.072949088,15.367626366,0
                105.072942149,15.367822948,0
                105.072858931,15.3682241540001,0
                105.072718468,15.368614645,0
                105.072526019,15.3690791830001,0
                105.073000146,15.369194801,0
                105.073064003,15.3692141650001,0
                105.07314735,15.3692234010001,0
                105.073234314,15.369221021,0
                105.073415998,15.369194592,0
                105.073494308,15.3691832000001,0
                105.073849007,15.3691370290001,0
                105.074044786,15.3691355080001,0
                105.074225531,15.3691612690001,0
                105.074333153,15.36918903,0
                105.07456774,15.3692977630001,0
                105.074591165,15.3693075630001,0
                105.074739941,15.3693698170001,0
                105.074809952,15.3693966910001,0
                105.074869579,15.369406575,0
                105.074926843,15.369403087,0
                105.075007542,15.369389362,0
                105.075057051,15.3693731750001,0
                105.075174085,15.3693349060001,0
                105.075301664,15.369300707,0
                105.075408056,15.3692862790001,0
                105.075497272,15.3692934320001,0
                105.075760559,15.36936875,0
                105.076190788,15.369539296,0
                105.076427521,15.369653726,0
                105.076815049,15.3698523090001,0
                105.077098743,15.3700172700001,0
                105.077169639,15.3700640430001,0
                105.07772997,15.3704337250001,0
                105.078217621,15.3707124470001,0
                105.078281109,15.3707487340001,0
                105.078594171,15.370903293,0
                105.079615431,15.3713320890001,0
                105.080211551,15.371561414,0
                105.080421139,15.3716266800001,0
                105.080809503,15.371717758,0
                105.081003113,15.3717777030001,0
                105.081181195,15.371847673,0
                105.081462581,15.372001174,0
                105.081668533,15.3721452250001,0
                105.082135471,15.372489398,0
                105.08245609,15.3726993970001,0
                105.082518359,15.372735,0
                105.08271557,15.372847742,0
                105.082963027,15.372990654,0
                105.083211848,15.373112416,0
                105.083451589,15.373194126,0
                105.083682585,15.3732472890001,0
                105.083841986,15.373287062,0
                105.083987046,15.373309954,0
                105.084141523,15.373311373,0
                105.084196771,15.373311878,0
                105.084279783,15.3733096020001,0
                105.084408697,15.37332142,0
                105.084474031,15.373323466,0
                105.084757463,15.373275392,0
                105.085086411,15.3732279870001,0
                105.085183255,15.3732253310001,0
                105.085250563,15.3732273270001,0
                105.085304541,15.373246958,0
                105.085471826,15.373353679,0
                105.085497966,15.3733683150001,0
                105.085559404,15.3733723880001,0
                105.085608811,15.3733710330001,0
                105.085659921,15.3733600360001,0
                105.085785955,15.3733274160001,0
                105.085991804,15.3732399310001,0
                105.086193877,15.3731364980001,0
                105.086413195,15.373000496,0
                105.086501381,15.3729050050001,0
                105.086633736,15.3727360840001,0
                105.086875463,15.3723475240001,0
                105.087122833,15.372039047,0
                105.087375706,15.37180584,0
                105.08753453,15.3716939670001,0
                105.087681301,15.371622541,0
                105.087793164,15.3715988110001,0
                105.087863759,15.371583833,0
                105.088024779,15.37154732,0
                105.088073749,15.371525117,0
                105.088099584,15.3715035450001,0
                105.088128255,15.3714658490001,0
                105.088154197,15.371391322,0
                105.088154076,15.371330345,0
                105.08812276,15.3712204760001,0
                105.088011294,15.3710277540001,0
                105.087856483,15.370823387,0
                105.087571295,15.370515074,0
                105.087561929,15.370502151,0
                105.087490309,15.3704033550001,0
                105.087448123,15.3703178590001,0
                105.087427842,15.370246202,0
                105.087422204,15.370166119,0
                105.08743429,15.3700133360001,0
                105.087450646,15.3699503010001,0
                105.087478943,15.3698997770001,0
                105.087517252,15.3698521900001,0
                105.087581998,15.369803878,0
                105.087668604,15.3697678,0
                105.087824572,15.369728218,0
                105.087971234,15.3697097510001,0
                105.088113869,15.369723494,0
                105.088259139,15.369770859,0
                105.088513771,15.36993879,0
                105.088610866,15.370035622,0
                105.088775442,15.370254849,0
                105.088855207,15.370361099,0
                105.088887448,15.370389099,0
                105.088921337,15.370417058,0
                105.088998338,15.370448643,0
                105.089103151,15.3704698380001,0
                105.089365898,15.3705187960001,0
                105.089468361,15.3705451160001,0
                105.089540867,15.370563743,0
                105.089761578,15.370645945,0
                105.089930825,15.370721539,0
                105.090023929,15.3707382420001,0
                105.090146176,15.3707332810001,0
                105.090218561,15.370720062,0
                105.090357537,15.3706648950001,0
                105.090453308,15.370602892,0
                105.090631843,15.3704576650001,0
                105.090639103,15.3704517620001,0
                105.090705877,15.370416232,0
                105.090779401,15.370385325,0
                105.090865007,15.3703717430001,0
                105.090944287,15.3703679660001,0
                105.091055943,15.370396993,0
                105.091216258,15.370506533,0
                105.091364146,15.370643687,0
                105.091574488,15.3708240660001,0
                105.091668714,15.3708792480001,0
                105.091778909,15.3709147390001,0
                105.091885047,15.370924663,0
                105.091969467,15.3709271590001,0
                105.092055264,15.3709199910001,0
                105.092145686,15.370901458,0
                105.092167235,15.3708941240001,0
                105.092340568,15.3708351280001,0
                105.092557692,15.370737698,0
                105.092820533,15.370619759,0
                105.092905998,15.3706013620001,0
                105.09298688,15.3705959340001,0
                105.093059732,15.370598747,0
                105.093254631,15.3706463510001,0
                105.093791993,15.370811329,0
                105.094090518,15.370896203,0
                105.094256572,15.3709189260001,0
                105.094512096,15.370947212,0
                105.09481667,15.371012665,0
                105.095072738,15.37111636,0
                105.095258655,15.371196304,0
                105.095360398,15.371225601,0
                105.095416632,15.371225662,0
                105.095474468,15.3712240740001,0
                105.095528773,15.371214557,0
                105.095591009,15.371193595,0
                105.095682195,15.3711445500001,0
                105.095740002,15.371085194,0
                105.095869433,15.3708730230001,0
                105.09600385,15.3705483860001,0
                105.096060907,15.370463375,0
                105.096107473,15.3704155560001,0
                105.096182275,15.370371779,0
                105.096274256,15.370349994,0
                105.096379837,15.37034068,0
                105.096479177,15.3703443650001,0
                105.096595931,15.370378067,0
                105.096693418,15.370431555,0
                105.096753645,15.3705117440001,0
                105.096834853,15.370687634,0
                105.096857629,15.3707760670001,0
                105.09689641,15.3709266540001,0
                105.096931536,15.3711102300001,0
                105.096944959,15.371230214,0
                105.096941269,15.371443744,0
                105.096888419,15.3716730690001,0
                105.096812532,15.3719062340001,0
                105.096789903,15.371951358,0
                105.096682809,15.3721649500001,0
                105.096547532,15.372346787,0
                105.096471829,15.3724162660001,0
                105.096330254,15.3724955800001,0
                105.09624053,15.372538161,0
                105.09621058,15.3725445260001,0
                105.09598904,15.372591605,0
                105.095698094,15.3725963910001,0
                105.095648658,15.3726025620001,0
                105.095599595,15.3726215610001,0
                105.095558984,15.372646747,0
                105.09553329,15.3726731300001,0
                105.095488981,15.372741746,0
                105.095315415,15.37308511,0
                105.095265466,15.373243745,0
                105.095231854,15.3733955120001,0
                105.095224373,15.373479166,0
                105.095226806,15.373562544,0
                105.095246028,15.3737112540001,0
                105.095282956,15.3739081090001,0
                105.095318501,15.3740976070001,0
                105.09535182,15.374502686,0
                105.09543028,15.374924182,0
                105.095463411,15.374982646,0
                105.095519677,15.3750404740001,0
                105.095573353,15.375066282,0
                105.095643277,15.3750820120001,0
                105.095709758,15.375093024,0
                105.095765993,15.3750930800001,0
                105.095820341,15.3750851680001,0
                105.095874314,15.375064432,0
                105.095908085,15.375031409,0
                105.096006098,15.3748762660001,0
                105.096179538,15.374471925,0
                105.096302512,15.3742085820001,0
                105.096382579,15.3740619540001,0
                105.096514929,15.373893034,0
                105.096609668,15.3737957500001,0
                105.096716537,15.373717394,0
                105.096837754,15.3736771540001,0
                105.096931765,15.3736681520001,0
                105.097055802,15.3736679510001,0
                105.097190318,15.373686724,0
                105.097397344,15.373753247,0
                105.097546903,15.3738341870001,0
                105.097734366,15.37396704,0
                105.097941132,15.3741378770001,0
                105.098113706,15.3743273050001,0
                105.098250486,15.374536974,0
                105.098365645,15.3747424200001,0
                105.098622152,15.37520074,0
                105.098782443,15.375422596,0
                105.098819736,15.375453667,0
                105.098870156,15.3754811640001,0
                105.098920342,15.3755006480001,0
                105.098966851,15.3755073950001,0
                105.099067472,15.3754982090001,0
                105.099256024,15.3754416730001,0
                105.099398968,15.375392881,0
                105.099506574,15.375356154,0
                105.099821075,15.3751950590001,0
                105.099964022,15.375106079,0
                105.099992831,15.3750731920001,0
                105.100015029,15.3750404900001,0
                105.100042859,15.374973932,0
                105.100065119,15.3748866650001,0
                105.100127716,15.3745383250001,0
                105.100129504,15.3745257250001,0
                105.100153777,15.3743546700001,0
                105.100243587,15.3741451930001,0
                105.100313442,15.3740453840001,0
                105.10035231,15.374017038,0
                105.100391547,15.374001515,0
                105.100442497,15.3739904880001,0
                105.100478947,15.373992693,0
                105.100507324,15.3740015430001,0
                105.100682233,15.3741010370001,0
                105.100857771,15.3741652150001,0
                105.100963006,15.3742008360001,0
                105.101119144,15.3742238200001,0
                105.101245162,15.374234799,0
                105.101377462,15.374234368,0
                105.10151099,15.3742194640001,0
                105.10180172,15.37415049,0
                105.102363805,15.3740291230001,0
                105.102519147,15.3740248510001,0
                105.102597288,15.374038747,0
                105.102664232,15.374065789,0
                105.102712815,15.3740869220001,0
                105.102790938,15.3741569850001,0
                105.102879499,15.3742444120001,0
                105.10294685,15.3743420480001,0
                105.103016516,15.3744620900001,0
                105.103038737,15.374543321,0
                105.103040143,15.374591423,0
                105.103002012,15.3747015920001,0
                105.102929038,15.3748079060001,0
                105.10288238,15.374852517,0
                105.102804744,15.37491242,0
                105.10269703,15.3749619180001,0
                105.10244729,15.375018534,0
                105.10244323,15.375020665,0
                105.102269736,15.375111679,0
                105.102205321,15.375171218,0
                105.102175093,15.3752121690001,0
                105.102161249,15.3752478530001,0
                105.102154582,15.375302596,0
                105.10216004,15.3753762640001,0
                105.102183727,15.3754510310001,0
                105.102236068,15.3755442720001,0
                105.102311685,15.375641681,0
                105.102357477,15.3756805420001,0
                105.102412807,15.3757062980001,0
                105.102460871,15.375709789,0
                105.102525042,15.3756983970001,0
                105.102709956,15.3756307260001,0
                105.102892061,15.375550226,0
                105.10305448,15.375478432,0
                105.10344584,15.375344102,0
                105.103790916,15.3752672110001,0
                105.103990409,15.3752456770001,0
                105.104289665,15.375242257,0
                105.104411101,15.3752661980001,0
                105.104504816,15.375303735,0
                105.104707107,15.375434571,0
                105.10477334,15.375493723,0
                105.104832105,15.3755803670001,0
                105.104864194,15.37565972,0
                105.104995774,15.3761439250001,0
                105.105060809,15.376275326,0
                105.105159847,15.37638172,0
                105.105215694,15.3764251160001,0
                105.105286603,15.3764745170001,0
                105.105425454,15.3765284630001,0
                105.105633433,15.37657088,0
                105.105929272,15.3766766700001,0
                105.10605688,15.376742162,0
                105.106139544,15.376797654,0
                105.106195817,15.3768554820001,0
                105.106230413,15.3769074840001,0
                105.10624311,15.3769456480001,0
                105.106249286,15.3769872,0
                105.106243438,15.377183131,0
                105.106249814,15.3774011940001,0
                105.106251147,15.3774272740001,0
                105.106253667,15.3774765110001,0
                105.106271931,15.377535381,0
                105.106301523,15.3775859190001,0
                105.106325412,15.377610937,0
                105.106359117,15.3776324740001,0
                105.10640586,15.3776472320001,0
                105.106460535,15.377650541,0
                105.106538068,15.3776435930001,0
                105.106605308,15.377624091,0
                105.10663553,15.377608815,0
                105.106830221,15.377510386,0
                105.10693859,15.3774833320001,0
                105.107009418,15.377473358,0
                105.107100308,15.3774708550001,0
                105.107228356,15.3774946120001,0
                105.107348608,15.377534629,0
                105.107569187,15.3776119990001,0
                105.107610735,15.377618876,0
                105.107652005,15.3776161380001,0
                105.107681516,15.3776073010001,0
                105.107707583,15.3775937450001,0
                105.10775485,15.377569979,0
                105.107960036,15.377403858,0
                105.108148135,15.377218955,0
                105.108188796,15.377195371,0
                105.108223357,15.377189602,0
                105.108258064,15.377188646,0
                105.10834957,15.377219256,0
                105.108373308,15.3772271990001,0
                105.108464765,15.377243933,0
                105.108625017,15.377237919,0
                105.108702455,15.3772277620001,0
                105.108754819,15.377208669,0
                105.108839349,15.3771582000001,0
                105.108898524,15.3770891730001,0
                105.108937163,15.3769966420001,0
                105.108935709,15.376946935,0
                105.10892897,15.376886143,0
                105.108876485,15.3767881000001,0
                105.108736426,15.376636299,0
                105.108657546,15.3765405840001,0
                105.108608693,15.3764536730001,0
                105.108602403,15.3764304370001,0
                105.108590152,15.3763851800001,0
                105.108587807,15.3763050090001,0
                105.108596842,15.37621811,0
                105.108646251,15.3760980000001,0
                105.108676665,15.3760634660001,0
                105.108718838,15.376035023,0
                105.108768181,15.376025644,0
                105.10881615,15.376025924,0
                105.108899952,15.376063737,0
                105.109012831,15.376134445,0
                105.109154262,15.376276578,0
                105.109255513,15.376402161,0
                105.109346047,15.376556931,0
                105.109527568,15.3769386610001,0
                105.109613422,15.377103182,0
                105.109714303,15.3772201790001,0
                105.109741821,15.377252092,0
                105.109800689,15.377285773,0
                105.109866032,15.3773144620001,0
                105.109954463,15.377340915,0
                105.110038794,15.3773401930001,0
                105.110124398,15.377326603,0
                105.110194663,15.3772973910001,0
                105.110238715,15.37727692,0
                105.11030727,15.3772142830001,0
                105.110501589,15.3770367280001,0
                105.110733388,15.3768030960001,0
                105.110861936,15.376712933,0
                105.11088928,15.3766937550001,0
                105.110950531,15.376672774,0
                105.111236291,15.3766220250001,0
                105.111291299,15.3766140770001,0
                105.111353115,15.376612375,0
                105.111478004,15.376651811,0
                105.111634929,15.3767712260001,0
                105.111796672,15.3769692400001,0
                105.111848059,15.37703672,0
                105.111930446,15.377128328,0
                105.111989473,15.3771677300001,0
                105.112018115,15.3771824470001,0
                105.112060961,15.377198234,0
                105.112116594,15.377214343,0
                105.11220361,15.3772339240001,0
                105.112306104,15.377249039,0
                105.112514644,15.377272455,0
                105.112697871,15.377282569,0
                105.112777952,15.377284155,0
                105.112876851,15.3772778000001,0
                105.112904872,15.3772725700001,0
                105.112971392,15.377252604,0
                105.113023959,15.377225583,0
                105.113102569,15.37717722,0
                105.113165029,15.377143076,0
                105.113604238,15.376869377,0
                105.113788064,15.376769799,0
                105.113934565,15.376697204,0
                105.114140903,15.376601742,0
                105.114304481,15.3765398040001,0
                105.114352061,15.3765248990001,0
                105.114519064,15.376487001,0
                105.114744523,15.376445102,0
                105.11488595,15.3764161760001,0
                105.115219423,15.376343118,0
                105.115345512,15.3763202960001,0
                105.115372778,15.3763171690001,0
                105.11544486,15.3763122180001,0
                105.115494689,15.376313296,0
                105.115562408,15.3763180010001,0
                105.115667307,15.376330416,0
                105.115748234,15.376347762,0
                105.115792338,15.376365488,0
                105.115872205,15.3764104410001,0
                105.115910276,15.3764431820001,0
                105.115964242,15.3765334670001,0
                105.115973373,15.376556178,0
                105.115992362,15.3766196550001,0
                105.116002183,15.376688401,0
                105.116002601,15.37675396,0
                105.115988273,15.3768923870001,0
                105.115976805,15.3771163230001,0
                105.115956715,15.377293566,0
                105.115942513,15.377376779,0
                105.115888808,15.377571507,0
                105.115876198,15.3776270710001,0
                105.115867838,15.377706672,0
                105.11587373,15.3777789800001,0
                105.115896701,15.3778508180001,0
                105.11590577,15.3778734640001,0
                105.115932745,15.3779238550001,0
                105.115977052,15.377989531,0
                105.116033192,15.3780553760001,0
                105.116174343,15.378145353,0
                105.116250299,15.378188623,0
                105.116285734,15.378206988,0
                105.116338373,15.3782274160001,0
                105.116372776,15.3782339790001,0
                105.116419279,15.3782370600001,0
                105.11648877,15.3782260890001,0
                105.116524892,15.378213326,0
                105.116656889,15.378146073,0
                105.116858224,15.3780703620001,0
                105.116979261,15.378017351,0
                105.117093428,15.377951705,0
                105.117236262,15.3778498620001,0
                105.117354513,15.377758414,0
                105.117410309,15.3777204310001,0
                105.117477102,15.3776935020001,0
                105.117512379,15.377683871,0
                105.117530083,15.3776809620001,0
                105.118662913,15.377720848,0
                105.118699924,15.3777246810001,0
                105.118755536,15.377733587,0
                105.118930369,15.377765803,0
                105.118991018,15.377772254,0
                105.119069197,15.3777696970001,0
                105.119093983,15.377765918,0
                105.11911869,15.377759632,0
                105.119198836,15.377729263,0
                105.119268146,15.3776762420001,0
                105.119308398,15.3776161650001,0
                105.1193397,15.37755015,0
                105.119341711,15.3775442690001,0
                105.119352919,15.3774991,0
                105.119355271,15.3774300150001,0
                105.119342793,15.3772957730001,0
                105.119314887,15.3771895670001,0
                105.119289202,15.3771109050001,0
                105.119206105,15.3769510060001,0
                105.11913843,15.3768458920001,0
                105.119098744,15.3767917760001,0
                105.11901814,15.3767249790001,0
                105.11890861,15.3766589840001,0
                105.118890335,15.376642233,0
                105.118848513,15.376591622,0
                105.118834708,15.3765706090001,0
                105.118822452,15.3765467920001,0
                105.118810783,15.376512604,0
                105.118800673,15.376472795,0
                105.118787896,15.376433864,0
                105.118751526,15.376365852,0
                105.118722489,15.376327055,0
                105.118546135,15.376116118,0
                105.118462955,15.375991932,0
                105.118446116,15.375967373,0
                105.118429269,15.375914718,0
                105.118424621,15.375890084,0
                105.118428457,15.3758574070001,0
                105.118445019,15.375813938,0
                105.118494444,15.3757124860001,0
                105.118500083,15.375705232,0
                105.118546268,15.375668063,0
                105.118600898,15.3756472630001,0
                105.118706492,15.375631486,0
                105.118726466,15.375630126,0
                105.118812337,15.3756242800001,0
                105.11890397,15.375628095,0
                105.118905251,15.3756281500001,0
                105.118917502,15.3756313750001,0
                105.119000998,15.3756533760001,0
                105.119022248,15.375656775,0
                105.119229652,15.375689946,0
                105.119515643,15.375722793,0
                105.119562731,15.3757325820001,0
                105.119671032,15.375755095,0
                105.119706828,15.3757625370001,0
                105.119802951,15.375800617,0
                105.119841178,15.3758231460001,0
                105.119881919,15.3758563210001,0
                105.11991427,15.375904738,0
                105.119941228,15.3759562760001,0
                105.120051879,15.376167837,0
                105.120053343,15.3761706350001,0
                105.120073439,15.376209052,0
                105.120099229,15.3762597910001,0
                105.120149306,15.37630986,0
                105.120200902,15.376336307,0
                105.120287883,15.3763639200001,0
                105.120345283,15.3763623360001,0
                105.120345762,15.376362242,0
                105.120481888,15.3763362880001,0
                105.12066612,15.3762599630001,0
                105.120734588,15.376220775,0
                105.12083968,15.3761498000001,0
                105.120976973,15.375971959,0
                105.120993159,15.375948577,0
                105.1210184,15.375892661,0
                105.121026585,15.3758533590001,0
                105.121031682,15.3758129190001,0
                105.121033645,15.375754479,0
                105.121039825,15.375702269,0
                105.12106054,15.3755947220001,0
                105.121078762,15.375525199,0
                105.121104782,15.375465816,0
                105.121140384,15.375399268,0
                105.121172396,15.3753560660001,0
                105.121256956,15.3752517240001,0
                105.121371724,15.3751451850001,0
                105.121637404,15.3749196210001,0
                105.121725998,15.374855025,0
                105.121757456,15.37483611,0
                105.121785518,15.374822845,0
                105.121817285,15.374814456,0
                105.121881445,15.3748225950001,0
                105.121927388,15.3748507190001,0
                105.121971926,15.3749196570001,0
                105.122005998,15.3749948340001,0
                105.122029539,15.3750745090001,0
                105.122046572,15.3751499590001,0
                105.122053417,15.3752153400001,0
                105.1220551,15.3752843090001,0
                105.122053429,15.375394785,0
                105.122057198,15.3755154610001,0
                105.122067789,15.375622144,0
                105.122073206,15.37565305,0
                105.122089034,15.375711278,0
                105.12211338,15.375776172,0
                105.122159005,15.3758680880001,0
                105.122212939,15.3759839300001,0
                105.122237579,15.376023909,0
                105.122294724,15.376105845,0
                105.122347936,15.3761665540001,0
                105.12243654,15.3762779850001,0
                105.122538594,15.376437363,0
                105.122574987,15.376505374,0
                105.122612995,15.3765555410001,0
                105.122659474,15.376594643,0
                105.12268096,15.3766047010001,0
                105.122716617,15.376617068,0
                105.122759566,15.376626233,0
                105.122780964,15.3766280580001,0
                105.122812941,15.3766269860001,0
                105.122915697,15.3766135880001,0
                105.123092481,15.3765780050001,0
                105.123138357,15.3765657450001,0
                105.123147936,15.376561657,0
                105.123219561,15.3765187020001,0
                105.123276385,15.376454483,0
                105.123293254,15.3764234340001,0
                105.123318451,15.3763571690001,0
                105.123357783,15.3761950900001,0
                105.123400824,15.376033965,0
                105.123549314,15.3756192170001,0
                105.123633122,15.375378789,0
                105.1236719,15.375256012,0
                105.123696627,15.375222245,0
                105.123756039,15.3751911430001,0
                105.123784363,15.375186636,0
                105.123816347,15.3751856640001,0
                105.12384505,15.375194403,0
                105.12387029,15.3752061480001,0
                105.123936067,15.375266083,0
                105.124002179,15.3753374390001,0
                105.124038392,15.3753594290001,0
                105.124064535,15.3753714600001,0
                105.124074396,15.3753743,0
                105.124192295,15.375392151,0
                105.124281449,15.375400454,0
                105.124406085,15.375405673,0
                105.12451985,15.37540376,0
                105.124722614,15.3754052250001,0
                105.124903981,15.3754041130001,0
                105.125060359,15.375400282,0
                105.125177474,15.375391371,0
                105.125255728,15.3753919230001,0
                105.125277118,15.3753936270001,0
                105.125355773,15.3754075000001,0
                105.12542745,15.375426127,0
                105.125499322,15.375451388,0
                105.125596715,15.3754978100001,0
                105.125785522,15.375600655,0
                105.125885909,15.375648159,0
                105.125980983,15.3756883790001,0
                105.12609629,15.3757469770001,0
                105.126219346,15.3757993200001,0
                105.126266088,15.375810889,0
                105.126303619,15.375809853,0
                105.126334274,15.3758004330001,0
                105.126362599,15.375786786,0
                105.126386253,15.3757646940001,0
                105.126404618,15.3757127380001,0
                105.126415851,15.375643826,0
                105.126422876,15.375571032,0
                105.126436185,15.3754331750001,0
                105.126448868,15.375413532,0
                105.126479084,15.375389118,0
                105.126561907,15.375350387,0
                105.126678039,15.375317164,0
                105.126744267,15.375315335,0
                105.126801921,15.3753223210001,0
                105.12687824,15.3753630850001,0
                105.126970829,15.375431275,0
                105.127078928,15.3755762110001,0
                105.127111349,15.375662354,0
                105.127131491,15.3757204620001,0
                105.127166064,15.3759438110001,0
                105.127171196,15.37596782,0
                105.127190559,15.3760328590001,0
                105.127239582,15.3761281700001,0
                105.127271825,15.376163075,0
                105.127367966,15.376226237,0
                105.127432751,15.3762524840001,0
                105.12747573,15.3762625150001,0
                105.127561318,15.376270322,0
                105.127593271,15.376268306,0
                105.127890423,15.376213421,0
                105.127981683,15.3761919130001,0
                105.128093253,15.37616137,0
                105.128119804,15.37615205,0
                105.128222113,15.3761234940001,0
                105.128303695,15.3761162750001,0
                105.128364424,15.376125298,0
                105.12841236,15.3761477150001,0
                105.128456094,15.376181597,0
                105.128534105,15.3762718150001,0
                105.128552135,15.376312722,0
                105.128556775,15.376340204,0
                105.12855698,15.376357453,0
                105.128555171,15.376371303,0
                105.128541951,15.376409628,0
                105.128514481,15.376458697,0
                105.128472457,15.376525427,0
                105.128434656,15.3765747850001,0
                105.128402553,15.3766274320001,0
                105.128370828,15.376704223,0
                105.128362665,15.3767320580001,0
                105.12835449,15.3767736940001,0
                105.128352357,15.376804812,0
                105.128354348,15.3768323670001,0
                105.128365127,15.376897629,0
                105.128388123,15.3769591130001,0
                105.12843693,15.377040584,0
                105.128490844,15.3771175370001,0
                105.128512574,15.377140647,0
                105.128616893,15.3772140350001,0
                105.128685803,15.37725951,0
                105.128841465,15.377352553,0
                105.128922558,15.377405432,0
                105.128993644,15.3774478060001,0
                105.12907316,15.377491171,0
                105.129199141,15.37754204,0
                105.129255727,15.377572297,0
                105.129430891,15.3777553200001,0
                105.129445467,15.3777632260001,0
                105.129494372,15.37778087,0
                105.129522873,15.377786793,0
                105.1295585,15.377788809,0
                105.12958688,15.3777863650001,0
                105.129618723,15.3777809200001,0
                105.129671442,15.3777591850001,0
                105.129688923,15.3777490360001,0
                105.129730664,15.37771689,0
                105.129779182,15.3776735060001,0
                105.129842781,15.3775985460001,0
                105.129906564,15.3775298200001,0
                105.130010795,15.377445763,0
                105.130104774,15.3773756580001,0
                105.130174559,15.377330111,0
                105.130199098,15.3773178010001,0
                105.130223766,15.377308155,0
                105.130294353,15.377291212,0
                105.130358134,15.377283237,0
                105.130461619,15.377294708,0
                105.130525642,15.37729517,0
                105.130575187,15.377286613,0
                105.13062433,15.377264365,0
                105.130662636,15.377236678,0
                105.130707538,15.3771975500001,0
                105.130809612,15.377038617,0
                105.13082189,15.37700362,0
                105.130831822,15.376967505,0
                105.130835774,15.376894931,0
                105.130831842,15.3768467260001,0
                105.130824152,15.3767986280001,0
                105.130802224,15.3767267700001,0
                105.130792172,15.376701656,0
                105.130772965,15.376662014,0
                105.130727962,15.3765795570001,0
                105.130677713,15.3764920990001,0
                105.130642496,15.3764151250001,0
                105.130623406,15.376364801,0
                105.130617316,15.3763389480001,0
                105.130614343,15.376310957,0
                105.130615246,15.3762419180001,0
                105.13061699,15.3762277230001,0
                105.130629481,15.3761837110001,0
                105.130651291,15.376140848,0
                105.130688791,15.376093742,0
                105.130742089,15.3760484850001,0
                105.130801949,15.376016104,0
                105.130935479,15.37594814,0
                105.130976367,15.375929279,0
                105.131071914,15.3758902170001,0
                105.131175672,15.375853546,0
                105.131297094,15.375817044,0
                105.131403347,15.3757900470001,0
                105.131432957,15.3757854510001,0
                105.131462286,15.3757850310001,0
                105.131478829,15.3757871560001,0
                105.131513918,15.3757983130001,0
                105.131540697,15.375813986,0
                105.131658092,15.375951888,0
                105.131726705,15.376027682,0
                105.131760539,15.3760619490001,0
                105.13180446,15.37611294,0
                105.131851529,15.376176236,0
                105.131891654,15.3762441370001,0
                105.131908754,15.376286689,0
                105.13191574,15.376327406,0
                105.131918278,15.376360617,0
                105.13191847,15.376431902,0
                105.131910097,15.376483052,0
                105.131861862,15.3766271280001,0
                105.131820041,15.376730733,0
                105.131775439,15.376859145,0
                105.131751134,15.376983465,0
                105.131747035,15.3770612920001,0
                105.13174801,15.3771036590001,0
                105.131754799,15.377184721,0
                105.13177433,15.377290165,0
                105.131821843,15.3775043470001,0
                105.13187784,15.3777096800001,0
                105.131934897,15.37786156,0
                105.131961706,15.3779208770001,0
                105.132034225,15.378059411,0
                105.132047488,15.378081008,0
                105.132100458,15.378153727,0
                105.132135937,15.378196476,0
                105.132220767,15.3782911550001,0
                105.132317705,15.3783947740001,0
                105.132479874,15.37858751,0
                105.132635084,15.3787546230001,0
                105.1327174,15.3788176640001,0
                105.13275978,15.378840138,0
                105.132794268,15.3788512040001,0
                105.132861002,15.3788582060001,0
                105.132886714,15.378856812,0
                105.132944526,15.3788449620001,0
                105.132969022,15.378836714,0
                105.133013794,15.3788178080001,0
                105.133031626,15.378807936,0
                105.13308939,15.3787673,0
                105.13310386,15.378752983,0
                105.13313848,15.3787041210001,0
                105.133159311,15.3786700800001,0
                105.133172718,15.378643395,0
                105.133239137,15.378475521,0
                105.133281605,15.3783919410001,0
                105.133357097,15.378292286,0
                105.133389967,15.3782642090001,0
                105.133444877,15.3782402090001,0
                105.133495641,15.378232917,0
                105.13352112,15.3782325820001,0
                105.133553981,15.378235928,0
                105.133598057,15.3782490400001,0
                105.133727155,15.378305461,0
                105.13377156,15.3783296300001,0
                105.133830932,15.378367585,0
                105.133886762,15.3784088890001,0
                105.133938784,15.3784443980001,0
                105.133994374,15.378477667,0
                105.134051858,15.3785047170001,0
                105.134080483,15.3785134610001,0
                105.134181781,15.378536002,0
                105.134225701,15.378543671,0
                105.134309642,15.3785504850001,0
                105.134378967,15.378555283,0
                105.134524466,15.3785504090001,0
                105.134575258,15.37854421,0
                105.134843263,15.3784950960001,0
                105.135010251,15.3784612310001,0
                105.135135277,15.378441535,0
                105.135313891,15.3784194790001,0
                105.135388777,15.3784025690001,0
                105.135436338,15.3783730590001,0
                105.1355049,15.378282155,0
                105.135536322,15.378221223,0
                105.135578983,15.378123546,0
                105.135613954,15.3780381,0
                105.135702543,15.377843501,0
                105.135713225,15.377820027,0
                105.135740668,15.377776393,0
                105.135754988,15.377737412,0
                105.135760228,15.3776901050001,0
                105.135753927,15.3775509340001,0
                105.135768001,15.377503382,0
                105.135799539,15.3774489200001,0
                105.135851764,15.377400817,0
                105.135882235,15.377384024,0
                105.135920658,15.3773699710001,0
                105.135925322,15.3773682630001,0
                105.135944393,15.3773677350001,0
                105.135967268,15.3773671020001,0
                105.136004556,15.377379273,0
                105.136014195,15.377385303,0
                105.13605513,15.3774246990001,0
                105.136094926,15.377500771,0
                105.136115562,15.3775948310001,0
                105.136121784,15.377664725,0
                105.136121418,15.3777237360001,0
                105.136115596,15.377795565,0
                105.136113815,15.377889075,0
                105.13612609,15.378104229,0
                105.136136182,15.3781728380001,0
                105.136146451,15.3782255450001,0
                105.136175735,15.378295526,0
                105.136230258,15.378392795,0
                105.13632631,15.3785279090001,0
                105.136394275,15.3786129540001,0
                105.136429227,15.3786535360001,0
                105.136577765,15.3788123370001,0
                105.136718924,15.3789349310001,0
                105.136824787,15.3790173570001,0
                105.136919809,15.3790762520001,0
                105.136999216,15.3791201240001,0
                105.13709864,15.379167549,0
                105.137164825,15.379184794,0
                105.137208443,15.379187195,0
                105.137263054,15.379186975,0
                105.137299258,15.379180719,0
                105.137342538,15.379165965,0
                105.137364688,15.3791533150001,0
                105.137401382,15.379126962,0
                105.137431944,15.379099087,0
                105.13751015,15.378995321,0
                105.137524111,15.378973452,0
                105.137560435,15.3788982610001,0
                105.137583177,15.378837897,0
                105.137591143,15.378809092,0
                105.13759876,15.3787650740001,0
                105.137604707,15.3786956710001,0
                105.137602439,15.3786180170001,0
                105.1376058,15.378549895,0
                105.137605761,15.3784901980001,0
                105.13761012,15.378397197,0
                105.137618274,15.378306138,0
                105.1376467,15.378212709,0
                105.137668611,15.3781286770001,0
                105.137689773,15.3780433040001,0
                105.137704509,15.3779651780001,0
                105.137706957,15.3779115340001,0
                105.137704513,15.3778348610001,0
                105.137695475,15.377798173,0
                105.137689557,15.377781865,0
                105.137681422,15.377770395,0
                105.137614119,15.3777256930001,0
                105.137583174,15.3776876910001,0
                105.137521362,15.377602849,0
                105.137509724,15.3775713750001,0
                105.137509071,15.377546662,0
                105.137517225,15.377521702,0
                105.137535512,15.3774905550001,0
                105.137565389,15.3774543650001,0
                105.13765263,15.3773867200001,0
                105.137704315,15.3773524270001,0
                105.137740126,15.3773321530001,0
                105.137801283,15.3773068780001,0
                105.137864412,15.3772895230001,0
                105.13795882,15.3772813460001,0
                105.138006903,15.3772864750001,0
                105.138030266,15.3772919370001,0
                105.138073504,15.377309821,0
                105.13808925,15.3773210900001,0
                105.138289666,15.377518595,0
                105.13832049,15.377541901,0
                105.138385929,15.377572715,0
                105.138421134,15.3775843620001,0
                105.138439455,15.3775884610001,0
                105.138494225,15.3775935080001,0
                105.13861772,15.377583262,0
                105.138693705,15.3775672250001,0
                105.138755027,15.3775477200001,0
                105.13889966,15.37749611,0
                105.139080999,15.3774515270001,0
                105.139161563,15.3774299150001,0
                105.139210097,15.3774218470001,0
                105.139293295,15.3774031040001,0
                105.139675158,15.377336701,0
                105.139731415,15.377321394,0
                105.139854824,15.3772752960001,0
                105.139915166,15.377236211,0
                105.139973176,15.3771843220001,0
                105.140018172,15.377151977,0
                105.14003571,15.37714519,0
                105.140096988,15.377134916,0
                105.140128095,15.377134595,0
                105.140212954,15.3771395420001,0
                105.140300314,15.3771527590001,0
                105.140327718,15.3771586170001,0
                105.140367576,15.377172726,0
                105.140417662,15.3771990020001,0
                105.140432308,15.377212145,0
                105.140466593,15.377262811,0
                105.140476677,15.3772945170001,0
                105.140481506,15.3773253570001,0
                105.140482481,15.3773610260001,0
                105.140479532,15.3774051660001,0
                105.140473444,15.3774431410001,0
                105.140450648,15.3775452520001,0
                105.140416674,15.3776522740001,0
                105.140393665,15.377714197,0
                105.140342043,15.3778371720001,0
                105.140283698,15.3780140170001,0
                105.140239273,15.378164338,0
                105.140172046,15.378350835,0
                105.140128739,15.378447414,0
                105.140093571,15.3785143110001,0
                105.140001789,15.3786699610001,0
                105.139944855,15.3787486960001,0
                105.139902281,15.378799884,0
                105.139812338,15.378890692,0
                105.139708597,15.379009717,0
                105.139648969,15.3790575080001,0
                105.139606535,15.379104824,0
                105.139586223,15.3791407090001,0
                105.139574844,15.3791798830001,0
                105.139565976,15.3792472480001,0
                105.139564486,15.379275717,0
                105.139565504,15.379317912,0
                105.139574349,15.379356525,0
                105.139592829,15.3794019430001,0
                105.139640978,15.379471761,0
                105.139674519,15.379504518,0
                105.139745656,15.3795379750001,0
                105.139804261,15.379552195,0
                105.139840841,15.3795555730001,0
                105.139916995,15.379545094,0
                105.139970838,15.3795219,0
                105.140057602,15.379472881,0
                105.14006402,15.379468232,0
                105.140174773,15.379369605,0
                105.140384507,15.379093251,0
                105.140469597,15.378990792,0
                105.140540274,15.378948263,0
                105.140558313,15.3789427610001,0
                105.140601813,15.3789359620001,0
                105.140634576,15.3789359900001,0
                105.140663874,15.378941895,0
                105.140729961,15.378960378,0
                105.140766742,15.378973097,0
                105.140862535,15.379011341,0
                105.140954505,15.379043214,0
                105.141024213,15.379061214,0
                105.141071976,15.3790759680001,0
                105.141282921,15.3791344540001,0
                105.141446937,15.379197617,0
                105.141507363,15.3792256620001,0
                105.141578077,15.379266957,0
                105.141626137,15.3793091630001,0
                105.141655558,15.3793619910001,0
                105.14167167,15.379400656,0
                105.141676643,15.3794318110001,0
                105.141676117,15.379467049,0
                105.141666041,15.379524174,0
                105.141629707,15.379607197,0
                105.141585496,15.379720288,0
                105.141561009,15.3798090330001,0
                105.141540744,15.37989995,0
                105.1415395,15.3799760420001,0
                105.141543093,15.380012268,0
                105.141553305,15.3800806250001,0
                105.141574125,15.380174228,0
                105.141598528,15.3802504780001,0
                105.141632505,15.380321537,0
                105.141665862,15.380380329,0
                105.141745013,15.380487642,0
                105.141842881,15.3806510790001,0
                105.141873202,15.380694923,0
                105.141903788,15.3807356560001,0
                105.141935727,15.380785325,0
                105.142039987,15.38094747,0
                105.142047347,15.3809589110001,0
                105.142055954,15.380976962,0
                105.142075184,15.38101728,0
                105.142075604,15.381018155,0
                105.142075886,15.3810194110001,0
                105.142085756,15.3810628900001,0
                105.142087213,15.3811124040001,0
                105.142087647,15.3811271500001,0
                105.142084564,15.381153,0
                105.14204728,15.3814656070001,0
                105.142029163,15.381617539,0
                105.142015718,15.381686533,0
                105.141948538,15.3820313630001,0
                105.141949483,15.382063494,0
                105.141951718,15.382081613,0
                105.141955459,15.382090743,0
                105.14197301,15.3821121450001,0
                105.142008899,15.3821304470001,0
                105.142060057,15.3821418900001,0
                105.142095315,15.3821387730001,0
                105.142131932,15.382127301,0
                105.142165921,15.3821073510001,0
                105.142182634,15.382093506,0
                105.142225512,15.38205799,0
                105.142303453,15.381962974,0
                105.142427458,15.381713817,0
                105.142486387,15.381606827,0
                105.142520454,15.3815542290001,0
                105.14263232,15.381412821,0
                105.14288705,15.3812419070001,0
                105.142933363,15.381207379,0
                105.142968027,15.3811769700001,0
                105.143152212,15.3809741630001,0
                105.143203929,15.380918304,0
                105.143370029,15.3807684440001,0
                105.14338042,15.3807590710001,0
                105.143395453,15.380753495,0
                105.143412165,15.3807472930001,0
                105.143424134,15.38074285,0
                105.143443973,15.380740546,0
                105.143448358,15.3807400380001,0
                105.143469435,15.380739454,0
                105.14347264,15.3807393650001,0
                105.143532501,15.38074628,0
                105.143572682,15.3807601720001,0
                105.143581368,15.380768136,0
                105.143593117,15.3807789030001,0
                105.143605579,15.3808014480001,0
                105.143609453,15.3808084610001,0
                105.143610691,15.3808198290001,0
                105.143612482,15.380836247,0
                105.143612794,15.3808468400001,0
                105.143601667,15.380888112,0
                105.143574265,15.3809393560001,0
                105.143571479,15.380944566,0
                105.143479974,15.3810738230001,0
                105.143456927,15.3811063750001,0
                105.143440398,15.381145417,0
                105.143437917,15.3812969200001,0
                105.143427062,15.3813595500001,0
                105.143413358,15.3814104740001,0
                105.143371494,15.3814767740001,0
                105.14331335,15.3815499300001,0
                105.143284681,15.3815931180001,0
                105.143265076,15.381632514,0
                105.143246119,15.381689566,0
                105.143246671,15.3817272260001,0
                105.14325432,15.381749396,0
                105.143283049,15.38180515,0
                105.143362491,15.3818416450001,0
                105.143393925,15.381850661,0
                105.143469696,15.381863073,0
                105.143509876,15.3818677800001,0
                105.143618259,15.3818697030001,0
                105.143667924,15.3818732880001,0
                105.143703163,15.38187816,0
                105.143798586,15.381903165,0
                105.14387502,15.381938593,0
                105.14398674,15.3820126200001,0
                105.144210278,15.3822569480001,0
                105.144340144,15.3823659220001,0
                105.144392313,15.3824065370001,0
                105.144407166,15.3824161200001,0
                105.144473654,15.3824486340001,0
                105.144550765,15.3824704850001,0
                105.144678862,15.3824927630001,0
                105.144887003,15.382513084,0
                105.144989551,15.3825334750001,0
                105.1450261,15.3825381290001,0
                105.145099026,15.382541776,0
                105.145160931,15.3825419090001,0
                105.14520454,15.3825391620001,0
                105.14526249,15.382528875,0
                105.145350574,15.38248615,0
                105.145372442,15.382461107,0
                105.145398472,15.382431292,0
                105.145425092,15.3823742760001,0
                105.145467011,15.3822538090001,0
                105.145482485,15.38220934,0
                105.145506759,15.38216886,0
                105.145541089,15.382133594,0
                105.145581479,15.3821118870001,0
                105.145662941,15.382091786,0
                105.145722232,15.382087395,0
                105.145736275,15.382090545,0
                105.145814805,15.382108165,0
                105.145915011,15.382147939,0
                105.145956326,15.382157778,0
                105.145980358,15.3821571120001,0
                105.145998613,15.3821524860001,0
              </coordinates>
                
            </LinearRing>
            
          </outerBoundaryIs>
        
        </Polygon>
        
      <styleUrl>
        #tambonStyle</styleUrl>
    </Placemark>

  </Document>
</kml>