<?xml version="1.0" encoding="UTF-8"?>
<kml xmlns="http://www.opengis.net/kml/2.2">
  <Document id="tambon_doc">
    <name>หนองโดน, ลำปลายมาศ, Buri Ram</name>
    <description>ข้อมูลขอบเขตตำบลหนองโดน อำเภอลำปลายมาศ จังหวัดBuri Ram</description>
    
    <!-- Schema สำหรับข้อมูลตำบล -->
    <Schema id="tambon.schema">
      <SimpleField name="ADM3_EN" type="string">
        <displayName>Subdistrict Name (English)</displayName>
      </SimpleField>
      <SimpleField name="ADM3_TH" type="string">
        <displayName>ชื่อตำบล</displayName>
      </SimpleField>
      <SimpleField name="ADM2_EN" type="string">
        <displayName>District Name (English)</displayName>
      </SimpleField>
      <SimpleField name="ADM2_TH" type="string">
        <displayName>ชื่ออำเภอ</displayName>
      </SimpleField>
      <SimpleField name="ADM1_EN" type="string">
        <displayName>Province Name (English)</displayName>
      </SimpleField>
      <SimpleField name="ADM1_TH" type="string">
        <displayName>ชื่อจังหวัด</displayName>
      </SimpleField>
      <SimpleField name="ADM0_EN" type="string">
        <displayName>Country Name (English)</displayName>
      </SimpleField>
      <SimpleField name="ADM0_TH" type="string">
        <displayName>ชื่อประเทศ</displayName>
      </SimpleField>
    </Schema>

    <!-- Style สำหรับตำบล -->
    <Style id="tambonStyle">
      <LineStyle>
        <color>ffff0000</color>
        <width>1.5</width>
      </LineStyle>
      <PolyStyle>
        <color>33ff0000</color>
        <fill>1</fill>
        <outline>1</outline>
      </PolyStyle>
    </Style>

    <Placemark id="Buri_Ram.116">
        
        <ExtendedData>
            
          <SchemaData schemaUrl="#tambon.schema">
                
            <SimpleData name="Shape_Leng">
                0.262800796149</SimpleData>
                
            <SimpleData name="Shape_Area">
                0.00260594615311</SimpleData>
                
            <SimpleData name="ADM3_EN">
                Nong Don</SimpleData>
                
            <SimpleData name="ADM3_TH">
                หนองโดน</SimpleData>
                
            <SimpleData name="ADM3_PCODE">
                TH311016</SimpleData>
                
            <SimpleData name="ADM2_EN">
                Lam Plai Mat</SimpleData>
                
            <SimpleData name="ADM2_TH">
                ลำปลายมาศ</SimpleData>
                
            <SimpleData name="ADM2_PCODE">
                TH3110</SimpleData>
                
            <SimpleData name="ADM1_EN">
                Buri Ram</SimpleData>
                
            <SimpleData name="ADM1_TH">
                บุรีรัมย์</SimpleData>
                
            <SimpleData name="ADM1_PCODE">
                TH31</SimpleData>
                
            <SimpleData name="ADM0_EN">
                Thailand</SimpleData>
                
            <SimpleData name="ADM0_TH">
                ประเทศไทย</SimpleData>
                
            <SimpleData name="ADM0_PCODE">
                TH</SimpleData>
            
          </SchemaData>
        
        </ExtendedData>
        
        <Polygon>
            
          <outerBoundaryIs>
                
            <LinearRing>
                    
              <coordinates>
                    
                102.844219691,14.9057025330001,0
                102.849219097,14.9054709660001,0
                102.850918216,14.9055025100001,0
                102.850722654,14.9053463180001,0
                102.8506023,14.905272962,0
                102.85045379,14.905173153,0
                102.850422356,14.905155402,0
                102.850319546,14.9050973380001,0
                102.850182871,14.905040409,0
                102.850099458,14.905020274,0
                102.850010886,14.9050217650001,0
                102.849919694,14.9050313760001,0
                102.849823065,14.905046466,0
                102.849745615,14.9050504640001,0
                102.849670742,14.9050436470001,0
                102.849620346,14.9050121870001,0
                102.84957811,14.9049725140001,0
                102.849524186,14.9048980380001,0
                102.849288015,14.904361335,0
                102.849235417,14.9042182470001,0
                102.849200302,14.904122731,0
                102.849201852,14.9037430920001,0
                102.849232767,14.903613347,0
                102.849271936,14.9034807640001,0
                102.849328557,14.903350865,0
                102.849420898,14.9031390330001,0
                102.849689948,14.902544897,0
                102.84987178,14.902183762,0
                102.849911429,14.9020780970001,0
                102.849943684,14.9020237120001,0
                102.849987342,14.9019879750001,0
                102.850060828,14.9019167390001,0
                102.850125015,14.9017965840001,0
                102.850130489,14.901786336,0
                102.850156057,14.901667451,0
                102.850146126,14.9015760780001,0
                102.850111811,14.9015147320001,0
                102.850058377,14.901485227,0
                102.850050298,14.90148077,0
                102.849964071,14.9014579930001,0
                102.849886428,14.901451219,0
                102.849867375,14.9014511010001,0
                102.849770138,14.9014504830001,0
                102.849634518,14.901452766,0
                102.849499143,14.9014685060001,0
                102.849397168,14.901494455,0
                102.849281163,14.901509865,0
                102.849203358,14.9015030080001,0
                102.849197023,14.9015024460001,0
                102.84914205,14.901476116,0
                102.849105596,14.901440382,0
                102.849079878,14.901395382,0
                102.849071232,14.9013470670001,0
                102.849067011,14.901285047,0
                102.849076699,14.9012167340001,0
                102.849092341,14.90113318,0
                102.849129541,14.901035634,0
                102.849161077,14.900969983,0
                102.849227796,14.9008689090001,0
                102.849337816,14.900750451,0
                102.849420618,14.900677881,0
                102.849609251,14.900514179,0
                102.849669,14.900458653,0
                102.849710012,14.900400416,0
                102.849737065,14.900345445,0
                102.849765755,14.9002949860001,0
                102.849803677,14.900238313,0
                102.849823432,14.900210723,0
                102.849864901,14.9001782230001,0
                102.84991888,14.90014854,0
                102.850008825,14.90012734,0
                102.850105159,14.900115117,0
                102.85021897,14.900122288,0
                102.850306583,14.900145046,0
                102.850380347,14.90017712,0
                102.850438998,14.900235196,0
                102.850471159,14.9002922020001,0
                102.850497628,14.900379591,0
                102.850527296,14.900471469,0
                102.850572344,14.9005524900001,0
                102.850623214,14.900610693,0
                102.850647891,14.9006338790001,0
                102.850684979,14.9006687180001,0
                102.850753991,14.900696327,0
                102.850816457,14.9007058780001,0
                102.850874165,14.9007109660001,0
                102.850961294,14.9007064670001,0
                102.851028182,14.9007023140001,0
                102.851132274,14.9006884470001,0
                102.851222219,14.900667243,0
                102.851315173,14.9006399350001,0
                102.851407992,14.900605059,0
                102.851506734,14.9005534200001,0
                102.85161013,14.900500187,0
                102.851862187,14.9003127030001,0
                102.852747403,14.899651149,0
                102.853729813,14.899025818,0
                102.85492399,14.8983121090001,0
                102.855524985,14.897868863,0
                102.855579952,14.897807362,0
                102.855642459,14.897732106,0
                102.855731188,14.897642772,0
                102.855797131,14.897585629,0
                102.85591268,14.8975155370001,0
                102.856074604,14.897426486,0
                102.8561737,14.89739453,0
                102.856232832,14.8973920170001,0
                102.856309112,14.8973907320001,0
                102.856397556,14.8973725820001,0
                102.856470047,14.8973335040001,0
                102.856514361,14.897285809,0
                102.856561595,14.8972274650001,0
                102.856611352,14.897135765,0
                102.85683483,14.896568643,0
                102.85684924,14.8965032830001,0
                102.856846252,14.89642307,0
                102.856828104,14.8963658280001,0
                102.856805284,14.896308667,0
                102.856766867,14.8962502520001,0
                102.856717367,14.8961814250001,0
                102.85653931,14.895976954,0
                102.856425361,14.895874384,0
                102.856289507,14.8957661220001,0
                102.856163561,14.8956894930001,0
                102.856031956,14.895644765,0
                102.855938496,14.8956433130001,0
                102.85589896,14.895645487,0
                102.855859151,14.8956476770001,0
                102.855749078,14.8956752770001,0
                102.855645205,14.895701258,0
                102.855559717,14.8957102700001,0
                102.85548185,14.895710066,0
                102.855417644,14.8956899470001,0
                102.855348391,14.895648712,0
                102.855311425,14.8955842130001,0
                102.855289572,14.895493721,0
                102.855287738,14.8953907710001,0
                102.855286249,14.895307175,0
                102.8552855,14.8952651130001,0
                102.855276525,14.8951986340001,0
                102.855250217,14.8951203250001,0
                102.855205412,14.8950529360001,0
                102.855151593,14.895003865,0
                102.855085236,14.894950464,0
                102.855017648,14.894915256,0
                102.854936104,14.894883314,0
                102.854836012,14.8948592560001,0
                102.854718953,14.8948445720001,0
                102.85457248,14.894839463,0
                102.854031981,14.8948319080001,0
                102.853941877,14.8948440290001,0
                102.853839536,14.894868467,0
                102.853739181,14.8949171030001,0
                102.853665154,14.8949577230001,0
                102.853513399,14.8950057110001,0
                102.853431025,14.895014668,0
                102.853350127,14.89501906,0
                102.853286147,14.89501455,0
                102.853209454,14.894978602,0
                102.853139343,14.8949301590001,0
                102.853087075,14.8948601540001,0
                102.853045609,14.894782875,0
                102.853007408,14.894684279,0
                102.852987359,14.89458183,0
                102.852974726,14.894486344,0
                102.852990294,14.894337217,0
                102.853323483,14.893399448,0
                102.853369084,14.8932994420001,0
                102.853444335,14.8932272870001,0
                102.853534348,14.8931655170001,0
                102.853609477,14.893086275,0
                102.853669336,14.8929683060001,0
                102.853666813,14.8928265760001,0
                102.853649271,14.892660285,0
                102.853598249,14.8924555720001,0
                102.853585489,14.8923530050001,0
                102.853595096,14.892278409,0
                102.853660665,14.892205776,0
                102.853673761,14.8921968940001,0
                102.85380427,14.892154379,0
                102.854102028,14.892092658,0
                102.854157509,14.8920618870001,0
                102.854253606,14.8920085870001,0
                102.854357565,14.8919111390001,0
                102.854406111,14.8917720910001,0
                102.854432926,14.891640502,0
                102.85441947,14.8914989520001,0
                102.854358779,14.8913652910001,0
                102.854255435,14.891292601,0
                102.854001891,14.8911763620001,0
                102.853672779,14.8911145600001,0
                102.853599281,14.8910803540001,0
                102.853514343,14.8910179860001,0
                102.853451084,14.8909446210001,0
                102.85342042,14.89086007,0
                102.853389063,14.8907365470001,0
                102.853379886,14.8906303740001,0
                102.853399222,14.890488271,0
                102.85354681,14.8899754030001,0
                102.853611132,14.8899034360001,0
                102.853665154,14.8898670840001,0
                102.853734127,14.889851746,0
                102.853894315,14.889841957,0
                102.854079561,14.889806939,0
                102.854224038,14.889733619,0
                102.85432473,14.8896574940001,0
                102.854453308,14.8895100120001,0
                102.854527169,14.889359907,0
                102.854579614,14.8892349710001,0
                102.8545813,14.889125069,0
                102.854556791,14.8889766200001,0
                102.854358946,14.8885085530001,0
                102.854035454,14.8879433600001,0
                102.853964653,14.887855947,0
                102.853872436,14.8877937,0
                102.853696227,14.8877222360001,0
                102.853600491,14.887667139,0
                102.853529563,14.887572634,0
                102.853473209,14.8874778840001,0
                102.853445939,14.8873791030001,0
                102.853436383,14.887251668,0
                102.853467156,14.8871377290001,0
                102.853544851,14.886998192,0
                102.853666899,14.8868933520001,0
                102.854006097,14.886703337,0
                102.854136313,14.886647984,0
                102.854244355,14.8865752780001,0
                102.854279404,14.8864967110001,0
                102.854292147,14.88639371,0
                102.854261358,14.886302077,0
                102.854190242,14.886196946,0
                102.854094442,14.886138305,0
                102.853958946,14.8861015950001,0
                102.853791161,14.886093784,0
                102.853623626,14.8861001510001,0
                102.853460305,14.886138343,0
                102.85323561,14.8862094670001,0
                102.852752303,14.8862884870001,0
                102.851539365,14.886326615,0
                102.850776508,14.886261468,0
                102.849811372,14.8860933880001,0
                102.84952794,14.886140686,0
                102.849430453,14.886191949,0
                102.849359536,14.886303012,0
                102.849289311,14.8864530590001,0
                102.849168587,14.886632305,0
                102.849057652,14.886747589,0
                102.848953068,14.886809602,0
                102.84853596,14.8869229430001,0
                102.848489417,14.886969804,0
                102.848397898,14.887152105,0
                102.848300665,14.8874231080001,0
                102.848240742,14.8875375370001,0
                102.848165805,14.8876274020001,0
                102.848086844,14.887696073,0
                102.847454753,14.8879597230001,0
                102.847312477,14.887974715,0
                102.847104645,14.887946705,0
                102.846935114,14.887886543,0
                102.846803672,14.8877816290001,0
                102.845969503,14.886050244,0
                102.845763557,14.885512594,0
                102.845727033,14.8852800670001,0
                102.845736071,14.885059379,0
                102.845835566,14.8848245630001,0
                102.845962648,14.884683809,0
                102.84606774,14.884599984,0
                102.846115978,14.8845615110001,0
                102.846436924,14.8843922930001,0
                102.846785459,14.8843171250001,0
                102.847082291,14.884249127,0
                102.847229697,14.8841584360001,0
                102.847343714,14.8840115950001,0
                102.847399322,14.883859436,0
                102.847378548,14.883538758,0
                102.847312757,14.883363106,0
                102.847192251,14.8831445920001,0
                102.847067175,14.883033272,0
                102.846891398,14.8829858140001,0
                102.846697979,14.883039474,0
                102.846511821,14.883137118,0
                102.846352018,14.8832595220001,0
                102.846234279,14.8833984450001,0
                102.84623312,14.883399818,0
                102.846129905,14.883521595,0
                102.846040456,14.8835924110001,0
                102.845859657,14.883626952,0
                102.845716714,14.883604151,0
                102.845613817,14.8835317640001,0
                102.845571581,14.883474984,0
                102.845539591,14.883366891,0
                102.845534,14.883051933,0
                102.845567272,14.8827363180001,0
                102.845628129,14.882514761,0
                102.845747503,14.882304818,0
                102.845940407,14.882142038,0
                102.846073529,14.882068589,0
                102.847565969,14.8814551360001,0
                102.847720626,14.881415383,0
                102.847959394,14.8813540090001,0
                102.847983737,14.8813423390001,0
                102.848299878,14.881190765,0
                102.848568892,14.8810161120001,0
                102.848721877,14.880874921,0
                102.84882327,14.880747195,0
                102.848854412,14.8805808720001,0
                102.848858778,14.8805575650001,0
                102.848856407,14.880530148,0
                102.848844785,14.880395654,0
                102.848842466,14.880368806,0
                102.848737576,14.8801958240001,0
                102.848729001,14.880181679,0
                102.848674224,14.880123514,0
                102.848577118,14.8800204070001,0
                102.848282967,14.879874123,0
                102.847982789,14.8797531430001,0
                102.847714777,14.8796673420001,0
                102.847501092,14.8795328630001,0
                102.847305454,14.8793359310001,0
                102.847194751,14.8791170330001,0
                102.847120136,14.878888417,0
                102.847088733,14.878662472,0
                102.847142909,14.87736662,0
                102.847201701,14.877198611,0
                102.847230725,14.8771521620001,0
                102.847325791,14.8770345510001,0
                102.847571218,14.8768614850001,0
                102.847712658,14.87679883,0
                102.848097723,14.8766739870001,0
                102.848972632,14.8763605720001,0
                102.850051185,14.875983992,0
                102.850803271,14.8756726350001,0
                102.851307947,14.875265864,0
                102.851601705,14.874944785,0
                102.851787793,14.874621829,0
                102.851809447,14.874536517,0
                102.851805758,14.8743289450001,0
                102.851782885,14.8742229650001,0
                102.851692987,14.874032164,0
                102.851674717,14.873868175,0
                102.851714406,14.873509046,0
                102.851861294,14.8731331810001,0
                102.852163035,14.872829392,0
                102.852466513,14.872669371,0
                102.852688355,14.872608729,0
                102.853033604,14.872560849,0
                102.853800686,14.872518079,0
                102.854448159,14.8724131290001,0
                102.854555369,14.87237788,0
                102.854710874,14.872273229,0
                102.85480517,14.8721368940001,0
                102.854834549,14.8719331290001,0
                102.854789587,14.871684202,0
                102.854703469,14.8715700610001,0
                102.854548917,14.8714151830001,0
                102.854285277,14.8712702550001,0
                102.853851963,14.871083379,0
                102.853433475,14.8708663780001,0
                102.852997513,14.870530183,0
                102.852215048,14.869706927,0
                102.851417739,14.868047511,0
                102.851261893,14.867543889,0
                102.851252961,14.867507453,0
                102.851266267,14.8669765400001,0
                102.851327633,14.866762308,0
                102.851464164,14.866474033,0
                102.851645409,14.8662756520001,0
                102.851865026,14.8661609050001,0
                102.852268352,14.866097073,0
                102.854247743,14.8662431230001,0
                102.854731325,14.866234993,0
                102.855098576,14.8661616050001,0
                102.855451919,14.8659540310001,0
                102.855791164,14.865601068,0
                102.856013673,14.865160455,0
                102.856055345,14.864690323,0
                102.855981285,14.864168583,0
                102.855958269,14.8639673380001,0
                102.855987405,14.8637841180001,0
                102.856029269,14.863588082,0
                102.856116918,14.863416482,0
                102.856334428,14.8632615990001,0
                102.856558525,14.863112904,0
                102.856872622,14.862924892,0
                102.857135694,14.8627818460001,0
                102.857376419,14.8624753440001,0
                102.857513074,14.862145394,0
                102.857635465,14.861514018,0
                102.85760629,14.86096632,0
                102.857555013,14.860541862,0
                102.857397551,14.860156998,0
                102.85723298,14.8599187510001,0
                102.857064139,14.859713659,0
                102.856886088,14.859537072,0
                102.856698321,14.859360651,0
                102.856514487,14.859132179,0
                102.85642839,14.8589351420001,0
                102.856415063,14.858732162,0
                102.856440094,14.8585001770001,0
                102.856569055,14.858278338,0
                102.855838459,14.858102676,0
                102.85441974,14.857913239,0
                102.851327363,14.8577712850001,0
                102.847438518,14.857681433,0
                102.845362149,14.8575029670001,0
                102.844839253,14.857425129,0
                102.842842366,14.857050761,0
                102.84156372,14.8568912110001,0
                102.840421136,14.856910343,0
                102.839653298,14.857078314,0
                102.838131789,14.85821545,0
                102.836300989,14.8599006630001,0
                102.834503968,14.861557245,0
                102.834130202,14.861901791,0
                102.833475019,14.8624298080001,0
                102.832919276,14.862568362,0
                102.832042832,14.862608863,0
                102.831091676,14.862645796,0
                102.830656453,14.862564069,0
                102.829374606,14.862032959,0
                102.829080324,14.8619359410001,0
                102.827583288,14.86144239,0
                102.826196035,14.861155304,0
                102.823693181,14.860912661,0
                102.822582024,14.860975044,0
                102.822517261,14.860957055,0
                102.82219909,14.860973116,0
                102.821039412,14.86077915,0
                102.819238238,14.860382572,0
                102.818580464,14.860305893,0
                102.818219439,14.8602638040001,0
                102.816765252,14.8603267880001,0
                102.815907595,14.860302281,0
                102.814551369,14.8601417150001,0
                102.813189672,14.859795944,0
                102.810522676,14.858909538,0
                102.80855221,14.857953364,0
                102.808048864,14.8576708680001,0
                102.807226662,14.8568733280001,0
                102.806327981,14.856167595,0
                102.805858385,14.855535505,0
                102.805421473,14.854600724,0
                102.805396301,14.854479129,0
                102.805145426,14.853814324,0
                102.804719522,14.8533996460001,0
                102.804633961,14.853356386,0
                102.804357479,14.8532165930001,0
                102.803712463,14.8530964030001,0
                102.802993226,14.8530065260001,0
                102.802557217,14.8528683230001,0
                102.796498984,14.851733559,0
                102.794774952,14.8513940230001,0
                102.792921318,14.8512456130001,0
                102.789197181,14.8508887140001,0
                102.788783474,14.851556456,0
                102.788018951,14.852338671,0
                102.787281494,14.852990936,0
                102.786859703,14.8535276260001,0
                102.786749264,14.853785943,0
                102.786690922,14.8542587900001,0
                102.78660634,14.8546133350001,0
                102.786522016,14.8554300380001,0
                102.785792698,14.858956408,0
                102.785919281,14.8591527300001,0
                102.78598202,14.8593803380001,0
                102.785977602,14.859515581,0
                102.785976545,14.8595478340001,0
                102.785925408,14.8597446590001,0
                102.785922496,14.859818198,0
                102.786050821,14.8601958030001,0
                102.786193866,14.8604547470001,0
                102.78626265,14.860547518,0
                102.786391753,14.860659824,0
                102.78656069,14.860787578,0
                102.78659512,14.860836007,0
                102.786614326,14.860974512,0
                102.78663666,14.861051721,0
                102.786743359,14.861152035,0
                102.786845505,14.8612320070001,0
                102.786876449,14.861321321,0
                102.786853048,14.861423777,0
                102.786820613,14.861489642,0
                102.786804974,14.8615552270001,0
                102.786805829,14.8616042090001,0
                102.786840112,14.861644472,0
                102.787156187,14.862771792,0
                102.78813766,14.865483327,0
                102.791037236,14.873704048,0
                102.791512827,14.8750516710001,0
                102.792173508,14.8762130600001,0
                102.792643979,14.8772676830001,0
                102.792861114,14.878912664,0
                102.792845897,14.880195138,0
                102.792512054,14.883815956,0
                102.799763448,14.8891672940001,0
                102.800707279,14.8902869140001,0
                102.801471256,14.891193174,0
                102.804062859,14.8949897520001,0
                102.806079277,14.897264579,0
                102.808034618,14.897731188,0
                102.809590379,14.8981382540001,0
                102.810112212,14.8983666350001,0
                102.811052832,14.8986051050001,0
                102.811858536,14.8986022730001,0
                102.812718851,14.8986091140001,0
                102.813320534,14.898768509,0
                102.816909597,14.900657484,0
                102.817714458,14.900950628,0
                102.819548999,14.901248256,0
                102.820960135,14.9016164710001,0
                102.823297846,14.902460929,0
                102.824770552,14.9028133150001,0
                102.838627718,14.905002175,0
                102.839056559,14.9051006980001,0
                102.839509095,14.9052214710001,0
                102.839868203,14.905328711,0
                102.840211921,14.9054437610001,0
                102.840625641,14.9055651890001,0
                102.84093737,14.905627914,0
                102.841261984,14.905752229,0
                102.841550155,14.90580025,0
                102.841884231,14.9058097430001,0
                102.842957675,14.9057604700001,0
                102.844219691,14.9057025330001,0
              </coordinates>
                
            </LinearRing>
            
          </outerBoundaryIs>
        
        </Polygon>
        
      <styleUrl>
        #tambonStyle</styleUrl>
    </Placemark>

  </Document>
</kml>