<?xml version="1.0" encoding="UTF-8"?>
<kml xmlns="http://www.opengis.net/kml/2.2">
  <Document id="tambon_doc">
    <name>หนองกุงใหญ่, กระนวน, Khon Kaen</name>
    <description>ข้อมูลขอบเขตตำบลหนองกุงใหญ่ อำเภอกระนวน จังหวัดKhon Kaen</description>
    
    <!-- Schema สำหรับข้อมูลตำบล -->
    <Schema id="tambon.schema">
      <SimpleField name="ADM3_EN" type="string">
        <displayName>Subdistrict Name (English)</displayName>
      </SimpleField>
      <SimpleField name="ADM3_TH" type="string">
        <displayName>ชื่อตำบล</displayName>
      </SimpleField>
      <SimpleField name="ADM2_EN" type="string">
        <displayName>District Name (English)</displayName>
      </SimpleField>
      <SimpleField name="ADM2_TH" type="string">
        <displayName>ชื่ออำเภอ</displayName>
      </SimpleField>
      <SimpleField name="ADM1_EN" type="string">
        <displayName>Province Name (English)</displayName>
      </SimpleField>
      <SimpleField name="ADM1_TH" type="string">
        <displayName>ชื่อจังหวัด</displayName>
      </SimpleField>
      <SimpleField name="ADM0_EN" type="string">
        <displayName>Country Name (English)</displayName>
      </SimpleField>
      <SimpleField name="ADM0_TH" type="string">
        <displayName>ชื่อประเทศ</displayName>
      </SimpleField>
    </Schema>

    <!-- Style สำหรับตำบล -->
    <Style id="tambonStyle">
      <LineStyle>
        <color>ffff0000</color>
        <width>1.5</width>
      </LineStyle>
      <PolyStyle>
        <color>33ff0000</color>
        <fill>1</fill>
        <outline>1</outline>
      </PolyStyle>
    </Style>

    <Placemark id="Khon_Kaen.82">
        
        <ExtendedData>
            
          <SchemaData schemaUrl="#tambon.schema">
                
            <SimpleData name="Shape_Leng">
                0.350608469077</SimpleData>
                
            <SimpleData name="Shape_Area">
                0.00381473309889</SimpleData>
                
            <SimpleData name="ADM3_EN">
                Nong Kung Yai</SimpleData>
                
            <SimpleData name="ADM3_TH">
                หนองกุงใหญ่</SimpleData>
                
            <SimpleData name="ADM3_PCODE">
                TH400902</SimpleData>
                
            <SimpleData name="ADM2_EN">
                Kranuan</SimpleData>
                
            <SimpleData name="ADM2_TH">
                กระนวน</SimpleData>
                
            <SimpleData name="ADM2_PCODE">
                TH4009</SimpleData>
                
            <SimpleData name="ADM1_EN">
                Khon Kaen</SimpleData>
                
            <SimpleData name="ADM1_TH">
                ขอนแก่น</SimpleData>
                
            <SimpleData name="ADM1_PCODE">
                TH40</SimpleData>
                
            <SimpleData name="ADM0_EN">
                Thailand</SimpleData>
                
            <SimpleData name="ADM0_TH">
                ประเทศไทย</SimpleData>
                
            <SimpleData name="ADM0_PCODE">
                TH</SimpleData>
            
          </SchemaData>
        
        </ExtendedData>
        
        <Polygon>
            
          <outerBoundaryIs>
                
            <LinearRing>
                    
              <coordinates>
                    
                103.096242218,16.669405808,0
                103.096294473,16.669397888,0
                103.096330155,16.6694007450001,0
                103.09635782,16.66940931,0
                103.09640093,16.6694349110001,0
                103.096514296,16.6695159930001,0
                103.096569917,16.669542791,0
                103.096619453,16.669551649,0
                103.09665547,16.6695519790001,0
                103.096697848,16.6695344820001,0
                103.096726686,16.6695024960001,0
                103.096750709,16.669457277,0
                103.096759815,16.6694119200001,0
                103.096767467,16.6693259890001,0
                103.096768489,16.669222561,0
                103.096780232,16.669168557,0
                103.096811296,16.6691148200001,0
                103.096860041,16.669047334,0
                103.096946135,16.6689549860001,0
                103.097116458,16.668763498,0
                103.097174895,16.6686930280001,0
                103.097289129,16.6685065360001,0
                103.097330191,16.6684107930001,0
                103.097353615,16.668316786,0
                103.097355877,16.6682442650001,0
                103.097345356,16.6681905080001,0
                103.097312558,16.6679974250001,0
                103.097320141,16.667847985,0
                103.097345808,16.667730239,0
                103.09742734,16.667544079,0
                103.097503422,16.6674402570001,0
                103.097552937,16.6673885860001,0
                103.097585264,16.667363498,0
                103.097727011,16.6672711190001,0
                103.097846869,16.667203472,0
                103.097870326,16.667184084,0
                103.097895313,16.667150798,0
                103.097925565,16.6671087070001,0
                103.097994147,16.666950161,0
                103.098048598,16.6668215670001,0
                103.098074367,16.6667872940001,0
                103.098120024,16.666742906,0
                103.098160676,16.666719883,0
                103.098207339,16.6667066690001,0
                103.09825474,16.666704845,0
                103.098324025,16.6667176770001,0
                103.098402516,16.6667296000001,0
                103.098447698,16.6667254980001,0
                103.098490668,16.6667025850001,0
                103.098515235,16.666672729,0
                103.098538882,16.66661838,0
                103.098551048,16.6665605860001,0
                103.098552412,16.6665164230001,0
                103.09854342,16.666198169,0
                103.098532944,16.6660302240001,0
                103.098512357,16.6659702320001,0
                103.098503522,16.665933474,0
                103.098467445,16.665884541,0
                103.098309489,16.6656696210001,0
                103.098234822,16.665552129,0
                103.098209709,16.6655043810001,0
                103.098203441,16.665466021,0
                103.098204802,16.6654222180001,0
                103.09820821,16.6654044840001,0
                103.098208967,16.665387609,0
                103.098223003,16.6652947060001,0
                103.09823701,16.6652005170001,0
                103.098251785,16.6651423330001,0
                103.098271924,16.665085329,0
                103.098296394,16.665043677,0
                103.098333007,16.665008217,0
                103.09836581,16.6649818380001,0
                103.09839219,16.6649671650001,0
                103.098429618,16.664960583,0
                103.098442918,16.66495573,0
                103.098518869,16.6649432360001,0
                103.09858228,16.6649402960001,0
                103.098637167,16.6649238160001,0
                103.098699638,16.664890873,0
                103.098764747,16.6648412430001,0
                103.098831209,16.6647797000001,0
                103.098842265,16.664766124,0
                103.09886395,16.664746839,0
                103.098908294,16.664698361,0
                103.098939626,16.664665579,0
                103.098991106,16.6646388290001,0
                103.099041525,16.664624965,0
                103.099145444,16.6646164740001,0
                103.099289467,16.664611048,0
                103.099435279,16.6646089160001,0
                103.099530576,16.6646151960001,0
                103.099548465,16.6646118370001,0
                103.099557823,16.664603431,0
                103.09957763,16.664562419,0
                103.099662731,16.664335276,0
                103.099687671,16.664306777,0
                103.099732023,16.6642847800001,0
                103.099851712,16.664249652,0
                103.100216373,16.66413393,0
                103.100250333,16.6641155410001,0
                103.100259326,16.6640971050001,0
                103.100259631,16.664066212,0
                103.100174303,16.6637052500001,0
                103.10017651,16.6636695880001,0
                103.100191697,16.6636423530001,0
                103.100236629,16.663592899,0
                103.100322627,16.663509854,0
                103.10038271,16.6634369600001,0
                103.100437883,16.6632894910001,0
                103.10056564,16.6628284020001,0
                103.10058911,16.6628076590001,0
                103.100645658,16.662771589,0
                103.100932799,16.6626548850001,0
                103.101020649,16.6626270520001,0
                103.101080226,16.662628682,0
                103.101139627,16.6626403390001,0
                103.101273034,16.662687723,0
                103.101382331,16.662718897,0
                103.101514366,16.662732846,0
                103.101631642,16.662738618,0
                103.10174263,16.662715785,0
                103.101795776,16.6626876340001,0
                103.101861003,16.6626102700001,0
                103.101951687,16.6624752320001,0
                103.102034206,16.6623136490001,0
                103.102047814,16.662274025,0
                103.102050487,16.6621754,0
                103.102039144,16.662008712,0
                103.102035012,16.6618946670001,0
                103.102047512,16.661826305,0
                103.102074339,16.661770812,0
                103.102105076,16.6617264670001,0
                103.102156931,16.6616724680001,0
                103.102208625,16.661634909,0
                103.102261556,16.66160504,0
                103.102436956,16.661532477,0
                103.102491692,16.6615076840001,0
                103.102533415,16.661470034,0
                103.102548996,16.661418413,0
                103.102555144,16.6613435790001,0
                103.102537814,16.6611962580001,0
                103.102521834,16.660982372,0
                103.102510611,16.6607643730001,0
                103.102514315,16.6607256520001,0
                103.102544868,16.660692054,0
                103.102573597,16.660663228,0
                103.102725561,16.6605764490001,0
                103.102920126,16.6604805750001,0
                103.102983225,16.660446372,0
                103.103019531,16.660417163,0
                103.103060524,16.6603673110001,0
                103.103135741,16.6602799190001,0
                103.103216388,16.6602219380001,0
                103.103312038,16.6601788180001,0
                103.103378917,16.6601610920001,0
                103.10346889,16.6601451110001,0
                103.103562378,16.660133139,0
                103.103604466,16.660113289,0
                103.103621859,16.6600895980001,0
                103.103719787,16.659830861,0
                103.103741526,16.6597502980001,0
                103.103741887,16.6597136230001,0
                103.103688001,16.659573649,0
                103.103604101,16.659357604,0
                103.10360849,16.659304435,0
                103.103633547,16.6592716010001,0
                103.10365859,16.65924798,0
                103.104200023,16.6590050450001,0
                103.104238372,16.658988231,0
                103.104420621,16.658839846,0
                103.104663876,16.6586418800001,0
                103.104669134,16.65863885,0
                103.104849972,16.658534634,0
                103.104945464,16.6584760640001,0
                103.104970342,16.658453525,0
                103.104986024,16.6584150040001,0
                103.104986499,16.6583668590001,0
                103.104959267,16.6581885520001,0
                103.104951442,16.658119825,0
                103.10496038,16.658075459,0
                103.104986234,16.6580244730001,0
                103.105009623,16.6579805120001,0
                103.105050162,16.6579294800001,0
                103.105111207,16.657868336,0
                103.105209853,16.657787663,0
                103.105339411,16.657691733,0
                103.10542846,16.6576359960001,0
                103.105476773,16.6576197250001,0
                103.105523917,16.6576201550001,0
                103.105672881,16.6576572910001,0
                103.105849977,16.657694593,0
                103.106033759,16.6577280720001,0
                103.106092871,16.6577298770001,0
                103.106201611,16.65772301,0
                103.106292579,16.6576999910001,0
                103.106357346,16.6576767350001,0
                103.106432021,16.657628543,0
                103.106495957,16.657556315,0
                103.10659119,16.657437486,0
                103.106746034,16.657253887,0
                103.106895722,16.657122907,0
                103.107001455,16.6570603650001,0
                103.107074001,16.657039979,0
                103.107130475,16.657034803,0
                103.107171043,16.6570437560001,0
                103.107219324,16.6570699440001,0
                103.107248646,16.657106437,0
                103.107306328,16.6572064270001,0
                103.107376302,16.6573141170001,0
                103.107399006,16.65733185,0
                103.107441456,16.6573458780001,0
                103.107486081,16.6573510740001,0
                103.107762656,16.6573487210001,0
                103.107877982,16.657332518,0
                103.107916586,16.657313087,0
                103.107945074,16.657284981,0
                103.10800729,16.657206683,0
                103.108077208,16.657123487,0
                103.10820519,16.657014712,0
                103.108275899,16.656984553,0
                103.108314924,16.65697741,0
                103.108380021,16.656975656,0
                103.108549209,16.6569840660001,0
                103.108655255,16.6569840390001,0
                103.108703316,16.6569697530001,0
                103.108727893,16.656954258,0
                103.108741663,16.6569215910001,0
                103.10875224,16.656875433,0
                103.108756086,16.656782962,0
                103.108759841,16.6566997040001,0
                103.108766187,16.656643752,0
                103.10879582,16.656593523,0
                103.108835562,16.6565448310001,0
                103.108904413,16.656499297,0
                103.109001001,16.656446879,0
                103.109102821,16.6563891770001,0
                103.109287222,16.6562570670001,0
                103.109453466,16.6561322900001,0
                103.109538426,16.6560755200001,0
                103.109641675,16.6560137660001,0
                103.109767348,16.655966941,0
                103.109846518,16.6559330640001,0
                103.109991886,16.655879735,0
                103.110140766,16.6558230040001,0
                103.110217484,16.6558027450001,0
                103.110298377,16.655790203,0
                103.110360624,16.6557952860001,0
                103.110414701,16.6558139380001,0
                103.110448649,16.655827889,0
                103.110496686,16.655863378,0
                103.11057571,16.655954708,0
                103.11062805,16.656016344,0
                103.11066423,16.6560392590001,0
                103.11070179,16.656047551,0
                103.110759389,16.6560537670001,0
                103.110957611,16.6560491600001,0
                103.111222658,16.6560399210001,0
                103.11125917,16.656044771,0
                103.111320636,16.65606647,0
                103.111379853,16.6560968220001,0
                103.111486757,16.656158955,0
                103.111597382,16.6562200380001,0
                103.111704051,16.6562667210001,0
                103.111828509,16.656296582,0
                103.111904794,16.6563019820001,0
                103.111973252,16.656295899,0
                103.112026446,16.6562871240001,0
                103.11208598,16.656262785,0
                103.112159693,16.6562150090001,0
                103.112231604,16.656145398,0
                103.112283561,16.656078757,0
                103.112329962,16.6560019350001,0
                103.112375468,16.6559457130001,0
                103.112425225,16.6559009860001,0
                103.112461833,16.655865524,0
                103.112529041,16.6558255960001,0
                103.112584546,16.655800051,0
                103.112641713,16.6557899090001,0
                103.1126627,16.65578901,0
                103.11269922,16.655782173,0
                103.112803297,16.655778062,0
                103.112860942,16.6557795790001,0
                103.113082753,16.6558048160001,0
                103.113270927,16.655823964,0
                103.113337748,16.655843453,0
                103.113540824,16.6559272390001,0
                103.113707762,16.6559838650001,0
                103.113794433,16.655996939,0
                103.113804279,16.6559965020001,0
                103.113843302,16.6559947640001,0
                103.114150543,16.655970638,0
                103.114297089,16.655970616,0
                103.114493892,16.6559847830001,0
                103.114594477,16.6559830310001,0
                103.114651504,16.6559763860001,0
                103.114696612,16.6559639120001,0
                103.114736218,16.655943827,0
                103.114755897,16.655927999,0
                103.114780555,16.6558953480001,0
                103.114802462,16.655858892,0
                103.114820147,16.6558122280001,0
                103.114844145,16.6557487150001,0
                103.114868554,16.6557044910001,0
                103.114888124,16.655683519,0
                103.114917196,16.655670076,0
                103.114946351,16.655660492,0
                103.114988928,16.655654499,0
                103.114999569,16.655655312,0
                103.115038373,16.6556493370001,0
                103.115085167,16.655646059,0
                103.115190979,16.655646118,0
                103.115236191,16.655646529,0
                103.115274218,16.6556544630001,0
                103.115375047,16.655697839,0
                103.115454805,16.655722143,0
                103.115508643,16.655725794,0
                103.115577257,16.6557200940001,0
                103.115655079,16.655697404,0
                103.115809668,16.6556416240001,0
                103.116058607,16.65554081,0
                103.116181837,16.6554907080001,0
                103.116319931,16.655422221,0
                103.116364557,16.655395615,0
                103.116457037,16.6553363800001,0
                103.116592348,16.6552522380001,0
                103.116656509,16.655227617,0
                103.116703953,16.655213143,0
                103.116782133,16.655209245,0
                103.116858618,16.655212831,0
                103.116972564,16.655210976,0
                103.117050614,16.655204547,0
                103.117112821,16.6551900260001,0
                103.117162034,16.65516861,0
                103.117229312,16.655125587,0
                103.117318234,16.655066591,0
                103.117472294,16.6549540730001,0
                103.117525162,16.6549223010001,0
                103.117581417,16.6549079060001,0
                103.117626838,16.6549026280001,0
                103.117691567,16.6548991500001,0
                103.117730128,16.654884053,0
                103.117780609,16.6548434970001,0
                103.117869946,16.654749903,0
                103.117916116,16.6547154510001,0
                103.117948202,16.6547065280001,0
                103.117991647,16.654705748,0
                103.118051042,16.654702222,0
                103.118128226,16.6547053620001,0
                103.118157177,16.6547007460001,0
                103.118196147,16.654683484,0
                103.118230928,16.65465986,0
                103.118261589,16.654622739,0
                103.118292336,16.654568813,0
                103.118326589,16.654496312,0
                103.118359495,16.654450808,0
                103.118400868,16.654424895,0
                103.118440655,16.6544030330001,0
                103.118470655,16.654394,0
                103.118515035,16.654392506,0
                103.118540089,16.6543992360001,0
                103.118591906,16.654427621,0
                103.118648945,16.6544674370001,0
                103.118725138,16.6545087810001,0
                103.118766388,16.654519092,0
                103.118795653,16.654521888,0
                103.118818074,16.654513509,0
                103.118840202,16.654495191,0
                103.118903946,16.654418349,0
                103.118940131,16.654377482,0
                103.118986671,16.6543527000001,0
                103.119049745,16.654336469,0
                103.119108291,16.6543327530001,0
                103.119185063,16.6543385090001,0
                103.11928476,16.654355314,0
                103.119355392,16.654364356,0
                103.119397339,16.6543588640001,0
                103.119418415,16.6543533650001,0
                103.119438657,16.6543385520001,0
                103.119455633,16.654309617,0
                103.119490118,16.6541974570001,0
                103.119533523,16.654082126,0
                103.119555069,16.65402857,0
                103.119588182,16.6539935480001,0
                103.119633104,16.653968118,0
                103.119700789,16.6539466890001,0
                103.119809214,16.653932406,0
                103.120012515,16.6539219630001,0
                103.120102392,16.6539154600001,0
                103.120168352,16.6538965460001,0
                103.120189991,16.653880932,0
                103.120204175,16.6538530550001,0
                103.120217403,16.653812342,0
                103.120235996,16.6537603840001,0
                103.120261462,16.6536932220001,0
                103.120274597,16.653677868,0
                103.120285577,16.6536567900001,0
                103.120357594,16.6535923210001,0
                103.120430052,16.653548427,0
                103.120520044,16.653513188,0
                103.120642242,16.6534863140001,0
                103.120683116,16.6534827400001,0
                103.120700857,16.6534799400001,0
                103.120860604,16.6534656690001,0
                103.121024013,16.653471939,0
                103.121120495,16.653469651,0
                103.121184439,16.6534513500001,0
                103.121256697,16.6534126170001,0
                103.12131187,16.65338231,0
                103.121373498,16.653379526,0
                103.12141753,16.653389953,0
                103.121452157,16.653413755,0
                103.121508411,16.6534626870001,0
                103.121597673,16.653511194,0
                103.121664466,16.6535337510001,0
                103.121731957,16.6535399640001,0
                103.121789692,16.6535322670001,0
                103.121835701,16.6535142540001,0
                103.121878906,16.6534827560001,0
                103.121994215,16.653364733,0
                103.122073657,16.653302667,0
                103.122187105,16.653240908,0
                103.122403246,16.653126329,0
                103.122613716,16.652982969,0
                103.122724734,16.6529245310001,0
                103.122946746,16.652842074,0
                103.123147598,16.6527813770001,0
                103.123224562,16.6527674390001,0
                103.123272087,16.652776181,0
                103.123293585,16.65279101,0
                103.123321376,16.652826224,0
                103.123373167,16.6529048360001,0
                103.123425718,16.653000799,0
                103.12345382,16.653035925,0
                103.123484699,16.6530635770001,0
                103.123539544,16.653090633,0
                103.123581779,16.6530951720001,0
                103.123624959,16.6530897800001,0
                103.123666508,16.6530693780001,0
                103.123753666,16.6529928360001,0
                103.123813575,16.652944415,0
                103.1238508,16.652931472,0
                103.123892961,16.6529277870001,0
                103.123977103,16.652930537,0
                103.124033008,16.6529361020001,0
                103.124188397,16.6529723790001,0
                103.124253128,16.6529763070001,0
                103.124294311,16.652961955,0
                103.124307734,16.652948614,0
                103.124327556,16.6529132920001,0
                103.124344738,16.652863127,0
                103.12436275,16.65281523,0
                103.124387664,16.652772815,0
                103.124420472,16.6527372480001,0
                103.124471431,16.652711057,0
                103.124517486,16.6526962070001,0
                103.124560238,16.6526950580001,0
                103.124595838,16.652698452,0
                103.124628945,16.652711669,0
                103.124655871,16.6527403700001,0
                103.12466889,16.6527766240001,0
                103.124674558,16.652805764,0
                103.124670787,16.652835813,0
                103.124658386,16.652871114,0
                103.124631728,16.6529497400001,0
                103.124628382,16.652975817,0
                103.124632051,16.6529880460001,0
                103.124647033,16.6530051660001,0
                103.124675284,16.653016985,0
                103.124730139,16.6530192870001,0
                103.124756618,16.6530146480001,0
                103.124859399,16.652976552,0
                103.125016758,16.652913653,0
                103.125158503,16.652866693,0
                103.125309311,16.652817828,0
                103.125446211,16.652768296,0
                103.125535792,16.652752483,0
                103.125645833,16.6527546520001,0
                103.125785524,16.6527757900001,0
                103.125859888,16.6527907350001,0
                103.125919368,16.6528100640001,0
                103.126019753,16.652859574,0
                103.126130524,16.6529058350001,0
                103.126202724,16.6529287110001,0
                103.126288536,16.6529426770001,0
                103.126471902,16.652955445,0
                103.126566889,16.652971752,0
                103.126612451,16.6529997170001,0
                103.126644084,16.653029363,0
                103.126671325,16.653089414,0
                103.126678919,16.6531510040001,0
                103.126705623,16.653266247,0
                103.126730843,16.6533672940001,0
                103.12674622,16.65339426,0
                103.126782368,16.653457648,0
                103.12688904,16.653567922,0
                103.126932795,16.653598851,0
                103.126969728,16.6536081290001,0
                103.127023895,16.6536096130001,0
                103.127074149,16.6536002190001,0
                103.127109137,16.653578854,0
                103.127139114,16.6535325090001,0
                103.127146513,16.653494994,0
                103.127145592,16.6534623740001,0
                103.127126085,16.6534257910001,0
                103.127087381,16.6533761160001,0
                103.127032729,16.653297117,0
                103.127025717,16.6532712170001,0
                103.127030913,16.6532374770001,0
                103.127042511,16.65321328,0
                103.127056506,16.653204825,0
                103.127088891,16.6531968960001,0
                103.12713884,16.6532029480001,0
                103.127220645,16.653239553,0
                103.12727878,16.6532700700001,0
                103.127320216,16.65327731,0
                103.127366428,16.65327818,0
                103.127413726,16.6532706560001,0
                103.127476536,16.653241683,0
                103.127527631,16.653201311,0
                103.127575349,16.653150609,0
                103.127604706,16.653112299,0
                103.127693011,16.652949312,0
                103.127742366,16.65288923,0
                103.127805843,16.6528393940001,0
                103.127928818,16.6527831390001,0
                103.127937472,16.6527804310001,0
                103.127954662,16.652772042,0
                103.128051293,16.6527353810001,0
                103.128168016,16.6527021800001,0
                103.128250278,16.652679957,0
                103.128335317,16.6526628240001,0
                103.128412575,16.6526561380001,0
                103.128485885,16.652652103,0
                103.128552581,16.6526507730001,0
                103.128618274,16.6526649,0
                103.128688107,16.6526853770001,0
                103.128790478,16.652729648,0
                103.12887335,16.6527587910001,0
                103.128977523,16.652781583,0
                103.129035275,16.6527879770001,0
                103.129077559,16.6527874550001,0
                103.129222724,16.6527544350001,0
                103.129325761,16.6527534690001,0
                103.129361063,16.6527556840001,0
                103.129399099,16.652778702,0
                103.129434996,16.6528149820001,0
                103.129488427,16.6528683120001,0
                103.129539311,16.6528895490001,0
                103.129595611,16.652891009,0
                103.129595971,16.65289111,0
                103.129598115,16.652891067,0
                103.129631987,16.652890391,0
                103.129659751,16.652878259,0
                103.129692713,16.652859592,0
                103.129711001,16.652841218,0
                103.129749161,16.6528160140001,0
                103.12978479,16.652797294,0
                103.129840483,16.6527807460001,0
                103.129867189,16.6527814990001,0
                103.129899341,16.65278729,0
                103.129923683,16.6528022420001,0
                103.129937491,16.652823836,0
                103.129955356,16.652847921,0
                103.129969193,16.6528708000001,0
                103.130004371,16.652893254,0
                103.130033883,16.6529003850001,0
                103.130066035,16.6529061750001,0
                103.130124396,16.652889574,0
                103.130179758,16.6528575950001,0
                103.130220088,16.6528091930001,0
                103.13024294,16.652754707,0
                103.130242112,16.652716131,0
                103.130232559,16.652696937,0
                103.130222063,16.6526628120001,0
                103.130146804,16.6525968180001,0
                103.130113283,16.652554508,0
                103.130107275,16.6525125360001,0
                103.130130251,16.6524707350001,0
                103.130189025,16.652427361,0
                103.13033667,16.6523617500001,0
                103.130424939,16.6523356540001,0
                103.130431387,16.6523328590001,0
                103.130435294,16.6523325920001,0
                103.13044368,16.6523320210001,0
                103.130484689,16.652329223,0
                103.13052754,16.652336086,0
                103.130575947,16.652353131,0
                103.130616516,16.65237805,0
                103.130695374,16.652445944,0
                103.130757811,16.6524948690001,0
                103.130814801,16.6525387570001,0
                103.130906639,16.6525896680001,0
                103.131069589,16.652658456,0
                103.131183302,16.6527104580001,0
                103.131495493,16.6528166680001,0
                103.131674298,16.652877361,0
                103.131697777,16.6528856740001,0
                103.13178767,16.6529129900001,0
                103.13195304,16.652970151,0
                103.132115217,16.653002934,0
                103.132225039,16.6530213250001,0
                103.132303769,16.6530210400001,0
                103.132386361,16.653014247,0
                103.132481989,16.6529930410001,0
                103.132566364,16.6529450460001,0
                103.132614669,16.6528951980001,0
                103.132658641,16.6528299990001,0
                103.132706642,16.6527620630001,0
                103.132713036,16.652753015,0
                103.132719076,16.6527268900001,0
                103.132737469,16.65264732,0
                103.13274112,16.6526315300001,0
                103.132743144,16.652601465,0
                103.132750225,16.6524962730001,0
                103.132781978,16.6523592790001,0
                103.132809916,16.652293113,0
                103.132881458,16.6522067820001,0
                103.132962586,16.652131836,0
                103.133080523,16.6520455680001,0
                103.133143136,16.651993066,0
                103.133261947,16.651895756,0
                103.133343246,16.651809219,0
                103.13340351,16.6517717300001,0
                103.133466501,16.651763805,0
                103.133536661,16.6517658810001,0
                103.133622816,16.651776505,0
                103.13368552,16.6517982080001,0
                103.133754023,16.651819964,0
                103.133890902,16.6518760330001,0
                103.13391031,16.651881513,0
                103.134010977,16.6519218020001,0
                103.134039746,16.651881861,0
                103.134058922,16.6518552380001,0
                103.134083465,16.6518174400001,0
                103.134100087,16.6517836620001,0
                103.134104815,16.6517552660001,0
                103.134106816,16.6517420060001,0
                103.134107352,16.65173687,0
                103.134107415,16.6517303260001,0
                103.134096129,16.6516615310001,0
                103.134081408,16.6515975040001,0
                103.134071325,16.651562971,0
                103.134069024,16.651517993,0
                103.134078894,16.65148049,0
                103.134096851,16.6514466840001,0
                103.13413465,16.6514047640001,0
                103.134174059,16.651375676,0
                103.134185616,16.651372241,0
                103.134185702,16.6513721490001,0
                103.134228918,16.6513550130001,0
                103.134253758,16.651352075,0
                103.134304124,16.651362826,0
                103.134379298,16.651381842,0
                103.1344223,16.651387017,0
                103.134444735,16.6513768300001,0
                103.134453915,16.6513626390001,0
                103.134453359,16.65134032,0
                103.13444882,16.651314171,0
                103.134431574,16.65126731,0
                103.134388789,16.6511759530001,0
                103.134359797,16.651112905,0
                103.134350001,16.651030969,0
                103.134350521,16.650977223,0
                103.134352034,16.650940828,0
                103.134367812,16.6508997760001,0
                103.13441587,16.650829743,0
                103.134452459,16.650786618,0
                103.134487394,16.650762812,0
                103.134563062,16.6507307900001,0
                103.134616493,16.650696399,0
                103.134631511,16.6506781050001,0
                103.134639121,16.6506504390001,0
                103.134644068,16.650610553,0
                103.134646348,16.650534689,0
                103.134660713,16.6504479110001,0
                103.134674924,16.6503770320001,0
                103.134696871,16.6502895990001,0
                103.134736815,16.6501076530001,0
                103.134754188,16.6499975940001,0
                103.134750641,16.649797098,0
                103.134746743,16.649640956,0
                103.134749643,16.6494770150001,0
                103.134760294,16.6493987860001,0
                103.134768031,16.6493660630001,0
                103.13481115,16.649294992,0
                103.134870484,16.6491937120001,0
                103.134912988,16.649082525,0
                103.134919693,16.649028652,0
                103.134912225,16.648977723,0
                103.134888847,16.648885638,0
                103.13487374,16.648825335,0
                103.134876247,16.648750105,0
                103.134899318,16.648690236,0
                103.134961356,16.6485730810001,0
                103.135065966,16.648369673,0
                103.135199795,16.6481736640001,0
                103.135295627,16.6480307050001,0
                103.135362063,16.647890283,0
                103.135402961,16.647809163,0
                103.135430387,16.6477863740001,0
                103.135465249,16.647769974,0
                103.135511978,16.6477652450001,0
                103.135549983,16.6477674830001,0
                103.135611887,16.647768039,0
                103.135647759,16.6477589670001,0
                103.13567072,16.6477424610001,0
                103.135685983,16.6477066420001,0
                103.135708608,16.647644873,0
                103.135747079,16.6475350040001,0
                103.135775485,16.6474668720001,0
                103.13585424,16.647331346,0
                103.135971508,16.6471934580001,0
                103.135985365,16.647159163,0
                103.135982333,16.6471130630001,0
                103.135968672,16.647063072,0
                103.135944466,16.646968811,0
                103.135937285,16.646896113,0
                103.135945914,16.64681904,0
                103.135973059,16.646769326,0
                103.136025472,16.6467122510001,0
                103.136142665,16.646638051,0
                103.13630635,16.6465515310001,0
                103.136392535,16.6465027080001,0
                103.136487349,16.6464568550001,0
                103.136564984,16.6463970250001,0
                103.136591395,16.6463673590001,0
                103.136625533,16.6463297230001,0
                103.136645844,16.6462675700001,0
                103.136646132,16.6462377610001,0
                103.136627385,16.6461782390001,0
                103.138024485,16.646063859,0
                103.140987134,16.6462557560001,0
                103.14717506,16.6472273680001,0
                103.149813557,16.6476415990001,0
                103.150133534,16.6476918320001,0
                103.150684576,16.6477601670001,0
                103.151819583,16.6479051630001,0
                103.152796,16.648033292,0
                103.153049934,16.647778718,0
                103.153054228,16.647773085,0
                103.153073521,16.647741597,0
                103.153080491,16.6477279370001,0
                103.153091651,16.6476807600001,0
                103.153104512,16.6475665310001,0
                103.153116579,16.6475131920001,0
                103.153128493,16.647460526,0
                103.153160346,16.6473780640001,0
                103.153179961,16.6473338070001,0
                103.153185227,16.64732451,0
                103.153353411,16.647027571,0
                103.153535745,16.6467556270001,0
                103.153556856,16.6467076010001,0
                103.153564387,16.6466500120001,0
                103.153564445,16.646649564,0
                103.153564873,16.646641185,0
                103.153558042,16.646615809,0
                103.153541497,16.646591841,0
                103.153527354,16.6465818560001,0
                103.153438774,16.646519325,0
                103.153408223,16.6464843630001,0
                103.153389135,16.646443119,0
                103.153368708,16.6463138280001,0
                103.153343588,16.6461548240001,0
                103.153256656,16.6458742670001,0
                103.153168497,16.645552433,0
                103.15316539,16.64549155,0
                103.153155603,16.6452998230001,0
                103.153137788,16.644950728,0
                103.153121156,16.644854986,0
                103.153103153,16.6447513480001,0
                103.152990474,16.6445659980001,0
                103.152982592,16.644555455,0
                103.152962317,16.6445283360001,0
                103.152594357,16.643924882,0
                103.152398669,16.6436039500001,0
                103.152319727,16.6433422800001,0
                103.152283996,16.643223843,0
                103.152272607,16.64319247,0
                103.152236086,16.6429330930001,0
                103.152217884,16.6426137130001,0
                103.152211448,16.642593372,0
                103.152175198,16.642529075,0
                103.152151638,16.6424993090001,0
                103.152138966,16.642483301,0
                103.15213201,16.642474512,0
                103.152080729,16.642449976,0
                103.1520339,16.6424495590001,0
                103.151988503,16.6424626990001,0
                103.151953917,16.6424879750001,0
                103.151925386,16.64253287,0
                103.151909228,16.642589914,0
                103.151908939,16.6426200920001,0
                103.151908609,16.6426546230001,0
                103.151908397,16.6426564440001,0
                103.151900097,16.64272829,0
                103.151884821,16.642772537,0
                103.151884039,16.6427748,0
                103.151870553,16.642805675,0
                103.1518585,16.6428332670001,0
                103.151834586,16.64286436,0
                103.151833209,16.64286615,0
                103.151804938,16.642883957,0
                103.151799857,16.642885688,0
                103.151792487,16.642888197,0
                103.15177048,16.642895691,0
                103.151725155,16.6429013060001,0
                103.151647107,16.6429006110001,0
                103.151575331,16.6428969610001,0
                103.151479985,16.642884608,0
                103.151453631,16.6428823050001,0
                103.151338627,16.6428661940001,0
                103.151223748,16.642844933,0
                103.151197162,16.6428322990001,0
                103.151163984,16.642815037,0
                103.151134014,16.642790129,0
                103.151123717,16.6427815710001,0
                103.151075991,16.6427119160001,0
                103.151074087,16.642707203,0
                103.151048542,16.6426439480001,0
                103.151035948,16.6426143510001,0
                103.151017472,16.642570929,0
                103.151011902,16.6425578380001,0
                103.150995718,16.64253566,0
                103.150976797,16.6425097320001,0
                103.150961054,16.642488158,0
                103.150945525,16.6424748380001,0
                103.150741186,16.6422995830001,0
                103.1507004,16.6422743150001,0
                103.150699285,16.642273624,0
                103.150658744,16.642268749,0
                103.150656187,16.642269544,0
                103.150621165,16.6422804540001,0
                103.150599337,16.642295296,0
                103.150531598,16.6423413580001,0
                103.15051729,16.642354052,0
                103.150481214,16.6423860580001,0
                103.150465506,16.6424185720001,0
                103.150465287,16.642419024,0
                103.150465018,16.6424203780001,0
                103.150458725,16.642452076,0
                103.150461147,16.64247877,0
                103.150461962,16.6424877540001,0
                103.150466924,16.6425071960001,0
                103.150470549,16.642521409,0
                103.150502665,16.642590924,0
                103.150505461,16.6426074710001,0
                103.150510051,16.642634634,0
                103.150506093,16.6427218860001,0
                103.150492969,16.6427879870001,0
                103.15047223,16.6428344550001,0
                103.150415558,16.6428836150001,0
                103.150355808,16.6429282300001,0
                103.150327566,16.642943028,0
                103.150305669,16.6429473470001,0
                103.150282255,16.6429471390001,0
                103.150257308,16.6429439070001,0
                103.150230974,16.6429226020001,0
                103.150200934,16.6428804340001,0
                103.14999684,16.6425939380001,0
                103.149972168,16.642562114,0
                103.149957939,16.6425313600001,0
                103.149947698,16.6425092210001,0
                103.149935629,16.64246547,0
                103.149933027,16.642411269,0
                103.149955089,16.6423190560001,0
                103.14996031,16.6422972340001,0
                103.149971656,16.642261848,0
                103.150055616,16.6420000030001,0
                103.150064116,16.641981362,0
                103.15008432,16.64193705,0
                103.150169651,16.641829455,0
                103.15017178,16.6418263890001,0
                103.150202894,16.641781592,0
                103.150217462,16.6417275430001,0
                103.150222477,16.6416929750001,0
                103.150221364,16.6416463100001,0
                103.150217108,16.641612024,0
                103.150215567,16.6415996040001,0
                103.150198362,16.6415014770001,0
                103.150198019,16.641476041,0
                103.150206474,16.6414083940001,0
                103.150221072,16.6413513360001,0
                103.150254414,16.641292939,0
                103.150355413,16.641179462,0
                103.150506477,16.6410543920001,0
                103.150519134,16.6410426470001,0
                103.150668713,16.640903838,0
                103.150725572,16.6408351170001,0
                103.150768309,16.640773794,0
                103.150811235,16.6406929090001,0
                103.150824242,16.6406388460001,0
                103.150832695,16.640571198,0
                103.150833446,16.640492947,0
                103.150824543,16.6404447080001,0
                103.150809366,16.640399426,0
                103.150792455,16.640372185,0
                103.150767696,16.6403493890001,0
                103.150679257,16.640292919,0
                103.150661451,16.640281719,0
                103.150594604,16.6402396720001,0
                103.150584602,16.640233381,0
                103.150533494,16.6401907860001,0
                103.150493327,16.6401467850001,0
                103.1504564,16.6400907720001,0
                103.150421147,16.640022733,0
                103.150358563,16.6398746900001,0
                103.150292972,16.639714579,0
                103.150257765,16.639604391,0
                103.150250535,16.6395817650001,0
                103.15023278,16.639514859,0
                103.150195974,16.6393761790001,0
                103.150193284,16.639366044,0
                103.150163235,16.639243875,0
                103.150163063,16.6392412070001,0
                103.150159889,16.6391919600001,0
                103.150159158,16.639180631,0
                103.150167829,16.6390904100001,0
                103.150169719,16.63908352,0
                103.150190476,16.639007839,0
                103.150224466,16.638908486,0
                103.150284636,16.638785577,0
                103.150294055,16.638769289,0
                103.150297412,16.638763484,0
                103.150371614,16.6386768570001,0
                103.150378674,16.638670828,0
                103.150428405,16.63862836,0
                103.150436147,16.638621749,0
                103.150443785,16.6386177270001,0
                103.150503612,16.638586232,0
                103.150563101,16.638568702,0
                103.150669388,16.6385546010001,0
                103.150756859,16.6385493600001,0
                103.150837985,16.638554598,0
                103.150884812,16.6385550150001,0
                103.150928605,16.6385463770001,0
                103.150964708,16.638525628,0
                103.150988397,16.6384972440001,0
                103.151004396,16.6384567530001,0
                103.151005391,16.638444872,0
                103.151034322,16.6381033540001,0
                103.151030144,16.638050643,0
                103.151018176,16.6379963580001,0
                103.150995181,16.6379525090001,0
                103.150956518,16.637914541,0
                103.150933298,16.6378961620001,0
                103.150844969,16.6378262590001,0
                103.150751109,16.637758756,0
                103.150717839,16.6377348280001,0
                103.150706085,16.637720266,0
                103.150682356,16.637690868,0
                103.150667162,16.637656309,0
                103.150667077,16.6376561180001,0
                103.150667037,16.6376553750001,0
                103.150664418,16.6376079340001,0
                103.150668033,16.637574602,0
                103.150671267,16.6375447890001,0
                103.150673008,16.63753911,0
                103.150675556,16.6375308080001,0
                103.150690604,16.637481752,0
                103.150700318,16.6374413820001,0
                103.150703612,16.637427689,0
                103.15070403,16.637384049,0
                103.150699949,16.637348877,0
                103.150693455,16.637325876,0
                103.150693095,16.637325242,0
                103.150677224,16.637297318,0
                103.15067677,16.6372965190001,0
                103.150628844,16.637247932,0
                103.150608854,16.63721615,0
                103.1505968,16.6371708930001,0
                103.150590899,16.6371249970001,0
                103.150591618,16.63705,0
                103.150590171,16.636934984,0
                103.150591162,16.6368316420001,0
                103.150629619,16.636298837,0
                103.150640573,16.63614707,0
                103.150632493,16.6358904890001,0
                103.150623503,16.6358512800001,0
                103.150608196,16.6358195400001,0
                103.150572686,16.63577859,0
                103.150540239,16.6357436870001,0
                103.150517142,16.6357103720001,0
                103.15050104,16.6356472640001,0
                103.150500528,16.6356446620001,0
                103.150505201,16.635550994,0
                103.150516421,16.6354929030001,0
                103.150541762,16.635430742,0
                103.150579044,16.6353630470001,0
                103.150603254,16.635316479,0
                103.150649667,16.6352389950001,0
                103.150681737,16.6351845350001,0
                103.15068934,16.6351716250001,0
                103.150724545,16.6350816410001,0
                103.150739987,16.635010622,0
                103.150743603,16.634857487,0
                103.150721935,16.6345723850001,0
                103.15071091,16.634308289,0
                103.15072391,16.6340836160001,0
                103.150748328,16.633837258,0
                103.150744158,16.633738723,0
                103.15073479,16.6336836850001,0
                103.150721245,16.633624786,0
                103.1504737,16.632999887,0
                103.150468947,16.632971449,0
                103.150473578,16.6329383930001,0
                103.150494535,16.632890849,0
                103.150513444,16.632870939,0
                103.150532057,16.632854464,0
                103.150605276,16.6328211490001,0
                103.150638056,16.6328062330001,0
                103.150823524,16.6327633540001,0
                103.151014754,16.6326997640001,0
                103.151020412,16.632697432,0
                103.15104684,16.632684726,0
                103.151155002,16.63262079,0
                103.151240942,16.632527494,0
                103.151276177,16.6324850510001,0
                103.151310129,16.632416038,0
                103.151323758,16.63237472,0
                103.151329937,16.6323108770001,0
                103.151326959,16.632301566,0
                103.151308918,16.6322451550001,0
                103.151296627,16.632223986,0
                103.151268282,16.6321990230001,0
                103.151186459,16.6321552040001,0
                103.151122835,16.632126112,0
                103.151053117,16.632079171,0
                103.151025305,16.632050008,0
                103.151013535,16.6320263590001,0
                103.150995651,16.63199043,0
                103.150951175,16.631811622,0
                103.150925586,16.6317405390001,0
                103.150892714,16.631649221,0
                103.150865193,16.631588809,0
                103.150858822,16.6315748220001,0
                103.150807433,16.6314620150001,0
                103.150786141,16.6313610730001,0
                103.150784971,16.631306766,0
                103.150784671,16.631292812,0
                103.150797418,16.631238597,0
                103.150812403,16.631209708,0
                103.150854429,16.631148195,0
                103.151052568,16.630924087,0
                103.151087587,16.630856285,0
                103.151092442,16.6308416900001,0
                103.151096836,16.6308187760001,0
                103.151093889,16.6307567430001,0
                103.151088265,16.6307262650001,0
                103.15103301,16.6306189050001,0
                103.150970513,16.6305243960001,0
                103.150929265,16.630462019,0
                103.150881007,16.6303558750001,0
                103.150866561,16.630293463,0
                103.150861177,16.630215649,0
                103.150851711,16.630078833,0
                103.150858296,16.6298298880001,0
                103.150887794,16.6296486800001,0
                103.150906833,16.629531722,0
                103.150925961,16.629461705,0
                103.150959541,16.6293802860001,0
                103.151045952,16.6292292380001,0
                103.151064501,16.6291968150001,0
                103.151123889,16.6290760970001,0
                103.151146607,16.629011296,0
                103.151175941,16.6288236680001,0
                103.151181902,16.628586711,0
                103.151168644,16.6284863380001,0
                103.151155217,16.6284215050001,0
                103.151123448,16.6283158750001,0
                103.151110805,16.6282830440001,0
                103.151091463,16.6282328180001,0
                103.151076072,16.628204704,0
                103.151044433,16.628146913,0
                103.151039302,16.6281375400001,0
                103.151036506,16.628133905,0
                103.150991507,16.6280754100001,0
                103.150912682,16.6279934410001,0
                103.150911392,16.6279922570001,0
                103.150803219,16.627866511,0
                103.150776957,16.627822171,0
                103.15076642,16.6277814430001,0
                103.150768645,16.627712235,0
                103.150782759,16.6276255540001,0
                103.150783572,16.6276205660001,0
                103.150802792,16.627569567,0
                103.150803408,16.627568253,0
                103.150811226,16.6275339170001,0
                103.150811432,16.627432544,0
                103.150794509,16.627372597,0
                103.15079078,16.6273651700001,0
                103.150754015,16.627318503,0
                103.150654647,16.6272536810001,0
                103.15061647,16.6272201410001,0
                103.150597872,16.6271851160001,0
                103.150575138,16.6271124360001,0
                103.150545046,16.6269356440001,0
                103.150507191,16.6267313610001,0
                103.15048481,16.6265797560001,0
                103.15048679,16.626500822,0
                103.150406288,16.6264815590001,0
                103.150344474,16.6264724260001,0
                103.150276653,16.626469021,0
                103.150230369,16.6264720660001,0
                103.150193425,16.626478493,0
                103.150154274,16.626491373,0
                103.149996329,16.62657575,0
                103.1497447,16.626710175,0
                103.149635882,16.6267542090001,0
                103.149546849,16.626803103,0
                103.149518081,16.6268293160001,0
                103.149476715,16.6268878490001,0
                103.149461384,16.626910523,0
                103.149445749,16.626933647,0
                103.149426937,16.626985426,0
                103.14942035,16.627027465,0
                103.149418763,16.627088251,0
                103.149422544,16.6272258720001,0
                103.149431596,16.6273377050001,0
                103.149438395,16.627491074,0
                103.149446772,16.62757643,0
                103.149447268,16.62771809,0
                103.149446046,16.627845548,0
                103.149447294,16.628013594,0
                103.14944078,16.6281207700001,0
                103.149439103,16.628164468,0
                103.149434905,16.628273936,0
                103.149431905,16.62830891,0
                103.149422931,16.6283291450001,0
                103.149405973,16.6283491660001,0
                103.149348532,16.6283853050001,0
                103.149286464,16.6284171630001,0
                103.149217703,16.628454258,0
                103.149174907,16.6284682360001,0
                103.149138662,16.6284704190001,0
                103.149088766,16.628470688,0
                103.149009886,16.6284591460001,0
                103.148862069,16.628438594,0
                103.14879393,16.628426588,0
                103.148715269,16.628417304,0
                103.148647765,16.6284210380001,0
                103.148611912,16.6284364380001,0
                103.148574551,16.62846411,0
                103.148517196,16.6285379500001,0
                103.14843908,16.628632833,0
                103.148386745,16.628722887,0
                103.148384017,16.6287575540001,0
                103.148399735,16.6287947330001,0
                103.148422671,16.6288367660001,0
                103.148439753,16.628868809,0
                103.148448146,16.6289041150001,0
                103.148452107,16.628934325,0
                103.148440501,16.6289760490001,0
                103.148420998,16.629011108,0
                103.148382372,16.629041751,0
                103.148376222,16.6290455710001,0
                103.148350614,16.629057684,0
                103.148327247,16.6290610670001,0
                103.148300796,16.629061596,0
                103.148281792,16.6290568740001,0
                103.148257263,16.629041328,0
                103.148233652,16.6290175940001,0
                103.148212002,16.6289894600001,0
                103.148174356,16.6289340160001,0
                103.14815005,16.6289139240001,0
                103.148116578,16.6288988100001,0
                103.148077587,16.6288948490001,0
                103.14803765,16.628901086,0
                103.147970073,16.62893662,0
                103.147913265,16.6289695400001,0
                103.147873627,16.6289927660001,0
                103.147858073,16.6289947940001,0
                103.147844656,16.628991784,0
                103.14782624,16.628977978,0
                103.147796894,16.6289355270001,0
                103.147761645,16.6288710800001,0
                103.147761311,16.628867557,0
                103.147753211,16.6288591680001,0
                103.147741761,16.62884731,0
                103.147722644,16.6288275100001,0
                103.14767234,16.628808835,0
                103.147622997,16.628799617,0
                103.147582186,16.628800434,0
                103.147538051,16.628822456,0
                103.147502652,16.6288639850001,0
                103.147480103,16.628905258,0
                103.147466511,16.628941248,0
                103.147455376,16.628985936,0
                103.147437329,16.62902566,0
                103.147415819,16.6290450430001,0
                103.147389556,16.6290543160001,0
                103.147362333,16.629054132,0
                103.147332592,16.6290423350001,0
                103.147296632,16.629022644,0
                103.147272322,16.6290172990001,0
                103.147240565,16.629017205,0
                103.147214916,16.6290199050001,0
                103.147186416,16.62903068,0
                103.147166387,16.6290485760001,0
                103.147158887,16.629061977,0
                103.147156689,16.6290639710001,0
                103.147150784,16.629072513,0
                103.147143426,16.629098078,0
                103.147141575,16.629136992,0
                103.147143811,16.6291784160001,0
                103.147151533,16.6292249140001,0
                103.147168938,16.629284178,0
                103.147191773,16.6293459240001,0
                103.14720613,16.6293884020001,0
                103.147204083,16.629418249,0
                103.147189694,16.629436679,0
                103.147184855,16.629439786,0
                103.147160526,16.629455406,0
                103.147112541,16.6294767250001,0
                103.1471086,16.629478475,0
                103.147037809,16.62949933,0
                103.146984484,16.6295198350001,0
                103.146954754,16.629542531,0
                103.146946133,16.6295491120001,0
                103.146935799,16.629563994,0
                103.146918755,16.6295885370001,0
                103.14688337,16.629630714,0
                103.146862738,16.6296713,0
                103.146853974,16.629701282,0
                103.146853243,16.6297298060001,0
                103.146855284,16.6297621630001,0
                103.146862754,16.629797003,0
                103.146886092,16.6298820660001,0
                103.146912423,16.629981324,0
                103.146924482,16.6300419900001,0
                103.146940538,16.630163484,0
                103.146948532,16.63020698,0
                103.146958809,16.6302629040001,0
                103.146974814,16.630319603,0
                103.146988948,16.630351718,0
                103.147032272,16.6304286060001,0
                103.147039976,16.630436409,0
                103.147046012,16.630449077,0
                103.147113184,16.6305199610001,0
                103.147169356,16.6305857790001,0
                103.147184848,16.6306091070001,0
                103.147191384,16.630639247,0
                103.147190599,16.630665181,0
                103.147186652,16.6306800680001,0
                103.14717195,16.6307355330001,0
                103.147131777,16.63080502,0
                103.147078109,16.630897927,0
                103.147073462,16.6309059710001,0
                103.147058022,16.6309400660001,0
                103.147050365,16.6309569740001,0
                103.147047677,16.6309673170001,0
                103.147039193,16.630999963,0
                103.147039167,16.63101269,0
                103.147039076,16.631056985,0
                103.147041056,16.631148954,0
                103.147038726,16.6312280510001,0
                103.14703178,16.6312800260001,0
                103.147015484,16.6313347810001,0
                103.146992443,16.631388374,0
                103.146951558,16.631455508,0
                103.146950898,16.6314565920001,0
                103.146864563,16.631567176,0
                103.146815826,16.6316393430001,0
                103.146777717,16.631684799,0
                103.146656057,16.631855451,0
                103.146539022,16.6320190060001,0
                103.14650017,16.632057053,0
                103.14644652,16.632090813,0
                103.14641262,16.632110364,0
                103.146346222,16.632152929,0
                103.146245363,16.6322132620001,0
                103.146218676,16.6322308000001,0
                103.1461274,16.6322907840001,0
                103.146064864,16.6323205460001,0
                103.145993987,16.632337514,0
                103.145940523,16.632351542,0
                103.145883166,16.632372129,0
                103.145874445,16.632379212,0
                103.145848818,16.63240003,0
                103.145819899,16.6324304140001,0
                103.145799099,16.6324632280001,0
                103.145778096,16.6325160390001,0
                103.145752082,16.6326178900001,0
                103.145742233,16.6326616170001,0
                103.145729866,16.632693939,0
                103.145710258,16.632723938,0
                103.145689601,16.632742272,0
                103.145627941,16.63277307,0
                103.145600946,16.6327918750001,0
                103.145435432,16.6329732780001,0
                103.145361503,16.6330666440001,0
                103.145289393,16.633163568,0
                103.145214507,16.633251704,0
                103.145110805,16.6333468080001,0
                103.145031672,16.6334080020001,0
                103.145009226,16.633423744,0
                103.144962562,16.633441524,0
                103.144926285,16.63344225,0
                103.144896447,16.633429888,0
                103.144826724,16.633390181,0
                103.144753556,16.6333485110001,0
                103.144675967,16.6333034100001,0
                103.144627207,16.6332862420001,0
                103.144584295,16.6332909880001,0
                103.144536371,16.6333126810001,0
                103.1444686,16.6333490260001,0
                103.144421964,16.633368101,0
                103.144379051,16.633372847,0
                103.14434521,16.633361861,0
                103.144305688,16.633336733,0
                103.144265324,16.633334948,0
                103.144234561,16.633342043,0
                103.1442015,16.633367326,0
                103.144148479,16.633402081,0
                103.144093782,16.6334213170001,0
                103.144048155,16.6334248210001,0
                103.144032431,16.633421625,0
                103.143990101,16.6334130230001,0
                103.143930675,16.6333999560001,0
                103.143871473,16.6333972520001,0
                103.143829905,16.6334019710001,0
                103.143808455,16.6334337810001,0
                103.14380776,16.633434811,0
                103.143801683,16.633464738,0
                103.143805179,16.63350225,0
                103.143819506,16.6335434330001,0
                103.143842063,16.6335922270001,0
                103.143842345,16.6336053530001,0
                103.14384262,16.6336181340001,0
                103.143827082,16.633645658,0
                103.143776722,16.633679063,0
                103.143684736,16.6337145960001,0
                103.143621754,16.6337236300001,0
                103.143608567,16.633728024,0
                103.14358038,16.633737416,0
                103.143540462,16.633756357,0
                103.143515658,16.633790547,0
                103.143502863,16.6338206090001,0
                103.143498686,16.6338764170001,0
                103.143482668,16.633944125,0
                103.143469706,16.633966414,0
                103.143423181,16.633990671,0
                103.143371003,16.6340020810001,0
                103.143306398,16.6339981900001,0
                103.143263067,16.6339835040001,0
                103.143256856,16.633977456,0
                103.143236982,16.6339581080001,0
                103.143193212,16.633860494,0
                103.143160219,16.6337639590001,0
                103.143138164,16.6337384820001,0
                103.143129043,16.6337355210001,0
                103.143128062,16.6337339840001,0
                103.143104445,16.6337228420001,0
                103.143072615,16.633713433,0
                103.143036733,16.6337159120001,0
                103.142994011,16.633738206,0
                103.14295227,16.633771955,0
                103.142949439,16.633775949,0
                103.142842668,16.633873981,0
                103.142795995,16.633901866,0
                103.142786063,16.6339078,0
                103.142719244,16.6339477230001,0
                103.14255943,16.63401701,0
                103.14249565,16.6340366700001,0
                103.142424561,16.634058582,0
                103.142323087,16.634090416,0
                103.142247336,16.6341308080001,0
                103.142240494,16.634137127,0
                103.142198569,16.634175844,0
                103.142143781,16.6342533980001,0
                103.142098286,16.634325582,0
                103.142051002,16.634377068,0
                103.142003022,16.6343961700001,0
                103.141946701,16.6344024800001,0
                103.141860542,16.634396425,0
                103.141774161,16.634380009,0
                103.141660656,16.634352472,0
                103.141589332,16.6343487130001,0
                103.141519519,16.6343527010001,0
                103.141445732,16.634359358,0
                103.141350307,16.63435997,0
                103.141323176,16.634357704,0
                103.141304858,16.634358719,0
                103.141238109,16.634356224,0
                103.141173311,16.634351759,0
                103.141062124,16.6343331460001,0
                103.140995397,16.634312042,0
                103.14093181,16.634286176,0
                103.140845353,16.634243575,0
                103.140810479,16.6342214000001,0
                103.140792499,16.6342026290001,0
                103.140780191,16.6341806560001,0
                103.140778188,16.634147935,0
                103.140783288,16.63409992,0
                103.140788329,16.634073856,0
                103.140788626,16.634043053,0
                103.14078528,16.6340215230001,0
                103.140775578,16.6340016510001,0
                103.140750817,16.633980831,0
                103.140701154,16.633961506,0
                103.14056522,16.6339285780001,0
                103.140412887,16.633888121,0
                103.140295996,16.633873109,0
                103.140111724,16.6338606630001,0
                103.14000005,16.63389054,0
                103.13983975,16.6339928080001,0
                103.139755539,16.6340774290001,0
                103.13970805,16.6342027850001,0
                103.139391025,16.634190516,0
                103.135811747,16.634323813,0
                103.135571791,16.634178649,0
                103.13541084,16.6340954460001,0
                103.135292363,16.634007565,0
                103.135119547,16.6338565890001,0
                103.134964051,16.633760696,0
                103.134884703,16.6337344180001,0
                103.134760378,16.6337078240001,0
                103.134599008,16.6336680700001,0
                103.134299848,16.6336193970001,0
                103.133942343,16.633562521,0
                103.13379134,16.6335534840001,0
                103.133677254,16.6335549880001,0
                103.133439352,16.6335653150001,0
                103.133269848,16.633543375,0
                103.132989114,16.633507604,0
                103.132766772,16.6334673000001,0
                103.1325419,16.633409085,0
                103.132271948,16.6333530850001,0
                103.132052411,16.6333025050001,0
                103.131785374,16.6332569190001,0
                103.121578405,16.631001525,0
                103.121568113,16.630999251,0
                103.121547528,16.6309947,0
                103.117741967,16.6301536610001,0
                103.117727306,16.6301504200001,0
                103.112556529,16.6285361230001,0
                103.11254508,16.6285325490001,0
                103.10595573,16.627228329,0
                103.086155584,16.623307977,0
                103.077564017,16.6216062560001,0
                103.067881764,16.622364394,0
                103.06604701,16.6227124650001,0
                103.064101625,16.6230815050001,0
                103.064097041,16.623082375,0
                103.063339885,16.623428532,0
                103.063332213,16.6234461660001,0
                103.062945095,16.623472819,0
                103.062646866,16.623505267,0
                103.061353326,16.623774414,0
                103.059482468,16.623795241,0
                103.058174678,16.623898013,0
                103.058156469,16.623899952,0
                103.052997199,16.6244491840001,0
                103.05291112,16.624448377,0
                103.0528117,16.6244601830001,0
                103.05268221,16.624503594,0
                103.05255288,16.6245365360001,0
                103.052549493,16.6245373990001,0
                103.052482564,16.6246069630001,0
                103.052318027,16.624838127,0
                103.052234241,16.62493942,0
                103.052157614,16.624989742,0
                103.052094524,16.625008211,0
                103.051981986,16.625010407,0
                103.051793261,16.625011799,0
                103.051650847,16.625026362,0
                103.051488142,16.6250758740001,0
                103.051352005,16.625119222,0
                103.051160114,16.6251662940001,0
                103.050974466,16.6251996010001,0
                103.050944543,16.6252088970001,0
                103.050652186,16.625317717,0
                103.050489577,16.6253576550001,0
                103.050386801,16.6253725890001,0
                103.050168294,16.6253769510001,0
                103.050058873,16.625391913,0
                103.049942787,16.6254162970001,0
                103.049793275,16.6254755090001,0
                103.049630603,16.625521769,0
                103.049474414,16.6255840790001,0
                103.049371445,16.625618162,0
                103.04920577,16.625632594,0
                103.048957386,16.6256493220001,0
                103.048788228,16.6256796210001,0
                103.048692291,16.6256755580001,0
                103.048596578,16.6256491830001,0
                103.048455277,16.625607114,0
                103.048286668,16.6255832160001,0
                103.047989082,16.6255516910001,0
                103.047714064,16.6255809940001,0
                103.047236947,16.625627547,0
                103.047160707,16.6256395680001,0
                103.046994678,16.6256890450001,0
                103.046808565,16.625760647,0
                103.04660911,16.6258448620001,0
                103.046455694,16.625961397,0
                103.046332383,16.626043075,0
                103.046252658,16.626071052,0
                103.046083642,16.6260949360001,0
                103.045902012,16.626112919,0
                103.04555387,16.6261670060001,0
                103.045298548,16.626212481,0
                103.045083363,16.6262167780001,0
                103.044841642,16.6262240770001,0
                103.044610038,16.62620916,0
                103.044302336,16.6261998480001,0
                103.044126869,16.6262046090001,0
                103.043947884,16.626228397,0
                103.043855225,16.6262212,0
                103.043799165,16.626201521,0
                103.04374014,16.6261467620001,0
                103.043727934,16.6261372860001,0
                103.043615391,16.626049922,0
                103.043463836,16.625975141,0
                103.04324367,16.6258762250001,0
                103.042828488,16.6256905550001,0
                103.042053018,16.6254537,0
                103.04191443,16.62541093,0
                103.04157426,16.625334368,0
                103.041187903,16.6252477950001,0
                103.040890612,16.6251876270001,0
                103.040523519,16.6251522740001,0
                103.040275551,16.6251432490001,0
                103.040096794,16.6251447240001,0
                103.039736024,16.625141318,0
                103.039643344,16.6251436950001,0
                103.039504077,16.625167855,0
                103.039347983,16.6252205820001,0
                103.039168709,16.6252730910001,0
                103.039125541,16.6252854210001,0
                103.038969608,16.6253222500001,0
                103.038810482,16.625346221,0
                103.038555227,16.625385275,0
                103.0383167,16.625405335,0
                103.038104632,16.625422481,0
                103.037896386,16.6253982000001,0
                103.037740941,16.625387156,0
                103.037647893,16.625418165,0
                103.037604704,16.62544007,0
                103.037551535,16.6254554660001,0
                103.037402881,16.6254832400001,0
                103.037237143,16.6255039860001,0
                103.037051644,16.62551497,0
                103.036747169,16.6255152520001,0
                103.036399384,16.6255342760001,0
                103.036169343,16.6255605920001,0
                103.036169656,16.6255612520001,0
                103.036167438,16.625560809,0
                103.035690548,16.6255850250001,0
                103.034846176,16.6256120850001,0
                103.034568411,16.6256228250001,0
                103.034452713,16.625608992,0
                103.034280798,16.6255913750001,0
                103.034118576,16.625593001,0
                103.033843786,16.6255999750001,0
                103.033575467,16.625616585,0
                103.0332773,16.6256424870001,0
                103.032995703,16.625665295,0
                103.03271733,16.625697706,0
                103.03245546,16.6257335280001,0
                103.032237351,16.6257671430001,0
                103.03202168,16.6258193,0
                103.031849242,16.6258528060001,0
                103.031653528,16.6258955770001,0
                103.031530797,16.6259198870001,0
                103.031348554,16.625937311,0
                103.031179558,16.625951608,0
                103.031013864,16.6259756010001,0
                103.03082462,16.626028008,0
                103.030652183,16.6260614220001,0
                103.030549178,16.6260987480001,0
                103.030379673,16.626170401,0
                103.030273281,16.6262141080001,0
                103.030200167,16.626245302,0
                103.030127108,16.6262636700001,0
                103.029974561,16.626294111,0
                103.029851828,16.6263185120001,0
                103.029417399,16.626452511,0
                103.02926482,16.6264862030001,0
                103.029178644,16.626494961,0
                103.028920259,16.626514822,0
                103.028542724,16.62653355,0
                103.028347235,16.626554006,0
                103.028102368,16.62655168,0
                103.02795336,16.626553426,0
                103.027890268,16.6265719790001,0
                103.027827045,16.6266032660001,0
                103.031001462,16.626933491,0
                103.033868044,16.6281492040001,0
                103.035861535,16.6290725150001,0
                103.036164452,16.62968885,0
                103.036537656,16.630073597,0
                103.036830623,16.630468245,0
                103.037028409,16.6309286590001,0
                103.037103984,16.631210047,0
                103.037141536,16.6313777940001,0
                103.037217956,16.631583759,0
                103.037282767,16.6318218660001,0
                103.037386391,16.632103608,0
                103.037436957,16.632272179,0
                103.037457698,16.632341323,0
                103.037489686,16.6325090170001,0
                103.037576796,16.6327581730001,0
                103.03775825,16.633100004,0
                103.038045196,16.6335400310001,0
                103.038127732,16.633691943,0
                103.038165833,16.633805766,0
                103.038170487,16.63390292,0
                103.038163966,16.6339893100001,0
                103.038135335,16.6340538100001,0
                103.03807874,16.634101876,0
                103.037662699,16.6342274840001,0
                103.037567037,16.634264339,0
                103.037521723,16.634312601,0
                103.037515203,16.6343989010001,0
                103.03770283,16.634848107,0
                103.037911998,16.635364108,0
                103.037948899,16.6354551420001,0
                103.038091265,16.635780432,0
                103.038338436,16.6362794340001,0
                103.038465571,16.6364534480001,0
                103.038521375,16.6364755660001,0
                103.038588956,16.636449194,0
                103.038865156,16.636289833,0
                103.039028455,16.6362211850001,0
                103.039123876,16.6362004970001,0
                103.039196658,16.636217355,0
                103.039279666,16.6363153400001,0
                103.039373409,16.6364673570001,0
                103.039434086,16.6365651310001,0
                103.039534456,16.6366201020001,0
                103.039617268,16.636745095,0
                103.039672195,16.6368535660001,0
                103.039706849,16.636949287,0
                103.039762597,16.636976825,0
                103.03986319,16.6370101150001,0
                103.039974908,16.6370436010001,0
                103.040108564,16.637131315,0
                103.040209023,16.6371700240001,0
                103.040320928,16.637192671,0
                103.040443522,16.6372585990001,0
                103.040577125,16.637351643,0
                103.040710157,16.6374932800001,0
                103.040820856,16.6376347070001,0
                103.040942102,16.637841005,0
                103.041058092,16.638009492,0
                103.04118534,16.6381726660001,0
                103.041395952,16.638406817,0
                103.041561251,16.638689141,0
                103.041775728,16.6390906300001,0
                103.041957959,16.639539784,0
                103.04222728,16.640066002,0
                103.042303849,16.640250377,0
                103.042324944,16.640380119,0
                103.042345053,16.6406070520001,0
                103.042352969,16.6409310710001,0
                103.042385345,16.6410609170001,0
                103.042429343,16.6411423640001,0
                103.042484711,16.6412076570001,0
                103.042612565,16.6413114850001,0
                103.042706806,16.641414905,0
                103.042822745,16.6415887220001,0
                103.042872219,16.641686389,0
                103.042887914,16.641799909,0
                103.042888341,16.641932979,0
                103.042914166,16.642533143,0
                103.042904334,16.642717695,0
                103.04284526,16.643032502,0
                103.042785953,16.6433704300001,0
                103.04274912,16.6438469660001,0
                103.042686922,16.644469514,0
                103.042702138,16.6445388560001,0
                103.042741623,16.6445853010001,0
                103.042813256,16.6446091020001,0
                103.043419725,16.644660985,0
                103.043914218,16.6447194890001,0
                103.043993499,16.6447740780001,0
                103.044040865,16.644828365,0
                103.044055301,16.644982342,0
                103.044084641,16.645236464,0
                103.044121129,16.645410704,0
                103.044170338,16.645557512,0
                103.044238728,16.645680111,0
                103.044338925,16.6457908130001,0
                103.044363515,16.645858165,0
                103.044375198,16.645955927,0
                103.044373713,16.646102258,0
                103.044404592,16.646181864,0
                103.044441809,16.6462615290001,0
                103.044466166,16.6463593230001,0
                103.044489641,16.6465364210001,0
                103.044506425,16.646756096,0
                103.044555433,16.646915188,0
                103.044641844,16.6471355190001,0
                103.044684964,16.6472579690001,0
                103.044721872,16.647368075,0
                103.044770014,16.647612526,0
                103.044792749,16.6477940460001,0
                103.044851673,16.647851777,0
                103.048643811,16.6515670750001,0
                103.050002271,16.6528979610001,0
                103.05000312,16.652898792,0
                103.055278793,16.6580671350001,0
                103.058796297,16.6615128660001,0
                103.060814573,16.663489882,0
                103.062623667,16.6652619440001,0
                103.069422376,16.674885574,0
                103.069426783,16.674927289,0
                103.070022368,16.6805629630001,0
                103.070034513,16.6842207230001,0
                103.078765181,16.680500782,0
                103.080506708,16.6797586920001,0
                103.088646047,16.6786145890001,0
                103.088662722,16.6786122450001,0
                103.09561247,16.677654021,0
                103.095422437,16.674151226,0
                103.095425277,16.6741290190001,0
                103.096005454,16.669593704,0
                103.09607233,16.6695298180001,0
                103.096189901,16.6694279120001,0
                103.096242218,16.669405808,0
              </coordinates>
                
            </LinearRing>
            
          </outerBoundaryIs>
        
        </Polygon>
        
      <styleUrl>
        #tambonStyle</styleUrl>
    </Placemark>

  </Document>
</kml>