<?xml version="1.0" encoding="UTF-8"?>
<kml xmlns="http://www.opengis.net/kml/2.2">
  <Document id="tambon_doc">
    <name>โคกคราม, บางปลาม้า, Suphan Buri</name>
    <description>ข้อมูลขอบเขตตำบลโคกคราม อำเภอบางปลาม้า จังหวัดSuphan Buri</description>
    
    <!-- Schema สำหรับข้อมูลตำบล -->
    <Schema id="tambon.schema">
      <SimpleField name="ADM3_EN" type="string">
        <displayName>Subdistrict Name (English)</displayName>
      </SimpleField>
      <SimpleField name="ADM3_TH" type="string">
        <displayName>ชื่อตำบล</displayName>
      </SimpleField>
      <SimpleField name="ADM2_EN" type="string">
        <displayName>District Name (English)</displayName>
      </SimpleField>
      <SimpleField name="ADM2_TH" type="string">
        <displayName>ชื่ออำเภอ</displayName>
      </SimpleField>
      <SimpleField name="ADM1_EN" type="string">
        <displayName>Province Name (English)</displayName>
      </SimpleField>
      <SimpleField name="ADM1_TH" type="string">
        <displayName>ชื่อจังหวัด</displayName>
      </SimpleField>
      <SimpleField name="ADM0_EN" type="string">
        <displayName>Country Name (English)</displayName>
      </SimpleField>
      <SimpleField name="ADM0_TH" type="string">
        <displayName>ชื่อประเทศ</displayName>
      </SimpleField>
    </Schema>

    <!-- Style สำหรับตำบล -->
    <Style id="tambonStyle">
      <LineStyle>
        <color>ffff0000</color>
        <width>1.5</width>
      </LineStyle>
      <PolyStyle>
        <color>33ff0000</color>
        <fill>1</fill>
        <outline>1</outline>
      </PolyStyle>
    </Style>

    <Placemark id="Suphan_Buri.42">
        
        <ExtendedData>
            
          <SchemaData schemaUrl="#tambon.schema">
                
            <SimpleData name="Shape_Leng">
                0.341320405462</SimpleData>
                
            <SimpleData name="Shape_Area">
                0.00317884105515</SimpleData>
                
            <SimpleData name="ADM3_EN">
                Khok Khram</SimpleData>
                
            <SimpleData name="ADM3_TH">
                โคกคราม</SimpleData>
                
            <SimpleData name="ADM3_PCODE">
                TH720401</SimpleData>
                
            <SimpleData name="ADM2_EN">
                Bang Pla Ma</SimpleData>
                
            <SimpleData name="ADM2_TH">
                บางปลาม้า</SimpleData>
                
            <SimpleData name="ADM2_PCODE">
                TH7204</SimpleData>
                
            <SimpleData name="ADM1_EN">
                Suphan Buri</SimpleData>
                
            <SimpleData name="ADM1_TH">
                สุพรรณบุรี</SimpleData>
                
            <SimpleData name="ADM1_PCODE">
                TH72</SimpleData>
                
            <SimpleData name="ADM0_EN">
                Thailand</SimpleData>
                
            <SimpleData name="ADM0_TH">
                ประเทศไทย</SimpleData>
                
            <SimpleData name="ADM0_PCODE">
                TH</SimpleData>
            
          </SchemaData>
        
        </ExtendedData>
        
        <Polygon>
            
          <outerBoundaryIs>
                
            <LinearRing>
                    
              <coordinates>
                    
                100.206867512,14.4394536230001,0
                100.206983601,14.4392689900001,0
                100.207017631,14.4392361550001,0
                100.207087984,14.43916827,0
                100.207428585,14.4388559650001,0
                100.207680633,14.4385383640001,0
                100.207879875,14.4382785450001,0
                100.208067135,14.4379842770001,0
                100.208148632,14.437776818,0
                100.208249832,14.4375152010001,0
                100.208255901,14.437499508,0
                100.208295135,14.4373980730001,0
                100.20835816,14.437235136,0
                100.208579582,14.4367106510001,0
                100.208777214,14.436151776,0
                100.208778982,14.436145923,0
                100.208923273,14.4356218410001,0
                100.209009317,14.4352460810001,0
                100.209242973,14.4341001350001,0
                100.209355417,14.433336836,0
                100.209419489,14.432820216,0
                100.209459047,14.43238933,0
                100.209483256,14.432125598,0
                100.209541297,14.4317048940001,0
                100.209617617,14.4310070120001,0
                100.20962108,14.4309186570001,0
                100.209606669,14.4307602170001,0
                100.209481128,14.430146273,0
                100.209458432,14.429976594,0
                100.209448671,14.429822229,0
                100.209456853,14.4296652310001,0
                100.209481117,14.4295052730001,0
                100.20953097,14.429321354,0
                100.209533452,14.4293131420001,0
                100.209566363,14.4291540610001,0
                100.209585987,14.429023731,0
                100.209589292,14.428896464,0
                100.209579136,14.4286740950001,0
                100.2095502,14.428428082,0
                100.209510881,14.428192175,0
                100.209455782,14.427924343,0
                100.209351451,14.4275081070001,0
                100.20911402,14.4267261700001,0
                100.20907811,14.4265958720001,0
                100.208696197,14.425406695,0
                100.208623434,14.4252040870001,0
                100.208437783,14.424687132,0
                100.208294784,14.424350152,0
                100.208285558,14.4243284090001,0
                100.208188156,14.4241217110001,0
                100.208060763,14.4238784890001,0
                100.207813736,14.423445508,0
                100.207630134,14.4231374610001,0
                100.207467509,14.422864614,0
                100.207223912,14.42239198,0
                100.206658854,14.42226054,0
                100.206289276,14.422180505,0
                100.205997066,14.422132619,0
                100.205735525,14.422108214,0
                100.205483244,14.422096423,0
                100.205189967,14.4221062770001,0
                100.205109297,14.4221136310001,0
                100.204743414,14.422144039,0
                100.204665412,14.422156826,0
                100.204114361,14.42224714,0
                100.203494818,14.4223026230001,0
                100.203400101,14.4223031060001,0
                100.202923797,14.422305534,0
                100.202721221,14.4222880670001,0
                100.202611293,14.422278588,0
                100.202264394,14.422209004,0
                100.202111414,14.4221631290001,0
                100.201936862,14.42211078,0
                100.201516474,14.4219892470001,0
                100.201509284,14.421988135,0
                100.201218509,14.421943195,0
                100.200876667,14.421906881,0
                100.200232391,14.4219006450001,0
                100.199896179,14.4218877490001,0
                100.199465971,14.421871245,0
                100.198802119,14.4218555900001,0
                100.198343402,14.421867434,0
                100.197914223,14.4219266910001,0
                100.197553142,14.421942792,0
                100.197204457,14.4219561510001,0
                100.197123726,14.421959241,0
                100.196684329,14.4219329310001,0
                100.19618414,14.421872792,0
                100.196188729,14.4205667520001,0
                100.196590634,14.4201143670001,0
                100.196833193,14.419977003,0
                100.19691943,14.4199561630001,0
                100.198356349,14.4197901630001,0
                100.199463917,14.4195255880001,0
                100.199413315,14.418949813,0
                100.199410908,14.418253624,0
                100.200223352,14.4183470520001,0
                100.200254713,14.418350662,0
                100.200959777,14.4184258870001,0
                100.200949399,14.4181783120001,0
                100.200946394,14.4181066240001,0
                100.20112863,14.4180632850001,0
                100.201399808,14.417998793,0
                100.201409045,14.417997643,0
                100.201791589,14.4179500720001,0
                100.202012027,14.417861343,0
                100.20245115,14.4178094550001,0
                100.203819946,14.4174379130001,0
                100.204056052,14.4189176240001,0
                100.205761442,14.4183829680001,0
                100.205360554,14.4174017340001,0
                100.205176996,14.417014926,0
                100.205011555,14.4167528720001,0
                100.204653955,14.4162584600001,0
                100.204066354,14.415591798,0
                100.203737911,14.415204236,0
                100.203327005,14.4146538640001,0
                100.202635412,14.413811943,0
                100.202233207,14.413282452,0
                100.201731686,14.412648828,0
                100.201203976,14.411935817,0
                100.200757806,14.4112140240001,0
                100.200415331,14.4106088820001,0
                100.200080971,14.4099158110001,0
                100.199789824,14.409272748,0
                100.199581185,14.4088008620001,0
                100.199450261,14.4084081030001,0
                100.199400875,14.408195184,0
                100.199384329,14.408123829,0
                100.199331127,14.4078102,0
                100.199142748,14.407112198,0
                100.198992345,14.4066614160001,0
                100.198957291,14.406556342,0
                100.198871552,14.406171882,0
                100.198759061,14.4055075220001,0
                100.198488537,14.403689447,0
                100.198486577,14.403489891,0
                100.198480909,14.402913793,0
                100.198481729,14.4024790440001,0
                100.19847116,14.402264788,0
                100.198435514,14.4020598430001,0
                100.198425159,14.4020043400001,0
                100.198411894,14.4018873100001,0
                100.198410348,14.401738552,0
                100.198419765,14.401492385,0
                100.198419912,14.4014904740001,0
                100.198422857,14.400865901,0
                100.198430602,14.400550519,0
                100.198435491,14.400290259,0
                100.198422242,14.4001617430001,0
                100.198413534,14.4001184000001,0
                100.198407694,14.400089361,0
                100.198396428,14.4000332890001,0
                100.198354815,14.399886543,0
                100.198284569,14.3996713820001,0
                100.198259019,14.3995931170001,0
                100.198254131,14.3995695470001,0
                100.198235987,14.3994820560001,0
                100.198227176,14.3993709590001,0
                100.198227853,14.3992180760001,0
                100.198228642,14.3991983330001,0
                100.198234329,14.3991245660001,0
                100.198253261,14.3988789260001,0
                100.198259969,14.398852622,0
                100.198261532,14.3988483840001,0
                100.198270312,14.39882457,0
                100.198286596,14.398799608,0
                100.198301126,14.398784289,0
                100.198328238,14.398764192,0
                100.198349486,14.3987533980001,0
                100.198372427,14.398745806,0
                100.198408493,14.3987393530001,0
                100.198430091,14.3987363740001,0
                100.198450178,14.3987336010001,0
                100.198588277,14.398738284,0
                100.198619494,14.3987363320001,0
                100.198647884,14.398732309,0
                100.198672785,14.3987259800001,0
                100.198700142,14.398715112,0
                100.198719142,14.398704719,0
                100.198734959,14.3986917340001,0
                100.198747396,14.398672329,0
                100.198755692,14.398652355,0
                100.198764918,14.398614733,0
                100.198783926,14.3985041060001,0
                100.198785796,14.3984932390001,0
                100.198849927,14.397618096,0
                100.198852651,14.397580985,0
                100.198860312,14.3975414880001,0
                100.198875797,14.3974721180001,0
                100.198995246,14.3969369210001,0
                100.199046812,14.3966987740001,0
                100.199085887,14.3964778590001,0
                100.19910128,14.3963670690001,0
                100.199131923,14.3961465470001,0
                100.199181128,14.3957719750001,0
                100.199204454,14.395594386,0
                100.199267232,14.3950498630001,0
                100.199336852,14.3944752690001,0
                100.199343628,14.3944381220001,0
                100.199347716,14.394423008,0
                100.19935278,14.3944127350001,0
                100.199360742,14.394401665,0
                100.199377583,14.3943899820001,0
                100.199399331,14.394382889,0
                100.199421153,14.3943793070001,0
                100.199425917,14.394379621,0
                100.199475096,14.3943872580001,0
                100.199500656,14.394391152,0
                100.19951585,14.3943908860001,0
                100.19952777,14.394387932,0
                100.199541006,14.394379879,0
                100.199547834,14.394373065,0
                100.199554965,14.3943607780001,0
                100.199559447,14.394345813,0
                100.199571851,14.3942891500001,0
                100.199603083,14.394101743,0
                100.199670412,14.393761038,0
                100.199674839,14.393748423,0
                100.19968095,14.3937342450001,0
                100.19969243,14.3937193200001,0
                100.19970094,14.393711683,0
                100.199717145,14.393703638,0
                100.199737382,14.393697817,0
                100.199754496,14.393695461,0
                100.199786609,14.3936965730001,0
                100.199831044,14.393702132,0
                100.2002884,14.393775055,0
                100.200333074,14.3937795160001,0
                100.200368501,14.3937793220001,0
                100.200395086,14.3937732800001,0
                100.200419632,14.3937622890001,0
                100.200431959,14.393753114,0
                100.20044361,14.3937353860001,0
                100.200457525,14.393699489,0
                100.200510277,14.393383864,0
                100.20058799,14.3929237790001,0
                100.200622735,14.3926693820001,0
                100.200627201,14.392657361,0
                100.200631125,14.392649744,0
                100.200637695,14.392641526,0
                100.200646459,14.392634737,0
                100.200659435,14.3926278280001,0
                100.200670991,14.392623814,0
                100.200685859,14.3926213290001,0
                100.200711565,14.3926226950001,0
                100.200750662,14.3926289780001,0
                100.200935292,14.3926645290001,0
                100.200962102,14.3926676580001,0
                100.200977835,14.392667578,0
                100.200993858,14.3926645540001,0
                100.201010059,14.3926571850001,0
                100.201021274,14.3926470980001,0
                100.201027772,14.3926377400001,0
                100.201033691,14.392617595,0
                100.201038414,14.3925858740001,0
                100.201084069,14.392000974,0
                100.201301654,14.3920369520001,0
                100.201546501,14.39207744,0
                100.201613034,14.392094146,0
                100.202205761,14.3922429670001,0
                100.202621992,14.392319662,0
                100.202692431,14.3919506770001,0
                100.202723108,14.391789986,0
                100.202753248,14.3917906990001,0
                100.203572543,14.3918100430001,0
                100.204234146,14.3918256640001,0
                100.204569208,14.3918335760001,0
                100.206522152,14.391938748,0
                100.206545067,14.3919399810001,0
                100.206497793,14.3928030750001,0
                100.206495678,14.39284165,0
                100.207616712,14.3929674990001,0
                100.21040569,14.392637469,0
                100.21083271,14.393905423,0
                100.211065649,14.393750863,0
                100.211512734,14.394125423,0
                100.212247289,14.393725552,0
                100.214515922,14.3924842870001,0
                100.216110627,14.3917496880001,0
                100.21701532,14.391185853,0
                100.216704662,14.3904727890001,0
                100.21687915,14.390258053,0
                100.217227318,14.389829567,0
                100.217162277,14.389669837,0
                100.216967533,14.3891915670001,0
                100.216775251,14.388689051,0
                100.216405825,14.3875409990001,0
                100.216119993,14.386621614,0
                100.215561517,14.3844918520001,0
                100.215233092,14.3832393820001,0
                100.215222349,14.3832102600001,0
                100.215203561,14.3831845610001,0
                100.215174722,14.383169058,0
                100.215128065,14.3831608730001,0
                100.215061344,14.3831581960001,0
                100.214449649,14.3831864630001,0
                100.21438982,14.3831907700001,0
                100.214259773,14.383200124,0
                100.214050309,14.3832083020001,0
                100.213833546,14.3832147410001,0
                100.213527601,14.3832025560001,0
                100.213379591,14.3832007080001,0
                100.213199459,14.383198459,0
                100.213138496,14.3832030790001,0
                100.213073808,14.3832079810001,0
                100.213027956,14.3832151770001,0
                100.212610893,14.3816301840001,0
                100.211926864,14.381761184,0
                100.211518121,14.380150853,0
                100.21210345,14.37998105,0
                100.211963658,14.377989046,0
                100.211939379,14.377749082,0
                100.211918656,14.3775603180001,0
                100.211888135,14.377381207,0
                100.211760543,14.3768600720001,0
                100.211569107,14.376070366,0
                100.211327988,14.3752008870001,0
                100.211244323,14.3749100090001,0
                100.21123067,14.374814042,0
                100.211220129,14.37468605,0
                100.211212045,14.3744043890001,0
                100.211198171,14.3742668090001,0
                100.211159152,14.3740489350001,0
                100.211100293,14.373860345,0
                100.210981123,14.3735988780001,0
                100.210827575,14.373290485,0
                100.210370579,14.3725911010001,0
                100.210321329,14.3725230920001,0
                100.210284012,14.37248838,0
                100.210241907,14.372459341,0
                100.210195913,14.3724365840001,0
                100.210147004,14.3724205990001,0
                100.210096246,14.372411727,0
                100.21004469,14.3724101550001,0
                100.209993449,14.372415914,0
                100.209943619,14.3724288870001,0
                100.209873824,14.372461215,0
                100.209782414,14.3725027190001,0
                100.209678725,14.3725382700001,0
                100.209587623,14.3725622480001,0
                100.209494859,14.372579096,0
                100.209401013,14.372588707,0
                100.209306687,14.372591014,0
                100.209212466,14.372586013,0
                100.209118948,14.372573726,0
                100.20902673,14.372554242,0
                100.208954263,14.3725335400001,0
                100.208740956,14.372471965,0
                100.208603683,14.372844898,0
                100.208562926,14.372966218,0
                100.208501533,14.3731064350001,0
                100.208384708,14.37331549,0
                100.208231707,14.3735902400001,0
                100.208170342,14.373705564,0
                100.208092976,14.373823262,0
                100.208004968,14.3739359780001,0
                100.207889659,14.374066584,0
                100.207827814,14.374123196,0
                100.207699636,14.3742275380001,0
                100.207593395,14.3742994140001,0
                100.207482449,14.374363708,0
                100.207328494,14.37443354,0
                100.20712215,14.374510318,0
                100.206822045,14.374601366,0
                100.206503869,14.3746862190001,0
                100.206188712,14.3747693170001,0
                100.205905068,14.3748590020001,0
                100.205582898,14.374957528,0
                100.205181638,14.375095066,0
                100.204748948,14.3752527780001,0
                100.204353227,14.3754161730001,0
                100.203938917,14.3755793500001,0
                100.20359656,14.375729763,0
                100.203283792,14.375867639,0
                100.20299047,14.375986997,0
                100.202722877,14.376085646,0
                100.201982612,14.376358538,0
                100.201174388,14.376576384,0
                100.200914388,14.3766645900001,0
                100.200548181,14.376805387,0
                100.200238313,14.376947783,0
                100.199911572,14.3771108940001,0
                100.199471132,14.3773491920001,0
                100.199094548,14.377577397,0
                100.198735164,14.377772366,0
                100.198459003,14.377897079,0
                100.198244413,14.377976877,0
                100.19792248,14.3780883320001,0
                100.197638322,14.3781666790001,0
                100.197344269,14.37823117,0
                100.19720693,14.378261294,0
                100.19628929,14.3784663650001,0
                100.196141123,14.3785017000001,0
                100.195905621,14.378557868,0
                100.195738656,14.378597687,0
                100.195407735,14.3786849260001,0
                100.195104219,14.378783689,0
                100.194682541,14.3789373280001,0
                100.194501628,14.379003244,0
                100.193965886,14.379174958,0
                100.193413499,14.3793226110001,0
                100.193212727,14.3793731530001,0
                100.192979734,14.379423527,0
                100.192709923,14.379479168,0
                100.192412459,14.3795349700001,0
                100.192015778,14.379600958,0
                100.191722699,14.3796432820001,0
                100.191334927,14.3796992760001,0
                100.190712045,14.3797869160001,0
                100.190538838,14.3798067180001,0
                100.190233472,14.3798416340001,0
                100.189870484,14.379895773,0
                100.189243569,14.380029499,0
                100.18876541,14.380134722,0
                100.188274242,14.380264901,0
                100.187779147,14.3804145500001,0
                100.187522389,14.3805049860001,0
                100.187262455,14.3806068010001,0
                100.18703459,14.3807027610001,0
                100.186791652,14.380820677,0
                100.18663538,14.3809078150001,0
                100.186317431,14.3811183650001,0
                100.186021639,14.3813142970001,0
                100.185855217,14.3814245340001,0
                100.185647478,14.3815629650001,0
                100.185526115,14.381656956,0
                100.185396792,14.381767842,0
                100.185267429,14.3818861140001,0
                100.18514557,14.381988022,0
                100.184936547,14.3821322680001,0
                100.184683734,14.382279259,0
                100.184582727,14.3823344250001,0
                100.18435517,14.382450498,0
                100.184182896,14.382520517,0
                100.184072049,14.3825564360001,0
                100.18388032,14.382595856,0
                100.183610916,14.3826354930001,0
                100.183364987,14.382682253,0
                100.183130451,14.3827437910001,0
                100.182598007,14.382932017,0
                100.182055845,14.3831431350001,0
                100.181772688,14.383267963,0
                100.181608487,14.383361968,0
                100.181465525,14.3834615710001,0
                100.18136085,14.3835505500001,0
                100.181284575,14.3836218320001,0
                100.181151105,14.3837295320001,0
                100.180980438,14.3838373090001,0
                100.180812266,14.383908164,0
                100.18065631,14.38395115,0
                100.180459731,14.3839954060001,0
                100.180261836,14.3840142060001,0
                100.180084305,14.3840173840001,0
                100.179937878,14.3840200390001,0
                100.179765316,14.384010748,0
                100.17961296,14.383999385,0
                100.178950407,14.383923253,0
                100.1784571,14.383856161,0
                100.17818448,14.3838263270001,0
                100.178016453,14.383820605,0
                100.177877728,14.3838301590001,0
                100.177764034,14.3838555360001,0
                100.177759892,14.3838564600001,0
                100.177621828,14.383905322,0
                100.177430546,14.3839969810001,0
                100.177297893,14.384075807,0
                100.177036581,14.3842690490001,0
                100.176774269,14.384476475,0
                100.176574543,14.3846329840001,0
                100.176443108,14.3847437590001,0
                100.176324696,14.384833799,0
                100.176232167,14.384891699,0
                100.176173298,14.3849160560001,0
                100.176172632,14.3849162180001,0
                100.176054498,14.384930981,0
                100.175937804,14.3849282470001,0
                100.175781068,14.384903439,0
                100.175665534,14.384875343,0
                100.175640431,14.384869989,0
                100.175415047,14.384824426,0
                100.17528476,14.3848099050001,0
                100.175124573,14.3848079250001,0
                100.174951962,14.3848194130001,0
                100.17471209,14.384851182,0
                100.174166687,14.3849576060001,0
                100.173393866,14.3851854710001,0
                100.172653822,14.3854036650001,0
                100.17211514,14.3856061020001,0
                100.171817473,14.3857496050001,0
                100.171601215,14.3858817060001,0
                100.17141114,14.3860134710001,0
                100.17114231,14.3862327250001,0
                100.170822114,14.3865281120001,0
                100.170582085,14.38676976,0
                100.170385073,14.386983561,0
                100.170229075,14.387176212,0
                100.170084431,14.3873678040001,0
                100.169869471,14.3876740310001,0
                100.16968161,14.3879572760001,0
                100.169459268,14.3883111550001,0
                100.169350919,14.3884974640001,0
                100.169268554,14.3886390770001,0
                100.169417513,14.389095621,0
                100.169501262,14.3894569760001,0
                100.16955761,14.3897971800001,0
                100.169581407,14.390174793,0
                100.169561847,14.3906111430001,0
                100.169541701,14.3908777120001,0
                100.169505241,14.391114095,0
                100.169455055,14.3913006810001,0
                100.16941256,14.3914137420001,0
                100.169367326,14.391516317,0
                100.169322004,14.39160315,0
                100.169262731,14.3917162810001,0
                100.169188427,14.391844894,0
                100.169129041,14.3919298170001,0
                100.169046504,14.392026807,0
                100.168913271,14.392150954,0
                100.16879958,14.3922397690001,0
                100.168601395,14.3923801560001,0
                100.168434459,14.3924891090001,0
                100.168245597,14.392598536,0
                100.168083066,14.3926801110001,0
                100.16795414,14.3927312000001,0
                100.167835821,14.3927604290001,0
                100.167739368,14.3927754590001,0
                100.167627358,14.392782531,0
                100.167427386,14.392780236,0
                100.167277439,14.3927676650001,0
                100.167167564,14.392746995,0
                100.167020057,14.3927093880001,0
                100.166880828,14.392660839,0
                100.166578563,14.392539378,0
                100.166413513,14.3924784120001,0
                100.166279277,14.392447389,0
                100.166118754,14.392420739,0
                100.16599769,14.3924106370001,0
                100.165872071,14.392409968,0
                100.165747178,14.3924268120001,0
                100.165665764,14.392445832,0
                100.165563675,14.392483,0
                100.16547291,14.3925281100001,0
                100.165369896,14.3925959700001,0
                100.165267861,14.392681924,0
                100.165224789,14.3927294490001,0
                100.165053291,14.392940713,0
                100.164992101,14.3930367730001,0
                100.164917935,14.393177345,0
                100.164840527,14.3933616370001,0
                100.164765056,14.393574373,0
                100.164735505,14.393689846,0
                100.164715516,14.393816433,0
                100.164706422,14.394052754,0
                100.164723383,14.394339217,0
                100.164740996,14.394483415,0
                100.164771859,14.394736122,0
                100.164841953,14.395323954,0
                100.164885455,14.3957560710001,0
                100.164891912,14.3960073970001,0
                100.164888163,14.3962788800001,0
                100.164819795,14.3970182040001,0
                100.164800812,14.3973359880001,0
                100.164761788,14.3977675360001,0
                100.164711964,14.398104599,0
                100.164674138,14.398257061,0
                100.164600819,14.398552561,0
                100.164499337,14.398874796,0
                100.164397597,14.399146762,0
                100.164305232,14.3993133010001,0
                100.164280014,14.3993516780001,0
                100.164220706,14.399428313,0
                100.164155553,14.399500303,0
                100.164084936,14.3995672180001,0
                100.164009273,14.399628669,0
                100.163929006,14.39968429,0
                100.163844605,14.399733762,0
                100.16375657,14.3997767920001,0
                100.163665409,14.399813126,0
                100.163571663,14.3998425510001,0
                100.163475885,14.3998648960001,0
                100.163378626,14.3998800270001,0
                100.16328047,14.399887861,0
                100.163181986,14.399888345,0
                100.163116057,14.399883738,0
                100.163083751,14.3998814780001,0
                100.163006574,14.399869193,0
                100.162940884,14.3998498820001,0
                100.162862717,14.399820091,0
                100.162673777,14.399731381,0
                100.162591716,14.3996877390001,0
                100.162302747,14.399527977,0
                100.162023203,14.3993837080001,0
                100.16194438,14.3993515330001,0
                100.161817801,14.3993113940001,0
                100.161643165,14.3992684840001,0
                100.161429663,14.399252443,0
                100.161403175,14.399250458,0
                100.161193508,14.3992638340001,0
                100.161062989,14.399285676,0
                100.160926513,14.39931713,0
                100.160732233,14.3993862450001,0
                100.160587568,14.399445761,0
                100.160432644,14.399522404,0
                100.160349998,14.3995656280001,0
                100.160254233,14.399615715,0
                100.159777761,14.3999138130001,0
                100.15916442,14.4002692980001,0
                100.15859063,14.4006315680001,0
                100.158095534,14.400974971,0
                100.157438906,14.4014817830001,0
                100.157010269,14.4017882850001,0
                100.156761688,14.401962881,0
                100.156571037,14.4020809780001,0
                100.156398736,14.4021702910001,0
                100.156136798,14.4022771260001,0
                100.155947245,14.402336683,0
                100.15579377,14.4023654160001,0
                100.155623546,14.4023705610001,0
                100.155435418,14.4023466030001,0
                100.155280743,14.4023042470001,0
                100.155159286,14.402253891,0
                100.155028053,14.402175653,0
                100.154968065,14.4021280870001,0
                100.154890747,14.402066787,0
                100.154796006,14.4019577,0
                100.154728339,14.401851531,0
                100.154680241,14.4017474340001,0
                100.15464146,14.401629191,0
                100.154617469,14.40147417,0
                100.154615041,14.4013328030001,0
                100.154629836,14.4011806180001,0
                100.154658504,14.4010345900001,0
                100.154743349,14.4007736510001,0
                100.154830387,14.400551987,0
                100.154933727,14.400320106,0
                100.155020991,14.4001591590001,0
                100.155116228,14.400006585,0
                100.15521407,14.399872341,0
                100.155351236,14.3997090170001,0
                100.155567679,14.3994728820001,0
                100.156133571,14.398970519,0
                100.156903077,14.398194646,0
                100.15697816,14.3981247130001,0
                100.15707584,14.398019273,0
                100.157123666,14.3979476980001,0
                100.157150141,14.3978848300001,0
                100.157160613,14.397820247,0
                100.157160599,14.397818353,0
                100.157159895,14.397723146,0
                100.157146789,14.397658,0
                100.157122236,14.397590898,0
                100.157083734,14.397530992,0
                100.157031692,14.397468482,0
                100.156943831,14.3973947640001,0
                100.156726627,14.397249221,0
                100.156495317,14.3971258670001,0
                100.156230063,14.397012997,0
                100.156018409,14.3969482150001,0
                100.155837797,14.3969139330001,0
                100.155639104,14.3968888740001,0
                100.155358944,14.396877144,0
                100.154794228,14.396879993,0
                100.154416409,14.396864121,0
                100.1540543,14.3968326940001,0
                100.154027475,14.396828531,0
                100.153756377,14.396786466,0
                100.153496769,14.3967250040001,0
                100.153268789,14.396657498,0
                100.15293486,14.3965339220001,0
                100.152685716,14.3964329470001,0
                100.152269234,14.396265725,0
                100.152011406,14.3961876920001,0
                100.151608241,14.3961148130001,0
                100.151255217,14.3960818630001,0
                100.150839498,14.3960646140001,0
                100.150474512,14.3960822970001,0
                100.150177245,14.396115917,0
                100.149954011,14.3961556360001,0
                100.149534867,14.396245218,0
                100.149236883,14.3963304000001,0
                100.148913385,14.396447918,0
                100.148636695,14.396563402,0
                100.14840013,14.396688677,0
                100.148110341,14.396876962,0
                100.147879328,14.3970505820001,0
                100.147721317,14.3971792400001,0
                100.14754935,14.397337829,0
                100.147315734,14.397564704,0
                100.147092709,14.3977665800001,0
                100.146792478,14.397999521,0
                100.146537517,14.398177086,0
                100.146222179,14.398390211,0
                100.145955732,14.3985634790001,0
                100.145737928,14.3986944960001,0
                100.145436628,14.398859939,0
                100.145202296,14.3989904750001,0
                100.144741627,14.399275516,0
                100.144484133,14.3994474310001,0
                100.144255808,14.399620832,0
                100.144027559,14.399823763,0
                100.14387578,14.399977762,0
                100.143632152,14.4002434,0
                100.143311321,14.4005886950001,0
                100.143172991,14.400737567,0
                100.142945048,14.4009658700001,0
                100.142922967,14.4009879860001,0
                100.142667899,14.4012625730001,0
                100.142423446,14.401590776,0
                100.142278383,14.4018074950001,0
                100.142090069,14.4020602580001,0
                100.141838869,14.4023371690001,0
                100.141651962,14.402530771,0
                100.141497603,14.40271461,0
                100.141365186,14.402846708,0
                100.141229487,14.4029655750001,0
                100.141074372,14.403084489,0
                100.140898196,14.4031974370001,0
                100.140720839,14.403297276,0
                100.140490801,14.403403247,0
                100.140254829,14.403477616,0
                100.140091621,14.403508399,0
                100.139873023,14.4035340520001,0
                100.139663952,14.40353958,0
                100.139469139,14.403528943,0
                100.13917354,14.4035005650001,0
                100.139001387,14.403479082,0
                100.138587654,14.4034056240001,0
                100.13821241,14.403322906,0
                100.137872626,14.4032407820001,0
                100.137610924,14.4031724160001,0
                100.1374589,14.403131183,0
                100.137286248,14.403098927,0
                100.137134861,14.403083623,0
                100.136992429,14.4030784400001,0
                100.136756485,14.4030872430001,0
                100.136583546,14.4031110770001,0
                100.136414637,14.4031540610001,0
                100.136249854,14.403235361,0
                100.136073522,14.4033665530001,0
                100.135924783,14.403509113,0
                100.135772399,14.403709194,0
                100.135669982,14.40389164,0
                100.135612838,14.404004194,0
                100.135515317,14.40420497,0
                100.135265941,14.4047922890001,0
                100.135149944,14.4050654650001,0
                100.135072594,14.4052261900001,0
                100.134879441,14.405627505,0
                100.13474908,14.4058714190001,0
                100.1345636,14.4061382900001,0
                100.13442833,14.406304608,0
                100.134279655,14.406473165,0
                100.134075366,14.4066798900001,0
                100.133657549,14.407090166,0
                100.133501384,14.407217223,0
                100.133358688,14.4073099610001,0
                100.133166828,14.4074107060001,0
                100.132937252,14.4075051240001,0
                100.132734219,14.4075652830001,0
                100.132534875,14.4076073850001,0
                100.132362015,14.407676295,0
                100.132188299,14.4077848090001,0
                100.132017204,14.4079150740001,0
                100.131898771,14.408019789,0
                100.131786705,14.408144868,0
                100.131670958,14.4083166520001,0
                100.131599115,14.40847089,0
                100.131544303,14.4086075720001,0
                100.131505131,14.4087237410001,0
                100.131452927,14.408945777,0
                100.131434838,14.4090800180001,0
                100.131441126,14.409301772,0
                100.131460138,14.40955253,0
                100.131489889,14.4098534010001,0
                100.131526131,14.4100703620001,0
                100.131564639,14.4102296190001,0
                100.131638456,14.4104417080001,0
                100.13171756,14.4106331200001,0
                100.131804447,14.410810713,0
                100.131919174,14.4109997800001,0
                100.132060905,14.4111968760001,0
                100.13219328,14.411361088,0
                100.13239317,14.411622199,0
                100.132488363,14.411765153,0
                100.132602765,14.411936951,0
                100.132695674,14.412126733,0
                100.132767661,14.412308248,0
                100.13282628,14.4124834310001,0
                100.132863225,14.4126308260001,0
                100.132926181,14.4129115800001,0
                100.132956277,14.4131161770001,0
                100.132962179,14.4132783150001,0
                100.132944518,14.413494875,0
                100.132921089,14.413673037,0
                100.132878643,14.4139205230001,0
                100.132795616,14.4143357560001,0
                100.132723955,14.4147738720001,0
                100.132688006,14.415035878,0
                100.132674498,14.4151815330001,0
                100.132668768,14.415368164,0
                100.132676061,14.4155616780001,0
                100.132691975,14.4156840810001,0
                100.132713454,14.4157864210001,0
                100.132734895,14.4158701530001,0
                100.132759455,14.4159270000001,0
                100.132790877,14.4159997140001,0
                100.132843534,14.416085319,0
                100.132909684,14.4161746610001,0
                100.132984567,14.4162506770001,0
                100.133106095,14.4163530070001,0
                100.133407598,14.4165495280001,0
                100.133701234,14.416731272,0
                100.133806669,14.416811292,0
                100.133919969,14.41691238,0
                100.134035106,14.4170330110001,0
                100.134132374,14.417143971,0
                100.134268366,14.4173247480001,0
                100.134369915,14.417472591,0
                100.134437525,14.4176058470001,0
                100.134497826,14.4177635240001,0
                100.134528171,14.4178682800001,0
                100.134561615,14.4180382760001,0
                100.134587991,14.418203137,0
                100.13461454,14.418449621,0
                100.134650459,14.4187830860001,0
                100.134713685,14.419487052,0
                100.134716203,14.41998455,0
                100.134659938,14.4209503600001,0
                100.134611196,14.4215728410001,0
                100.134579866,14.421910654,0
                100.134542965,14.422175871,0
                100.134515839,14.4223115450001,0
                100.134464856,14.4225042030001,0
                100.134379238,14.422825335,0
                100.134378584,14.422827797,0
                100.134292469,14.4230826680001,0
                100.134276484,14.423129988,0
                100.134199931,14.4233156330001,0
                100.134117185,14.4234967300001,0
                100.13392575,14.4239920800001,0
                100.133826367,14.424279207,0
                100.133745678,14.4245608730001,0
                100.13368389,14.424841884,0
                100.133653523,14.425060714,0
                100.133641572,14.4252641530001,0
                100.133638671,14.425449063,0
                100.133643387,14.4257420160001,0
                100.133670547,14.4261163780001,0
                100.133692935,14.4263331610001,0
                100.133734351,14.426651969,0
                100.133785511,14.4269477290001,0
                100.13383464,14.4271887510001,0
                100.133898321,14.4274238580001,0
                100.133952442,14.4275824700001,0
                100.134026921,14.4277636360001,0
                100.134145716,14.427984693,0
                100.134306758,14.42823363,0
                100.134474701,14.428452798,0
                100.134714757,14.4287114530001,0
                100.13486404,14.428843607,0
                100.135028352,14.4289512020001,0
                100.13517358,14.4290271690001,0
                100.135376551,14.4291103320001,0
                100.135614466,14.429176775,0
                100.135827333,14.429218791,0
                100.136050016,14.429245855,0
                100.136176281,14.429254454,0
                100.13684471,14.429249123,0
                100.13688385,14.4291309500001,0
                100.13689221,14.429105717,0
                100.136902412,14.429074907,0
                100.136927624,14.4290330580001,0
                100.137046951,14.4288349830001,0
                100.137058891,14.428815168,0
                100.137073322,14.428802891,0
                100.137205483,14.428690487,0
                100.137247849,14.428654449,0
                100.137383188,14.428564732,0
                100.137461544,14.428512792,0
                100.137894547,14.4282257560001,0
                100.137927243,14.4282040800001,0
                100.137928073,14.4282039230001,0
                100.138034002,14.4281838150001,0
                100.138111118,14.428495873,0
                100.13811745,14.4285180630001,0
                100.138144888,14.428614211,0
                100.138170443,14.428675261,0
                100.138213891,14.4287790710001,0
                100.138256594,14.428843505,0
                100.138304704,14.428884571,0
                100.138350876,14.4289076900001,0
                100.138408076,14.4289235790001,0
                100.138526125,14.428949937,0
                100.138607382,14.4289872580001,0
                100.138653579,14.42901576,0
                100.138658105,14.429020323,0
                100.138670553,14.4290328860001,0
                100.139358162,14.429170367,0
                100.140147652,14.429327084,0
                100.140148026,14.4293262250001,0
                100.140205787,14.429195,0
                100.140227577,14.429132053,0
                100.140254638,14.4290188000001,0
                100.140664399,14.429119622,0
                100.140727026,14.429135033,0
                100.140879689,14.4291726000001,0
                100.141027565,14.4292089800001,0
                100.141681684,14.4294396770001,0
                100.141717696,14.4294523730001,0
                100.141765853,14.429469356,0
                100.142065673,14.4295845550001,0
                100.142079674,14.4295899410001,0
                100.142295593,14.429660719,0
                100.142612863,14.429734594,0
                100.142750322,14.4297615510001,0
                100.143485092,14.429905653,0
                100.143552829,14.429918937,0
                100.143637288,14.429943414,0
                100.143890417,14.4300167700001,0
                100.144035576,14.4300588400001,0
                100.14426087,14.43012413,0
                100.144373972,14.430161986,0
                100.144387549,14.4301665290001,0
                100.144431052,14.4301747920001,0
                100.144503512,14.4301800850001,0
                100.144790418,14.4301928150001,0
                100.14500784,14.4302157600001,0
                100.145187591,14.430237473,0
                100.14532966,14.4302565570001,0
                100.145450016,14.430278559,0
                100.145641477,14.430324222,0
                100.145744468,14.4303505450001,0
                100.146047705,14.430440844,0
                100.146162345,14.4302121800001,0
                100.146602135,14.430354677,0
                100.147006944,14.4304804080001,0
                100.147372853,14.430577553,0
                100.147709141,14.4306568490001,0
                100.148047202,14.430721756,0
                100.148281815,14.4307651350001,0
                100.148397919,14.4307865980001,0
                100.148641964,14.430821383,0
                100.148978114,14.4308737010001,0
                100.14907002,14.4308893690001,0
                100.149275506,14.430924411,0
                100.149476885,14.4309665910001,0
                100.149766887,14.4310173420001,0
                100.150005126,14.431050349,0
                100.150259984,14.431085081,0
                100.150435419,14.4311058060001,0
                100.1506349,14.43113901,0
                100.150976674,14.431207482,0
                100.151325899,14.4312903150001,0
                100.151479173,14.431309351,0
                100.151569611,14.4313107040001,0
                100.151676614,14.431302993,0
                100.151796528,14.431293415,0
                100.151903467,14.431274907,0
                100.152130265,14.431236025,0
                100.152513623,14.4311370340001,0
                100.152655584,14.431109362,0
                100.152775446,14.4310907890001,0
                100.152950618,14.4310611550001,0
                100.15335388,14.431013223,0
                100.153518688,14.430993631,0
                100.154225048,14.430902044,0
                100.15479676,14.430825505,0
                100.155136136,14.430787874,0
                100.155225521,14.430778662,0
                100.155429415,14.4307576580001,0
                100.156048385,14.430721106,0
                100.156060386,14.430720389,0
                100.156247007,14.4307076000001,0
                100.156597238,14.4306835890001,0
                100.157003121,14.4306582140001,0
                100.15715255,14.4306466940001,0
                100.157312997,14.430626122,0
                100.157497383,14.430594636,0
                100.157600652,14.430577946,0
                100.157696574,14.430570281,0
                100.157790689,14.430569819,0
                100.157850983,14.4305702570001,0
                100.15793834,14.4305708960001,0
                100.158106362,14.430586255,0
                100.158261499,14.4306088750001,0
                100.158457378,14.430658271,0
                100.158479086,14.430664054,0
                100.158650157,14.430709612,0
                100.158682837,14.430718315,0
                100.158703104,14.430725809,0
                100.158703197,14.4307258430001,0
                100.158932463,14.430810615,0
                100.159000998,14.430857426,0
                100.159066082,14.4309064170001,0
                100.159061321,14.431015503,0
                100.159830125,14.4312513620001,0
                100.160136161,14.431314629,0
                100.160369949,14.4313708120001,0
                100.160558688,14.431416176,0
                100.160748354,14.4314670570001,0
                100.1609348,14.4315373850001,0
                100.161187957,14.4316559590001,0
                100.161469693,14.4318143350001,0
                100.161776791,14.4319567050001,0
                100.161993247,14.4320599590001,0
                100.162194796,14.432134508,0
                100.162616325,14.4322799070001,0
                100.162971189,14.4323806790001,0
                100.16364566,14.4325464200001,0
                100.164227713,14.432683836,0
                100.164730978,14.4328008740001,0
                100.164836324,14.432820868,0
                100.164889129,14.4328226590001,0
                100.164953724,14.43282234,0
                100.165025636,14.4328111880001,0
                100.165125129,14.4327783250001,0
                100.165555937,14.432578356,0
                100.16634577,14.432214736,0
                100.166500589,14.432146764,0
                100.166638883,14.4320777250001,0
                100.166736788,14.432003588,0
                100.166814696,14.4319183640001,0
                100.166899405,14.4318138420001,0
                100.16691547,14.431791316,0
                100.167019732,14.431645229,0
                100.167124107,14.431488975,0
                100.167236875,14.4313201460001,0
                100.166524463,14.4311795510001,0
                100.166198799,14.431115285,0
                100.166136677,14.4307711820001,0
                100.166134092,14.4307568470001,0
                100.166410779,14.4306159340001,0
                100.16641168,14.430615475,0
                100.166412816,14.43061449,0
                100.166450612,14.4305816520001,0
                100.166487654,14.430549474,0
                100.166527668,14.4304749,0
                100.166549545,14.430365416,0
                100.166583954,14.430076494,0
                100.166623445,14.429901294,0
                100.166625709,14.4299012660001,0
                100.16719802,14.4298940790001,0
                100.167745527,14.42986074,0
                100.168355716,14.429796475,0
                100.168790882,14.429741812,0
                100.169531144,14.4296550230001,0
                100.169667253,14.4299299780001,0
                100.170251149,14.4299523660001,0
                100.170273412,14.429953219,0
                100.170426476,14.430035586,0
                100.170417226,14.4301966580001,0
                100.170393556,14.430608879,0
                100.170497488,14.4308131220001,0
                100.170606735,14.431027822,0
                100.170680278,14.431355581,0
                100.170609465,14.431806608,0
                100.17057957,14.4319969850001,0
                100.170585691,14.4320294250001,0
                100.171198992,14.431731175,0
                100.171598077,14.431544263,0
                100.171915937,14.4314168920001,0
                100.171992932,14.4316932460001,0
                100.172133834,14.4321989800001,0
                100.172179973,14.432558176,0
                100.172187041,14.432661501,0
                100.172191283,14.4327235530001,0
                100.172211918,14.433025263,0
                100.17221618,14.4330858380001,0
                100.172224578,14.4332050940001,0
                100.172243788,14.433477973,0
                100.17225751,14.433559335,0
                100.172350365,14.434110022,0
                100.172355877,14.4341371420001,0
                100.172471502,14.4347060580001,0
                100.17254179,14.4348748030001,0
                100.172591018,14.4349929970001,0
                100.172628192,14.4350756170001,0
                100.172671113,14.4351710060001,0
                100.172671435,14.4351717220001,0
                100.172835021,14.4355035670001,0
                100.172883566,14.4356020390001,0
                100.172888509,14.435600407,0
                100.17296785,14.435574262,0
                100.17361031,14.4353625530001,0
                100.174366333,14.4351134180001,0
                100.174803672,14.4349692970001,0
                100.175013927,14.4349630880001,0
                100.175090665,14.4349608200001,0
                100.175642998,14.434951197,0
                100.176019804,14.434959679,0
                100.176044029,14.434960764,0
                100.176586981,14.434985017,0
                100.176791457,14.4350001820001,0
                100.17780535,14.4350665870001,0
                100.177836487,14.4350686290001,0
                100.177841851,14.4347448780001,0
                100.177867241,14.434747456,0
                100.17806725,14.434767768,0
                100.178072115,14.434722697,0
                100.178120956,14.4342700830001,0
                100.178149114,14.4342719000001,0
                100.17864142,14.4343036700001,0
                100.17893132,14.434334801,0
                100.179124488,14.434337455,0
                100.179302685,14.4343184680001,0
                100.179463493,14.434289833,0
                100.17957589,14.4342800690001,0
                100.179711224,14.434280562,0
                100.179823903,14.434285693,0
                100.179931623,14.4343070040001,0
                100.180039287,14.434340853,0
                100.180156128,14.434396673,0
                100.180301515,14.434465184,0
                100.180413492,14.4345112780001,0
                100.180546022,14.43454518,0
                100.180726915,14.434572727,0
                100.181152793,14.434625897,0
                100.181147361,14.435204405,0
                100.1811454,14.4354140460001,0
                100.18135346,14.435435527,0
                100.18186323,14.4348213820001,0
                100.181864641,14.4348196820001,0
                100.18346898,14.435245654,0
                100.184099849,14.4354956,0
                100.18445063,14.4356314,0
                100.184710338,14.4357213210001,0
                100.184879345,14.435713752,0
                100.185182875,14.435740616,0
                100.185268232,14.435725705,0
                100.185284233,14.4357144470001,0
                100.185294136,14.4357074760001,0
                100.185303297,14.4354744080001,0
                100.18530396,14.4354576440001,0
                100.18533594,14.435426154,0
                100.185430941,14.435332611,0
                100.185444376,14.435319377,0
                100.185708422,14.4339750280001,0
                100.186254458,14.434076196,0
                100.186517616,14.434124953,0
                100.186695221,14.43415786,0
                100.187315359,14.4342849490001,0
                100.187997207,14.434424682,0
                100.188183675,14.434453005,0
                100.189156611,14.434600786,0
                100.18916413,14.4346019270001,0
                100.189232471,14.434612305,0
                100.189211531,14.4349732810001,0
                100.18921103,14.434981893,0
                100.190472705,14.4351021860001,0
                100.19032437,14.436077477,0
                100.190517025,14.4361333260001,0
                100.190676438,14.436179538,0
                100.190674632,14.436193405,0
                100.190640349,14.4364568670001,0
                100.190631171,14.4365274240001,0
                100.190629093,14.436543403,0
                100.190867575,14.4365795210001,0
                100.191220933,14.436633032,0
                100.191215797,14.4366562550001,0
                100.190880632,14.4381715920001,0
                100.191948615,14.438511046,0
                100.192385994,14.4384877300001,0
                100.192546969,14.4384791460001,0
                100.192945855,14.4386345510001,0
                100.192945228,14.438636805,0
                100.192869859,14.4389059390001,0
                100.192923311,14.438917646,0
                100.194691871,14.4393049380001,0
                100.19502333,14.439401984,0
                100.195210273,14.4394512750001,0
                100.195483059,14.439508313,0
                100.19571364,14.439543212,0
                100.195933406,14.4395649630001,0
                100.196262232,14.4395874860001,0
                100.197463156,14.4396107320001,0
                100.197710238,14.4396155160001,0
                100.197708341,14.4395986210001,0
                100.197632378,14.438924163,0
                100.197706629,14.438917084,0
                100.198251959,14.4388650940001,0
                100.198378699,14.4388530140001,0
                100.198777302,14.4389017930001,0
                100.199678252,14.439012043,0
                100.199676767,14.439020522,0
                100.199671406,14.4390510540001,0
                100.199668008,14.439070416,0
                100.199685841,14.4390737160001,0
                100.200342308,14.439195292,0
                100.200753499,14.439271439,0
                100.200764679,14.4392735100001,0
                100.200723952,14.439545073,0
                100.201550362,14.4395616730001,0
                100.202537726,14.4394364120001,0
                100.202576798,14.4398581990001,0
                100.20259664,14.440072409,0
                100.204206731,14.4401331230001,0
                100.204423472,14.440141295,0
                100.205335593,14.440586888,0
                100.205421968,14.440629083,0
                100.206570305,14.44117226,0
                100.206641291,14.440717637,0
                100.206642662,14.440704227,0
                100.206664253,14.440493727,0
                100.206704429,14.4400989480001,0
                100.206726726,14.439982463,0
                100.20675272,14.4398467,0
                100.206785615,14.4396748820001,0
                100.206867512,14.4394536230001,0
              </coordinates>
                
            </LinearRing>
            
          </outerBoundaryIs>
        
        </Polygon>
        
      <styleUrl>
        #tambonStyle</styleUrl>
    </Placemark>

  </Document>
</kml>