<?xml version="1.0" encoding="UTF-8"?>
<kml xmlns="http://www.opengis.net/kml/2.2">
  <Document id="tambon_doc">
    <name>เคียนซา, เคียนซา, Surat Thani</name>
    <description>ข้อมูลขอบเขตตำบลเคียนซา อำเภอเคียนซา จังหวัดSurat Thani</description>
    
    <!-- Schema สำหรับข้อมูลตำบล -->
    <Schema id="tambon.schema">
      <SimpleField name="ADM3_EN" type="string">
        <displayName>Subdistrict Name (English)</displayName>
      </SimpleField>
      <SimpleField name="ADM3_TH" type="string">
        <displayName>ชื่อตำบล</displayName>
      </SimpleField>
      <SimpleField name="ADM2_EN" type="string">
        <displayName>District Name (English)</displayName>
      </SimpleField>
      <SimpleField name="ADM2_TH" type="string">
        <displayName>ชื่ออำเภอ</displayName>
      </SimpleField>
      <SimpleField name="ADM1_EN" type="string">
        <displayName>Province Name (English)</displayName>
      </SimpleField>
      <SimpleField name="ADM1_TH" type="string">
        <displayName>ชื่อจังหวัด</displayName>
      </SimpleField>
      <SimpleField name="ADM0_EN" type="string">
        <displayName>Country Name (English)</displayName>
      </SimpleField>
      <SimpleField name="ADM0_TH" type="string">
        <displayName>ชื่อประเทศ</displayName>
      </SimpleField>
    </Schema>

    <!-- Style สำหรับตำบล -->
    <Style id="tambonStyle">
      <LineStyle>
        <color>ffff0000</color>
        <width>1.5</width>
      </LineStyle>
      <PolyStyle>
        <color>33ff0000</color>
        <fill>1</fill>
        <outline>1</outline>
      </PolyStyle>
    </Style>

    <Placemark id="Surat_Thani.93">
        
        <ExtendedData>
            
          <SchemaData schemaUrl="#tambon.schema">
                
            <SimpleData name="Shape_Leng">
                0.46202752705</SimpleData>
                
            <SimpleData name="Shape_Area">
                0.00831163254695</SimpleData>
                
            <SimpleData name="ADM3_EN">
                Khian Sa</SimpleData>
                
            <SimpleData name="ADM3_TH">
                เคียนซา</SimpleData>
                
            <SimpleData name="ADM3_PCODE">
                TH841401</SimpleData>
                
            <SimpleData name="ADM2_EN">
                Khian Sa</SimpleData>
                
            <SimpleData name="ADM2_TH">
                เคียนซา</SimpleData>
                
            <SimpleData name="ADM2_PCODE">
                TH8414</SimpleData>
                
            <SimpleData name="ADM1_EN">
                Surat Thani</SimpleData>
                
            <SimpleData name="ADM1_TH">
                สุราษฎร์ธานี</SimpleData>
                
            <SimpleData name="ADM1_PCODE">
                TH84</SimpleData>
                
            <SimpleData name="ADM0_EN">
                Thailand</SimpleData>
                
            <SimpleData name="ADM0_TH">
                ประเทศไทย</SimpleData>
                
            <SimpleData name="ADM0_PCODE">
                TH</SimpleData>
            
          </SchemaData>
        
        </ExtendedData>
        
        <Polygon>
            
          <outerBoundaryIs>
                
            <LinearRing>
                    
              <coordinates>
                    
                99.184470806,8.87389532600002,0
                99.1846272780001,8.87347519500003,0
                99.184708894,8.87321092700006,0
                99.1847428170001,8.87293313300006,0
                99.1847290060001,8.87256051200006,0
                99.1847046190001,8.87220419600004,0
                99.1846946940001,8.87205917500006,0
                99.184633137,8.87156462700005,0
                99.1843191870001,8.87039269700006,0
                99.1841348550001,8.86958655500007,0
                99.1840733490001,8.86919363300007,0
                99.184039096,8.86880747100003,0
                99.1840661790001,8.86847548000003,0
                99.1841204710001,8.86806217500003,0
                99.18419522,8.86768951000005,0
                99.184222446,8.86760678400003,0
                99.184331258,8.86727616400003,0
                99.184412836,8.86708358100003,0
                99.1845149710001,8.86684246900006,0
                99.184828032,8.86624611000008,0
                99.185011806,8.86593436600003,0
                99.1852228100001,8.86558873400003,0
                99.1854338670001,8.86535150300006,0
                99.1856313280001,8.86516847700005,0
                99.1858969230001,8.86501252000005,0
                99.1862102040001,8.86485653700004,0
                99.1865984280001,8.86472084300004,0
                99.186973058,8.86464612900005,0
                99.1873817800001,8.86463237500004,0
                99.187688333,8.86464577100003,0
                99.1880289850001,8.86473367500002,0
                99.1898890690001,8.86545089100002,0
                99.1921102040001,8.86616791300003,0
                99.1930301960001,8.86652933400006,0
                99.1933502740001,8.86665507700008,0
                99.193956642,8.86681736400004,0
                99.1944471800001,8.86693228600006,0
                99.1949989920001,8.86697942300003,0
                99.1953804710001,8.86697244900006,0
                99.195612059,8.86692490200005,0
                99.195799874,8.86685336900007,0
                99.195843627,8.86683670500003,0
                99.1959910840001,8.86673882500003,0
                99.196170496,8.86661973200006,0
                99.1968990920001,8.86604346900003,0
                99.196960199,8.86598263100007,0
                99.1972939880001,8.86565030800006,0
                99.19735094,8.86556629800003,0
                99.1974777720001,8.86537920900003,0
                99.1976478940001,8.86504036600007,0
                99.197763545,8.86474897800002,0
                99.1978383370001,8.86448471200003,0
                99.197879039,8.86416626200003,0
                99.1979129150001,8.86382071600002,0
                99.1979263800001,8.86352260700005,0
                99.1979262390001,8.86325838000005,0
                99.19775516,8.86180860800005,0
                99.1974332950001,8.85965432100005,0
                99.1972930780001,8.85622602200004,0
                99.197288578,8.85550466500007,0
                99.1973246000001,8.85492650800006,0
                99.1974240420001,8.85405021500003,0
                99.1976047430001,8.85227053800003,0
                99.1977677510001,8.85137614300004,0
                99.1979217780001,8.85067145600004,0
                99.198365901,8.84895487300003,0
                99.1985925560001,8.84819594600003,0
                99.1988102110001,8.84759059200007,0
                99.1990620180001,8.84716250100007,0
                99.1992457950001,8.84689817500004,0
                99.1994023830001,8.84674226500005,0
                99.1996066710001,8.84662020600007,0
                99.199763321,8.84657947200003,0
                99.1998723020001,8.84656586300002,0
                99.2000971030001,8.84658606800002,0
                99.200328755,8.84668079500005,0
                99.2006050420001,8.84687125100004,0
                99.200662659,8.84691096900002,0
                99.2011192300001,8.84724270200007,0
                99.2015144550001,8.84749994200007,0
                99.2019233300001,8.84780459900003,0
                99.2021890770001,8.84796028200003,0
                99.2024752330001,8.84806852900005,0
                99.2028431090001,8.84813608000007,0
                99.2033403950001,8.84817646000005,0
                99.2037763490001,8.84816944900007,0
                99.204280387,8.84810142300006,0
                99.204668601,8.84799281000005,0
                99.2046764460001,8.84798925900003,0
                99.2047502450001,8.84795584600005,0
                99.2049682460001,8.84785714500003,0
                99.20538364,8.84762656600003,0
                99.2057649700001,8.84738923000003,0
                99.2062552370001,8.84705698200003,0
                99.2068680300001,8.84657561600005,0
                99.2073786620001,8.84612140400003,0
                99.2080050690001,8.84562647800004,0
                99.2083795610001,8.84534849300007,0
                99.208788111,8.84507048800003,0
                99.209271598,8.84480599100004,0
                99.2100138810001,8.84445327200007,0
                99.2108515340001,8.84411404900004,0
                99.2123429980001,8.84357120200002,0
                99.213228373,8.84330647300004,0
                99.214106949,8.84306884400007,0
                99.2148159760001,8.84283531700004,0
                99.2149105810001,8.84280415800004,0
                99.2155081540001,8.84261838500004,0
                99.2156529250001,8.84257337900004,0
                99.2161705020001,8.84237660400004,0
                99.2165927180001,8.84218665900005,0
                99.2168923500001,8.84204420900005,0
                99.2172055810001,8.84186110200005,0
                99.2174166330001,8.84167127800004,0
                99.21755956,8.84146794300005,0
                99.2176888110001,8.84117654100004,0
                99.217818042,8.84085126400004,0
                99.2179607260001,8.84023465000007,0
                99.218021735,8.83973326100005,0
                99.2180554880001,8.83921156200006,0
                99.218062096,8.83886603000008,0
                99.2180482460001,8.83847986000006,0
                99.217986726,8.83811404300008,0
                99.217884396,8.83784987500007,0
                99.2178709180001,8.83782067100003,0
                99.2177343490001,8.83752476000006,0
                99.2173797870001,8.83691521100008,0
                99.216636609,8.83569613100008,0
                99.2161252490001,8.83485631900004,0
                99.215838836,8.83429415400008,0
                99.2156887410001,8.83388096200002,0
                99.2156203770001,8.83345417200007,0
                99.2156065180001,8.83304767700002,0
                99.2156335560001,8.83268858300005,0
                99.2157217320001,8.83204490200006,0
                99.2158032570001,8.83167900200004,0
                99.215980034,8.83112334500004,0
                99.2160223420001,8.83103266600006,0
                99.2162045330001,8.83064218700002,0
                99.216435887,8.83023555000005,0
                99.2166196360001,8.82995766700003,0
                99.2168783020001,8.82966619000007,0
                99.2172254980001,8.82934078500006,0
                99.217491022,8.82913060500005,0
                99.217824658,8.82891361000003,0
                99.218124263,8.82874405900003,0
                99.2185737080001,8.82855409700005,0
                99.2191253450001,8.82839794800003,0
                99.219663402,8.82831633300003,0
                99.2203445440001,8.82830915900007,0
                99.220787321,8.82836309900006,0
                99.220963903,8.82749578800002,0
                99.221219551,8.82639091100003,0
                99.2215211930001,8.82540196700006,0
                99.2220336730001,8.82339648500005,0
                99.2223605890001,8.82055256300004,0
                99.2221940910001,8.81689176900005,0
                99.2221927630001,8.81466908800007,0
                99.2223890710001,8.81323076200005,0
                99.222946902,8.81189028400007,0
                99.2236690080001,8.81051702400003,0
                99.2239972230001,8.80986309700006,0
                99.2236682810001,8.80930762100007,0
                99.223273938,8.80927517000003,0
                99.2227410410001,8.80937048100003,0
                99.2220576300001,8.80971759500005,0
                99.221426905,8.80984929700003,0
                99.220862131,8.80987881300007,0
                99.2202899710001,8.80982077900006,0
                99.2197911150001,8.80968244700006,0
                99.2191087730001,8.80935452100005,0
                99.2187052020001,8.80909938800005,0
                99.218272121,8.80855243300005,0
                99.2179196640001,8.80789598800004,0
                99.217706584,8.80726864900004,0
                99.217581356,8.80635670500004,0
                99.2175516410001,8.80571466700007,0
                99.217595379,8.80524769200002,0
                99.2177050560001,8.80465664400003,0
                99.2178366150001,8.80385399400006,0
                99.217858316,8.80333595700006,0
                99.2177625480001,8.80262829100008,0
                99.2175787850001,8.80195715500003,0
                99.21729236,8.80132256100006,0
                99.2168885940001,8.80071721800005,0
                99.2163968400001,8.80015569900007,0
                99.2154868980001,8.79940472000004,0
                99.2148629960001,8.79862439600004,0
                99.2145545980001,8.79803358600003,0
                99.2144075960001,8.79750105300008,0
                99.214341215,8.79685903500007,0
                99.2143554370001,8.79608563700003,0
                99.2143552570001,8.79577190700007,0
                99.2143917830001,8.79550922400006,0
                99.2144943960001,8.79538513000006,0
                99.2146777150001,8.79530476900004,0
                99.2148977530001,8.79530464300007,0
                99.21516919,8.79539933900003,0
                99.215734098,8.79563978800007,0
                99.2163723570001,8.79588748900005,0
                99.21666579,8.79596757800005,0
                99.2171132280001,8.79600380000005,0
                99.2174286040001,8.79598172800007,0
                99.217699914,8.79585753900005,0
                99.2178758330001,8.79566774000006,0
                99.217978384,8.79543420200002,0
                99.218029474,8.79500370200003,0
                99.21798526,8.79465351800008,0
                99.2178457150001,8.79433257000005,0
                99.2174052760001,8.79371265400005,0
                99.2168694470001,8.79301983000005,0
                99.2167812820001,8.79276451900006,0
                99.2167811460001,8.79253104500003,0
                99.2168030350001,8.79233403400002,0
                99.2169276070001,8.79212967000007,0
                99.2172025520001,8.79196785800002,0
                99.2161422900001,8.79136121300007,0
                99.215794573,8.79115838000007,0
                99.2156545970001,8.79104421100004,0
                99.214995167,8.79050635400006,0
                99.2148280210001,8.79018613800002,0
                99.21478009,8.78979467900007,0
                99.2148275700001,8.78940316500007,0
                99.2151014790001,8.78873866200007,0
                99.215649548,8.78784860200005,0
                99.215673241,8.78757573300004,0
                99.2156732080001,8.78751905000007,0
                99.2156730900001,8.78731473900007,0
                99.215637115,8.78697072300002,0
                99.2155176410001,8.78659116800003,0
                99.215242978,8.78595070400007,0
                99.215005352,8.78539777000003,0
                99.2148250220001,8.78497815600002,0
                99.2147181230001,8.78461899000007,0
                99.2145143530001,8.78393436200002,0
                99.2141081440001,8.78264149100005,0
                99.2139768310001,8.78241616400004,0
                99.2138336550001,8.78229761000006,0
                99.213413905,8.78209685600007,0
                99.213189502,8.78198953000003,0
                99.2127058560001,8.78166917700003,0
                99.212509492,8.78153911000004,0
                99.212032347,8.78132583600006,0
                99.2114121330001,8.78117196400007,0
                99.2111124900001,8.78112682600005,0
                99.2099213220001,8.78094739200003,0
                99.2088478510001,8.78063954400005,0
                99.2086509760001,8.78057837700004,0
                99.2076726380001,8.78027444300005,0
                99.207375744,8.78015949500002,0
                99.2071794230001,8.78004400400005,0
                99.20699326,8.77993448800004,0
                99.206630831,8.77958935400005,0
                99.2064697750001,8.77947933400003,0
                99.206203068,8.77936436900006,0
                99.2060873180001,8.77930437600003,0
                99.205941405,8.77927942800005,0
                99.2058962570001,8.77927026700007,0
                99.2057200150001,8.77923450700007,0
                99.2054683920001,8.77910952400003,0
                99.20530231,8.77900451100004,0
                99.205284567,8.77898314100003,0
                99.2051361760001,8.77880440800004,0
                99.2048492010001,8.77842920400008,0
                99.2042704340001,8.77806916900005,0
                99.2040316810001,8.77794171600004,0
                99.203933254,8.77788917700008,0
                99.2037923510001,8.77781918400007,0
                99.2034351290001,8.77778434500004,0
                99.202831329,8.77764954000003,0
                99.2023835090001,8.77753967400002,0
                99.2020005570001,8.77743303800003,0
                99.2019709030001,8.77742478200003,0
                99.201840088,8.77741484400002,0
                99.2016891590001,8.77741492500007,0
                99.2015181200001,8.77744003800007,0
                99.201276664,8.77750022800006,0
                99.2005723820001,8.77761571100007,0
                99.2002302910001,8.77765092900006,0
                99.1996265370001,8.77760119700002,0
                99.199324673,8.77759635500007,0
                99.1991737210001,8.77755639600002,0
                99.1990529270001,8.77746136900004,0
                99.1989622780001,8.77729625200004,0
                99.1988703390001,8.77711682600005,0
                99.1988329530001,8.77704387000006,0
                99.198821266,8.77702106100003,0
                99.1986048800001,8.77692608300003,0
                99.1985639650001,8.77692109700007,0
                99.1984794530001,8.77691079500005,0
                99.1979508060001,8.77684634900004,0
                99.1977193720001,8.77683145600002,0
                99.1974778860001,8.77684159500006,0
                99.1973521360001,8.77689170600007,0
                99.197206318,8.77704192800007,0
                99.197120865,8.77718211000007,0
                99.1970353510001,8.77721218300007,0
                99.1969196460001,8.77722225300005,0
                99.196758645,8.77721232800008,0
                99.1965322030001,8.77712235700005,0
                99.1959886670001,8.77677230400008,0
                99.1955005130001,8.77648728100007,0
                99.195456139,8.77646951600008,0
                99.19516336,8.77635232500006,0
                99.1950023520001,8.77631737200005,0
                99.1948765170001,8.77620733200007,0
                99.1947254660001,8.77597218000005,0
                99.1943690150001,8.77527213500002,0
                99.194328447,8.77519246700007,0
                99.1939323020001,8.77447197100003,0
                99.19379444,8.77431683600003,0
                99.1937385050001,8.77422383700002,0
                99.1926270640001,8.77273553200007,0
                99.1916987500001,8.77151793900003,0
                99.1910661080001,8.77056385200007,0
                99.191043011,8.77052901200005,0
                99.1901484420001,8.76981628000004,0
                99.1890456190001,8.76885058100004,0
                99.1881048260001,8.76816854200007,0
                99.1872258000001,8.76767818000008,0
                99.1864315890001,8.76722612600003,0
                99.186198114,8.76698904100004,0
                99.1860768160001,8.76686587300003,0
                99.1858497570001,8.76648252800004,0
                99.18567949,8.76619505700006,0
                99.1856347600001,8.76615695600003,0
                99.1855268950001,8.76606506700006,0
                99.1852476280001,8.76582717400004,0
                99.185113974,8.76574544300007,0
                99.1848981320001,8.76574554900003,0
                99.1848341730001,8.76576004400005,0
                99.1846720440001,8.76579678300004,0
                99.1843534370001,8.76582761100008,0
                99.1841330840001,8.76579399700006,0
                99.1841246150001,8.76579270300005,0
                99.184086188,8.76578684400005,0
                99.1839583160001,8.76573391400007,0
                99.183839461,8.76568471600007,0
                99.1836235650001,8.76556211800005,0
                99.1831406700001,8.76510772600005,0
                99.1826690560001,8.76466393700002,0
                99.1826569840001,8.76465257700005,0
                99.1824830720001,8.76452627300006,0
                99.181320364,8.76368185000007,0
                99.1807455750001,8.76337686500005,0
                99.180261462,8.76311999300003,0
                99.1792951690001,8.76278302700007,0
                99.1791183440001,8.76273340400007,0
                99.178910935,8.76265750000005,0
                99.1787644630001,8.76263456200007,0
                99.1782017520001,8.76265783500003,0
                99.176914583,8.76297285300006,0
                99.1756968750001,8.76347188300002,0
                99.1749339580001,8.76394769600006,0
                99.1743637320001,8.76438507400007,0
                99.1735855460001,8.76519831200005,0
                99.1723603980001,8.76631082800003,0
                99.171322724,8.76709996100004,0
                99.1705341050001,8.76769968700006,0
                99.1675670550001,8.76940345900005,0
                99.1657944880001,8.77034749000006,0
                99.1641450450001,8.77082366400003,0
                99.15990565,8.77169204600006,0
                99.157562436,8.77222216800004,0
                99.1531303580001,8.77325159500003,0
                99.1490451290001,8.77423481600005,0
                99.1481663870001,8.77437320000007,0
                99.1476570460001,8.77448234900004,0
                99.146624768,8.77470355400004,0
                99.146386056,8.77479114900007,0
                99.145746095,8.77502597800003,0
                99.1444050220001,8.77567066300003,0
                99.1432489410001,8.77628459700003,0
                99.1411139430001,8.77716730100008,0
                99.1396571710001,8.77768164500003,0
                99.138986549,8.77779692100006,0
                99.1389850770001,8.77779700200006,0
                99.138325287,8.77783383100007,0
                99.137848293,8.77779518000006,0
                99.1377095330001,8.77779954400006,0
                99.137531767,8.77785137600006,0
                99.137189242,8.77794639800004,0
                99.1368944160001,8.77804140600006,0
                99.1366819770001,8.77814069600004,0
                99.136559607,8.77821952900007,0
                99.1362599870001,8.77834885300007,0
                99.136303377,8.77839359300003,0
                99.1363318210001,8.77843053300006,0
                99.1363437530001,8.77845698700003,0
                99.1363511200001,8.77848004100002,0
                99.136352935,8.77848572200003,0
                99.136363955,8.77852677400006,0
                99.1363680950001,8.77856098500007,0
                99.1363671920001,8.77859976000008,0
                99.1363571190001,8.77864173200004,0
                99.1363474980001,8.77866500000005,0
                99.1363323730001,8.77868644600005,0
                99.1363131200001,8.77870652400003,0
                99.1362924900001,8.77871793600002,0
                99.1362640600001,8.77872296400005,0
                99.1362319610001,8.77872388900005,0
                99.1362049050001,8.77872116100002,0
                99.1361700510001,8.77871113800006,0
                99.1361406980001,8.77869746400006,0
                99.1361058410001,8.77868105400006,0
                99.136055281,8.77864827800005,0
                99.1360425450001,8.77864002000007,0
                99.1359943850001,8.77861129900003,0
                99.1359576520001,8.77859424300004,0
                99.1359384310001,8.77858531700002,0
                99.1358866040001,8.77855887800007,0
                99.1358512850001,8.77853380100004,0
                99.1358219290001,8.77850963400005,0
                99.135795784,8.77849322200007,0
                99.13576643,8.77847589800007,0
                99.1357435,8.77847043200006,0
                99.1357311190001,8.77846998000007,0
                99.1357217880001,8.77847285600006,0
                99.1357118610001,8.77847591700004,0
                99.1356948980001,8.77848550300007,0
                99.135669684,8.77850467200005,0
                99.135660977,8.77852018400006,0
                99.1356600700001,8.77854801100005,0
                99.135665126,8.77858131000005,0
                99.1356811940001,8.77863193900004,0
                99.1356882330001,8.77865711100003,0
                99.135694969,8.77868120200003,0
                99.135700022,8.77870628900007,0
                99.1357032500001,8.77875509900002,0
                99.1356991390001,8.77879980500006,0
                99.1356918170001,8.77883812700003,0
                99.1356803610001,8.77886413300007,0
                99.135667987,8.77888466400003,0
                99.1356617920001,8.77889300300006,0
                99.1356432380001,8.77891797400002,0
                99.135617112,8.77895265300003,0
                99.1356079480001,8.77897272800004,0
                99.1355900880001,8.77903796700002,0
                99.13558048,8.77909864100008,0
                99.135569499,8.77916524700004,0
                99.135565269,8.77919069800004,0
                99.1355196590001,8.77928686700005,0
                99.1353785540001,8.77943103500007,0
                99.1351399650001,8.77958086300004,0
                99.1349395350001,8.77963341000003,0
                99.1345746540001,8.77957144900006,0
                99.133976783,8.77947370300006,0
                99.1337235830001,8.77948779100007,0
                99.1335969980001,8.77952981400006,0
                99.133512657,8.77968377000008,0
                99.1334635150001,8.77994966500006,0
                99.1333564720001,8.78035377900005,0
                99.133330061,8.78045347500006,0
                99.1330980540001,8.78071943500004,0
                99.1329503890001,8.78081743800004,0
                99.1326901790001,8.78088749800003,0
                99.1323596240001,8.78092959300005,0
                99.1318672940001,8.78095775500003,0
                99.1310374180001,8.78114695300007,0
                99.1304396580001,8.78137105500002,0
                99.130045812,8.78144815700006,0
                99.1299051680001,8.78151817000003,0
                99.129813788,8.78167213200004,0
                99.1297050470001,8.78198258100002,0
                99.129678143,8.78211867500005,0
                99.1295424290001,8.78254094200003,0
                99.1293515850001,8.78306880100007,0
                99.1292540430001,8.78337282100006,0
                99.12904625,8.78387534700005,0
                99.1285542680001,8.78496916700004,0
                99.1283506550001,8.78540842000007,0
                99.1280548220001,8.78603550100007,0
                99.1278188030001,8.78668712800004,0
                99.1277237300001,8.78703548900006,0
                99.1275397050001,8.78789420900006,0
                99.1273250040001,8.78889956200004,0
                99.127104102,8.78987135900007,0
                99.126889475,8.79077902100005,0
                99.126729949,8.79150938500004,0
                99.126555098,8.79231311600006,0
                99.1264692220001,8.79267981400005,0
                99.126414002,8.79293643500006,0
                99.1263312090001,8.79326653000004,0
                99.1262404780001,8.79369016800007,0
                99.125892042,8.79486000600002,0
                99.1258382030001,8.79505963700007,0
                99.1256220230001,8.79586113800002,0
                99.125571639,8.79604794300008,0
                99.1255548510001,8.79611019700008,0
                99.1230412040001,8.79528074800004,0
                99.120499436,8.79446062000005,0
                99.119861643,8.79422760300002,0
                99.1195145920001,8.79405046000005,0
                99.1189142260001,8.79354688900003,0
                99.1178823210001,8.79258633000006,0
                99.1172913500001,8.79212939500007,0
                99.1168974110001,8.79194293800003,0
                99.1162221330001,8.79178455200002,0
                99.115565642,8.79171012400008,0
                99.1148341190001,8.79162638900004,0
                99.1145621320001,8.79155184100006,0
                99.113624185,8.79111366000006,0
                99.112592416,8.79054490500005,0
                99.1116638810001,8.79020933900006,0
                99.1096474280001,8.78966885200003,0
                99.108925249,8.78944516100006,0
                99.1086720040001,8.78932396300007,0
                99.1083812200001,8.78910015100007,0
                99.105876719,8.78715110600007,0
                99.1049387100001,8.78642371000007,0
                99.1045635520001,8.78629320700003,0
                99.1042259260001,8.78622799800007,0
                99.1031661950001,8.78616298900005,0
                99.1015531420001,8.78604215000007,0
                99.100118272,8.78592125500006,0
                99.0998650760001,8.78594931200007,0
                99.0996212950001,8.78613595200005,0
                99.0981025250001,8.78790885700005,0
                99.097549337,8.78835679200006,0
                99.0972773980001,8.78845947800005,0
                99.0968929000001,8.78846890800003,0
                99.0965927860001,8.78841300900007,0
                99.096433366,8.78843171000005,0
                99.096283338,8.78850638100005,0
                99.096077097,8.78881429000006,0
                99.095889593,8.78903823400003,0
                99.0956270190001,8.78909427300005,0
                99.095413594,8.78913678800006,0
                99.095298804,8.78915965700003,0
                99.095130049,8.78936493900005,0
                99.095045703,8.78957019500007,0
                99.095038387,8.79010375400003,0
                99.094885462,8.79115667900004,0
                99.0943750650001,8.79465067900003,0
                99.093797625,8.79679579300006,0
                99.0924201600001,8.80000253500003,0
                99.091197939,8.80179399100007,0
                99.090546224,8.80238037900006,0
                99.0900211330001,8.80280341700006,0
                99.0890583930001,8.80326387400004,0
                99.0877455450001,8.80383636200003,0
                99.0856576020001,8.80526728300003,0
                99.0846073710001,8.80596408100007,0
                99.0843202300001,8.80630193200005,0
                99.0842218800001,8.80685469700006,0
                99.084228958,8.80705760000006,0
                99.084313406,8.80722550100006,0
                99.084517437,8.80743535700003,0
                99.084756616,8.80755424700004,0
                99.0849395290001,8.80770113500006,0
                99.0851576520001,8.80800894400005,0
                99.0852039100001,8.80809030500006,0
                99.0853406100001,8.80833075100003,0
                99.0854180430001,8.80860360400004,0
                99.085472768,8.80883200100004,0
                99.0855588590001,8.80919130100006,0
                99.085573089,8.80989796600005,0
                99.0855731450001,8.81014285000003,0
                99.0855591150001,8.81030377600007,0
                99.0854466040001,8.81044373900005,0
                99.0852637720001,8.81067467200006,0
                99.0850879710001,8.81089161100005,0
                99.0849332610001,8.81105256800004,0
                99.084884059,8.81119951000005,0
                99.084905216,8.81144439400003,0
                99.0849757190001,8.81215104600005,0
                99.084968732,8.81236094900004,0
                99.0848069990001,8.81258488000003,0
                99.0846100730001,8.81270386600005,0
                99.0843709590001,8.81289283200005,0
                99.0842936170001,8.81301879000006,0
                99.0842514510001,8.81320071400006,0
                99.0842793180001,8.81334374100004,0
                99.0842937070001,8.81341760500004,0
                99.084371047,8.81358025100008,0
                99.0844766770001,8.81380238000003,0
                99.0845013320001,8.81383580700003,0
                99.084618574,8.81399476300004,0
                99.0847592810001,8.81409734900006,0
                99.0848934310001,8.81413901600007,0
                99.0850594180001,8.81419056800007,0
                99.0853424430001,8.81418127300003,0
                99.085819998,8.81416558900003,0
                99.086203615,8.81415299200006,0
                99.0863911980001,8.81419026400005,0
                99.0871919680001,8.81253542900004,0
                99.0881320400001,8.81186060600004,0
                99.0895961090001,8.81095568000006,0
                99.09099869,8.81074069600004,0
                99.0921393360001,8.81092440200007,0
                99.092308453,8.81101379500006,0
                99.0923505050001,8.81109143300006,0
                99.0923505600001,8.81131344200003,0
                99.092326729,8.81165438900007,0
                99.092326788,8.81189225700007,0
                99.0924065310001,8.81201116800003,0
                99.0925340840001,8.81208249900004,0
                99.092829018,8.81208242600007,0
                99.0932435020001,8.81202681900004,0
                99.0935862360001,8.81192365900006,0
                99.093769566,8.81189190000003,0
                99.0938971020001,8.81189979700002,0
                99.0941203280001,8.81203453200004,0
                99.0947710470001,8.81233084700006,0
                99.09554733,8.81268434000003,0
                99.096910617,8.81353238200006,0
                99.09800284,8.81420605400007,0
                99.0986406360001,8.81457854400003,0
                99.099158855,8.81492727500006,0
                99.099200769,8.81495551600005,0
                99.0998763920001,8.81541074800003,0
                99.1002431110001,8.81556923000005,0
                99.100538042,8.81556915200002,0
                99.1012235200001,8.81540245900004,0
                99.1019187370001,8.81523306000003,0
                99.1019727660001,8.81521989300006,0
                99.1025068430001,8.81525146500007,0
                99.1029930610001,8.81515618600002,0
                99.1030315690001,8.81514946800007,0
                99.1033667080001,8.81503030600004,0
                99.103938955,8.81507542800006,0
                99.104225151,8.81535994600006,0
                99.104966581,8.81581250900007,0
                99.1056365260001,8.81640092200007,0
                99.106056003,8.81705428500004,0
                99.106612285,8.81764253000006,0
                99.108010672,8.81869643400006,0
                99.108563641,8.81951126200005,0
                99.109142627,8.82035195000003,0
                99.1094418920001,8.82081110300004,0
                99.11036541,8.82123126300007,0
                99.1112955580001,8.82208477800003,0
                99.111471313,8.82268626600006,0
                99.1121461050001,8.82365058200003,0
                99.112876337,8.82406355500007,0
                99.114639046,8.82552482200003,0
                99.1151659230001,8.82599683100005,0
                99.115361277,8.82685703400006,0
                99.1155241770001,8.82792422600005,0
                99.1156460490001,8.82843989000003,0
                99.1170095260001,8.82979523600005,0
                99.118463782,8.83083420000003,0
                99.1204175770001,8.83105954000007,0
                99.1208250830001,8.83116955900005,0
                99.121553566,8.83137551700003,0
                99.1260522330001,8.83304614200006,0
                99.1290513900001,8.83422012100004,0
                99.1303793760001,8.83539651600006,0
                99.1312952530001,8.83586957500006,0
                99.1319329880001,8.83595650600006,0
                99.1325488270001,8.83605143300002,0
                99.1329374590001,8.83608697500006,0
                99.1332543450001,8.83612254500002,0
                99.1334815330001,8.83611651700005,0
                99.133678827,8.83610455200005,0
                99.1338881020001,8.83615799800003,0
                99.134103366,8.83623522400006,0
                99.134264805,8.83627085100005,0
                99.1344680730001,8.83624698900007,0
                99.1347131630001,8.83613986100005,0
                99.1349044670001,8.83610411300003,0
                99.1350957830001,8.83609809700005,0
                99.1355023450001,8.83612174000007,0
                99.1358670650001,8.83616323300004,0
                99.136112224,8.83625234300007,0
                99.136357387,8.83634739900003,0
                99.136572662,8.83645436100005,0
                99.1367700000001,8.83656133000005,0
                99.1369135250001,8.83666237100005,0
                99.137117017,8.83682356800006,0
                99.1378422860001,8.83739226000006,0
                99.1385042910001,8.83779908300005,0
                99.1392577430001,8.83813330200007,0
                99.139589636,8.83832941700007,0
                99.139612942,8.83835006400005,0
                99.139656915,8.83837399400005,0
                99.1399394910001,8.83858796500004,0
                99.1400788870001,8.83870252900005,0
                99.140101142,8.83872081700002,0
                99.1401727350001,8.83877965600004,0
                99.1402277480001,8.83883682000004,0
                99.1404120060001,8.83902826800005,0
                99.140468802,8.83908728400007,0
                99.140706563,8.83936817400007,0
                99.1408501060001,8.83950638300007,0
                99.1409891370001,8.83957322800006,0
                99.1411550620001,8.83959992800004,0
                99.1414241050001,8.83959536300006,0
                99.141522766,8.83962208500003,0
                99.1416169550001,8.83968895100003,0
                99.1419578730001,8.84002332100005,0
                99.1419733220001,8.84003883600008,0
                99.14237954,8.84044685700007,0
                99.1424378600001,8.84050927900006,0
                99.14254549,8.84054937600007,0
                99.1425583370001,8.84055164600005,0
                99.1430746500001,8.84064283700008,0
                99.143084763,8.84064516200004,0
                99.143576915,8.84075860000007,0
                99.144074694,8.84086991300006,0
                99.1445321450001,8.84105259200004,0
                99.144913365,8.84123976400002,0
                99.1451734940001,8.84136454600002,0
                99.145460552,8.84156067400005,0
                99.1456040840001,8.84166319500002,0
                99.1459360260001,8.84196188400006,0
                99.146236575,8.84224274600007,0
                99.1465281660001,8.84256375300004,0
                99.1466538180001,8.84280454000003,0
                99.1467167310001,8.84314793500005,0
                99.14670792,8.84354041600005,0
                99.146748464,8.84401761800007,0
                99.1467844940001,8.84441900400003,0
                99.1468922490001,8.84475792000006,0
                99.1470582690001,8.84502545500004,0
                99.1472422130001,8.84525730100006,0
                99.1477355650001,8.84549348700006,0
                99.148098862,8.84569404100006,0
                99.1484487210001,8.84593474300004,0
                99.1485653780001,8.84610863500006,0
                99.1486058150001,8.84630039900003,0
                99.1486956720001,8.84673743800005,0
                99.1488975990001,8.84708523800003,0
                99.1489933330001,8.84721940800006,0
                99.1491787180001,8.84747921800005,0
                99.1492475640001,8.84757569800007,0
                99.1495391600001,8.84788777800003,0
                99.149875582,8.84815970400007,0
                99.150351539,8.84847366000002,0
                99.1510514190001,8.84888771800007,0
                99.151465488,8.84936322000004,0
                99.151629643,8.84951687100005,0
                99.1517036850001,8.84964061100004,0
                99.1518518280001,8.85004529200006,0
                99.1519999550001,8.85039979800007,0
                99.1521469300001,8.85066610700005,0
                99.1521716010001,8.85071081300003,0
                99.152238948,8.85091483000002,0
                99.152265775,8.85098145400002,0
                99.1522824800001,8.85102293800003,0
                99.1523130130001,8.85109877400004,0
                99.1523937630001,8.85117902000007,0
                99.152551798,8.85129680400007,0
                99.1525552450001,8.85129937200003,0
                99.152560898,8.85130178100007,0
                99.152743618,8.85137957900002,0
                99.1528567180001,8.85139971800004,0
                99.1528747900001,8.85140294100006,0
                99.1529535480001,8.85139730900005,0
                99.1529689530001,8.85139620800004,0
                99.153059741,8.85134599700007,0
                99.153181541,8.85119549100006,0
                99.1532547040001,8.85110508100007,0
                99.153325318,8.85107494700003,0
                99.1533993100001,8.85107491600007,0
                99.1535607770001,8.85115847200007,0
                99.1538500880001,8.85135236300005,0
                99.1539577460001,8.85143594500005,0
                99.154075527,8.85160314600006,0
                99.1542875390001,8.85192083300007,0
                99.15449612,8.85208130600006,0
                99.1546576040001,8.85220165600003,0
                99.1547908350001,8.85231884100006,0
                99.1548550750001,8.85237533800006,0
                99.1549485200001,8.85285754800003,0
                99.15504617,8.85309682900004,0
                99.155321197,8.85323603100005,0
                99.1564445860001,8.85358135400003,0
                99.1574267760001,8.85402724500005,0
                99.1578207890001,8.85440998100006,0
                99.1580513500001,8.85462204700002,0
                99.1581295020001,8.85488720600006,0
                99.158097119,8.85520415600007,0
                99.1580387750001,8.85563107600007,0
                99.1580418830001,8.85571254700005,0
                99.1580479820001,8.85574884600004,0
                99.15806625,8.85579240000004,0
                99.1580908880001,8.85583803300005,0
                99.1581453730001,8.85588675200006,0
                99.1581944980001,8.85591745700003,0
                99.158220826,8.85593391200007,0
                99.158358343,8.85601492800004,0
                99.158481249,8.85607295800003,0
                99.1585639960001,8.85610559500003,0
                99.1586443030001,8.85612250200006,0
                99.1586925070001,8.85612884100004,0
                99.158763541,8.85613818300004,0
                99.158943621,8.85617198700004,0
                99.1590141990001,8.85619978900007,0
                99.1590896470001,8.85623847900007,0
                99.1591638880001,8.85629653000007,0
                99.1592308310001,8.85635821500006,0
                99.1592600430001,8.85638603300004,0
                99.159278612,8.85639383800003,0
                99.1593017100001,8.85639716900005,0
                99.159614569,8.85632972500002,0
                99.1596797590001,8.85631567200005,0
                99.1599298040001,8.85628528800004,0
                99.1599595740001,8.85628167000004,0
                99.160003068,8.85628352200007,0
                99.160073949,8.85630098200005,0
                99.1601542600001,8.85632756900003,0
                99.1601851870001,8.85634165700003,0
                99.160227283,8.85638441000003,0
                99.1602697760001,8.85643863900003,0
                99.1602991300001,8.85653321700005,0
                99.160312537,8.85658766400007,0
                99.1603430280001,8.85676705200007,0
                99.16034791,8.85679577900004,0
                99.160360101,8.85685022700005,0
                99.16037837,8.85689499100005,0
                99.160439249,8.85700024000005,0
                99.1604526460001,8.85703290600003,0
                99.1604648370001,8.85708856400004,0
                99.160466661,8.85711918500004,0
                99.1604672880001,8.85712970400004,0
                99.1604721880001,8.85720714600006,0
                99.160472213,8.85726643900006,0
                99.1604698200001,8.85735719500008,0
                99.1604705820001,8.85741725100007,0
                99.16047108,8.85745641900007,0
                99.1604893950001,8.85760645800002,0
                99.160494047,8.85762647200005,0
                99.160496707,8.85763791700003,0
                99.1605160990001,8.85766715100004,0
                99.1605421030001,8.85769920000007,0
                99.1606001710001,8.85774556800004,0
                99.160810187,8.85790020400003,0
                99.1609312190001,8.85801526900002,0
                99.161109949,8.85821973900005,0
                99.161307353,8.85844151900005,0
                99.1613569790001,8.85854703300004,0
                99.1618632600001,8.85884630500004,0
                99.1623182330001,8.85904364200007,0
                99.1630102340001,8.85915803900002,0
                99.163103145,8.85917393000005,0
                99.1631941520001,8.85918950000007,0
                99.163381863,8.85922160000007,0
                99.1636189860001,8.85938079900006,0
                99.1639010310001,8.85969291300006,0
                99.1643753150001,8.86008140500007,0
                99.1647085480001,8.86024693400003,0
                99.1650673540001,8.86027863700002,0
                99.165355629,8.86020204200003,0
                99.1658040170001,8.85997881800006,0
                99.1664445010001,8.85951974200003,0
                99.166732698,8.85925835400008,0
                99.1673812870001,8.85885941000004,0
                99.1676360750001,8.85870268800005,0
                99.1677383000001,8.85863980800002,0
                99.1682763740001,8.85840380000008,0
                99.169141159,8.85807842600008,0
                99.1701148490001,8.85773389100007,0
                99.170375526,8.85767892300004,0
                99.1705002730001,8.85765261600005,0
                99.1707810990001,8.85759340200002,0
                99.1715626900001,8.85748472000006,0
                99.1721072540001,8.85743986300002,0
                99.1722930510001,8.85743340600004,0
                99.1724724470001,8.85743969500004,0
                99.172626246,8.85751608700002,0
                99.1728569850001,8.85770714600005,0
                99.1731966710001,8.85796824700003,0
                99.1733056850001,8.85817847800007,0
                99.1735045140001,8.85863717800004,0
                99.1735559260001,8.85896850700004,0
                99.173536869,8.85931898200005,0
                99.1733761680001,8.85982751100005,0
                99.173319356,8.86000727300006,0
                99.173095366,8.86054263400007,0
                99.172948219,8.86100149800006,0
                99.1728522800001,8.86135200900003,0
                99.1728523880001,8.86158140700007,0
                99.1728909320001,8.86179803800007,0
                99.1730768910001,8.86213567900006,0
                99.1735832210001,8.86251776800003,0
                99.1740510320001,8.86274057600002,0
                99.17445474,8.86288694900003,0
                99.1745238030001,8.86291301400007,0
                99.1747751500001,8.86300786900006,0
                99.1750506880001,8.86309057600005,0
                99.1752813900001,8.86319879700005,0
                99.1753775450001,8.86330707600007,0
                99.1754352900001,8.86347909600005,0
                99.1754995360001,8.86384865200006,0
                99.1754997630001,8.86432656100004,0
                99.1755062710001,8.86453684000003,0
                99.1755448800001,8.86488728600006,0
                99.175673133,8.86512936500003,0
                99.17586542,8.86528858100007,0
                99.1761602000001,8.86540951200004,0
                99.1762948040001,8.86552414400006,0
                99.1763845730001,8.86567703700007,0
                99.1765128330001,8.86593186000005,0
                99.1767372070001,8.86619301100006,0
                99.176878355,8.86660075800006,0
                99.1769874820001,8.86702763900007,0
                99.1770388560001,8.86728250200002,0
                99.1770454150001,8.86758835900002,0
                99.1769686520001,8.86784965500004,0
                99.176872803,8.86839133100005,0
                99.1769177460001,8.86858247300006,0
                99.1770716130001,8.86878631000008,0
                99.177296078,8.86923862100002,0
                99.1774757460001,8.86979928300008,0
                99.1776232600001,8.87011782200005,0
                99.1778027550001,8.87031527400006,0
                99.1779758200001,8.87046812100004,0
                99.17834558,8.87062392300004,0
                99.178398777,8.87064634000006,0
                99.1786167120001,8.87083739900004,0
                99.17870643,8.87088195700005,0
                99.1788187710001,8.87090401100005,0
                99.1789232660001,8.87086811400007,0
                99.179067381,8.87077485400005,0
                99.1791682770001,8.87074254600003,0
                99.1792341780001,8.87077918200004,0
                99.1792584090001,8.87083418900005,0
                99.1792446150001,8.87091328900004,0
                99.1791893420001,8.87101648000004,0
                99.179161734,8.87111965700007,0
                99.1791583520001,8.87128128100005,0
                99.1791273960001,8.87161485700005,0
                99.1791413620001,8.87189683200006,0
                99.1790896190001,8.87214444900007,0
                99.1789790480001,8.87230268200005,0
                99.1788650340001,8.87248843300006,0
                99.178737207,8.87270513800007,0
                99.178640434,8.87279115400003,0
                99.17850215,8.87284280000006,0
                99.1782497680001,8.87289794200007,0
                99.1780008680001,8.87300810300007,0
                99.1779248010001,8.87301501400003,0
                99.1778521740001,8.87298410100004,0
                99.1777587440001,8.87283627600004,0
                99.1776653700001,8.87279505600003,0
                99.1775616400001,8.87279854700006,0
                99.1773714910001,8.87284333800005,0
                99.1772228140001,8.87285716700006,0
                99.177160583,8.87287439000005,0
                99.1771018310001,8.87292599800003,0
                99.1770016130001,8.87304640600007,0
                99.176953278,8.87319773500008,0
                99.1769498730001,8.87330433700004,0
                99.1769914210001,8.87342123400003,0
                99.177039848,8.87346248000006,0
                99.1770986400001,8.87348996200006,0
                99.1772542080001,8.87343486700007,0
                99.177330275,8.87342795300003,0
                99.177364863,8.87344513000005,0
                99.1773890970001,8.87351389400004,0
                99.177375334,8.87365145000007,0
                99.1773684450001,8.87370647500006,0
                99.1773961270001,8.87375116500004,0
                99.177465295,8.87377520300004,0
                99.1775482660001,8.87375109300007,0
                99.177655427,8.87369602100006,0
                99.177759113,8.87360312500005,0
                99.177800608,8.87360310500003,0
                99.1778455630001,8.87362027800003,0
                99.1779355070001,8.87370276800004,0
                99.1782024490001,8.87395997300007,0
                99.1783270020001,8.87412497800005,0
                99.1783777750001,8.87424875100004,0
                99.178389317,8.87427854800006,0
                99.1784304120001,8.87451491200005,0
                99.1782991160001,8.87538828700002,0
                99.1782992760001,8.87538837600005,0
                99.1790355050001,8.87580853700007,0
                99.179526126,8.87607930400003,0
                99.179873629,8.87622818700004,0
                99.1803233300001,8.87640412200005,0
                99.180677603,8.87646492700003,0
                99.1810590890001,8.87645119100006,0
                99.1813928710001,8.87640360400007,0
                99.1817811280001,8.87630856500004,0
                99.182101263,8.87621355800007,0
                99.182455438,8.87607788400004,0
                99.1827482990001,8.87593546500005,0
                99.1830207130001,8.87577272900006,0
                99.1833816500001,8.87553542600006,0
                99.183579341,8.87534986800006,0
                99.1836133800001,8.87531791800006,0
                99.1836199700001,8.87531173200006,0
                99.1838310140001,8.87503385100007,0
                99.1840896840001,8.87463399500007,0
                99.18430069,8.87428158800003,0
                99.1843547870001,8.87415875600004,0
                99.1844013240001,8.87405309000007,0
                99.184470806,8.87389532600002,0
              </coordinates>
                
            </LinearRing>
            
          </outerBoundaryIs>
        
        </Polygon>
        
      <styleUrl>
        #tambonStyle</styleUrl>
    </Placemark>

  </Document>
</kml>