<?xml version="1.0" encoding="UTF-8"?>
<kml xmlns="http://www.opengis.net/kml/2.2">
  <Document id="tambon_doc">
    <name>ตาแกะ, ยะหริ่ง, Pattani</name>
    <description>ข้อมูลขอบเขตตำบลตาแกะ อำเภอยะหริ่ง จังหวัดPattani</description>
    
    <!-- Schema สำหรับข้อมูลตำบล -->
    <Schema id="tambon.schema">
      <SimpleField name="ADM3_EN" type="string">
        <displayName>Subdistrict Name (English)</displayName>
      </SimpleField>
      <SimpleField name="ADM3_TH" type="string">
        <displayName>ชื่อตำบล</displayName>
      </SimpleField>
      <SimpleField name="ADM2_EN" type="string">
        <displayName>District Name (English)</displayName>
      </SimpleField>
      <SimpleField name="ADM2_TH" type="string">
        <displayName>ชื่ออำเภอ</displayName>
      </SimpleField>
      <SimpleField name="ADM1_EN" type="string">
        <displayName>Province Name (English)</displayName>
      </SimpleField>
      <SimpleField name="ADM1_TH" type="string">
        <displayName>ชื่อจังหวัด</displayName>
      </SimpleField>
      <SimpleField name="ADM0_EN" type="string">
        <displayName>Country Name (English)</displayName>
      </SimpleField>
      <SimpleField name="ADM0_TH" type="string">
        <displayName>ชื่อประเทศ</displayName>
      </SimpleField>
    </Schema>

    <!-- Style สำหรับตำบล -->
    <Style id="tambonStyle">
      <LineStyle>
        <color>ffff0000</color>
        <width>1.5</width>
      </LineStyle>
      <PolyStyle>
        <color>33ff0000</color>
        <fill>1</fill>
        <outline>1</outline>
      </PolyStyle>
    </Style>

    <Placemark id="Pattani.85">
        
        <ExtendedData>
            
          <SchemaData schemaUrl="#tambon.schema">
                
            <SimpleData name="Shape_Leng">
                0.113292391052</SimpleData>
                
            <SimpleData name="Shape_Area">
                0.000803459262665</SimpleData>
                
            <SimpleData name="ADM3_EN">
                Ta Kae</SimpleData>
                
            <SimpleData name="ADM3_TH">
                ตาแกะ</SimpleData>
                
            <SimpleData name="ADM3_PCODE">
                TH940906</SimpleData>
                
            <SimpleData name="ADM2_EN">
                Yaring</SimpleData>
                
            <SimpleData name="ADM2_TH">
                ยะหริ่ง</SimpleData>
                
            <SimpleData name="ADM2_PCODE">
                TH9409</SimpleData>
                
            <SimpleData name="ADM1_EN">
                Pattani</SimpleData>
                
            <SimpleData name="ADM1_TH">
                ปัตตานี</SimpleData>
                
            <SimpleData name="ADM1_PCODE">
                TH94</SimpleData>
                
            <SimpleData name="ADM0_EN">
                Thailand</SimpleData>
                
            <SimpleData name="ADM0_TH">
                ประเทศไทย</SimpleData>
                
            <SimpleData name="ADM0_PCODE">
                TH</SimpleData>
            
          </SchemaData>
        
        </ExtendedData>
        
        <Polygon>
            
          <outerBoundaryIs>
                
            <LinearRing>
                    
              <coordinates>
                    
                101.347682269,6.85924619300005,0
                101.347789285,6.85824803000003,0
                101.347949696,6.85741061500005,0
                101.348277557,6.85649440500003,0
                101.34859026,6.85560030500005,0
                101.348903268,6.85487961500007,0
                101.34924612,6.85413567400008,0
                101.349581991,6.85335612000006,0
                101.349970902,6.85255486700004,0
                101.350291396,6.85186749600007,0
                101.350642275,6.85091672000004,0
                101.350932211,6.84998769900005,0
                101.351222388,6.84922081100007,0
                101.351473904,6.84841856400004,0
                101.351687707,6.84763904900007,0
                101.351977307,6.84664169800004,0
                101.352152773,6.84588554400005,0
                101.352312995,6.84489785800002,0
                101.352404443,6.84395737700004,0
                101.35248095,6.84318927600003,0
                101.35254953,6.84242010200006,0
                101.352663756,6.84161678700002,0
                101.352854708,6.84079110600004,0
                101.353149176,6.83998802200006,0
                101.35199249,6.83877064800004,0
                101.351062205,6.83831874100002,0
                101.350199766,6.83775691800003,0
                101.34934569,6.83717128400002,0
                101.348430003,6.83669557000007,0
                101.347491937,6.83627309000002,0
                101.346545976,6.83584835500005,0
                101.345600045,6.83542927700006,0
                101.344654118,6.83501301400003,0
                101.34371604,6.83458430800005,0
                101.34276229,6.83418051100006,0
                101.341846569,6.83370419200003,0
                101.340946547,6.83319621400005,0
                101.340069532,6.83265080500007,0
                101.339207687,6.83208553800006,0
                101.338307106,6.83158263000007,0
                101.337430099,6.83103890500007,0
                101.33658335,6.83043854700003,0
                101.335743973,6.82984492600002,0
                101.334928095,6.82920260200007,0
                101.334134756,6.82854718300007,0
                101.333333493,6.82789235400003,0
                101.332509895,6.82728284000007,0
                101.329665181,6.82541827600005,0
                101.328782699,6.82599009400008,0
                101.326367111,6.82814128100006,0
                101.324802552,6.82921859400005,0
                101.323629386,6.83008006300003,0
                101.322999789,6.83268619100005,0
                101.322747522,6.83589918300004,0
                101.322394823,6.84039140800007,0
                101.322112685,6.84107028700004,0
                101.321546596,6.84344465300006,0
                101.322170945,6.84574130700003,0
                101.323111315,6.84837551200008,0
                101.323941903,6.85043970200007,0
                101.324630311,6.85261155200004,0
                101.324819242,6.85478581900003,0
                101.324898032,6.85631876200006,0
                101.324655897,6.85788891800007,0
                101.323937337,6.85951826700006,0
                101.323890922,6.85961733900007,0
                101.324850251,6.85917545500007,0
                101.325819068,6.85952214500003,0
                101.326780644,6.85989485700003,0
                101.327772359,6.86018041600005,0
                101.328778963,6.86039641200006,0
                101.329808706,6.86048856500003,0
                101.330838965,6.86056434200003,0
                101.33187647,6.86062938500004,0
                101.332906029,6.86067576800002,0
                101.333935937,6.86068712700006,0
                101.334973191,6.86069395500004,0
                101.336003105,6.86070023900004,0
                101.337040911,6.86070707000005,0
                101.338070793,6.86071275200004,0
                101.339108068,6.86072409500002,0
                101.340138016,6.86073714300005,0
                101.341167969,6.86075980700002,0
                101.342205451,6.86081460900004,0
                101.343234911,6.86084971700006,0
                101.344272816,6.86087685400003,0
                101.345302414,6.86093169200007,0
                101.346332153,6.86102380300002,0
                101.347346964,6.86118491700006,0
                101.348419872,6.86143108500005,0
                101.34772842,6.86013061400007,0
                101.347682269,6.85924619300005,0
              </coordinates>
                
            </LinearRing>
            
          </outerBoundaryIs>
        
        </Polygon>
        
      <styleUrl>
        #tambonStyle</styleUrl>
    </Placemark>

  </Document>
</kml>