<?xml version="1.0" encoding="UTF-8"?>
<kml xmlns="http://www.opengis.net/kml/2.2">
  <Document id="tambon_doc">
    <name>ไชยบุรี, ท่าอุเทน, Nakhon Phanom</name>
    <description>ข้อมูลขอบเขตตำบลไชยบุรี อำเภอท่าอุเทน จังหวัดNakhon Phanom</description>
    
    <!-- Schema สำหรับข้อมูลตำบล -->
    <Schema id="tambon.schema">
      <SimpleField name="ADM3_EN" type="string">
        <displayName>Subdistrict Name (English)</displayName>
      </SimpleField>
      <SimpleField name="ADM3_TH" type="string">
        <displayName>ชื่อตำบล</displayName>
      </SimpleField>
      <SimpleField name="ADM2_EN" type="string">
        <displayName>District Name (English)</displayName>
      </SimpleField>
      <SimpleField name="ADM2_TH" type="string">
        <displayName>ชื่ออำเภอ</displayName>
      </SimpleField>
      <SimpleField name="ADM1_EN" type="string">
        <displayName>Province Name (English)</displayName>
      </SimpleField>
      <SimpleField name="ADM1_TH" type="string">
        <displayName>ชื่อจังหวัด</displayName>
      </SimpleField>
      <SimpleField name="ADM0_EN" type="string">
        <displayName>Country Name (English)</displayName>
      </SimpleField>
      <SimpleField name="ADM0_TH" type="string">
        <displayName>ชื่อประเทศ</displayName>
      </SimpleField>
    </Schema>

    <!-- Style สำหรับตำบล -->
    <Style id="tambonStyle">
      <LineStyle>
        <color>ffff0000</color>
        <width>1.5</width>
      </LineStyle>
      <PolyStyle>
        <color>33ff0000</color>
        <fill>1</fill>
        <outline>1</outline>
      </PolyStyle>
    </Style>

    <Placemark id="Nakhon_Phanom.27">
        
        <ExtendedData>
            
          <SchemaData schemaUrl="#tambon.schema">
                
            <SimpleData name="Shape_Leng">
                0.367828193071</SimpleData>
                
            <SimpleData name="Shape_Area">
                0.00633994488148</SimpleData>
                
            <SimpleData name="ADM3_EN">
                Chai Buri</SimpleData>
                
            <SimpleData name="ADM3_TH">
                ไชยบุรี</SimpleData>
                
            <SimpleData name="ADM3_PCODE">
                TH480304</SimpleData>
                
            <SimpleData name="ADM2_EN">
                Tha Uthen</SimpleData>
                
            <SimpleData name="ADM2_TH">
                ท่าอุเทน</SimpleData>
                
            <SimpleData name="ADM2_PCODE">
                TH4803</SimpleData>
                
            <SimpleData name="ADM1_EN">
                Nakhon Phanom</SimpleData>
                
            <SimpleData name="ADM1_TH">
                นครพนม</SimpleData>
                
            <SimpleData name="ADM1_PCODE">
                TH48</SimpleData>
                
            <SimpleData name="ADM0_EN">
                Thailand</SimpleData>
                
            <SimpleData name="ADM0_TH">
                ประเทศไทย</SimpleData>
                
            <SimpleData name="ADM0_PCODE">
                TH</SimpleData>
            
          </SchemaData>
        
        </ExtendedData>
        
        <Polygon>
            
          <outerBoundaryIs>
                
            <LinearRing>
                    
              <coordinates>
                    
                104.492162595,17.6400944320001,0
                104.491931739,17.639814503,0
                104.491930463,17.639815012,0
                104.489497027,17.6368621670001,0
                104.488950041,17.6363006240001,0
                104.48869036,17.6360643300001,0
                104.488606542,17.635997553,0
                104.488534733,17.6359610120001,0
                104.488471555,17.6359348600001,0
                104.488406671,17.635898125,0
                104.488331494,17.6358374050001,0
                104.488300084,17.6358120420001,0
                104.488197336,17.6357152160001,0
                104.488121827,17.635648206,0
                104.488076737,17.635624211,0
                104.488023661,17.6356110680001,0
                104.487998728,17.635607099,0
                104.487952614,17.63559976,0
                104.487899082,17.6355972870001,0
                104.487719395,17.6355889880001,0
                104.487602971,17.6355797750001,0
                104.487533183,17.6355742490001,0
                104.487431788,17.6355677760001,0
                104.487364123,17.63557631,0
                104.487311647,17.635583092,0
                104.487241572,17.6356036560001,0
                104.487185508,17.635629147,0
                104.487083132,17.6357022070001,0
                104.48700187,17.6357748570001,0
                104.486872207,17.6358675710001,0
                104.486697176,17.63599119,0
                104.486535111,17.6361024300001,0
                104.48642631,17.636170378,0
                104.486242045,17.6362881810001,0
                104.486174401,17.6363432380001,0
                104.486165723,17.6363540740001,0
                104.486145016,17.636379947,0
                104.486112002,17.6364340330001,0
                104.486062146,17.6365271400001,0
                104.486028568,17.636562638,0
                104.485985212,17.636595748,0
                104.485928005,17.6366292490001,0
                104.485881513,17.636650483,0
                104.485829203,17.636662577,0
                104.485787728,17.6366663910001,0
                104.485753597,17.6366655690001,0
                104.485669552,17.636655069,0
                104.485584936,17.63665344,0
                104.485550431,17.6366583920001,0
                104.485507894,17.63667287,0
                104.485468534,17.636700551,0
                104.48543092,17.636740151,0
                104.485404424,17.636780764,0
                104.485365654,17.6368735610001,0
                104.485346552,17.636975116,0
                104.485327093,17.637064718,0
                104.485296364,17.6371027930001,0
                104.48524881,17.6371346920001,0
                104.485206394,17.6371531560001,0
                104.48515119,17.6371613420001,0
                104.48511909,17.6371542590001,0
                104.485097871,17.637140231,0
                104.485079017,17.637112842,0
                104.485021695,17.6370054450001,0
                104.484938147,17.6368562490001,0
                104.484881913,17.6367847060001,0
                104.484847659,17.636752433,0
                104.484822525,17.6367464890001,0
                104.484790506,17.6367420650001,0
                104.484748996,17.636744551,0
                104.4846966,17.636753991,0
                104.484593291,17.636783383,0
                104.48440062,17.636850194,0
                104.484261334,17.636889528,0
                104.48419021,17.636900962,0
                104.484108665,17.636893786,0
                104.484024294,17.63687487,0
                104.483906268,17.6368025470001,0
                104.483795269,17.636718209,0
                104.483726923,17.636658674,0
                104.483645258,17.6365664310001,0
                104.483583796,17.636490162,0
                104.483524081,17.6363902150001,0
                104.483499128,17.6362987540001,0
                104.483493901,17.636234185,0
                104.483494142,17.636150319,0
                104.483497675,17.636088483,0
                104.483520386,17.6360201140001,0
                104.483578918,17.6359148070001,0
                104.483669884,17.635778568,0
                104.483793235,17.6356300040001,0
                104.483871171,17.6355247500001,0
                104.483898312,17.635484177,0
                104.483925896,17.6354066540001,0
                104.483943027,17.6352830020001,0
                104.483943538,17.6351031040001,0
                104.483957291,17.634817775,0
                104.483983701,17.634631739,0
                104.483977566,17.634513859,0
                104.483945481,17.634420719,0
                104.483906875,17.6343461810001,0
                104.483816618,17.634234276,0
                104.483726412,17.63410377,0
                104.48368151,17.6339671740001,0
                104.48363034,17.633762323,0
                104.483553335,17.633538797,0
                104.483481548,17.633382468,0
                104.483397149,17.633203119,0
                104.483275643,17.6329718100001,0
                104.483187873,17.6328114830001,0
                104.483140354,17.6326765310001,0
                104.483093443,17.632439746,0
                104.483084416,17.6323941810001,0
                104.483043408,17.6322136210001,0
                104.482994123,17.6321506410001,0
                104.482901908,17.632104,0
                104.482687298,17.632056989,0
                104.482380696,17.6319708980001,0
                104.482160879,17.631882392,0
                104.482044076,17.631806152,0
                104.481982959,17.6317435010001,0
                104.481953055,17.631668625,0
                104.481930808,17.631585967,0
                104.481927598,17.631480063,0
                104.481928801,17.6314373590001,0
                104.481937193,17.631138622,0
                104.481975169,17.6307751570001,0
                104.482016194,17.6305122740001,0
                104.482097352,17.630187871,0
                104.482214567,17.629667838,0
                104.482290533,17.629378645,0
                104.48235501,17.6291703680001,0
                104.482410625,17.628977821,0
                104.48249784,17.6287776630001,0
                104.482629195,17.628398642,0
                104.482650057,17.6283335800001,0
                104.482689703,17.628240362,0
                104.482730404,17.628166004,0
                104.482769187,17.628081023,0
                104.482849619,17.6279003070001,0
                104.482892038,17.627831956,0
                104.482932371,17.627775059,0
                104.482947714,17.6277497460001,0
                104.482956215,17.6277349210001,0
                104.482959408,17.6277231710001,0
                104.4829603,17.6277028710001,0
                104.48296147,17.6276584350001,0
                104.482960904,17.6275899130001,0
                104.482961689,17.6274996340001,0
                104.48296512,17.627463339,0
                104.482965796,17.627459141,0
                104.482968088,17.627444913,0
                104.482971714,17.627431781,0
                104.482977562,17.627425342,0
                104.48298786,17.62741637,0
                104.483000228,17.6274092670001,0
                104.48301517,17.6274040230001,0
                104.483032686,17.6274006400001,0
                104.483058305,17.6273989580001,0
                104.483078998,17.627400794,0
                104.483097722,17.6274041360001,0
                104.483121105,17.6274116870001,0
                104.483144576,17.6274221360001,0
                104.483188617,17.6274469740001,0
                104.483242377,17.6274768480001,0
                104.483261237,17.627484526,0
                104.483277417,17.6274869700001,0
                104.483295034,17.627486961,0
                104.483310581,17.6274850820001,0
                104.483324056,17.6274813250001,0
                104.483336887,17.6274727640001,0
                104.483347687,17.627463773,0
                104.483358833,17.6274494690001,0
                104.48337763,17.6274055050001,0
                104.483413942,17.627291547,0
                104.483439859,17.6272000860001,0
                104.483454645,17.6271398270001,0
                104.483459027,17.627125323,0
                104.48347523,17.627071679,0
                104.483475452,17.6270709350001,0
                104.483483003,17.627045879,0
                104.483487696,17.62703465,0
                104.483493958,17.627025304,0
                104.483506829,17.627018187,0
                104.483524271,17.627012392,0
                104.48354433,17.6270099010001,0
                104.483564419,17.627008378,0
                104.483589122,17.6270096210001,0
                104.483611857,17.6270123640001,0
                104.483626068,17.6270163130001,0
                104.483647009,17.627026346,0
                104.483675699,17.6270429210001,0
                104.483710705,17.627068492,0
                104.483729809,17.627084371,0
                104.48375326,17.627110746,0
                104.483787789,17.627161593,0
                104.483797577,17.6271762550001,0
                104.483803122,17.6271818010001,0
                104.483808671,17.627187346,0
                104.483815384,17.6271939490001,0
                104.483824636,17.6272002060001,0
                104.483835202,17.6272031670001,0
                104.483845432,17.6272045110001,0
                104.483856458,17.627203934,0
                104.483870513,17.627200557,0
                104.483883098,17.627195316,0
                104.483891441,17.627190469,0
                104.483898086,17.6271853980001,0
                104.483903539,17.627178456,0
                104.483908308,17.627167738,0
                104.483916434,17.6271368320001,0
                104.4839246,17.627098468,0
                104.48392684,17.6270879420001,0
                104.483940083,17.6270484770001,0
                104.483953618,17.627018509,0
                104.483962207,17.6270030650001,0
                104.483968887,17.626989844,0
                104.483980559,17.626973229,0
                104.483999186,17.6269526190001,0
                104.484034752,17.626920952,0
                104.484064638,17.626898124,0
                104.484064916,17.6268978370001,0
                104.484075339,17.626886966,0
                104.484083841,17.626877769,0
                104.484089227,17.626868663,0
                104.484096123,17.6268532660001,0
                104.484107416,17.6268126860001,0
                104.484109143,17.626806478,0
                104.484112675,17.6267922600001,0
                104.484113493,17.6267819220001,0
                104.484113189,17.626771885,0
                104.484111283,17.626755648,0
                104.48409562,17.6266686600001,0
                104.484092743,17.626640352,0
                104.484093343,17.626626238,0
                104.484095374,17.626618577,0
                104.484100835,17.6266119090001,0
                104.484119245,17.626596556,0
                104.484145868,17.6265780740001,0
                104.484159237,17.626570826,0
                104.484169313,17.6265669250001,0
                104.484179454,17.626565192,0
                104.484188129,17.626564951,0
                104.484202196,17.6265681780001,0
                104.484277763,17.6266077020001,0
                104.484324616,17.6266339060001,0
                104.484355318,17.626650425,0
                104.484377845,17.626658847,0
                104.484399985,17.6266669190001,0
                104.484421265,17.6266713910001,0
                104.484437207,17.6266742070001,0
                104.484452339,17.6266752340001,0
                104.484469287,17.626674037,0
                104.484492912,17.626668673,0
                104.484533363,17.6266581310001,0
                104.484552015,17.6266507350001,0
                104.484570965,17.626640792,0
                104.484582062,17.6266332430001,0
                104.484602701,17.6266167420001,0
                104.484626941,17.626594346,0
                104.484644906,17.626576831,0
                104.484655485,17.62656459,0
                104.484663743,17.626550605,0
                104.484675334,17.626522047,0
                104.484696562,17.6264751200001,0
                104.484711728,17.626439942,0
                104.484727781,17.626409089,0
                104.484741598,17.6263916890001,0
                104.484759254,17.626376357,0
                104.484778981,17.626367117,0
                104.48480254,17.626359585,0
                104.484819879,17.626358737,0
                104.484834674,17.626361219,0
                104.484845758,17.6263656200001,0
                104.48485031,17.6263684730001,0
                104.484858457,17.6263735910001,0
                104.484870449,17.626383031,0
                104.484877953,17.6263940420001,0
                104.484888428,17.62641583,0
                104.484907846,17.626471039,0
                104.484917636,17.626495016,0
                104.484925972,17.6265085430001,0
                104.484933112,17.626519925,0
                104.484938647,17.6265281,0
                104.484945666,17.6265355040001,0
                104.48495494,17.6265424860001,0
                104.484968715,17.626548617,0
                104.484988451,17.6265520470001,0
                104.48501796,17.6265541240001,0
                104.485032292,17.6265537240001,0
                104.485037602,17.6265524460001,0
                104.485051032,17.626549217,0
                104.485061472,17.626544945,0
                104.485069993,17.6265396380001,0
                104.485079149,17.6265303330001,0
                104.485088217,17.626518135,0
                104.485096089,17.6265038,0
                104.485101976,17.6264862560001,0
                104.485121796,17.6264227990001,0
                104.485122275,17.626421255,0
                104.485129355,17.6263931870001,0
                104.485134019,17.626372783,0
                104.48513632,17.6263614980001,0
                104.485136289,17.626348104,0
                104.48513487,17.6263260640001,0
                104.485130822,17.6262921470001,0
                104.485122104,17.626253659,0
                104.485121894,17.626250428,0
                104.485120669,17.6262312540001,0
                104.48512104,17.6262185740001,0
                104.485122064,17.6262026200001,0
                104.48512543,17.626189131,0
                104.485130704,17.6261763140001,0
                104.485141581,17.626161531,0
                104.485154476,17.6261510360001,0
                104.48517079,17.6261411670001,0
                104.485205375,17.6261239130001,0
                104.48523765,17.626105277,0
                104.485251736,17.6260965590001,0
                104.485261664,17.626087957,0
                104.48527365,17.626072418,0
                104.485305997,17.626018666,0
                104.485354484,17.625936949,0
                104.485367528,17.625918846,0
                104.485377027,17.625908446,0
                104.485386292,17.6259027570001,0
                104.485396434,17.625901029,0
                104.48540737,17.6259007240001,0
                104.485415768,17.6259037460001,0
                104.48542695,17.6259113990001,0
                104.485448084,17.625936149,0
                104.485479343,17.625983423,0
                104.485482256,17.625987335,0
                104.485512397,17.626027751,0
                104.485529577,17.626046457,0
                104.485540456,17.626056653,0
                104.485551589,17.6260628580001,0
                104.485563026,17.6260665190001,0
                104.485575495,17.626066897,0
                104.48558943,17.6260657830001,0
                104.4856168,17.6260595900001,0
                104.485657544,17.6260461480001,0
                104.485692691,17.626035029,0
                104.485805171,17.6260094520001,0
                104.485875777,17.6259973480001,0
                104.485979455,17.6259803360001,0
                104.486010918,17.6259722190001,0
                104.486028107,17.62596631,0
                104.486041454,17.625958337,0
                104.48605029,17.625950851,0
                104.48605676,17.625940171,0
                104.486064974,17.625924737,0
                104.486070171,17.6259093910001,0
                104.486073748,17.625890467,0
                104.486078076,17.625858851,0
                104.486077462,17.625838598,0
                104.486074029,17.625824939,0
                104.486068318,17.6258109780001,0
                104.486059194,17.625796393,0
                104.486055966,17.625793867,0
                104.486047592,17.6257873010001,0
                104.48603304,17.625780467,0
                104.485962457,17.6257560110001,0
                104.485942491,17.6257449870001,0
                104.48592865,17.6257366830001,0
                104.485917804,17.625727575,0
                104.485908133,17.6257198800001,0
                104.485903375,17.625712413,0
                104.485898888,17.625701313,0
                104.485895432,17.62568693,0
                104.485894107,17.6256681420001,0
                104.485894733,17.6256514740001,0
                104.485896511,17.6256354990001,0
                104.485902245,17.625612894,0
                104.485960084,17.625466121,0
                104.486015601,17.6253548880001,0
                104.486048012,17.625278329,0
                104.486089298,17.6252084430001,0
                104.486110852,17.6251719570001,0
                104.486145984,17.6251105270001,0
                104.486178526,17.625059804,0
                104.486190449,17.6250324430001,0
                104.486197754,17.6250077870001,0
                104.486201548,17.624978077,0
                104.486209509,17.6248864730001,0
                104.486215234,17.62480973,0
                104.486220285,17.624754889,0
                104.486222106,17.6247265220001,0
                104.486226868,17.624706439,0
                104.486231899,17.6246953570001,0
                104.486240304,17.6246848260001,0
                104.48625745,17.6246746940001,0
                104.486278709,17.624667667,0
                104.486304057,17.624662454,0
                104.486324594,17.6246611780001,0
                104.486336318,17.624661937,0
                104.486346233,17.62466528,0
                104.486353996,17.6246723040001,0
                104.48638303,17.6247084190001,0
                104.486404566,17.6247338790001,0
                104.486412671,17.624739807,0
                104.486423397,17.624744938,0
                104.486434425,17.624747526,0
                104.486438676,17.624747272,0
                104.48644573,17.6247468500001,0
                104.486467089,17.6247415500001,0
                104.486492871,17.624732866,0
                104.486510789,17.6247262110001,0
                104.486520066,17.624720887,0
                104.48652374,17.6247166380001,0
                104.486528091,17.624711613,0
                104.486537815,17.6246961370001,0
                104.486549296,17.6246639620001,0
                104.486577498,17.624560731,0
                104.486589208,17.6245111740001,0
                104.486593475,17.62449006,0
                104.486596914,17.6244664340001,0
                104.486597463,17.6244472340001,0
                104.486596254,17.624382468,0
                104.486585752,17.6242354300001,0
                104.486571162,17.624053028,0
                104.486566093,17.6238927050001,0
                104.486565313,17.62385677,0
                104.486566297,17.6238393680001,0
                104.486568992,17.6238286760001,0
                104.486577218,17.6238178250001,0
                104.486597739,17.6237974640001,0
                104.486615439,17.623783459,0
                104.486635259,17.623773253,0
                104.486658119,17.6237634440001,0
                104.486678607,17.6237585270001,0
                104.486702169,17.6237554570001,0
                104.486722345,17.623756826,0
                104.486747682,17.6237623960001,0
                104.486788369,17.623776223,0
                104.486818316,17.623784555,0
                104.486836469,17.6237854980001,0
                104.486856499,17.6237820440001,0
                104.486888404,17.623771983,0
                104.486933127,17.6237528790001,0
                104.486955378,17.6237397100001,0
                104.486969584,17.6237267610001,0
                104.486995792,17.6236946610001,0
                104.487031615,17.623647809,0
                104.48707043,17.623599905,0
                104.487086024,17.623583491,0
                104.487097745,17.623571151,0
                104.487124689,17.623546748,0
                104.487163617,17.6235191160001,0
                104.487296843,17.6234411680001,0
                104.487306546,17.623435495,0
                104.487354304,17.6234003760001,0
                104.487363494,17.623388053,0
                104.487370098,17.6233733890001,0
                104.487370307,17.6233637300001,0
                104.487364161,17.6233436270001,0
                104.487344594,17.62329591,0
                104.48734145,17.623275242,0
                104.487341055,17.6232622220001,0
                104.487344754,17.6232514980001,0
                104.487358385,17.6232361560001,0
                104.48737318,17.6232260900001,0
                104.487406762,17.623204883,0
                104.487449948,17.623184854,0
                104.487505689,17.623163993,0
                104.487506157,17.623163619,0
                104.487519446,17.623152992,0
                104.487526756,17.6231450670001,0
                104.487527945,17.6231344120001,0
                104.487524241,17.6231118320001,0
                104.487517486,17.623055069,0
                104.487515643,17.6230276050001,0
                104.487516184,17.6230121470001,0
                104.487520374,17.6230009270001,0
                104.48752352,17.6229954900001,0
                104.487529458,17.62298523,0
                104.487553045,17.622966229,0
                104.487582664,17.6229470640001,0
                104.487601495,17.6229373680001,0
                104.487620491,17.622932979,0
                104.487642591,17.622931395,0
                104.487665237,17.6229312450001,0
                104.487684463,17.6229345720001,0
                104.487699253,17.6229409170001,0
                104.487713123,17.622950184,0
                104.487723516,17.6229610830001,0
                104.48772612,17.622963815,0
                104.48773904,17.6229914510001,0
                104.487773394,17.6230952290001,0
                104.487799375,17.6231717310001,0
                104.487806909,17.6231879320001,0
                104.487815248,17.6231973480001,0
                104.487826978,17.623202334,0
                104.487853766,17.6232059270001,0
                104.487881277,17.6232062450001,0
                104.487890521,17.6232063520001,0
                104.487933241,17.6232041970001,0
                104.48797133,17.6231987890001,0
                104.48803827,17.6231819610001,0
                104.488132225,17.623152217,0
                104.488146954,17.623147556,0
                104.488212383,17.6231307690001,0
                104.488234293,17.623122918,0
                104.48825111,17.6231132770001,0
                104.488261826,17.6231013930001,0
                104.488271919,17.623085668,0
                104.488278419,17.623067626,0
                104.488281752,17.6230448490001,0
                104.488284436,17.623013815,0
                104.488284999,17.622992138,0
                104.488285325,17.622979684,0
                104.488283984,17.6229354760001,0
                104.488281541,17.6228866880001,0
                104.488280144,17.622840635,0
                104.488277668,17.6228066840001,0
                104.488276852,17.6227955580001,0
                104.488279895,17.622737396,0
                104.488288914,17.6225912420001,0
                104.488290207,17.62257026,0
                104.488302128,17.6224878840001,0
                104.488311203,17.622462457,0
                104.488315418,17.622450643,0
                104.488351857,17.6223841780001,0
                104.4883739,17.622350376,0
                104.488386456,17.62232053,0
                104.488390026,17.622279867,0
                104.488389479,17.622230103,0
                104.488388529,17.622198788,0
                104.488391337,17.622164604,0
                104.488405701,17.62213102,0
                104.488424181,17.622106533,0
                104.488452074,17.6220753370001,0
                104.488476297,17.622049771,0
                104.488514016,17.622025675,0
                104.488577195,17.621985196,0
                104.488602515,17.621964211,0
                104.488618231,17.6219434930001,0
                104.488619507,17.6219222560001,0
                104.488615872,17.6218974670001,0
                104.488599497,17.6218647370001,0
                104.488586314,17.6218420610001,0
                104.488554399,17.621801335,0
                104.488545314,17.6217897380001,0
                104.488509336,17.621744649,0
                104.488481071,17.621700269,0
                104.48845249,17.621649963,0
                104.488414048,17.621582301,0
                104.488403658,17.6215567830001,0
                104.488404967,17.6215364670001,0
                104.488416589,17.621507566,0
                104.488432021,17.6214776350001,0
                104.48845266,17.6214291260001,0
                104.488459535,17.621402199,0
                104.488458641,17.621372728,0
                104.488456046,17.621350675,0
                104.48844758,17.6213251030001,0
                104.488432922,17.6213118380001,0
                104.488432753,17.62131169,0
                104.488401768,17.621304256,0
                104.488360158,17.6212952770001,0
                104.488338692,17.621284813,0
                104.488318105,17.6212715610001,0
                104.488302177,17.6212535670001,0
                104.488288962,17.6212299690001,0
                104.488276709,17.621206344,0
                104.488263981,17.6211670600001,0
                104.4882291,17.6210629450001,0
                104.488198565,17.6209753050001,0
                104.488175787,17.620921551,0
                104.488163757,17.6209052950001,0
                104.488145228,17.62089659,0
                104.488117969,17.6208853700001,0
                104.488073506,17.6208773930001,0
                104.488026246,17.6208722550001,0
                104.48799732,17.6208693740001,0
                104.487969272,17.620863704,0
                104.487943992,17.6208542700001,0
                104.487919585,17.6208420460001,0
                104.487870595,17.620799216,0
                104.487774602,17.620714492,0
                104.487643528,17.620600156,0
                104.487508825,17.6205165060001,0
                104.487431905,17.620459655,0
                104.4873898,17.6204236840001,0
                104.487347359,17.620376799,0
                104.487316809,17.620324103,0
                104.487313698,17.620318737,0
                104.48731153,17.620313057,0
                104.487293897,17.6202668490001,0
                104.487263926,17.620180283,0
                104.487261303,17.6201716620001,0
                104.487200654,17.6199722810001,0
                104.487166909,17.6198829570001,0
                104.487140336,17.6198126080001,0
                104.487126327,17.6197755160001,0
                104.487082298,17.61967623,0
                104.487032502,17.619612067,0
                104.486994881,17.6195737830001,0
                104.486933964,17.6195186730001,0
                104.48686615,17.6194615640001,0
                104.486821572,17.6194191060001,0
                104.486767618,17.61936817,0
                104.486720759,17.619325775,0
                104.486681337,17.619268649,0
                104.486677855,17.619263604,0
                104.486661844,17.619240205,0
                104.486639706,17.6192078550001,0
                104.486582285,17.619117687,0
                104.486534566,17.6190469100001,0
                104.486447283,17.61894883,0
                104.486395273,17.6188869120001,0
                104.486349636,17.618809522,0
                104.486291946,17.618710621,0
                104.486229644,17.618609657,0
                104.48620509,17.6185513450001,0
                104.486192115,17.6184992670001,0
                104.486183233,17.618431779,0
                104.486181313,17.6183684640001,0
                104.486174578,17.6182965450001,0
                104.486164571,17.618191939,0
                104.486152987,17.618104126,0
                104.486164926,17.6179818790001,0
                104.486176991,17.617815158,0
                104.486177336,17.6176928840001,0
                104.486131408,17.6175371310001,0
                104.486050792,17.617347942,0
                104.485970122,17.617180983,0
                104.485895,17.616987291,0
                104.485882841,17.6169366840001,0
                104.485868006,17.6168738650001,0
                104.485843298,17.6166984880001,0
                104.485804396,17.6163928190001,0
                104.48579866,17.616324568,0
                104.485804757,17.616237585,0
                104.485802038,17.6161478820001,0
                104.485800479,17.616053693,0
                104.485797775,17.615964497,0
                104.485795222,17.615880255,0
                104.485790158,17.615798564,0
                104.485782811,17.615726855,0
                104.48577938,17.615656275,0
                104.485780125,17.6155955020001,0
                104.485783826,17.6155470420001,0
                104.485785373,17.6154701240001,0
                104.485785517,17.6153895250001,0
                104.48578364,17.6153275830001,0
                104.485781762,17.6152656410001,0
                104.48577981,17.615201224,0
                104.485770708,17.6151568400001,0
                104.485763046,17.615117378,0
                104.485736587,17.615054878,0
                104.48571054,17.6150060090001,0
                104.485668538,17.614942704,0
                104.485630561,17.6148842480001,0
                104.485593109,17.6148336260001,0
                104.48559281,17.614833225,0
                104.485531508,17.614772939,0
                104.485480917,17.6147247540001,0
                104.485453112,17.6147032100001,0
                104.485433019,17.614680213,0
                104.485419198,17.6146508410001,0
                104.485413052,17.6146187750001,0
                104.485408163,17.61458543,0
                104.485405447,17.614538392,0
                104.485407356,17.6145160200001,0
                104.485411582,17.6144849070001,0
                104.485417386,17.6144663210001,0
                104.485433598,17.6144433750001,0
                104.485452065,17.614421104,0
                104.485476208,17.614398792,0
                104.485496089,17.614372201,0
                104.485504257,17.6143606630001,0
                104.485514612,17.614344003,0
                104.485519019,17.6143182430001,0
                104.485519376,17.614287238,0
                104.485512929,17.6142452610001,0
                104.485500253,17.614210896,0
                104.485471547,17.6141596200001,0
                104.485440481,17.6141158520001,0
                104.48541215,17.6140769620001,0
                104.485402809,17.614056745,0
                104.485394079,17.614035308,0
                104.485379995,17.613997268,0
                104.485373816,17.613963959,0
                104.485373943,17.613925523,0
                104.485375865,17.6138609930001,0
                104.485386833,17.6137962120001,0
                104.485400573,17.6137375540001,0
                104.485416818,17.6136763440001,0
                104.485430708,17.613622643,0
                104.485444594,17.6135689430001,0
                104.485456049,17.6135202670001,0
                104.485462335,17.6134717350001,0
                104.48546825,17.613410813,0
                104.485471589,17.6133078120001,0
                104.485473291,17.61323585,0
                104.485472736,17.6130895580001,0
                104.485475818,17.6129778820001,0
                104.485474217,17.6128824520001,0
                104.485476885,17.61275715,0
                104.485470659,17.6126370530001,0
                104.485465328,17.612461136,0
                104.485457488,17.61228777,0
                104.485454036,17.6121380600001,0
                104.485153495,17.6121227740001,0
                104.484970244,17.61210607,0
                104.484775709,17.612089338,0
                104.484552967,17.6120779390001,0
                104.484366887,17.612063934,0
                104.48406518,17.612052326,0
                104.483839621,17.612040919,0
                104.483563321,17.612021272,0
                104.483363166,17.611999112,0
                104.483188397,17.6119743130001,0
                104.48301648,17.6119387100001,0
                104.482836117,17.611897673,0
                104.482641679,17.611848491,0
                104.482407773,17.611796495,0
                104.48223025,17.6117500570001,0
                104.482061151,17.611714459,0
                104.48184417,17.6116598030001,0
                104.481551088,17.611591431,0
                104.481277739,17.6115258090001,0
                104.480936754,17.611446491,0
                104.480595782,17.6113590580001,0
                104.480237544,17.6112648700001,0
                104.479681264,17.611126341,0
                104.479226442,17.611020535,0
                104.478869356,17.6109366310001,0
                104.478346884,17.610812615,0
                104.477820686,17.6106777640001,0
                104.477591413,17.610619447,0
                104.47733205,17.610561052,0
                104.477083962,17.6105062870001,0
                104.476835865,17.6104515230001,0
                104.476674259,17.61040781,0
                104.476538976,17.61036417,0
                104.476388691,17.610306058,0
                104.476264734,17.61024802,0
                104.476121967,17.6101899230001,0
                104.475911699,17.610063122,0
                104.475678869,17.6099362640001,0
                104.475408512,17.6097768340001,0
                104.475145611,17.609642675,0
                104.4748865,17.609497708,0
                104.474679961,17.609381738,0
                104.474458394,17.609262116,0
                104.474172982,17.609106253,0
                104.473936375,17.608982987,0
                104.473722349,17.60885617,0
                104.473504574,17.608725739,0
                104.47324927,17.6085663490001,0
                104.473046579,17.608421526,0
                104.472825083,17.608276658,0
                104.472532369,17.6080486340001,0
                104.472273438,17.607842342,0
                104.472010802,17.6076180060001,0
                104.471699405,17.6073466500001,0
                104.471346735,17.607042715,0
                104.470994092,17.606727963,0
                104.470678937,17.606456596,0
                104.470356295,17.6061743830001,0
                104.469969823,17.6058523240001,0
                104.469568441,17.605486935,0
                104.469283314,17.6052372890001,0
                104.468881862,17.604897151,0
                104.468675504,17.604723458,0
                104.468476668,17.60454979,0
                104.46827781,17.6043833310001,0
                104.468052661,17.604205985,0
                104.467797427,17.6040249440001,0
                104.467482074,17.6038257110001,0
                104.467170412,17.603648127,0
                104.466873805,17.603470583,0
                104.466498354,17.603242326,0
                104.466044074,17.60296336,0
                104.465563464,17.602684326,0
                104.465218035,17.6024813970001,0
                104.464681112,17.602169739,0
                104.464226797,17.601901593,0
                104.463712408,17.6016008140001,0
                104.462984005,17.6011768130001,0
                104.462484663,17.6008760770001,0
                104.461876455,17.6005065090001,0
                104.461253175,17.6001477180001,0
                104.460682476,17.599814316,0
                104.460310804,17.599586055,0
                104.459995434,17.599397631,0
                104.459563641,17.599151179,0
                104.459229484,17.598955479,0
                104.458944151,17.5987851720001,0
                104.458673818,17.5986293340001,0
                104.458418538,17.598469922,0
                104.458223356,17.5983395390001,0
                104.458107052,17.5982418300001,0
                104.458024597,17.5981442140001,0
                104.457904666,17.5980032140001,0
                104.4578073,17.597862272,0
                104.457728713,17.5977286,0
                104.457596683,17.597477844,0
                104.457371157,17.5970668480001,0
                104.457181921,17.5967506540001,0
                104.456992764,17.596409909,0
                104.456850909,17.5961499640001,0
                104.456643538,17.5957846160001,0
                104.456374369,17.5952928290001,0
                104.456250623,17.595092564,0
                104.456123209,17.5948957960001,0
                104.456039428,17.594783325,0
                104.455919129,17.5946532150001,0
                104.455780565,17.5945160420001,0
                104.45560548,17.5943612300001,0
                104.455288053,17.594111323,0
                104.454693325,17.593646699,0
                104.453916198,17.5930272370001,0
                104.453259485,17.5925028070001,0
                104.452362004,17.5917777780001,0
                104.451398804,17.5910174950001,0
                104.450406469,17.5902220470001,0
                104.449435981,17.5894582230001,0
                104.449184295,17.589243568,0
                104.449078513,17.5891520800001,0
                104.449038352,17.5891309200001,0
                104.449005434,17.58913083,0
                104.448961435,17.589169284,0
                104.448841926,17.5893138160001,0
                104.44852738,17.589618151,0
                104.448208258,17.5899136250001,0
                104.448000186,17.590085555,0
                104.447847496,17.590248794,0
                104.447671848,17.5903765780001,0
                104.447491724,17.590460121,0
                104.447334752,17.59051276,0
                104.447039471,17.590547321,0
                104.446762777,17.5905377010001,0
                104.446499933,17.5905236950001,0
                104.446172558,17.5904962390001,0
                104.445914368,17.5904689770001,0
                104.445743744,17.590459648,0
                104.445614593,17.5904637080001,0
                104.445457743,17.5904765390001,0
                104.445323914,17.5905027050001,0
                104.445185474,17.5905288590001,0
                104.444945471,17.590585687,0
                104.444747021,17.5906293620001,0
                104.444613216,17.5906466800001,0
                104.444520892,17.5906729600001,0
                104.444447033,17.590694867,0
                104.444391516,17.5907522160001,0
                104.444303548,17.5908625550001,0
                104.444192546,17.590963979,0
                104.444007655,17.591096163,0
                104.44384134,17.5911885790001,0
                104.443679644,17.5912765940001,0
                104.443550211,17.5913735390001,0
                104.443333107,17.5914835130001,0
                104.443111362,17.5916023190001,0
                104.442917333,17.5917079320001,0
                104.442760383,17.5917517250001,0
                104.442589438,17.591848554,0
                104.442473948,17.5919101580001,0
                104.44232631,17.591927433,0
                104.442155683,17.591923235,0
                104.442135515,17.591923895,0
                104.44207666,17.591930307,0
                104.442071503,17.5919308680001,0
                104.44206599,17.5919321010001,0
                104.442018497,17.5919427420001,0
                104.441962905,17.5919590240001,0
                104.441897373,17.5919755800001,0
                104.441847208,17.591991712,0
                104.441787973,17.59200723,0
                104.441728587,17.5920175420001,0
                104.441715023,17.5920195510001,0
                104.441685365,17.592023941,0
                104.441641182,17.592028633,0
                104.441568701,17.59202456,0
                104.441501644,17.5920203370001,0
                104.441475513,17.592023662,0
                104.441456767,17.592031987,0
                104.441449679,17.5920406390001,0
                104.441439317,17.59205329,0
                104.44142716,17.5920701100001,0
                104.441409091,17.592100967,0
                104.441397115,17.5921238510001,0
                104.441394123,17.592144755,0
                104.441395627,17.592164665,0
                104.441399015,17.5921871260001,0
                104.44141287,17.5922110760001,0
                104.441426681,17.5922349420001,0
                104.441451323,17.5922724320001,0
                104.441465407,17.5923020990001,0
                104.44146677,17.59230497,0
                104.441474061,17.5923368640001,0
                104.441475232,17.5923758660001,0
                104.441480015,17.592414773,0
                104.441493998,17.5924586260001,0
                104.441505162,17.592499091,0
                104.441525854,17.592555772,0
                104.441538881,17.592597918,0
                104.441548602,17.592650566,0
                104.44155365,17.5926981380001,0
                104.441554072,17.5927423700001,0
                104.441555425,17.592787441,0
                104.441560026,17.592820279,0
                104.4415716,17.5928442470001,0
                104.441590352,17.592866284,0
                104.441606396,17.592888395,0
                104.441619829,17.59291405,0
                104.441622519,17.592943469,0
                104.441624311,17.5929603050001,0
                104.441626298,17.5929789320001,0
                104.441621994,17.5930163510001,0
                104.441614312,17.593061672,0
                104.441612307,17.593070427,0
                104.441603113,17.593110562,0
                104.441587375,17.593158707,0
                104.441568509,17.5931930620001,0
                104.441543055,17.5932189220001,0
                104.441511272,17.593244957,0
                104.441482768,17.5932596210001,0
                104.441450491,17.5932691890001,0
                104.44144339,17.5932700340001,0
                104.441436186,17.593270895,0
                104.44141264,17.593273702,0
                104.441367451,17.59327495,0
                104.44133316,17.593277635,0
                104.441308168,17.593288731,0
                104.441289631,17.5933039940001,0
                104.441268746,17.593331461,0
                104.441236869,17.5933843880001,0
                104.441216812,17.5934092300001,0
                104.441215104,17.593411776,0
                104.441194303,17.593442816,0
                104.441163067,17.593487054,0
                104.441116628,17.5935369170001,0
                104.441068863,17.5935729340001,0
                104.441034731,17.593593878,0
                104.441015576,17.5936056370001,0
                104.440961201,17.5936322950001,0
                104.440923121,17.593659368,0
                104.440893149,17.593685352,0
                104.440883576,17.5936956890001,0
                104.440865113,17.593715624,0
                104.440841413,17.593739697,0
                104.440791097,17.59378099,0
                104.440712298,17.593837821,0
                104.440631906,17.5939016290001,0
                104.440581585,17.5939429220001,0
                104.440577873,17.5939453080001,0
                104.440505269,17.5939918760001,0
                104.440443768,17.5940221980001,0
                104.440418568,17.5940310350001,0
                104.440414229,17.5940325600001,0
                104.440392537,17.594033159,0
                104.440382295,17.5940279120001,0
                104.440379677,17.59402657,0
                104.440369477,17.59401818,0
                104.440367072,17.5939982940001,0
                104.44036501,17.593979012,0
                104.440352566,17.5938627210001,0
                104.440349382,17.593756678,0
                104.440346938,17.5937007540001,0
                104.440345073,17.593689458,0
                104.440338949,17.5936760880001,0
                104.440329292,17.593659523,0
                104.440325816,17.5936533870001,0
                104.440313982,17.593632497,0
                104.44029989,17.593607999,0
                104.440290899,17.59358812,0
                104.440285457,17.593572168,0
                104.44028044,17.593544858,0
                104.440276959,17.59351787,0
                104.440274571,17.5935018340001,0
                104.440272195,17.593486162,0
                104.440269149,17.593477907,0
                104.440268453,17.5934760220001,0
                104.440262515,17.593468864,0
                104.440252135,17.5934662240001,0
                104.440231074,17.5934638790001,0
                104.440199769,17.59346328,0
                104.440153929,17.593461614,0
                104.440135954,17.593460282,0
                104.440107764,17.5934550850001,0
                104.440101419,17.5934539140001,0
                104.440065773,17.5934486800001,0
                104.440040935,17.5934475330001,0
                104.440018067,17.5934485340001,0
                104.439999203,17.593449617,0
                104.439993691,17.5934499360001,0
                104.439968627,17.5934539240001,0
                104.439949595,17.5934555480001,0
                104.439934725,17.593455959,0
                104.439907554,17.5934534130001,0
                104.439887228,17.593449949,0
                104.439866811,17.59344356,0
                104.439860004,17.593441087,0
                104.439852718,17.593438442,0
                104.439840576,17.5934340360001,0
                104.439804692,17.593420753,0
                104.439737458,17.5933908060001,0
                104.439682501,17.5933686650001,0
                104.439627535,17.5933487180001,0
                104.439584012,17.5933376,0
                104.439531297,17.593330856,0
                104.439476285,17.5933263050001,0
                104.439430449,17.593321775,0
                104.439389185,17.59331946,0
                104.439345626,17.5933193340001,0
                104.439304345,17.5933236170001,0
                104.439269925,17.593332312,0
                104.439217128,17.5933541530001,0
                104.439178111,17.5933672350001,0
                104.439129991,17.593391135,0
                104.439095445,17.5934087810001,0
                104.439054109,17.593430648,0
                104.439017374,17.593445936,0
                104.43895728,17.5934644440001,0
                104.438916404,17.593476433,0
                104.438877387,17.5934895140001,0
                104.43883837,17.5935026,0
                104.438769882,17.593530215,0
                104.438677928,17.593565628,0
                104.438604351,17.5935931080001,0
                104.4385229,17.5936205670001,0
                104.438492162,17.5936335640001,0
                104.438405169,17.593680507,0
                104.438363349,17.5937075160001,0
                104.438341753,17.5937272620001,0
                104.438309612,17.593755297,0
                104.438266506,17.5938021800001,0
                104.43824403,17.5938262510001,0
                104.438216191,17.5938594890001,0
                104.438177795,17.5939170680001,0
                104.438164391,17.5939300630001,0
                104.438155768,17.5939351100001,0
                104.43813957,17.593938565,0
                104.438125092,17.59393656,0
                104.438107905,17.5939280160001,0
                104.438089825,17.5939104770001,0
                104.438049941,17.593876703,0
                104.438027515,17.593860486,0
                104.438016758,17.593857176,0
                104.438000416,17.593855822,0
                104.437926535,17.593859063,0
                104.437885174,17.593859606,0
                104.437852671,17.5938629070001,0
                104.437833363,17.5938670470001,0
                104.437808499,17.593876455,0
                104.437804228,17.5938780720001,0
                104.43776031,17.5938979260001,0
                104.437667273,17.5939521990001,0
                104.437568168,17.5940132580001,0
                104.437520139,17.59404224,0
                104.437505176,17.5940450620001,0
                104.437482015,17.5940463000001,0
                104.437454953,17.594042836,0
                104.437416545,17.5940372860001,0
                104.437381891,17.594031628,0
                104.43735848,17.594024362,0
                104.437353418,17.594022791,0
                104.437308827,17.5939993690001,0
                104.43726816,17.5939812510001,0
                104.437244769,17.5939746830001,0
                104.437227175,17.593973362,0
                104.437202798,17.593975841,0
                104.43718041,17.593981871,0
                104.437154386,17.593992207,0
                104.437127779,17.5940037660001,0
                104.437079601,17.594027942,0
                104.437030188,17.5940527560001,0
                104.437023688,17.594056101,0
                104.436979564,17.594078806,0
                104.436911042,17.5941143640001,0
                104.436898499,17.5941224100001,0
                104.436884592,17.594131331,0
                104.436865051,17.5941487060001,0
                104.436844385,17.5941703180001,0
                104.436827349,17.594187624,0
                104.436823433,17.5941901140001,0
                104.436799665,17.5942052240001,0
                104.43677681,17.5942166790001,0
                104.436745206,17.594228975,0
                104.436710324,17.594236552,0
                104.436681746,17.594245157,0
                104.436649531,17.594258068,0
                104.436595252,17.594287825,0
                104.436532332,17.594322031,0
                104.436461629,17.5943684740001,0
                104.436424303,17.594398966,0
                104.436402324,17.5944188120001,0
                104.436372766,17.59445751,0
                104.436370264,17.5944608300001,0
                104.436352872,17.594483914,0
                104.436335117,17.594498232,0
                104.436319028,17.59450529,0
                104.436304088,17.5945087100001,0
                104.436284078,17.594510465,0
                104.43626709,17.594508524,0
                104.436247475,17.5945024550001,0
                104.436226601,17.5944914950001,0
                104.436221359,17.594488745,0
                104.43619073,17.594470948,0
                104.436165332,17.594460225,0
                104.436146323,17.5944535360001,0
                104.43612617,17.594450485,0
                104.436110529,17.594451516,0
                104.436095602,17.5944555340001,0
                104.436076474,17.594465685,0
                104.43605498,17.594480709,0
                104.435999863,17.594524317,0
                104.435945178,17.594561335,0
                104.435934116,17.594568822,0
                104.43592275,17.5945760660001,0
                104.435867061,17.5946115570001,0
                104.435842567,17.5946275110001,0
                104.435831395,17.59463479,0
                104.435821699,17.5946458770001,0
                104.435814612,17.594660504,0
                104.435806511,17.5946829760001,0
                104.435794954,17.59471576,0
                104.435786008,17.594731042,0
                104.435773088,17.5947392150001,0
                104.435761295,17.594743147,0
                104.435738152,17.5947449880001,0
                104.435700033,17.594749043,0
                104.435696745,17.594749327,0
                104.435690311,17.5947498740001,0
                104.435668764,17.5947517110001,0
                104.435646322,17.5947559370001,0
                104.435632132,17.594763546,0
                104.43562059,17.594775887,0
                104.435616013,17.5947904450001,0
                104.435613353,17.5948146220001,0
                104.435612564,17.5948218080001,0
                104.435606418,17.594867671,0
                104.435603592,17.594899017,0
                104.435599015,17.5949135750001,0
                104.43559177,17.5949227940001,0
                104.435579654,17.594936956,0
                104.435566702,17.594949205,0
                104.435561977,17.594953676,0
                104.435529122,17.594987052,0
                104.435423916,17.595074733,0
                104.435359716,17.5951498590001,0
                104.435338167,17.595163079,0
                104.435325104,17.595166448,0
                104.435310697,17.5951668450001,0
                104.435291172,17.595163772,0
                104.43524993,17.595147475,0
                104.435185064,17.595116795,0
                104.435136913,17.5951000850001,0
                104.435126684,17.5950971610001,0
                104.435075576,17.5950825370001,0
                104.435066629,17.5950796270001,0
                104.435009099,17.5950609240001,0
                104.434947902,17.595048181,0
                104.434902567,17.5950416150001,0
                104.434878045,17.5950392830001,0
                104.434846134,17.595041366,0
                104.43482489,17.595043757,0
                104.434799441,17.595052276,0
                104.434782171,17.5950617720001,0
                104.434767998,17.5950699790001,0
                104.434755738,17.5950793370001,0
                104.434749692,17.5950867170001,0
                104.434732158,17.595108247,0
                104.434715945,17.59513214,0
                104.434700269,17.5951530150001,0
                104.434687386,17.59516239,0
                104.434673693,17.5951657750001,0
                104.434660593,17.595167942,0
                104.434644251,17.5951665870001,0
                104.434624727,17.595163519,0
                104.434595625,17.595154699,0
                104.434576706,17.5951510150001,0
                104.43455279,17.5951480640001,0
                104.434530869,17.595148669,0
                104.43449459,17.595151475,0
                104.434431796,17.5951545400001,0
                104.43435025,17.5951621250001,0
                104.434268678,17.595180134,0
                104.434231929,17.5952001360001,0
                104.434177885,17.595244646,0
                104.434129743,17.5952917990001,0
                104.434072513,17.595346362,0
                104.434029036,17.595403333,0
                104.434028579,17.59540408,0
                104.433980643,17.595481922,0
                104.433938802,17.595525799,0
                104.433878872,17.5955725380001,0
                104.433805363,17.595619238,0
                104.433680597,17.595688807,0
                104.43357924,17.595754245,0
                104.433548117,17.5957652220001,0
                104.433322744,17.5959091280001,0
                104.433242599,17.595956578,0
                104.433166329,17.595995456,0
                104.43299938,17.5960807540001,0
                104.432917926,17.5961273080001,0
                104.432874732,17.59615082,0
                104.432488273,17.5964401730001,0
                104.432273565,17.5966288760001,0
                104.431902655,17.596941755,0
                104.431388278,17.5974209290001,0
                104.431191722,17.597712142,0
                104.430968887,17.5980104240001,0
                104.430838685,17.598306156,0
                104.430736473,17.598651922,0
                104.430565888,17.5993679320001,0
                104.430453865,17.599828286,0
                104.430355794,17.600091375,0
                104.430153708,17.6004201850001,0
                104.429813813,17.600973218,0
                104.429731919,17.601125627,0
                104.429504374,17.6015491000001,0
                104.429306834,17.6020287470001,0
                104.429029131,17.6024851990001,0
                104.428933657,17.6028350170001,0
                104.428755028,17.6033564840001,0
                104.428633702,17.603571475,0
                104.428328768,17.6038139240001,0
                104.428059925,17.604027672,0
                104.428040071,17.6040415520001,0
                104.427757219,17.6042392460001,0
                104.42755156,17.604448145,0
                104.427350668,17.6045214220001,0
                104.426883826,17.6045596920001,0
                104.426514289,17.6046037450001,0
                104.426428238,17.6046000100001,0
                104.426036851,17.604583029,0
                104.424890413,17.604631548,0
                104.420447518,17.6045845240001,0
                104.415863684,17.604549739,0
                104.415772895,17.6041711720001,0
                104.415619584,17.6037689190001,0
                104.415217694,17.6030263120001,0
                104.414754551,17.6023023220001,0
                104.414685236,17.602161661,0
                104.413692348,17.600146754,0
                104.412713874,17.598132832,0
                104.41213779,17.596878444,0
                104.41205395,17.596734064,0
                104.411653756,17.596044926,0
                104.411599515,17.595981637,0
                104.411370153,17.595713991,0
                104.410933789,17.595294102,0
                104.410292996,17.594829014,0
                104.409663304,17.5944398350001,0
                104.409350479,17.5943129300001,0
                104.409110509,17.59426024,0
                104.408872301,17.5942667790001,0
                104.408388833,17.5943393270001,0
                104.407809334,17.5944483850001,0
                104.406889536,17.594693799,0
                104.40627676,17.594871509,0
                104.405489548,17.595121745,0
                104.404407163,17.595540972,0
                104.403848826,17.595767994,0
                104.403030959,17.5961749250001,0
                104.40194722,17.596857319,0
                104.401325643,17.5972529060001,0
                104.400044752,17.5983180010001,0
                104.397906662,17.5998819660001,0
                104.397434699,17.6003702780001,0
                104.396981865,17.600884475,0
                104.396798422,17.601197621,0
                104.396698056,17.6015260930001,0
                104.39666648,17.6017354530001,0
                104.396636733,17.6019327270001,0
                104.39658825,17.602462256,0
                104.396596896,17.603368763,0
                104.396611834,17.603870145,0
                104.396677088,17.604211686,0
                104.396834323,17.6045595140001,0
                104.397663768,17.606209414,0
                104.397877877,17.606617301,0
                104.398039055,17.6070970660001,0
                104.398116633,17.6075439090001,0
                104.398105635,17.6080988210001,0
                104.398061797,17.608631906,0
                104.398058471,17.608672331,0
                104.397989029,17.6091144000001,0
                104.397762348,17.609516764,0
                104.397533302,17.609839966,0
                104.397291941,17.6100578590001,0
                104.396968284,17.610286817,0
                104.396534821,17.6105275830001,0
                104.395954863,17.610781171,0
                104.395102078,17.61112146,0
                104.391978678,17.6119729230001,0
                104.390174012,17.612409691,0
                104.388688287,17.6127672850001,0
                104.388015528,17.6129881800001,0
                104.387555043,17.613247277,0
                104.387204374,17.6134945690001,0
                104.386918437,17.613757692,0
                104.386553865,17.6141550190001,0
                104.38619296,17.6146754960001,0
                104.385840441,17.6151693320001,0
                104.385630758,17.615527211,0
                104.385415831,17.6160172830001,0
                104.385142708,17.6167114240001,0
                104.385000379,17.6171730990001,0
                104.384967189,17.6173077670001,0
                104.384902933,17.6175684720001,0
                104.384902079,17.6175719440001,0
                104.384900775,17.617692123,0
                104.384894712,17.618250016,0
                104.38490543,17.6189187890001,0
                104.38498298,17.6196737650001,0
                104.385200725,17.621129184,0
                104.385347442,17.6226657780001,0
                104.385404296,17.623342087,0
                104.385396676,17.624011362,0
                104.38530073,17.624797496,0
                104.385178838,17.625329041,0
                104.384752897,17.626441136,0
                104.384376234,17.627358203,0
                104.384027617,17.6279839900001,0
                104.383481895,17.628773632,0
                104.382565797,17.6300752080001,0
                104.382153083,17.630621849,0
                104.381025526,17.632348329,0
                104.377332592,17.637511881,0
                104.376084244,17.6394023880001,0
                104.376032979,17.639480023,0
                104.375585505,17.640191207,0
                104.37524392,17.6407341030001,0
                104.375030517,17.641276958,0
                104.37488027,17.642090995,0
                104.374844309,17.6430427670001,0
                104.374849768,17.643843744,0
                104.374895869,17.6444675400001,0
                104.375123596,17.645640992,0
                104.375445959,17.6469087,0
                104.375727438,17.648036661,0
                104.375945953,17.648523127,0
                104.376012616,17.6486715240001,0
                104.376369882,17.6492603950001,0
                104.376760446,17.6497339060001,0
                104.377121132,17.650129,0
                104.377579353,17.6505352670001,0
                104.381257483,17.649185554,0
                104.38346271,17.6491486570001,0
                104.385031072,17.649129193,0
                104.387020037,17.6492392050001,0
                104.388614985,17.649289491,0
                104.390184032,17.6492934680001,0
                104.391313579,17.649356492,0
                104.392522369,17.6494851470001,0
                104.393897413,17.6496851480001,0
                104.395647731,17.650013153,0
                104.399099393,17.6506704500001,0
                104.400506799,17.651007829,0
                104.401377441,17.6514304560001,0
                104.40302146,17.65230188,0
                104.404566815,17.6531525,0
                104.405835709,17.653775678,0
                104.407825501,17.6547315450001,0
                104.409619352,17.655692786,0
                104.410917698,17.656479631,0
                104.411443347,17.6568412,0
                104.411722233,17.6573012060001,0
                104.412011089,17.657789178,0
                104.412746931,17.6594376030001,0
                104.413150973,17.660648617,0
                104.413791499,17.662188622,0
                104.413878909,17.662333958,0
                104.413985671,17.662455633,0
                104.414035031,17.662490088,0
                104.414084437,17.662514006,0
                104.41410635,17.662535178,0
                104.414294603,17.6629049860001,0
                104.414327243,17.6629947480001,0
                104.414340725,17.663060709,0
                104.414342907,17.6632004460001,0
                104.414325737,17.663363845,0
                104.414308902,17.66344551,0
                104.414261758,17.663542884,0
                104.414231137,17.6636324090001,0
                104.414222671,17.6636851060001,0
                104.414219655,17.6637510080001,0
                104.41419646,17.6640435680001,0
                104.414171077,17.664199024,0
                104.414095287,17.6645757520001,0
                104.414078678,17.664602057,0
                104.414056624,17.664615156,0
                104.413899489,17.6647068450001,0
                104.413866327,17.664746269,0
                104.413841222,17.664833178,0
                104.41379625,17.6650702950001,0
                104.413779404,17.6651545990001,0
                104.413779212,17.665202052,0
                104.413784551,17.6652416200001,0
                104.413803584,17.6652944190001,0
                104.413826868,17.665337014,0
                104.413980114,17.6656760060001,0
                104.414052277,17.6658664620001,0
                104.414072359,17.6659504460001,0
                104.414103756,17.6661211690001,0
                104.414140421,17.66643176,0
                104.414163296,17.666546521,0
                104.414195147,17.666605374,0
                104.414256119,17.6666783200001,0
                104.414505849,17.666967324,0
                104.414540701,17.66700661,0
                104.414569659,17.6670598600001,0
                104.414601252,17.6671830400001,0
                104.414661862,17.667345482,0
                104.41477194,17.667538881,0
                104.414864824,17.667656691,0
                104.415027502,17.667830705,0
                104.415265714,17.668083304,0
                104.415352933,17.6681591460001,0
                104.415512848,17.668293992,0
                104.4155651,17.668358509,0
                104.415617163,17.6684705820001,0
                104.415678038,17.668568696,0
                104.415811367,17.668784553,0
                104.4158897,17.6688939200001,0
                104.416037641,17.6691042360001,0
                104.416130546,17.6692164570001,0
                104.416179985,17.669255794,0
                104.416232381,17.6692867560001,0
                104.41633438,17.669315102,0
                104.41658216,17.6693663620001,0
                104.416771551,17.6694285950001,0
                104.417246509,17.6695785840001,0
                104.417383385,17.669640621,0
                104.417491046,17.669710944,0
                104.417741299,17.6698740850001,0
                104.417977021,17.6700231950001,0
                104.418049823,17.6700570240001,0
                104.418163481,17.670088208,0
                104.418256763,17.6701081300001,0
                104.418358876,17.670108509,0
                104.418533993,17.670092373,0
                104.418770371,17.67007926,0
                104.41902994,17.670102593,0
                104.419304015,17.670145554,0
                104.419525547,17.67019672,0
                104.419956788,17.670335354,0
                104.420189751,17.67044529,0
                104.42062943,17.670662269,0
                104.421022645,17.6708259380001,0
                104.421264519,17.6708967480001,0
                104.421558824,17.670990133,0
                104.421678249,17.671038117,0
                104.421806425,17.671088931,0
                104.421902477,17.6711452210001,0
                104.421989714,17.671218261,0
                104.422105834,17.6713641310001,0
                104.422210274,17.671512749,0
                104.423169132,17.6719528290001,0
                104.424465525,17.6725442690001,0
                104.427744854,17.673611302,0
                104.4305583,17.6743567190001,0
                104.433897492,17.675627784,0
                104.436921923,17.6771390380001,0
                104.439869053,17.678755278,0
                104.442562478,17.6799668780001,0
                104.44664056,17.681705967,0
                104.448367718,17.6828332440001,0
                104.450783318,17.679510543,0
                104.452531014,17.676963605,0
                104.454086611,17.67431871,0
                104.455840369,17.671674345,0
                104.457584229,17.6691359060001,0
                104.459139202,17.666649912,0
                104.46013767,17.665434012,0
                104.460747987,17.6646409190001,0
                104.46130287,17.6639006520001,0
                104.461484704,17.663629589,0
                104.46184186,17.663238709,0
                104.462092866,17.663075072,0
                104.462423019,17.6628990030001,0
                104.462595058,17.662684588,0
                104.462740506,17.6625459410001,0
                104.463006807,17.662364628,0
                104.464105044,17.6609528770001,0
                104.465347569,17.659092629,0
                104.466057762,17.6579650850001,0
                104.466513951,17.656664501,0
                104.466703111,17.6564765300001,0
                104.468055084,17.6551641930001,0
                104.468745482,17.654518781,0
                104.470214178,17.6534625890001,0
                104.471185099,17.6524751220001,0
                104.471760586,17.6520129080001,0
                104.473070971,17.651184647,0
                104.473958377,17.650886008,0
                104.474173743,17.6508242210001,0
                104.475221803,17.6505567570001,0
                104.475974065,17.650369014,0
                104.476685608,17.6500443150001,0
                104.477613953,17.6497692040001,0
                104.479645023,17.648955024,0
                104.480731642,17.648318005,0
                104.481338016,17.6479256540001,0
                104.481416216,17.647906161,0
                104.481811315,17.6478236620001,0
                104.482171344,17.647813618,0
                104.482466406,17.6477100820001,0
                104.482719163,17.6474409480001,0
                104.483430312,17.6467182440001,0
                104.484178828,17.6458441660001,0
                104.484599655,17.6454804530001,0
                104.486753317,17.643525922,0
                104.487292354,17.643145052,0
                104.488765832,17.6421054840001,0
                104.491136028,17.6407504630001,0
                104.492162595,17.6400944320001,0
              </coordinates>
                
            </LinearRing>
            
          </outerBoundaryIs>
        
        </Polygon>
        
      <styleUrl>
        #tambonStyle</styleUrl>
    </Placemark>

  </Document>
</kml>