<?xml version="1.0" encoding="UTF-8"?>
<kml xmlns="http://www.opengis.net/kml/2.2">
  <Document id="tambon_doc">
    <name>ทะเลทรัพย์, ปะทิว, Chumphon</name>
    <description>ข้อมูลขอบเขตตำบลทะเลทรัพย์ อำเภอปะทิว จังหวัดChumphon</description>
    
    <!-- Schema สำหรับข้อมูลตำบล -->
    <Schema id="tambon.schema">
      <SimpleField name="ADM3_EN" type="string">
        <displayName>Subdistrict Name (English)</displayName>
      </SimpleField>
      <SimpleField name="ADM3_TH" type="string">
        <displayName>ชื่อตำบล</displayName>
      </SimpleField>
      <SimpleField name="ADM2_EN" type="string">
        <displayName>District Name (English)</displayName>
      </SimpleField>
      <SimpleField name="ADM2_TH" type="string">
        <displayName>ชื่ออำเภอ</displayName>
      </SimpleField>
      <SimpleField name="ADM1_EN" type="string">
        <displayName>Province Name (English)</displayName>
      </SimpleField>
      <SimpleField name="ADM1_TH" type="string">
        <displayName>ชื่อจังหวัด</displayName>
      </SimpleField>
      <SimpleField name="ADM0_EN" type="string">
        <displayName>Country Name (English)</displayName>
      </SimpleField>
      <SimpleField name="ADM0_TH" type="string">
        <displayName>ชื่อประเทศ</displayName>
      </SimpleField>
    </Schema>

    <!-- Style สำหรับตำบล -->
    <Style id="tambonStyle">
      <LineStyle>
        <color>ffff0000</color>
        <width>1.5</width>
      </LineStyle>
      <PolyStyle>
        <color>33ff0000</color>
        <fill>1</fill>
        <outline>1</outline>
      </PolyStyle>
    </Style>

    <Placemark id="Chumphon.29">
        
        <ExtendedData>
            
          <SchemaData schemaUrl="#tambon.schema">
                
            <SimpleData name="Shape_Leng">
                0.412081161326</SimpleData>
                
            <SimpleData name="Shape_Area">
                0.00678092738842</SimpleData>
                
            <SimpleData name="ADM3_EN">
                Thale Sap</SimpleData>
                
            <SimpleData name="ADM3_TH">
                ทะเลทรัพย์</SimpleData>
                
            <SimpleData name="ADM3_PCODE">
                TH860302</SimpleData>
                
            <SimpleData name="ADM2_EN">
                Pathio</SimpleData>
                
            <SimpleData name="ADM2_TH">
                ปะทิว</SimpleData>
                
            <SimpleData name="ADM2_PCODE">
                TH8603</SimpleData>
                
            <SimpleData name="ADM1_EN">
                Chumphon</SimpleData>
                
            <SimpleData name="ADM1_TH">
                ชุมพร</SimpleData>
                
            <SimpleData name="ADM1_PCODE">
                TH86</SimpleData>
                
            <SimpleData name="ADM0_EN">
                Thailand</SimpleData>
                
            <SimpleData name="ADM0_TH">
                ประเทศไทย</SimpleData>
                
            <SimpleData name="ADM0_PCODE">
                TH</SimpleData>
            
          </SchemaData>
        
        </ExtendedData>
        
        <Polygon>
            
          <outerBoundaryIs>
                
            <LinearRing>
                    
              <coordinates>
                    
                99.2467506870001,10.7775018670001,0
                99.2620845170001,10.7677327650001,0
                99.2756740710001,10.7587277440001,0
                99.2834109630001,10.7576809980001,0
                99.283498132,10.757607927,0
                99.2836725450001,10.75754805,0
                99.2840079960001,10.7574813910001,0
                99.2843702860001,10.757408076,0
                99.2847190990001,10.7572750460001,0
                99.2848197010001,10.7572152390001,0
                99.284920249,10.757102344,0
                99.2850676640001,10.7568766110001,0
                99.285255239,10.756538038,0
                99.2855299820001,10.7561396630001,0
                99.2857109190001,10.7558807250001,0
                99.2860193540001,10.7556282950001,0
                99.28624053,10.7553494100001,0
                99.2865355640001,10.7551102670001,0
                99.2867635540001,10.7549441740001,0
                99.2869244550001,10.7547914150001,0
                99.2872192730001,10.7543266700001,0
                99.2873597610001,10.7538819750001,0
                99.287399636,10.7534705520001,0
                99.2873921350001,10.7526345090001,0
                99.2874387750001,10.7522894300001,0
                99.287485201,10.751705482,0
                99.2876256090001,10.7511745260001,0
                99.2876989430001,10.750670175,0
                99.287711996,10.750278682,0
                99.2877519770001,10.749986689,0
                99.2878724980001,10.7497078960001,0
                99.2880266400001,10.7495020590001,0
                99.2882265270001,10.749436781,0
                99.288416618,10.7494531720001,0
                99.28843206,10.7494536610001,0
                99.288493401,10.7494536040001,0
                99.288571985,10.7494448960001,0
                99.2886505500001,10.749431015,0
                99.288855885,10.7493939870001,0
                99.2891891800001,10.74933767,0
                99.2893023660001,10.749318359,0
                99.2893673950001,10.7493030960001,0
                99.2893854550001,10.7492980000001,0
                99.289590838,10.7492225610001,0
                99.2897229540001,10.749175393,0
                99.289821927,10.749148271,0
                99.2900433200001,10.7491212570001,0
                99.290223826,10.749115913,0
                99.290286811,10.749109081,0
                99.290379413,10.749093891,0
                99.2904081390001,10.749087004,0
                99.2904698450001,10.7490675020001,0
                99.290503077,10.749052131,0
                99.2905957350001,10.7490073020001,0
                99.290671848,10.748962481,0
                99.2908104840001,10.7488786910001,0
                99.2908477450001,10.7488607280001,0
                99.2908714180001,10.748851705,0
                99.291108976,10.748797698,0
                99.291120875,10.748793993,0
                99.2912764580001,10.7487632890001,0
                99.2915512200001,10.7487073770001,0
                99.2917244540001,10.7486711940001,0
                99.2919616760001,10.748604404,0
                99.29210828,10.748548488,0
                99.2922009950001,10.748506139,0
                99.2924081020001,10.748401266,0
                99.292457535,10.748370449,0
                99.2925868770001,10.7482580670001,0
                99.2926184710001,10.74822313,0
                99.2926207250001,10.748220638,0
                99.29263223,10.7482020780001,0
                99.292654348,10.7481606690001,0
                99.2927013230001,10.74806933,0
                99.2927205180001,10.748016582,0
                99.2927266350001,10.7479940480001,0
                99.2927362360001,10.7479587180001,0
                99.2927549730001,10.747853723,0
                99.2927808920001,10.747602764,0
                99.2927941400001,10.7475391400001,0
                99.292802587,10.747520142,0
                99.2928098790001,10.747512076,0
                99.292838761,10.7474913510001,0
                99.2928503940001,10.7474858580001,0
                99.292905675,10.747462877,0
                99.2929644980001,10.7474249910001,0
                99.293010957,10.747384572,0
                99.293045803,10.7473673060001,0
                99.2930521870001,10.747365195,0
                99.2930902250001,10.7473557540001,0
                99.2931154280001,10.7473527930001,0
                99.2931865670001,10.747350597,0
                99.2932624310001,10.747347937,0
                99.2933370540001,10.747347867,0
                99.293361792,10.747345266,0
                99.2933983830001,10.747336186,0
                99.2934260520001,10.747323588,0
                99.293463817,10.747296014,0
                99.293497674,10.7472669380001,0
                99.293523103,10.7472502640001,0
                99.2935616670001,10.7472270600001,0
                99.2936002490001,10.747209368,0
                99.293638994,10.7471949550001,0
                99.2936844230001,10.747172441,0
                99.2937136470001,10.7471538670001,0
                99.2937174250001,10.747150913,0
                99.293722733,10.7471456540001,0
                99.293744432,10.747114482,0
                99.293746641,10.7471103030001,0
                99.293770071,10.747062074,0
                99.2938040650001,10.7470079870001,0
                99.2938312040001,10.746967135,0
                99.2938723460001,10.7469050080001,0
                99.2939389730001,10.7468254,0
                99.2939673330001,10.746791494,0
                99.2940178090001,10.746740829,0
                99.294140886,10.746638949,0
                99.2941574660001,10.7466295620001,0
                99.2941696570001,10.7466232960001,0
                99.2941949620001,10.7466150870001,0
                99.2942721050001,10.7466048480001,0
                99.294307071,10.746605292,0
                99.2943444800001,10.7466098400001,0
                99.2943578630001,10.7466128500001,0
                99.294432123,10.746635483,0
                99.2944426970001,10.7466413500001,0
                99.294483433,10.7466689520001,0
                99.2944951170001,10.746680172,0
                99.294570826,10.746813843,0
                99.2945888900001,10.7468594260001,0
                99.29460914,10.7469360490001,0
                99.294612541,10.7469527750001,0
                99.294613284,10.7469550590001,0
                99.2946172410001,10.746964215,0
                99.2946215530001,10.7469719150001,0
                99.2946328930001,10.746987586,0
                99.2946432190001,10.7469967550001,0
                99.294651452,10.74700281,0
                99.2946943540001,10.7470256030001,0
                99.2947475540001,10.7470477520001,0
                99.2948460800001,10.7470855390001,0
                99.2948595880001,10.7470919790001,0
                99.2948968380001,10.7471140260001,0
                99.2949049920001,10.7471195860001,0
                99.2950078590001,10.747202191,0
                99.295021122,10.747216817,0
                99.2950242100001,10.747221063,0
                99.295067954,10.747292186,0
                99.295104828,10.7473415210001,0
                99.2952016240001,10.747454286,0
                99.2953194680001,10.7475764070001,0
                99.2953664680001,10.7476582420001,0
                99.295386292,10.747692752,0
                99.295433437,10.74775091,0
                99.2954553760001,10.7477702850001,0
                99.2954615350001,10.747774454,0
                99.2954750650001,10.747780613,0
                99.295478626,10.747782231,0
                99.295506775,10.7477895690001,0
                99.2955104690001,10.7477901240001,0
                99.295530656,10.7477931400001,0
                99.2955448530001,10.747795264,0
                99.2955625910001,10.7477976170001,0
                99.295580692,10.747802569,0
                99.2955928760001,10.7478107700001,0
                99.2956102810001,10.747828763,0
                99.2956260600001,10.7478515810001,0
                99.295635195,10.747867598,0
                99.295686313,10.747974261,0
                99.295709263,10.748011809,0
                99.2957829220001,10.748120471,0
                99.2958425460001,10.7481953710001,0
                99.2958498260001,10.7482020460001,0
                99.295861658,10.748209822,0
                99.295875945,10.748214196,0
                99.295883077,10.748215649,0
                99.2959239570001,10.748218496,0
                99.295957919,10.7482152580001,0
                99.295972599,10.7482072010001,0
                99.2959803040001,10.748199571,0
                99.295985693,10.748191837,0
                99.2959962250001,10.7481537680001,0
                99.2959984270001,10.7481262370001,0
                99.29599835,10.7480476920001,0
                99.2959982820001,10.7479784060001,0
                99.296000269,10.7479549190001,0
                99.296003387,10.747942306,0
                99.2960107260001,10.747924289,0
                99.2960200780001,10.747907976,0
                99.296022156,10.747904351,0
                99.2960310710001,10.747895177,0
                99.2960516420001,10.747879085,0
                99.296060249,10.7478738030001,0
                99.296066624,10.7478705730001,0
                99.2961184070001,10.7478573540001,0
                99.2961264150001,10.7478567810001,0
                99.2961422420001,10.747856766,0
                99.2961677910001,10.747861652,0
                99.2961902900001,10.7478693950001,0
                99.296209725,10.747879315,0
                99.2962378120001,10.747902814,0
                99.2962748950001,10.7479407160001,0
                99.2963377250001,10.747989159,0
                99.2963941460001,10.748019249,0
                99.2964187640001,10.7480292060001,0
                99.2964444260001,10.7480340920001,0
                99.2964799540001,10.7480345750001,0
                99.2965261250001,10.7480297220001,0
                99.2965526240001,10.7480261260001,0
                99.2966075080001,10.748010161,0
                99.29740065,10.747725863,0
                99.2974677830001,10.7476935990001,0
                99.297516386,10.747663075,0
                99.2975236450001,10.7476585160001,0
                99.2975396470001,10.747647364,0
                99.2975933610001,10.7476099040001,0
                99.2975952530001,10.747608262,0
                99.2976096500001,10.747594511,0
                99.2976701570001,10.7475207250001,0
                99.2976841030001,10.747502963,0
                99.2977121920001,10.7474758070001,0
                99.2977386600001,10.7474553220001,0
                99.2977403830001,10.747454008,0
                99.297766691,10.747439108,0
                99.297804849,10.747423527,0
                99.297825006,10.74741807,0
                99.297887093,10.747413292,0
                99.2978917490001,10.7474133420001,0
                99.2979149270001,10.7474158630001,0
                99.297942134,10.747419349,0
                99.2980363880001,10.747440758,0
                99.2981099300001,10.7474497760001,0
                99.29822942,10.7474436040001,0
                99.2983243930001,10.747437453,0
                99.2983870520001,10.7474352570001,0
                99.2984286770001,10.747436426,0
                99.2985021150001,10.747446371,0
                99.298586346,10.747468634,0
                99.2986028290001,10.7474739410001,0
                99.2986493660001,10.747493831,0
                99.2986697170001,10.7475034120001,0
                99.29885862,10.747610717,0
                99.2990752910001,10.747733796,0
                99.2991145120001,10.7477531440001,0
                99.299170798,10.747770895,0
                99.2991827870001,10.7477737030001,0
                99.2992102110001,10.7477759380001,0
                99.2992684280001,10.747775882,0
                99.2993297040001,10.7477727940001,0
                99.2994430360001,10.7477423890001,0
                99.2996758990001,10.7476701750001,0
                99.299714361,10.74765173,0
                99.2999055000001,10.747545003,0
                99.300044529,10.747451604,0
                99.3001241000001,10.7473860380001,0
                99.3002392020001,10.7472719960001,0
                99.300296857,10.747206712,0
                99.3003098720001,10.7471886500001,0
                99.3003893370001,10.747057495,0
                99.3004117010001,10.7470205810001,0
                99.3004163160001,10.7470107930001,0
                99.3004563900001,10.7469173060001,0
                99.30046887,10.7468730570001,0
                99.3004723540001,10.7468532180001,0
                99.3004736930001,10.746834871,0
                99.300473664,10.7468053800001,0
                99.3004736620001,10.746803987,0
                99.300469159,10.7467734850001,0
                99.3004650720001,10.7467613970001,0
                99.3004552070001,10.746740677,0
                99.3004347360001,10.7467113020001,0
                99.3004099230001,10.746675505,0
                99.3003965820001,10.746652839,0
                99.3003926270001,10.746643927,0
                99.3003878550001,10.7466227800001,0
                99.300385938,10.746608281,0
                99.300385922,10.746592473,0
                99.3003884610001,10.746575724,0
                99.300390996,10.7465656430001,0
                99.3003961270001,10.7465534740001,0
                99.300406846,10.746536554,0
                99.300436317,10.7465019480001,0
                99.300470557,10.7464726970001,0
                99.3005571400001,10.7464123080001,0
                99.3005625770001,10.746407622,0
                99.3005719710001,10.7463980740001,0
                99.3005812700001,10.746382714,0
                99.3005874550001,10.7463642920001,0
                99.3006088670001,10.746217512,0
                99.3006104280001,10.746206504,0
                99.30061613,10.7461803200001,0
                99.3006198670001,10.7461671130001,0
                99.3006314140001,10.7461371430001,0
                99.3006509460001,10.7461027840001,0
                99.300664585,10.746086506,0
                99.3007053600001,10.746051585,0
                99.3007133420001,10.7460451750001,0
                99.3007322930001,10.746033756,0
                99.300747351,10.746026296,0
                99.300757086,10.7460226470001,0
                99.3007719610001,10.746019479,0
                99.3007797700001,10.7460189770001,0
                99.3008049100001,10.74601711,0
                99.3009121570001,10.7460148550001,0
                99.3011320990001,10.7460207460001,0
                99.3011492250001,10.7460201390001,0
                99.3011629420001,10.7460187020001,0
                99.3011766930001,10.7460154890001,0
                99.301184494,10.7460131080001,0
                99.3011903830001,10.7460103830001,0
                99.301193761,10.7460077060001,0
                99.3011962730001,10.746005715,0
                99.3011966660001,10.7460052390001,0
                99.3012015670001,10.7459993040001,0
                99.3012052990001,10.7459946380001,0
                99.3012113770001,10.74598453,0
                99.3012120330001,10.7459839310001,0
                99.301213928,10.745980128,0
                99.3015434900001,10.745296984,0
                99.3015545090001,10.7452771640001,0
                99.301566935,10.7452356850001,0
                99.3015795860001,10.745175338,0
                99.301583356,10.7451313350001,0
                99.3015946550001,10.7449892710001,0
                99.3015948280001,10.7449879710001,0
                99.301613042,10.744918994,0
                99.3016223340001,10.74489535,0
                99.301625067,10.744889931,0
                99.301646545,10.7448522710001,0
                99.3016859910001,10.7447982940001,0
                99.301744135,10.744728551,0
                99.302007384,10.744476827,0
                99.3020230430001,10.744460368,0
                99.3020475010001,10.744434804,0
                99.3021872030001,10.744261443,0
                99.3021975410001,10.7442435130001,0
                99.3021996860001,10.744239652,0
                99.3022060150001,10.7442271040001,0
                99.302211964,10.744206584,0
                99.3022262470001,10.7441388880001,0
                99.302226987,10.744122271,0
                99.3022269300001,10.74406472,0
                99.3022251900001,10.744047026,0
                99.302218408,10.74401633,0
                99.3022008080001,10.743975828,0
                99.3021886160001,10.743956816,0
                99.302108161,10.7438489940001,0
                99.3020902200001,10.743816128,0
                99.3020882320001,10.7438104620001,0
                99.302082838,10.743791871,0
                99.3020565210001,10.7436109380001,0
                99.3020543090001,10.743558168,0
                99.30205483,10.743541582,0
                99.3020732950001,10.743402745,0
                99.302092207,10.743244336,0
                99.302092148,10.7431852340001,0
                99.3020903670001,10.743167768,0
                99.302090164,10.7431669270001,0
                99.302071749,10.743124929,0
                99.30193065,10.742872769,0
                99.301914594,10.742832902,0
                99.3019036960001,10.7427850890001,0
                99.301901279,10.74276615,0
                99.3019022610001,10.742709625,0
                99.3019120310001,10.7426300820001,0
                99.3019427130001,10.742479954,0
                99.3019923950001,10.7423000900001,0
                99.3020096280001,10.742250756,0
                99.302144291,10.7419485070001,0
                99.30215436,10.7419155960001,0
                99.302165571,10.7418363100001,0
                99.302184164,10.741571102,0
                99.3021862570001,10.741544972,0
                99.3021967240001,10.741413955,0
                99.3021961470001,10.741332921,0
                99.302194877,10.741322546,0
                99.302189393,10.741298262,0
                99.3021967020001,10.74125823,0
                99.3022196350001,10.741205914,0
                99.302263198,10.7411281990001,0
                99.302322227,10.741033295,0
                99.302393904,10.740918064,0
                99.3024635950001,10.740791415,0
                99.3024983870001,10.740670558,0
                99.3025302400001,10.740520933,0
                99.302535924,10.7403828380001,0
                99.302553231,10.740236103,0
                99.3025665230001,10.740198429,0
                99.302586337,10.7401683250001,0
                99.3026636480001,10.740106543,0
                99.302759607,10.7400632970001,0
                99.3028963070001,10.740031518,0
                99.303837172,10.739814848,0
                99.304033652,10.7397413890001,0
                99.304589917,10.7394977860001,0
                99.3046622990001,10.739456069,0
                99.3047062080001,10.7394234390001,0
                99.3047740590001,10.73935621,0
                99.3048632460001,10.7392314300001,0
                99.304905154,10.7391015050001,0
                99.3048997450001,10.7389508430001,0
                99.3048417630001,10.738758671,0
                99.304715447,10.738535391,0
                99.304675822,10.7384328320001,0
                99.3046732810001,10.738402196,0
                99.3046732220001,10.7383432,0
                99.3047246190001,10.7380437140001,0
                99.3047463460001,10.7379171050001,0
                99.3047877440001,10.7372832290001,0
                99.304819089,10.7371065510001,0
                99.3048767350001,10.7369610220001,0
                99.305039374,10.736732267,0
                99.3051371640001,10.7365619870001,0
                99.3052267470001,10.736406011,0
                99.305253335,10.7363821870001,0
                99.3054119440001,10.7362850980001,0
                99.305579945,10.73616544,0
                99.3057479490001,10.7360457790001,0
                99.305842483,10.7360145110001,0
                99.3060001060001,10.736024749,0
                99.3060999310001,10.736024651,0
                99.3062049850001,10.7360037670001,0
                99.3063047860001,10.7359880820001,0
                99.3064256270001,10.7359879630001,0
                99.3065517490001,10.7360190090001,0
                99.3067211870001,10.736071742,0
                99.306798513,10.7360786630001,0
                99.3068512730001,10.7360758630001,0
                99.306893001,10.7360593120001,0
                99.3069106400001,10.7360459770001,0
                99.306951014,10.7359926410001,0
                99.3069681700001,10.7359176140001,0
                99.3069735620001,10.7357641030001,0
                99.3069735450001,10.735747337,0
                99.3069731990001,10.7354047690001,0
                99.3069730710001,10.7352779230001,0
                99.3069762980001,10.735199403,0
                99.3069787510001,10.735139829,0
                99.307001879,10.734993087,0
                99.30700469,10.73489815,0
                99.3069579660001,10.73471984,0
                99.306887912,10.73448976,0
                99.3067970340001,10.7343232700001,0
                99.3067043,10.7341533590001,0
                99.306684638,10.7340807370001,0
                99.3066809380001,10.7340670780001,0
                99.306657591,10.733992302,0
                99.306657526,10.7339273590001,0
                99.3066575190001,10.733920385,0
                99.306657783,10.733919251,0
                99.3066748990001,10.733845569,0
                99.306688238,10.7338131020001,0
                99.3067068220001,10.7337678650001,0
                99.3067358580001,10.733713177,0
                99.3067385140001,10.7336650290001,0
                99.3067387140001,10.7336613910001,0
                99.3067385090001,10.733660581,0
                99.306718264,10.7335808610001,0
                99.3067031400001,10.7335089210001,0
                99.3067007260001,10.7334974520001,0
                99.3067093880001,10.733431275,0
                99.306732588,10.7333593320001,0
                99.3067761730001,10.7333075060001,0
                99.3068023260001,10.733275834,0
                99.3068575820001,10.733261396,0
                99.306956471,10.7332382860001,0
                99.307032103,10.7332324550001,0
                99.307081521,10.733197886,0
                99.3071221870001,10.733137436,0
                99.3071337050001,10.7330194730001,0
                99.3071219280001,10.7328813980001,0
                99.3070927260001,10.7327749840001,0
                99.307083714,10.73275784,0
                99.3070519250001,10.732697354,0
                99.3069179300001,10.732524879,0
                99.306903349,10.7324874920001,0
                99.306900414,10.7324616060001,0
                99.3069178200001,10.732415556,0
                99.3069288450001,10.732404178,0
                99.3069875670001,10.732343569,0
                99.307234593,10.732101673,0
                99.3072868770001,10.7320210710001,0
                99.3072926360001,10.7319664080001,0
                99.3072896690001,10.731905995,0
                99.3072692580001,10.7318571110001,0
                99.3072401310001,10.7318254940001,0
                99.3072390230001,10.7318236740001,0
                99.307213909,10.731782374,0
                99.3072138480001,10.7317219560001,0
                99.3072282270001,10.731555089,0
                99.307221423,10.731455715,0
                99.307209227,10.731277424,0
                99.307198697,10.731123597,0
                99.3072131800001,10.731060293,0
                99.3072422340001,10.7310257400001,0
                99.3072974770001,10.7309940390001,0
                99.307359992,10.7309939780001,0
                99.3073702020001,10.7309939680001,0
                99.3074458460001,10.730999651,0
                99.3075273270001,10.731025458,0
                99.307602961,10.7310253840001,0
                99.3076785410001,10.730967777,0
                99.3077395060001,10.730844011,0
                99.3077393980001,10.730737569,0
                99.3077393230001,10.7306627740001,0
                99.3076985120001,10.730582263,0
                99.3076286310001,10.730519042,0
                99.3075586780001,10.7303839030001,0
                99.307533828,10.730303244,0
                99.3075090630001,10.7302228500001,0
                99.3075085730001,10.730207598,0
                99.3075065840001,10.730144771,0
                99.307506055,10.730127919,0
                99.3075234400001,10.7300588590001,0
                99.307567034,10.730018537,0
                99.3076310110001,10.7299954650001,0
                99.3076804520001,10.729983905,0
                99.3079684160001,10.7299519760001,0
                99.3081051300001,10.729934578,0
                99.3081574810001,10.7299230240001,0
                99.308215605,10.7298711780001,0
                99.308397776,10.7296781370001,0
                99.308424835,10.7296494600001,0
                99.3085875120001,10.729419154,0
                99.3086247830001,10.7293899490001,0
                99.3087125040001,10.729321221,0
                99.3087822840001,10.7292866280001,0
                99.3089800600001,10.729246157,0
                99.3091836470001,10.729199922,0
                99.3091990760001,10.7291955150001,0
                99.3095268170001,10.7291017740001,0
                99.309631483,10.7290441330001,0
                99.309657638,10.729018216,0
                99.309683781,10.7289779170001,0
                99.309683723,10.7289203770001,0
                99.3096749100001,10.728836959,0
                99.3096688460001,10.7288192290001,0
                99.3095873770001,10.72858101,0
                99.309543541,10.728385433,0
                99.3095164330001,10.727476392,0
                99.30953385,10.7274360980001,0
                99.3096123050001,10.727352593,0
                99.3097896360001,10.7272287170001,0
                99.309926283,10.7271566580001,0
                99.3100076950001,10.7271134210001,0
                99.3100664880001,10.727003853,0
                99.3100802860001,10.726978144,0
                99.310126682,10.726831379,0
                99.3102195870001,10.726655801,0
                99.310295963,10.726561197,0
                99.3103125630001,10.726540636,0
                99.3103648750001,10.7264916780001,0
                99.310446314,10.7264772120001,0
                99.3106383090001,10.7264741440001,0
                99.3108393190001,10.726454883,0
                99.310850642,10.7264537940001,0
                99.310899873,10.7264386580001,0
                99.3110571230001,10.7263902980001,0
                99.3112519490001,10.7263124310001,0
                99.3114234760001,10.726211571,0
                99.31149903,10.726130944,0
                99.3115309610001,10.7260647470001,0
                99.311567982,10.725937194,0
                99.3116104140001,10.725800325,0
                99.3116049400001,10.7256529790001,0
                99.3115141150001,10.725305738,0
                99.3114019610001,10.72491116,0
                99.3112152370001,10.7244482400001,0
                99.3109432680001,10.7238906760001,0
                99.31083132,10.723696075,0
                99.3108044950001,10.723485597,0
                99.3108186100001,10.723464618,0
                99.3108576320001,10.723406606,0
                99.310931999,10.723280232,0
                99.3111712500001,10.723064225,0
                99.3113254350001,10.722932509,0
                99.3114157780001,10.722811376,0
                99.311426284,10.722674539,0
                99.3114153100001,10.722353533,0
                99.3113510890001,10.7219957450001,0
                99.311342734,10.7218801020001,0
                99.3113347710001,10.721769839,0
                99.311321879,10.7217278740001,0
                99.3112823970001,10.7211713930001,0
                99.3112942960001,10.7211032970001,0
                99.3113630490001,10.7210085020001,0
                99.3114168750001,10.720955164,0
                99.311424478,10.720951402,0
                99.3115890430001,10.7207313550001,0
                99.3116230850001,10.7206382210001,0
                99.311697042,10.7204640300001,0
                99.311718645,10.720413148,0
                99.3118644900001,10.720176963,0
                99.312068433,10.719890945,0
                99.3122407970001,10.7195754840001,0
                99.312313611,10.719332378,0
                99.31237939,10.718708302,0
                99.3123390120001,10.7181960020001,0
                99.3122521440001,10.717683745,0
                99.312225389,10.717499855,0
                99.3122385620001,10.7173947470001,0
                99.312318072,10.7172041810001,0
                99.31247726,10.7169938280001,0
                99.312636458,10.7167900420001,0
                99.3129349590001,10.7164153420001,0
                99.313147196,10.7161640960001,0
                99.3131774330001,10.7159141970001,0
                99.313272688,10.715619799,0
                99.313321735,10.715530652,0
                99.31333256,10.71543884,0
                99.3133351970001,10.7153470380001,0
                99.313356486,10.715081637,0
                99.3133984510001,10.714924217,0
                99.3133953970001,10.714847745,0
                99.3133828620001,10.71479902,0
                99.313336683,10.714778215,0
                99.3132988420001,10.7147745070001,0
                99.3132610310001,10.714800741,0
                99.3132081160001,10.714860667,0
                99.313162816,10.7149617490001,0
                99.3131174260001,10.7149767670001,0
                99.313045505,10.714954381,0
                99.3130000250001,10.714883329,0
                99.312981021,10.71479728,0
                99.3129733310001,10.714681285,0
                99.3129843710001,10.714378163,0
                99.3130368340001,10.714190649,0
                99.313044387,10.714073754,0
                99.3130218470001,10.7140226270001,0
                99.31300967,10.714007936,0
                99.3129650480001,10.713981518,0
                99.3128590970001,10.713981624,0
                99.3127872320001,10.7140078940001,0
                99.3127456560001,10.7140565830001,0
                99.312692751,10.714120252,0
                99.3126435940001,10.71415398,0
                99.3125792760001,10.7141615300001,0
                99.3124884160001,10.7141167120001,0
                99.312397526,10.714038219,0
                99.3123639350001,10.713971956,0
                99.312363399,10.7139708980001,0
                99.3123633980001,10.7139694420001,0
                99.3123633860001,10.713958452,0
                99.3123633700001,10.71394387,0
                99.3123868790001,10.713903739,0
                99.3126128470001,10.713689989,0
                99.313006032,10.71336403,0
                99.3131497400001,10.713289047,0
                99.3133729720001,10.7132663730001,0
                99.3136302790001,10.713273596,0
                99.3138043500001,10.713284646,0
                99.3139656860001,10.7133071980001,0
                99.3140328120001,10.7133181890001,0
                99.3143180980001,10.713373217,0
                99.3144356130001,10.713433934,0
                99.3144769070001,10.713449197,0
                99.31463038,10.713492392,0
                99.3147691710001,10.713481416,0
                99.3149298750001,10.713455965,0
                99.3152074380001,10.7133978850001,0
                99.3153316010001,10.7133652430001,0
                99.3154959930001,10.713372307,0
                99.3157407800001,10.713415406,0
                99.3159636540001,10.7134585320001,0
                99.3160805430001,10.7134548,0
                99.31627776,10.7134184760001,0
                99.316511495,10.7133676610001,0
                99.316737813,10.7132120910001,0
                99.3169132800001,10.713103797,0
                99.3171502200001,10.7129231270001,0
                99.317135943,10.7129082930001,0
                99.315312277,10.7090284760001,0
                99.3148509810001,10.708027526,0
                99.314712613,10.7077473640001,0
                99.3147103570001,10.7077423640001,0
                99.314474675,10.7072205380001,0
                99.3143168030001,10.7068206120001,0
                99.3142099190001,10.706533232,0
                99.3140324440001,10.705912917,0
                99.313823325,10.7051416960001,0
                99.313580146,10.7042291660001,0
                99.3132841340001,10.7032025290001,0
                99.3132969740001,10.7031716000001,0
                99.3133116690001,10.703136199,0
                99.313399975,10.7029234890001,0
                99.313420523,10.7028291020001,0
                99.313440025,10.7027548630001,0
                99.3134464180001,10.702625771,0
                99.3134561640001,10.7025838110001,0
                99.3134757030001,10.7025450680001,0
                99.313599589,10.702441675,0
                99.313726682,10.702286649,0
                99.31387003,10.7020702940001,0
                99.3139507170001,10.701882327,0
                99.314010002,10.70174422,0
                99.314009926,10.701670581,0
                99.314009909,10.70165386,0
                99.3139674320001,10.701595818,0
                99.3139477930001,10.701537748,0
                99.313950993,10.701476429,0
                99.313983599,10.701453809,0
                99.3140814850001,10.7014504810001,0
                99.3141498690001,10.7014327690001,0
                99.314156514,10.7014310440001,0
                99.3141760670001,10.7014052070001,0
                99.314183525,10.7013755720001,0
                99.3141890630001,10.7013535620001,0
                99.3141987990001,10.7013019180001,0
                99.314179144,10.701227714,0
                99.314110584,10.70118906,0
                99.313970264,10.7011762930001,0
                99.3138788730001,10.7011505680001,0
                99.3138200960001,10.701105447,0
                99.3137874010001,10.701044166,0
                99.313761184,10.7009344750001,0
                99.3137643620001,10.7008505650001,0
                99.3137806080001,10.700782782,0
                99.3138881530001,10.700653592,0
                99.313933734,10.700556733,0
                99.3139532070001,10.7004534500001,0
                99.313959636,10.700359856,0
                99.3139758660001,10.70027916,0
                99.314047584,10.700214551,0
                99.3142204320001,10.700127246,0
                99.314582483,10.699997796,0
                99.314709657,10.699916989,0
                99.3147944240001,10.6998523660001,0
                99.3148237290001,10.699791023,0
                99.3148236660001,10.6997297080001,0
                99.314774642,10.699655534,0
                99.314689758,10.6996072160001,0
                99.3146146130001,10.699513704,0
                99.3145949570001,10.6994395030001,0
                99.3145883490001,10.699358832,0
                99.314562197,10.69931045,0
                99.314549098,10.699262059,0
                99.3145457530001,10.699184614,0
                99.314597887,10.6991135660001,0
                99.3146500160001,10.699039289,0
                99.314663007,10.698977961,0
                99.314649886,10.6989134360001,0
                99.314636797,10.6988747240001,0
                99.3146399920001,10.6988101760001,0
                99.3146464610001,10.698752085,0
                99.3146790210001,10.698687509,0
                99.3149429200001,10.698303223,0
                99.315087282,10.698181973,0
                99.315135264,10.6981416730001,0
                99.3151710960001,10.6980835520001,0
                99.315180819,10.698019,0
                99.3151980420001,10.6977792600001,0
                99.3152065520001,10.6976607710001,0
                99.315212569,10.6971637990001,0
                99.315212333,10.6969346760001,0
                99.315225162,10.696721675,0
                99.315280575,10.696666759,0
                99.3153425560001,10.6966537910001,0
                99.3153947750001,10.6966666440001,0
                99.3154829490001,10.696740778,0
                99.315633145,10.696840663,0
                99.315740852,10.696869599,0
                99.31593338,10.696882314,0
                99.3161095730001,10.696878908,0
                99.3162987740001,10.696836766,0
                99.3164161980001,10.6967979190001,0
                99.316520611,10.696797813,0
                99.3166674490001,10.6968041170001,0
                99.3167784130001,10.6968298210001,0
                99.3170329450001,10.6968521540001,0
                99.3172157100001,10.69689392,0
                99.3173528040001,10.696942189,0
                99.317467068,10.6970033860001,0
                99.3175487460001,10.697103339,0
                99.3176076770001,10.697296905,0
                99.3176762640001,10.697361377,0
                99.317725281,10.697429093,0
                99.3177871500001,10.697492937,0
                99.3177971430001,10.6975032450001,0
                99.3178820570001,10.6975806090001,0
                99.3180028530001,10.6976450280001,0
                99.3181170820001,10.6976707260001,0
                99.3183651000001,10.6977059710001,0
                99.3184623650001,10.697705872,0
                99.3187109670001,10.697705618,0
                99.3189132800001,10.697718319,0
                99.319118932,10.697802014,0
                99.319262602,10.697898681,0
                99.3194193240001,10.697998555,0
                99.3198209240001,10.698246629,0
                99.3198618540001,10.698307911,0
                99.3199157000001,10.6983885240001,0
                99.3199907910001,10.698433627,0
                99.3200658650001,10.6984561360001,0
                99.3201931340001,10.69847537,0
                99.320304073,10.698472028,0
                99.3206938760001,10.6968096890001,0
                99.321031673,10.6953378010001,0
                99.3215156990001,10.69330425,0
                99.32147423,10.6932960890001,0
                99.3213035700001,10.6932625170001,0
                99.3210164370001,10.6932628120001,0
                99.3206966590001,10.693247007,0
                99.3202300090001,10.693186171,0
                99.319955871,10.6931348150001,0
                99.319636061,10.693086739,0
                99.3193325440001,10.6930160540001,0
                99.3190061940001,10.6929583030001,0
                99.3186700800001,10.6929199190001,0
                99.318366627,10.692913775,0
                99.3180468640001,10.692910872,0
                99.3177531920001,10.692898266,0
                99.3176781430001,10.6928918850001,0
                99.3176324490001,10.692879024,0
                99.3176169010001,10.692871354,0
                99.3175736840001,10.6928500400001,0
                99.3174985780001,10.692788803,0
                99.317426761,10.692756606,0
                99.3173451850001,10.6927534610001,0
                99.3172701660001,10.692776129,0
                99.3172212680001,10.6928213530001,0
                99.317194144,10.692871784,0
                99.3171431110001,10.692966654,0
                99.317029065,10.693115214,0
                99.316980168,10.6931604430001,0
                99.3169214640001,10.6931863180001,0
                99.3168203100001,10.693183193,0
                99.3166995660001,10.693163951,0
                99.3165886040001,10.693141477,0
                99.316535877,10.69314153,0
                99.3164972470001,10.693141569,0
                99.316441797,10.693160989,0
                99.316392906,10.693212671,0
                99.316391336,10.693220346,0
                99.3163571950001,10.6933869690001,0
                99.3163312760001,10.693564485,0
                99.316301997,10.693645191,0
                99.31627267,10.693683944,0
                99.316220489,10.693706589,0
                99.3160410500001,10.6937261320001,0
                99.3158290200001,10.6937812040001,0
                99.315744189,10.693787747,0
                99.31562999,10.6937878630001,0
                99.315457081,10.6938073960001,0
                99.3153233510001,10.693852711,0
                99.3151831110001,10.6939141670001,0
                99.3151341920001,10.6939400320001,0
                99.315068953,10.6939594620001,0
                99.3150650590001,10.693959754,0
                99.3150270690001,10.6939626020001,0
                99.3149819500001,10.693965954,0
                99.314928497,10.693987495,0
                99.3148598330001,10.694028777,0
                99.314826623,10.69404875,0
                99.314758155,10.6940984030001,0
                99.3147414730001,10.6941265180001,0
                99.3146980610001,10.6941629240001,0
                99.31463461,10.6942142240001,0
                99.314522707,10.694273841,0
                99.3144174720001,10.6943218760001,0
                99.314402429,10.6943218910001,0
                99.314382369,10.6943153,0
                99.3143806850001,10.6943004300001,0
                99.3143605540001,10.6942260710001,0
                99.314317024,10.694148431,0
                99.314308162,10.6941227830001,0
                99.3142650630001,10.69399808,0
                99.3141997930001,10.693903934,0
                99.314116083,10.693755266,0
                99.3140021950001,10.693510766,0
                99.3137627570001,10.6930597910001,0
                99.3137493730001,10.693044926,0
                99.3137025870001,10.6930499330001,0
                99.3131179330001,10.69329183,0
                99.3130958680001,10.6933058880001,0
                99.3130549570001,10.6933209470001,0
                99.313032735,10.693320015,0
                99.3129658890001,10.6933233880001,0
                99.312923449,10.693322154,0
                99.312910743,10.693321788,0
                99.31288901,10.6933168530001,0
                99.3128388690001,10.693310293,0
                99.3128220780001,10.6933024950001,0
                99.312810449,10.6932970990001,0
                99.312768658,10.6932872240001,0
                99.3127051610001,10.693292243,0
                99.3126032500001,10.69331879,0
                99.3125573770001,10.6933463980001,0
                99.3125564870001,10.6933469360001,0
                99.3125297750001,10.6933734090001,0
                99.3125147370001,10.693376729,0
                99.3125013630001,10.693371782,0
                99.3124874040001,10.6933580040001,0
                99.312451179,10.6933222480001,0
                99.3124244360001,10.6933189690001,0
                99.312367624,10.693323987,0
                99.3123074790001,10.693340574,0
                99.3122824070001,10.6933372940001,0
                99.3122539870001,10.693325751,0
                99.312227212,10.693289416,0
                99.3122252590001,10.6932900470001,0
                99.3121915420001,10.6932020400001,0
                99.3121395360001,10.692999506,0
                99.3120923000001,10.6928551780001,0
                99.3120734010001,10.6927899990001,0
                99.3120286150001,10.6927388120001,0
                99.3119696900001,10.692678326,0
                99.311943785,10.69267137,0
                99.311854311,10.692664474,0
                99.3117766130001,10.692662222,0
                99.3117342240001,10.69265295,0
                99.3117247810001,10.6926296710001,0
                99.311710437,10.6924177820001,0
                99.3116819520001,10.692189612,0
                99.311637117,10.692089523,0
                99.3115758000001,10.691991784,0
                99.3115074460001,10.691915007,0
                99.3114485340001,10.6918661670001,0
                99.3113331330001,10.6918313520001,0
                99.3112200770001,10.691791879,0
                99.3111847370001,10.6917663020001,0
                99.311069203,10.691601083,0
                99.3110102700001,10.6915312850001,0
                99.3109561030001,10.6915173670001,0
                99.3109019490001,10.6915104390001,0
                99.310791276,10.6914989050001,0
                99.310654716,10.6914967110001,0
                99.3105299650001,10.691527105,0
                99.3104758360001,10.69154579,0
                99.3104263800001,10.691534195,0
                99.3104004620001,10.691517919,0
                99.3103651110001,10.691483025,0
                99.3103556140001,10.691406192,0
                99.3103884880001,10.691315343,0
                99.310404868,10.6912198540001,0
                99.3104260040001,10.6911639480001,0
                99.3104707130001,10.6911406150001,0
                99.310536615,10.691119596,0
                99.3105813270001,10.6910985920001,0
                99.3105954310001,10.691075294,0
                99.3105930350001,10.691035711,0
                99.3105976520001,10.69094489,0
                99.3106093590001,10.6908820030001,0
                99.3106563710001,10.690807444,0
                99.3106986650001,10.690723572,0
                99.3107009610001,10.6906653520001,0
                99.3107008710001,10.690576865,0
                99.3106983470001,10.690411537,0
                99.3105873680001,10.6900926320001,0
                99.3105612510001,10.6898760980001,0
                99.3105682890001,10.689855132,0
                99.3105800370001,10.6898295070001,0
                99.3108554200001,10.689747733,0
                99.310888349,10.689715096,0
                99.3109000960001,10.6896894710001,0
                99.3108953490001,10.689654548,0
                99.3108882540001,10.689621957,0
                99.3106242540001,10.68932183,0
                99.3105935770001,10.689251998,0
                99.310525193,10.6891496110001,0
                99.310374332,10.688970458,0
                99.3102281920001,10.6888076020001,0
                99.310044293,10.6885562960001,0
                99.3099453,10.688446948,0
                99.309848716,10.6883934850001,0
                99.3097356600001,10.6883470240001,0
                99.309575555,10.688344853,0
                99.3094696300001,10.6883635900001,0
                99.309399044,10.6884125610001,0
                99.3093520410001,10.688496437,0
                99.3093097750001,10.6886082510001,0
                99.3093125410001,10.689013426,0
                99.3093032250001,10.6891112380001,0
                99.3092420890001,10.6891904710001,0
                99.3091714780001,10.6892091670001,0
                99.309096126,10.6892022540001,0
                99.308785297,10.689155993,0
                99.308596912,10.6891189190001,0
                99.3085192010001,10.6891026970001,0
                99.3083707870001,10.6890190140001,0
                99.3077912860001,10.6887028950001,0
                99.3077300190001,10.688647067,0
                99.3073341530001,10.688323784,0
                99.3069972430001,10.688091253,0
                99.3067475130001,10.6879308270001,0
                99.3066792150001,10.6879099380001,0
                99.3066203600001,10.6879146530001,0
                99.306533298,10.687965965,0
                99.306467448,10.68803589,0
                99.306448661,10.6880871390001,0
                99.3064581300001,10.688136027,0
                99.3065454210001,10.688315244,0
                99.3065713400001,10.6883315200001,0
                99.306682031,10.6883686680001,0
                99.306755035,10.6883872280001,0
                99.3067998000001,10.688417455,0
                99.3068116170001,10.688461686,0
                99.306814037,10.688526881,0
                99.3067858370001,10.6885781400001,0
                99.3066306600001,10.6887925230001,0
                99.3064471980001,10.6889743360001,0
                99.3063954300001,10.688999999,0
                99.3063365730001,10.6890047150001,0
                99.3060587400001,10.6889910130001,0
                99.3059551470001,10.688988791,0
                99.305891591,10.6890051510001,0
                99.305769287,10.689128687,0
                99.3056187660001,10.689287182,0
                99.3054893840001,10.6893967500001,0
                99.3054093900001,10.689457374,0
                99.3051694000001,10.6896136230001,0
                99.3050540730001,10.689650993,0
                99.3049387230001,10.689669737,0
                99.3048068750001,10.6896675360001,0
                99.3044045650001,10.6896661060001,0
                99.304348938,10.6896635410001,0
                99.304310522,10.689653102,0
                99.304285344,10.6896360970001,0
                99.3041407470001,10.6893939190001,0
                99.3041062940001,10.6893743040001,0
                99.3040360800001,10.689350796,0
                99.303776445,10.689284249,0
                99.303421416,10.689185046,0
                99.3033843370001,10.6891877,0
                99.3033618320001,10.68919558,0
                99.3033274200001,10.689215264,0
                99.3032916940001,10.689248042,0
                99.303178029,10.689477374,0
                99.303143698,10.689579574,0
                99.303126589,10.68968962,0
                99.3030843970001,10.6898782760001,0
                99.303067373,10.6899597120001,0
                99.3030562340001,10.689990988,0
                99.303042153,10.6900145430001,0
                99.3030273160001,10.6900371950001,0
                99.3029510300001,10.6899682440001,0
                99.3010114890001,10.688237999,0
                99.2991737940001,10.6865938870001,0
                99.2976925020001,10.685270459,0
                99.2954136170001,10.683233842,0
                99.294731303,10.6826222510001,0
                99.294512017,10.682818866,0
                99.2942324360001,10.683065965,0
                99.2940774890001,10.683155867,0
                99.2938166550001,10.683234651,0
                99.2934764020001,10.6832985520001,0
                99.2929433100001,10.683373852,0
                99.292584123,10.6834115840001,0
                99.2924480060001,10.6834229310001,0
                99.2923572450001,10.6834117970001,0
                99.2920092670001,10.6833074040001,0
                99.291835281,10.683262687,0
                99.2915515890001,10.683161973,0
                99.2914343530001,10.6831471250001,0
                99.291309594,10.6831696790001,0
                99.2911205770001,10.683222217,0
                99.2909769070001,10.6832410480001,0
                99.290897478,10.683218685,0
                99.2895052570001,10.6824794660001,0
                99.2890785010001,10.6822402830001,0
                99.2887087700001,10.6824107300001,0
                99.288349135,10.682562854,0
                99.2882460110001,10.6825903220001,0
                99.2879718190001,10.6826353650001,0
                99.287798228,10.682645483,0
                99.2875944370001,10.6826382030001,0
                99.2874912940001,10.6826507390001,0
                99.287358006,10.6827105840001,0
                99.2870260760001,10.6828900510001,0
                99.2869405490001,10.68290755,0
                99.2868524960001,10.682912608,0
                99.2867795160001,10.68289277,0
                99.286412022,10.6827089650001,0
                99.2862610110001,10.68264938,0
                99.2861477850001,10.6826395310001,0
                99.2860496770001,10.6826545490001,0
                99.2855667000001,10.6827371110001,0
                99.2848824860001,10.6828621550001,0
                99.284452317,10.68291729,0
                99.2842535730001,10.682929911,0
                99.283732822,10.6829801540001,0
                99.2834359500001,10.682985402,0
                99.283340335,10.6829755360001,0
                99.2832044350001,10.6829308640001,0
                99.2829150110001,10.682826617,0
                99.282738877,10.682806866,0
                99.2824268720001,10.6827723100001,0
                99.2822935040001,10.682747551,0
                99.2820796290001,10.682722858,0
                99.2817777050001,10.6827082,0
                99.2815713680001,10.6826710600001,0
                99.281375069,10.6826090270001,0
                99.2809195010001,10.6824053890001,0
                99.280680407,10.6823160180001,0
                99.2804639730001,10.682244048,0
                99.2802349720001,10.682187024,0
                99.2799204680001,10.682169887,0
                99.2795858410001,10.682160234,0
                99.279273871,10.682162998,0
                99.2780511000001,10.682119298,0
                99.2777064420001,10.6821469770001,0
                99.2775806540001,10.682154554,0
                99.2773995510001,10.682199505,0
                99.2772335530001,10.682259376,0
                99.277175771,10.6823490080001,0
                99.277133049,10.6824037920001,0
                99.277070198,10.682456104,0
                99.2770173960001,10.682490988,0
                99.2769469730001,10.682515935,0
                99.2768111380001,10.6825409420001,0
                99.2767079990001,10.682558451,0
                99.2766552000001,10.682593335,0
                99.2766199930001,10.6826107860001,0
                99.276577235,10.6826257500001,0
                99.2765218860001,10.682625799,0
                99.2763858550001,10.68262356,0
                99.2763622160001,10.6824898450001,0
                99.27630134,10.681943849,0
                99.2761796360001,10.680911574,0
                99.2761363280001,10.6807153710001,0
                99.276084482,10.6806215620001,0
                99.2754740510001,10.6804406270001,0
                99.2749418400001,10.6802603400001,0
                99.2749368460001,10.6802540950001,0
                99.273027353,10.679610279,0
                99.27302403,10.679607821,0
                99.2727192140001,10.679515349,0
                99.272676259,10.6794517330001,0
                99.272666095,10.679374723,0
                99.2725176760001,10.678484553,0
                99.272459773,10.678149843,0
                99.2724055940001,10.6779611490001,0
                99.2722974600001,10.6778294750001,0
                99.272169024,10.6776543730001,0
                99.2721460540001,10.677623059,0
                99.2721423630001,10.677616777,0
                99.272091812,10.677530694,0
                99.2720018140001,10.6773774600001,0
                99.2718864070001,10.677160327,0
                99.2717527980001,10.676797919,0
                99.2717276020001,10.6767295540001,0
                99.2716518670001,10.6765907340001,0
                99.2715402060001,10.676544533,0
                99.2714633880001,10.676538975,0
                99.2714429870001,10.676537497,0
                99.2707122090001,10.676680579,0
                99.269470201,10.6768810790001,0
                99.2682889060001,10.6771032230001,0
                99.2680730110001,10.6766686080001,0
                99.2674381510001,10.6753336940001,0
                99.2673805090001,10.6752910070001,0
                99.2673048880001,10.6752803900001,0
                99.2672472780001,10.6752804390001,0
                99.2671204220001,10.675314929,0
                99.2670732720001,10.6753365710001,0
                99.266927824,10.675413249,0
                99.2667573320001,10.675507129,0
                99.2665868440001,10.675613502,0
                99.2662269680001,10.6758762540001,0
                99.26552623,10.676482976,0
                99.2646928730001,10.6771523,0
                99.2641372890001,10.677583929,0
                99.263892609,10.6778048030001,0
                99.263864282,10.6778433960001,0
                99.26376335,10.6780546150001,0
                99.2636847150001,10.67821739,0
                99.263425268,10.678762642,0
                99.2633817720001,10.678891403,0
                99.2632823650001,10.679155033,0
                99.263236077,10.679216947,0
                99.2631921020001,10.679274274,0
                99.2631434850001,10.679317858,0
                99.263080969,10.6793683270001,0
                99.262941766,10.6794652520001,0
                99.2580891300001,10.6820506010001,0
                99.2580533670001,10.68206309,0
                99.2579970890001,10.6820763900001,0
                99.2579193590001,10.682076454,0
                99.2578416310001,10.682071712,0
                99.2578022010001,10.6820609920001,0
                99.257748759,10.68203526,0
                99.257170822,10.681589377,0
                99.2569819450001,10.681478294,0
                99.2568536950001,10.681402867,0
                99.2568245360001,10.6813838590001,0
                99.2568233010001,10.68138305,0
                99.256792891,10.681349562,0
                99.2567600890001,10.681313435,0
                99.25673334,10.6812774150001,0
                99.2567298000001,10.681268904,0
                99.2567196270001,10.6812376240001,0
                99.2566221110001,10.6804321500001,0
                99.2566075120001,10.68039793,0
                99.2565837980001,10.6803619140001,0
                99.2565418660001,10.6803277120001,0
                99.2564600460001,10.6802748920001,0
                99.256434803,10.6802446890001,0
                99.2564025250001,10.6801855200001,0
                99.2563897410001,10.6801413960001,0
                99.2563808090001,10.680084919,0
                99.2563595410001,10.6799536660001,0
                99.2563517780001,10.6798718640001,0
                99.2563497900001,10.6797957630001,0
                99.2563343150001,10.6796949430001,0
                99.256299529,10.679500913,0
                99.2562146650001,10.679225119,0
                99.25616689,10.6790303970001,0
                99.2561630640001,10.6790147900001,0
                99.2561045200001,10.678845989,0
                99.2560989180001,10.6788218780001,0
                99.2560256680001,10.6786412000001,0
                99.2559158170001,10.6783901580001,0
                99.2557867290001,10.678135324,0
                99.2556980790001,10.6779337310001,0
                99.255590188,10.677728347,0
                99.2555420450001,10.6776656050001,0
                99.2554977710001,10.677621882,0
                99.2554488050001,10.6775833950001,0
                99.255426518,10.6775562120001,0
                99.2552511870001,10.6774027280001,0
                99.2552479780001,10.677400537,0
                99.254838803,10.6771828080001,0
                99.254686807,10.677127338,0
                99.2545592870001,10.6770808000001,0
                99.2545095770001,10.677069708,0
                99.2544923300001,10.677068623,0
                99.2542154160001,10.677069816,0
                99.254172768,10.677062408,0
                99.2541472290001,10.677051792,0
                99.2541256010001,10.6770378320001,0
                99.2540928430001,10.67701584,0
                99.2540705580001,10.676992538,0
                99.2538112080001,10.6765496560001,0
                99.2537880900001,10.676510185,0
                99.2533570990001,10.6757741930001,0
                99.2531028960001,10.675384439,0
                99.2529450010001,10.6751700720001,0
                99.2529298680001,10.675153815,0
                99.252688537,10.6749923400001,0
                99.252540492,10.6749315770001,0
                99.2523675690001,10.6748643600001,0
                99.2522509600001,10.6748035730001,0
                99.2521247970001,10.67472558,0
                99.251836558,10.6744784640001,0
                99.251768686,10.6744206860001,0
                99.2516720070001,10.674357732,0
                99.251660589,10.6743516440001,0
                99.2516505180001,10.6743466730001,0
                99.2515323690001,10.6743121530001,0
                99.251441146,10.6743029680001,0
                99.251425549,10.67430298,0
                99.25120946,10.6742141280001,0
                99.251085425,10.674114982,0
                99.2509230210001,10.6740080820001,0
                99.25064158,10.6739012740001,0
                99.250349359,10.6738372900001,0
                99.249981237,10.6735914130001,0
                99.2495048070001,10.6732278850001,0
                99.2486711510001,10.672704095,0
                99.2480541030001,10.672404893,0
                99.2475777510001,10.6721269880001,0
                99.247133868,10.671859765,0
                99.246540108,10.671678908,0
                99.2463267400001,10.6716356320001,0
                99.2459217210001,10.671635951,0
                99.244861228,10.6716046720001,0
                99.2441037510001,10.671605264,0
                99.2435410960001,10.671659221,0
                99.2430529490001,10.6716794430001,0
                99.24275858,10.6716250860001,0
                99.2426229270001,10.6715554470001,0
                99.242162018,10.6713856540001,0
                99.242109445,10.6713717480001,0
                99.2420200220001,10.671357942,0
                99.241867933,10.671345525,0
                99.241796509,10.671344252,0
                99.2417040330001,10.6713484790001,0
                99.2415365640001,10.671389016,0
                99.240813566,10.671447448,0
                99.2410153980001,10.6718920920001,0
                99.2410918840001,10.672014722,0
                99.2411861510001,10.67218308,0
                99.2412199870001,10.6722338880001,0
                99.2412906480001,10.6723400020001,0
                99.241330363,10.672386815,0
                99.24138507,10.672438271,0
                99.241402737,10.672450833,0
                99.241425,10.672465119,0
                99.2414898090001,10.6724912240001,0
                99.2415573530001,10.6725128370001,0
                99.2416076050001,10.672533398,0
                99.2417167780001,10.67259219,0
                99.2417733560001,10.672639121,0
                99.2418265300001,10.672692824,0
                99.2419106120001,10.6728329160001,0
                99.241931401,10.672875128,0
                99.2419396430001,10.67290682,0
                99.2419416830001,10.672914674,0
                99.241948569,10.67294351,0
                99.2419486100001,10.6729961790001,0
                99.241947424,10.6730058840001,0
                99.2419374660001,10.6730454090001,0
                99.241911315,10.6730972440001,0
                99.241903644,10.673109911,0
                99.2418564860001,10.6731701190001,0
                99.2418471410001,10.673181092,0
                99.2418120400001,10.6732311320001,0
                99.241734034,10.673353333,0
                99.2417019000001,10.673429781,0
                99.2416892430001,10.6734777390001,0
                99.2416860640001,10.6735003970001,0
                99.241686191,10.67366078,0
                99.2416879150001,10.673741029,0
                99.2416778750001,10.673957064,0
                99.24162762,10.67426751,0
                99.2416260590001,10.674300821,0
                99.2415485700001,10.674557024,0
                99.2415415950001,10.6746063740001,0
                99.241531927,10.6747393160001,0
                99.2415277330001,10.6748193560001,0
                99.2415327020001,10.6749066720001,0
                99.2415537400001,10.675065236,0
                99.241557007,10.6752997840001,0
                99.2415570950001,10.675411588,0
                99.2415538820001,10.67542947,0
                99.2415338600001,10.6755161830001,0
                99.241527197,10.675530716,0
                99.241514663,10.675551252,0
                99.2414852220001,10.6755889570001,0
                99.2414353250001,10.6756425090001,0
                99.24136746,10.6757380500001,0
                99.2413322090001,10.6758107650001,0
                99.2413104600001,10.6758668140001,0
                99.2412651270001,10.676091103,0
                99.2412462440001,10.676189762,0
                99.2411866610001,10.6765349680001,0
                99.24112397,10.67678382,0
                99.241056368,10.676957542,0
                99.241050482,10.676966427,0
                99.2410336360001,10.6769927450001,0
                99.240959994,10.6770781560001,0
                99.240940477,10.6770902390001,0
                99.2408958340001,10.6771105190001,0
                99.2408286460001,10.677130753,0
                99.2407881660001,10.677138314,0
                99.2407577010001,10.6771416870001,0
                99.2405992060001,10.677141809,0
                99.2404376870001,10.6771477410001,0
                99.2403966470001,10.677156799,0
                99.2403376870001,10.677185003,0
                99.2403126630001,10.677202165,0
                99.2403051950001,10.677209411,0
                99.24028259,10.677238803,0
                99.2402504720001,10.677289565,0
                99.2402101160001,10.677373362,0
                99.240201632,10.6773986110001,0
                99.2401856700001,10.677482825,0
                99.2401746670001,10.67761911,0
                99.2401782150001,10.677842588,0
                99.2401828050001,10.6778774490001,0
                99.2402109490001,10.678398681,0
                99.2402086210001,10.6784627550001,0
                99.2401986820001,10.678497528,0
                99.2401924710001,10.6785067600001,0
                99.2401832660001,10.6785152680001,0
                99.2401657,10.678527409,0
                99.2401346810001,10.678541501,0
                99.2401212830001,10.6785455620001,0
                99.2400947630001,10.6785481210001,0
                99.2392293810001,10.679061798,0
                99.2380851460001,10.679740994,0
                99.2372386220001,10.680121323,0
                99.2365848570001,10.680991294,0
                99.236013787,10.6820759030001,0
                99.2355855230001,10.682948282,0
                99.2353474820001,10.683278429,0
                99.2348235190001,10.68365593,0
                99.234418539,10.6838212170001,0
                99.2329248880001,10.684040333,0
                99.23144046,10.684671926,0
                99.2294358790001,10.6853950290001,0
                99.2270666240001,10.686249656,0
                99.226322763,10.6863595720001,0
                99.2257497100001,10.686340102,0
                99.225116251,10.6862013530001,0
                99.2246939250001,10.6860823380001,0
                99.2239600220001,10.6860629820001,0
                99.2233367040001,10.6860435400001,0
                99.222864052,10.685835072,0
                99.2223613250001,10.6857459390001,0
                99.2218888790001,10.685825821,0
                99.2211360360001,10.686158157,0
                99.2211187980001,10.6861917260001,0
                99.22087894,10.686611688,0
                99.220938087,10.6876046250001,0
                99.2211296710001,10.6885250180001,0
                99.2217511300001,10.689869964,0
                99.2221815570001,10.6910498250001,0
                99.22263573,10.6920644420001,0
                99.2226492400001,10.6920873870001,0
                99.2230554120001,10.6927771960001,0
                99.2232330940001,10.693078955,0
                99.2243078920001,10.6942583540001,0
                99.2254543430001,10.6955085000001,0
                99.2257888400001,10.6960275320001,0
                99.2259799560001,10.6972127290001,0
                99.2260285950001,10.697514364,0
                99.2261865880001,10.6985180620001,0
                99.2262041220001,10.698629473,0
                99.2263399140001,10.698953939,0
                99.227032454,10.6995435160001,0
                99.2280831580001,10.7003688660001,0
                99.2284178400001,10.701123926,0
                99.228680803,10.701713813,0
                99.2288252050001,10.70331873,0
                99.2290486520001,10.704385663,0
                99.2290846830001,10.704557713,0
                99.2294641590001,10.705374942,0
                99.2297858850001,10.706067804,0
                99.2304876460001,10.7083017300001,0
                99.230714021,10.70904596,0
                99.2309661660001,10.709874928,0
                99.231221625,10.711039161,0
                99.2314302350001,10.7115444790001,0
                99.2320259040001,10.7125504040001,0
                99.2322646640001,10.7129536030001,0
                99.232528125,10.713398517,0
                99.232751432,10.7141221850001,0
                99.232815438,10.714594199,0
                99.2327842660001,10.7154439440001,0
                99.232371486,10.7166401480001,0
                99.231767812,10.7178994380001,0
                99.230337578,10.720260818,0
                99.229957218,10.7210468700001,0
                99.229942319,10.7211915730001,0
                99.229924709,10.7213626110001,0
                99.2299572730001,10.722338187,0
                99.229980244,10.7224287830001,0
                99.2301487780001,10.7230933490001,0
                99.2305496450001,10.723711742,0
                99.23065855,10.7238797470001,0
                99.231136136,10.724194104,0
                99.2312637890001,10.7246660760001,0
                99.23091428,10.725390165,0
                99.2305341190001,10.7258677180001,0
                99.2296107540001,10.727027618,0
                99.229555594,10.727224553,0
                99.2292933680001,10.7281608110001,0
                99.2295502640001,10.7312133030001,0
                99.229534658,10.733415763,0
                99.229443367,10.73409696,0
                99.22996628,10.7353735470001,0
                99.230541357,10.736924142,0
                99.2309535050001,10.7383256570001,0
                99.230983091,10.738949636,0
                99.2309597190001,10.7397523340001,0
                99.230728759,10.7404986760001,0
                99.2303281680001,10.7414113340001,0
                99.229954288,10.7420514400001,0
                99.229428365,10.7427832550001,0
                99.228765686,10.743389667,0
                99.2279589680001,10.743997445,0
                99.22707739,10.744557715,0
                99.226048301,10.745017358,0
                99.224449307,10.745610969,0
                99.2231159980001,10.74599514,0
                99.2227103120001,10.7461751860001,0
                99.2226898170001,10.746190147,0
                99.222694054,10.746355754,0
                99.2226909350001,10.7465125530001,0
                99.222683235,10.7465815570001,0
                99.2226762210001,10.746608446,0
                99.2226574030001,10.746643663,0
                99.222633859,10.746661289,0
                99.222598545,10.746676504,0
                99.222576899,10.746680978,0
                99.2225354480001,10.746678887,0
                99.2223231660001,10.746646055,0
                99.222219045,10.7466299500001,0
                99.222130871,10.7466214670001,0
                99.222026359,10.746615084,0
                99.221954006,10.746623084,0
                99.2219159030001,10.7466286920001,0
                99.2218964720001,10.746634779,0
                99.2218419070001,10.746661805,0
                99.2218218020001,10.746675553,0
                99.2217671960001,10.746721613,0
                99.2216921500001,10.7468044300001,0
                99.2216823210001,10.7468152760001,0
                99.2216256670001,10.7468850650001,0
                99.2215993360001,10.7469120390001,0
                99.221448669,10.7470254360001,0
                99.221350982,10.7470861460001,0
                99.2212384360001,10.7471755870001,0
                99.22119236,10.747226018,0
                99.2211632650001,10.7472692380001,0
                99.22105179,10.747497314,0
                99.2210151290001,10.747557682,0
                99.2208758190001,10.747787095,0
                99.2208087210001,10.747878158,0
                99.2207607460001,10.7479288390001,0
                99.2207469250001,10.7479396700001,0
                99.220604511,10.748084766,0
                99.220560784,10.748136904,0
                99.2204411210001,10.7483243780001,0
                99.2202153650001,10.7485912170001,0
                99.220077395,10.748709842,0
                99.2199748660001,10.7488100750001,0
                99.219967463,10.7488186620001,0
                99.21991016,10.7488962240001,0
                99.2198914850001,10.748929646,0
                99.2198684240001,10.748981562,0
                99.2198666,10.748988807,0
                99.2198579640001,10.7490418350001,0
                99.2198580830001,10.7492065810001,0
                99.219868095,10.749297056,0
                99.2198890280001,10.749396932,0
                99.2199163070001,10.749463764,0
                99.2200365840001,10.749650945,0
                99.2201648980001,10.749850625,0
                99.2202095150001,10.7499221260001,0
                99.220224505,10.7499587500001,0
                99.2202299900001,10.7499929460001,0
                99.22023182,10.7500055420001,0
                99.2202300150001,10.750027145,0
                99.22022093,10.7500487510001,0
                99.2201978570001,10.75008874,0
                99.2201893760001,10.750110195,0
                99.220186362,10.750123645,0
                99.2201804540001,10.7501500270001,0
                99.2201798850001,10.7501778920001,0
                99.220181902,10.7501972810001,0
                99.220185701,10.7502139430001,0
                99.2202153050001,10.7503137150001,0
                99.2207214140001,10.751749218,0
                99.2208229010001,10.7523984010001,0
                99.220849028,10.7525698100001,0
                99.2208867590001,10.752713407,0
                99.2209495330001,10.7528550070001,0
                99.2209658080001,10.752886758,0
                99.2210337130001,10.75298438,0
                99.2210504870001,10.7530084950001,0
                99.221103439,10.7530901330001,0
                99.2211339570001,10.7531663090001,0
                99.2211395780001,10.7532008850001,0
                99.2211395960001,10.7532259130001,0
                99.221139608,10.7532427,0
                99.2211372520001,10.753259112,0
                99.221126864,10.753287572,0
                99.2210957170001,10.753331915,0
                99.221044465,10.7533978970001,0
                99.2209862480001,10.7534546250001,0
                99.2209195950001,10.7535195780001,0
                99.2209185680001,10.7535207550001,0
                99.2209122550001,10.7535297860001,0
                99.2208913220001,10.753564548,0
                99.2208821140001,10.753594607,0
                99.220878907,10.7536173010001,0
                99.2208818290001,10.753661643,0
                99.2208902660001,10.75370503,0
                99.220905401,10.7537339830001,0
                99.221065734,10.753920669,0
                99.221096442,10.753956422,0
                99.221477156,10.754321546,0
                99.2215900890001,10.7544258670001,0
                99.221651314,10.754489587,0
                99.221663016,10.754506533,0
                99.2216830150001,10.754544599,0
                99.221720653,10.75466048,0
                99.2217464650001,10.7548824130001,0
                99.2217594580001,10.755381831,0
                99.2218735100001,10.7559436080001,0
                99.2221013540001,10.7567050800001,0
                99.2223798240001,10.757628825,0
                99.222464931,10.7577968260001,0
                99.222594541,10.757999118,0
                99.2227173860001,10.758190831,0
                99.2229233940001,10.75851235,0
                99.2230495570001,10.7586956540001,0
                99.2232616360001,10.7589652880001,0
                99.223672907,10.7594464260001,0
                99.22406097,10.760012396,0
                99.2244781890001,10.7607237830001,0
                99.224813742,10.761237809,0
                99.2248833200001,10.7613202480001,0
                99.224977557,10.761431902,0
                99.225068402,10.761499997,0
                99.2252009910001,10.761581537,0
                99.2252977460001,10.76163002,0
                99.2256533110001,10.761796706,0
                99.2260528040001,10.7619887920001,0
                99.2261576940001,10.7620280890001,0
                99.2264758300001,10.762104105,0
                99.2276912790001,10.762289605,0
                99.2277494830001,10.762306075,0
                99.2284570690001,10.762506343,0
                99.2295742620001,10.762735256,0
                99.229781442,10.7627628180001,0
                99.2305689740001,10.7628196470001,0
                99.2307175720001,10.762816813,0
                99.231141574,10.762794813,0
                99.2312755350001,10.762782671,0
                99.231543661,10.7627406030001,0
                99.2324854380001,10.76265318,0
                99.2325357620001,10.762653142,0
                99.2325720890001,10.7626497860001,0
                99.2326323180001,10.762660007,0
                99.2326490400001,10.7626687760001,0
                99.232695301,10.762701399,0
                99.2327165070001,10.762723169,0
                99.2327380790001,10.762753343,0
                99.2327471200001,10.762777348,0
                99.2327619800001,10.76284486,0
                99.2327639410001,10.7628563260001,0
                99.23278708,10.7629917840001,0
                99.232895645,10.7634690360001,0
                99.2329887330001,10.763812414,0
                99.2330922960001,10.7639912970001,0
                99.2331441850001,10.7642256130001,0
                99.23314859,10.764349179,0
                99.2331013460001,10.7645580010001,0
                99.233036924,10.764839275,0
                99.2329413250001,10.7651562290001,0
                99.2328798610001,10.7652819470001,0
                99.2328782380001,10.7652844940001,0
                99.232839588,10.7653350750001,0
                99.2328198380001,10.765368381,0
                99.2327970860001,10.765416412,0
                99.232787623,10.765438831,0
                99.232769046,10.765515384,0
                99.2327661130001,10.7655480770001,0
                99.2327661690001,10.765621266,0
                99.2327714800001,10.7656854750001,0
                99.2327803410001,10.7657948020001,0
                99.2327911670001,10.7659150800001,0
                99.2328709130001,10.766334929,0
                99.2328719400001,10.766337219,0
                99.2328808400001,10.766384794,0
                99.2328826140001,10.76640909,0
                99.23288439,10.7664403250001,0
                99.232880901,10.7664646260001,0
                99.232870382,10.7664802570001,0
                99.2328426060001,10.766503179,0
                99.232824743,10.76651034,0
                99.2328148080001,10.766513189,0
                99.232749696,10.766521707,0
                99.2325125710001,10.766543482,0
                99.2323378510001,10.7665652100001,0
                99.2322317850001,10.766599232,0
                99.23220811,10.766612024,0
                99.232155305,10.7666583380001,0
                99.2321452740001,10.7666678100001,0
                99.2321147230001,10.766721605,0
                99.232110548,10.766737286,0
                99.2321070890001,10.766755801,0
                99.2321071900001,10.7668882190001,0
                99.232115633,10.7669483920001,0
                99.2321385450001,10.7670836930001,0
                99.2321699020001,10.7672842170001,0
                99.232191963,10.7675711380001,0
                99.2321665900001,10.767898254,0
                99.2321530890001,10.76799263,0
                99.2321517680001,10.7679983960001,0
                99.2321326190001,10.7681364050001,0
                99.2320934030001,10.768478327,0
                99.232106511,10.768605129,0
                99.2321161730001,10.768650329,0
                99.232135471,10.76871455,0
                99.232172269,10.7687932330001,0
                99.232174032,10.768797003,0
                99.2322110470001,10.768853844,0
                99.2323095740001,10.768952708,0
                99.232767069,10.7693140330001,0
                99.233018536,10.769589281,0
                99.2330437040001,10.769624774,0
                99.2330993450001,10.769717153,0
                99.2331138060001,10.769746866,0
                99.2331153640001,10.7697510840001,0
                99.2331604920001,10.769873208,0
                99.23316428,10.7698987410001,0
                99.2331640310001,10.7699135510001,0
                99.2331639080001,10.769920659,0
                99.2331602790001,10.769940035,0
                99.2331456030001,10.7699773890001,0
                99.2331306,10.770010841,0
                99.2331037740001,10.7700830040001,0
                99.2330860260001,10.770181039,0
                99.2330833290001,10.770204311,0
                99.233084359,10.7702244290001,0
                99.233100785,10.770280373,0
                99.2331076830001,10.7702958140001,0
                99.2331360060001,10.7703307670001,0
                99.23315568,10.770353556,0
                99.2333158710001,10.7704837970001,0
                99.2333760690001,10.7705360950001,0
                99.2334194310001,10.770605059,0
                99.2334532,10.770707341,0
                99.233472582,10.7708810080001,0
                99.233465455,10.770997591,0
                99.2334417530001,10.771208728,0
                99.2334527190001,10.771430702,0
                99.2334706560001,10.7715043590001,0
                99.2334957620001,10.7715839310001,0
                99.2335148480001,10.7716282420001,0
                99.2335582630001,10.7717051830001,0
                99.2335622210001,10.77171321,0
                99.233571721,10.771737678,0
                99.233578224,10.7717615660001,0
                99.233585975,10.771790042,0
                99.2335880730001,10.7718408810001,0
                99.233588324,10.7718470040001,0
                99.2335884270001,10.7718495180001,0
                99.2335740890001,10.771980387,0
                99.2335723050001,10.771985887,0
                99.233559099,10.772048812,0
                99.2335434620001,10.7720871390001,0
                99.23354147,10.7720907,0
                99.2335083400001,10.7721399160001,0
                99.2334838840001,10.7721714750001,0
                99.2334637210001,10.772197496,0
                99.233442423,10.772238885,0
                99.2334345570001,10.7722608550001,0
                99.2334299780001,10.772278488,0
                99.2334271880001,10.772296032,0
                99.233426496,10.772311127,0
                99.2334179140001,10.772392326,0
                99.2334282680001,10.772524145,0
                99.2334362540001,10.7725586340001,0
                99.2334460150001,10.772586038,0
                99.2334771600001,10.772644723,0
                99.2335141950001,10.7727080230001,0
                99.2335517560001,10.7727756310001,0
                99.2335568810001,10.772787868,0
                99.2335672200001,10.7728245660001,0
                99.2335744870001,10.7728887960001,0
                99.2335649280001,10.772972075,0
                99.2335428960001,10.773057506,0
                99.233535041,10.773072225,0
                99.2335192450001,10.7730949140001,0
                99.2335176170001,10.77309645,0
                99.2335027400001,10.7731085620001,0
                99.2334858890001,10.7731176670001,0
                99.233470405,10.7731260320001,0
                99.2334485580001,10.7731323200001,0
                99.233436107,10.773134676,0
                99.233427061,10.773134683,0
                99.2333862290001,10.773134714,0
                99.233242068,10.773113444,0
                99.233163194,10.773113503,0
                99.233138937,10.7731175810001,0
                99.2331169980001,10.7731254880001,0
                99.233073162,10.7731544320001,0
                99.2330502200001,10.773181359,0
                99.2330319740001,10.7732078670001,0
                99.23302318,10.773220639,0
                99.232910915,10.773462372,0
                99.2328880530001,10.7735115990001,0
                99.2328810860001,10.7735403090001,0
                99.2328793090001,10.773570598,0
                99.232879627,10.7735755460001,0
                99.2328853220001,10.773595669,0
                99.2328954270001,10.773621582,0
                99.2329142400001,10.77365329,0
                99.2329856160001,10.7737519350001,0
                99.233145656,10.773916872,0
                99.2331708400001,10.7739499100001,0
                99.233181024,10.7739664210001,0
                99.2332410340001,10.77406374,0
                99.2332457680001,10.774075607,0
                99.233249915,10.7740932180001,0
                99.233252861,10.7741421150001,0
                99.2332508540001,10.7741558920001,0
                99.233241042,10.774183298,0
                99.233231641,10.7742019310001,0
                99.2332223170001,10.7742157810001,0
                99.2332086330001,10.774232397,0
                99.2331842580001,10.7742530840001,0
                99.2331605940001,10.774269319,0
                99.2330958950001,10.7743137140001,0
                99.2330122000001,10.774371144,0
                99.2329232380001,10.774418801,0
                99.2328988460001,10.774430056,0
                99.232808199,10.774463746,0
                99.2327578640001,10.7744936610001,0
                99.2327330190001,10.774512831,0
                99.2326901280001,10.774554089,0
                99.2326771500001,10.7745724870001,0
                99.232659756,10.7746143370001,0
                99.232653224,10.77464278,0
                99.232649026,10.7747015480001,0
                99.232652747,10.7747186710001,0
                99.2326784100001,10.77479628,0
                99.2327003220001,10.774862544,0
                99.2327319110001,10.7749285200001,0
                99.232824571,10.775097257,0
                99.2328657690001,10.7751573730001,0
                99.2329812500001,10.775374964,0
                99.2329932360001,10.7754014990001,0
                99.233031484,10.775557662,0
                99.233060191,10.775800142,0
                99.2330602860001,10.775924214,0
                99.233071792,10.776053915,0
                99.233069157,10.7761121790001,0
                99.2330507140001,10.776220704,0
                99.2329893630001,10.776390104,0
                99.2329784070001,10.7764109450001,0
                99.2329279040001,10.7764917430001,0
                99.232907412,10.7765214620001,0
                99.2328389720001,10.7765892410001,0
                99.2327769490001,10.776635304,0
                99.232707233,10.7766801830001,0
                99.2325875100001,10.7767535890001,0
                99.232456395,10.776843921,0
                99.232113143,10.777058487,0
                99.2415889040001,10.7773455940001,0
                99.2467506870001,10.7775018670001,0
              </coordinates>
                
            </LinearRing>
            
          </outerBoundaryIs>
        
        </Polygon>
        
      <styleUrl>
        #tambonStyle</styleUrl>
    </Placemark>

  </Document>
</kml>