<?xml version="1.0" encoding="UTF-8"?>
<kml xmlns="http://www.opengis.net/kml/2.2">
  <Document id="tambon_doc">
    <name>เปียงหลวง, เวียงแหง, Chiang Mai</name>
    <description>ข้อมูลขอบเขตตำบลเปียงหลวง อำเภอเวียงแหง จังหวัดChiang Mai</description>
    
    <!-- Schema สำหรับข้อมูลตำบล -->
    <Schema id="tambon.schema">
      <SimpleField name="ADM3_EN" type="string">
        <displayName>Subdistrict Name (English)</displayName>
      </SimpleField>
      <SimpleField name="ADM3_TH" type="string">
        <displayName>ชื่อตำบล</displayName>
      </SimpleField>
      <SimpleField name="ADM2_EN" type="string">
        <displayName>District Name (English)</displayName>
      </SimpleField>
      <SimpleField name="ADM2_TH" type="string">
        <displayName>ชื่ออำเภอ</displayName>
      </SimpleField>
      <SimpleField name="ADM1_EN" type="string">
        <displayName>Province Name (English)</displayName>
      </SimpleField>
      <SimpleField name="ADM1_TH" type="string">
        <displayName>ชื่อจังหวัด</displayName>
      </SimpleField>
      <SimpleField name="ADM0_EN" type="string">
        <displayName>Country Name (English)</displayName>
      </SimpleField>
      <SimpleField name="ADM0_TH" type="string">
        <displayName>ชื่อประเทศ</displayName>
      </SimpleField>
    </Schema>

    <!-- Style สำหรับตำบล -->
    <Style id="tambonStyle">
      <LineStyle>
        <color>ffff0000</color>
        <width>1.5</width>
      </LineStyle>
      <PolyStyle>
        <color>33ff0000</color>
        <fill>1</fill>
        <outline>1</outline>
      </PolyStyle>
    </Style>

    <Placemark id="Chiang_Mai.181">
        
        <ExtendedData>
            
          <SchemaData schemaUrl="#tambon.schema">
                
            <SimpleData name="Shape_Leng">
                0.57498997172</SimpleData>
                
            <SimpleData name="Shape_Area">
                0.0134219795944</SimpleData>
                
            <SimpleData name="ADM3_EN">
                Piang Luang</SimpleData>
                
            <SimpleData name="ADM3_TH">
                เปียงหลวง</SimpleData>
                
            <SimpleData name="ADM3_PCODE">
                TH502002</SimpleData>
                
            <SimpleData name="ADM2_EN">
                Wiang Haeng</SimpleData>
                
            <SimpleData name="ADM2_TH">
                เวียงแหง</SimpleData>
                
            <SimpleData name="ADM2_PCODE">
                TH5020</SimpleData>
                
            <SimpleData name="ADM1_EN">
                Chiang Mai</SimpleData>
                
            <SimpleData name="ADM1_TH">
                เชียงใหม่</SimpleData>
                
            <SimpleData name="ADM1_PCODE">
                TH50</SimpleData>
                
            <SimpleData name="ADM0_EN">
                Thailand</SimpleData>
                
            <SimpleData name="ADM0_TH">
                ประเทศไทย</SimpleData>
                
            <SimpleData name="ADM0_PCODE">
                TH</SimpleData>
            
          </SchemaData>
        
        </ExtendedData>
        
        <Polygon>
            
          <outerBoundaryIs>
                
            <LinearRing>
                    
              <coordinates>
                    
                98.704231861,19.7581479610001,0
                98.7043674640001,19.757701571,0
                98.7047491590001,19.7567430080001,0
                98.705288706,19.7560245020001,0
                98.7056790130001,19.7556051290001,0
                98.7060576360001,19.755275382,0
                98.7065815400001,19.754605445,0
                98.706872876,19.7540780800001,0
                98.707106438,19.7533856750001,0
                98.7072002610001,19.7528909750001,0
                98.7072359670001,19.7524181810001,0
                98.7072599560001,19.7520003430001,0
                98.7072841710001,19.751461546,0
                98.707331331,19.751076739,0
                98.7074995510001,19.7504648730001,0
                98.707779884,19.750032257,0
                98.7082878080001,19.748793413,0
                98.7085962190001,19.748024464,0
                98.708931469,19.7473923480001,0
                98.7092755580001,19.7468628400001,0
                98.7095830900001,19.7465726610001,0
                98.7100799870001,19.7464281220001,0
                98.710521547,19.7463683440001,0
                98.71111991,19.74636931,0
                98.71150686,19.7463278340001,0
                98.7117184850001,19.7462569690001,0
                98.712177566,19.74606886,0
                98.7129962430001,19.745560282,0
                98.7135955190001,19.74505135,0
                98.713795577,19.744711744,0
                98.7137763050001,19.7443340130001,0
                98.7137369180001,19.744050681,0
                98.71351823,19.743653748,0
                98.7133201950001,19.7428602680001,0
                98.7132821340001,19.7420252900001,0
                98.7135766590001,19.7409468180001,0
                98.7136474010001,19.7405881010001,0
                98.7130646510001,19.7386779450001,0
                98.7129707230001,19.738093286,0
                98.7131854500001,19.73750912,0
                98.7135328370001,19.73700265,0
                98.7137091480001,19.736745597,0
                98.7147793950001,19.7357131700001,0
                98.716324904,19.7344341950001,0
                98.716872557,19.733535815,0
                98.7171585740001,19.7329067900001,0
                98.7171603150001,19.731917622,0
                98.7171374790001,19.7314005170001,0
                98.7173751730001,19.731243525,0
                98.718814873,19.7308122540001,0
                98.7189429470001,19.7307738860001,0
                98.7199879670001,19.730550712,0
                98.7200747270001,19.730468828,0
                98.720606262,19.729967162,0
                98.7212488040001,19.729091399,0
                98.7214017110001,19.728650439,0
                98.721621692,19.728016021,0
                98.721630572,19.7279904100001,0
                98.721703157,19.727203682,0
                98.7217752010001,19.7267316890001,0
                98.722631774,19.7256314380001,0
                98.722880747,19.7251831300001,0
                98.723417661,19.724216337,0
                98.7237038220001,19.723474896,0
                98.7237295310001,19.722328395,0
                98.7237309400001,19.7223025550001,0
                98.7237708950001,19.721569715,0
                98.7237785570001,19.721429222,0
                98.7238503560001,19.7210921120001,0
                98.7243031950001,19.720058673,0
                98.7249460560001,19.718958081,0
                98.725422581,19.7179471540001,0
                98.725569416,19.7173261610001,0
                98.7256617070001,19.716935866,0
                98.7256634390001,19.715920742,0
                98.725663893,19.715654439,0
                98.725809354,19.713878644,0
                98.7259814540001,19.7124528620001,0
                98.7260019880001,19.712282768,0
                98.7260738150001,19.7119231790001,0
                98.7264320390001,19.7106647750001,0
                98.726409141,19.710170152,0
                98.726304864,19.709922115,0
                98.726125428,19.709495281,0
                98.7259613690001,19.7092188190001,0
                98.7256046730001,19.708617716,0
                98.7252029680001,19.7075380000001,0
                98.7251098570001,19.706458761,0
                98.725278173,19.705200065,0
                98.7252332290001,19.703716231,0
                98.7252119880001,19.7022549160001,0
                98.7254984850001,19.7012886640001,0
                98.7260221980001,19.700412693,0
                98.7261360780001,19.700224646,0
                98.7264982730001,19.6996265760001,0
                98.7266055890001,19.69910442,0
                98.726761556,19.6983455430001,0
                98.7270726140001,19.696884733,0
                98.727644217,19.6952692450001,0
                98.727764279,19.694929911,0
                98.7280967770001,19.693724821,0
                98.7284091050001,19.6925928320001,0
                98.7281484200001,19.691502283,0
                98.7276061860001,19.690163634,0
                98.727466705,19.6884323640001,0
                98.7275556920001,19.688007483,0
                98.727753846,19.6870614370001,0
                98.7287294850001,19.6855791450001,0
                98.728827724,19.685275486,0
                98.7289814480001,19.684800312,0
                98.729471673,19.683284998,0
                98.7296599760001,19.6827029410001,0
                98.7304408750001,19.680959635,0
                98.730424219,19.679871441,0
                98.7303161760001,19.679310948,0
                98.7299654350001,19.6774913190001,0
                98.7294196700001,19.6756286520001,0
                98.7294108240001,19.6755984650001,0
                98.7284449260001,19.673410271,0
                98.7284178040001,19.6733488300001,0
                98.727614336,19.671301812,0
                98.7270231100001,19.67006444,0
                98.7269759150001,19.6698390350001,0
                98.7268818540001,19.669389784,0
                98.726933241,19.6670742810001,0
                98.726991205,19.6667386830001,0
                98.727484475,19.6638827670001,0
                98.7275330790001,19.663208395,0
                98.7279619160001,19.662219868,0
                98.728677529,19.660040253,0
                98.7290136170001,19.6577476590001,0
                98.7287616460001,19.652351746,0
                98.7290954490001,19.65140803,0
                98.7294050710001,19.650734055,0
                98.729833263,19.6501052190001,0
                98.730498292,19.6497465140001,0
                98.7319464340001,19.6493664920001,0
                98.7328015950001,19.6488282120001,0
                98.733182679,19.6479744820001,0
                98.733113797,19.646580536,0
                98.7329040270001,19.644287116,0
                98.733046534,19.643465716,0
                98.733553246,19.640424383,0
                98.7337902960001,19.638650179,0
                98.7337097400001,19.6375089640001,0
                98.7332736590001,19.6359920140001,0
                98.7325898760001,19.633383152,0
                98.7316459720001,19.630256822,0
                98.728892736,19.6249199430001,0
                98.725900718,19.6259555300001,0
                98.7250249240001,19.626513506,0
                98.7244959930001,19.626926161,0
                98.7235695150001,19.6283839120001,0
                98.723363023,19.629064536,0
                98.7223012540001,19.6295354220001,0
                98.7202027260001,19.6304319070001,0
                98.7193225880001,19.6307839630001,0
                98.7179969760001,19.6317853900001,0
                98.717146846,19.632457496,0
                98.7162669310001,19.6329584850001,0
                98.7153765480001,19.633284949,0
                98.714532266,19.6335945020001,0
                98.7142047830001,19.6336122320001,0
                98.71351185,19.633337377,0
                98.7124917350001,19.6329159920001,0
                98.7115297330001,19.6323121930001,0
                98.7104519390001,19.63183596,0
                98.709412908,19.6312320260001,0
                98.7088910790001,19.631070735,0
                98.70820158,19.6310888310001,0
                98.7064990810001,19.6313010970001,0
                98.7043043300001,19.631799256,0
                98.703736958,19.6317983230001,0
                98.7033969970001,19.6315468870001,0
                98.702717539,19.630793145,0
                98.7018108710001,19.630182377,0
                98.6999207840001,19.629569969,0
                98.698781346,19.628924082,0
                98.6984946860001,19.6281318600001,0
                98.6963605390001,19.6285479630001,0
                98.695372138,19.6288206520001,0
                98.6923895130001,19.6298323180001,0
                98.689985844,19.6309094850001,0
                98.6883661140001,19.6317459000001,0
                98.687650148,19.632051292,0
                98.68671333,19.632192993,0
                98.6859501120001,19.6322902480001,0
                98.6857992560001,19.632286122,0
                98.6855223790001,19.632278548,0
                98.685002561,19.6320585570001,0
                98.683212068,19.631310539,0
                98.6810060110001,19.630255054,0
                98.6800941380001,19.6295304650001,0
                98.6793322110001,19.628981406,0
                98.6786739240001,19.628640654,0
                98.677899945,19.6283435140001,0
                98.67687111,19.628308808,0
                98.675425536,19.6285471950001,0
                98.6747897220001,19.6285350970001,0
                98.6738422770001,19.628270484,0
                98.6726869140001,19.6279178550001,0
                98.672247612,19.6279170560001,0
                98.6719932340001,19.627938499,0
                98.6716458110001,19.628233627,0
                98.6713680860001,19.6283645720001,0
                98.6711144830001,19.628372707,0
                98.6708661500001,19.628347736,0
                98.6706903990001,19.6282591610001,0
                98.6705921110001,19.6282442720001,0
                98.6704471340001,19.628288135,0
                98.670245203,19.6283466,0
                98.670131365,19.628346391,0
                98.6700175820001,19.628316763,0
                98.6699038630001,19.62825772,0
                98.6697435140001,19.6282280090001,0
                98.669536528,19.628227629,0
                98.6693554270001,19.6282223900001,0
                98.669257181,19.6281878880001,0
                98.66909172,19.628128749,0
                98.6690037710001,19.628118783,0
                98.6688381230001,19.6281478980001,0
                98.6685433750001,19.62804929,0
                98.6682950460001,19.6280243210001,0
                98.6679535040001,19.6280334950001,0
                98.6677517470001,19.628008611,0
                98.667575947,19.6279445440001,0
                98.6675701890001,19.627940285,0
                98.6674364410001,19.627841324,0
                98.6672657330001,19.627816491,0
                98.6670276850001,19.6278258570001,0
                98.6667281810001,19.6279387280001,0
                98.6667169680001,19.627942955,0
                98.6665616210001,19.627996599,0
                98.6664322550001,19.6279963600001,0
                98.6663236520001,19.627966744,0
                98.6663214860001,19.6279650760001,0
                98.666215155,19.627883191,0
                98.6661479890001,19.627834036,0
                98.666054848,19.627833863,0
                98.6659564300001,19.627882711,0
                98.6658425000001,19.62802606,0
                98.6658163530001,19.62805896,0
                98.665759413,19.6280686590001,0
                98.6656818330001,19.6280489060001,0
                98.66567838,19.628046952,0
                98.6654027310001,19.6278914870001,0
                98.665325249,19.627827606,0
                98.6652787180001,19.6278079050001,0
                98.6651597430001,19.627788073,0
                98.6650251830001,19.6277976280001,0
                98.6647920220001,19.627944284,0
                98.6645060310001,19.6281962100001,0
                98.664092178,19.6285607630001,0
                98.6639419380001,19.6286438330001,0
                98.66362616,19.628706987,0
                98.663465623,19.628765521,0
                98.6632839600001,19.6290299460001,0
                98.66316464,19.629176812,0
                98.6630091590001,19.629294197,0
                98.662915996,19.6293038270001,0
                98.662781496,19.6292839650001,0
                98.6621248760001,19.629017966,0
                98.6619696970001,19.628988259,0
                98.6618299840001,19.628987997,0
                98.661674685,19.6290171200001,0
                98.6615452980001,19.629026685,0
                98.6614521870001,19.629011798,0
                98.6613694900001,19.6289675150001,0
                98.6611734000001,19.6287072850001,0
                98.661102402,19.628565058,0
                98.6610239620001,19.6284079220001,0
                98.660884561,19.6282605690001,0
                98.6608536360001,19.6282016710001,0
                98.6608388800001,19.627833917,0
                98.660808043,19.627735799,0
                98.6607563040001,19.6277307990001,0
                98.6607303100001,19.6277895850001,0
                98.660662744,19.6279316440001,0
                98.6605539210001,19.6280049860001,0
                98.660444409,19.628029672,0
                98.6604122460001,19.628044833,0
                98.6602897120001,19.628151577,0
                98.660175726,19.628220007,0
                98.6600670390001,19.628229607,0
                98.6599531800001,19.6282391980001,0
                98.6599006230001,19.628227236,0
                98.6597977100001,19.6281812870001,0
                98.659659655,19.628093703,0
                98.6595295390001,19.6279196990001,0
                98.6593488840001,19.627703624,0
                98.6592145400001,19.627610212,0
                98.658852757,19.6274036020001,0
                98.658485861,19.6271675570001,0
                98.6583981000001,19.627069331,0
                98.6583724590001,19.6269614170001,0
                98.6583624800001,19.6267848840001,0
                98.6583160790001,19.6267063510001,0
                98.6582023010001,19.626676715,0
                98.6578660930001,19.6266123390001,0
                98.6575868350001,19.6265333580001,0
                98.657364548,19.626429973,0
                98.6572664510001,19.62632682,0
                98.6572149250001,19.6262237600001,0
                98.6571894520001,19.6260373960001,0
                98.6571585070001,19.6259883070001,0
                98.6571067720001,19.625983306,0
                98.6569772940001,19.626036992,0
                98.6568788650001,19.626090737,0
                98.656646863,19.626208385,0
                98.656459162,19.6262033100001,0
                98.65634262,19.6261646450001,0
                98.6562362280001,19.6261260150001,0
                98.6561147180001,19.6260393000001,0
                98.65584626,19.6259138780001,0
                98.655608117,19.6258413630001,0
                98.6553546590001,19.625812049,0
                98.655197506,19.625802134,0
                98.654999811,19.6257777340001,0
                98.6548527670001,19.625777452,0
                98.6546702430001,19.625777102,0
                98.6545180970001,19.625791233,0
                98.654426851,19.62578625,0
                98.6543406850001,19.625771663,0
                98.654244443,19.625723437,0
                98.654082369,19.62564145,0
                98.6540113930001,19.6256413140001,0
                98.653925169,19.62565557,0
                98.6538490570001,19.6256842510001,0
                98.653711995,19.625760857,0
                98.6536105500001,19.625779874,0
                98.653483802,19.625770016,0
                98.6533621290001,19.6257697820001,0
                98.6533063110001,19.625788904,0
                98.6532605530001,19.6258416640001,0
                98.6532452150001,19.6259040800001,0
                98.6532450190001,19.625995371,0
                98.65324473,19.626129894,0
                98.653208986,19.6262451170001,0
                98.6531529550001,19.626365111,0
                98.6530614850001,19.6264658420001,0
                98.6529498350001,19.6265136650001,0
                98.6527823470001,19.6265902110001,0
                98.6526453560001,19.6266331800001,0
                98.652543812,19.62669064,0
                98.652467576,19.626776976,0
                98.6524216610001,19.6269113930001,0
                98.652406129,19.6270555030001,0
                98.652370412,19.6271659380001,0
                98.6523043390001,19.62723787,0
                98.6522180840001,19.6272617230001,0
                98.6520760180001,19.6273142960001,0
                98.6519896950001,19.627371786,0
                98.6519692860001,19.627424595,0
                98.65195894,19.627525463,0
                98.6519587540001,19.627611928,0
                98.6519484200001,19.6276983920001,0
                98.6519076700001,19.6277895860001,0
                98.6518668290001,19.6279144320001,0
                98.6518261320001,19.627981607,0
                98.651775302,19.628034357,0
                98.6517041550001,19.628111087,0
                98.651632954,19.6282166440001,0
                98.6515363760001,19.628322154,0
                98.6514398310001,19.628422856,0
                98.6513026910001,19.628533094,0
                98.651195998,19.628633775,0
                98.651175413,19.628768259,0
                98.6511346410001,19.6288690690001,0
                98.6510636180001,19.6288833360001,0
                98.6509825200001,19.6288687740001,0
                98.6509268840001,19.6288062020001,0
                98.6508763040001,19.6287484480001,0
                98.6508205950001,19.6287195310001,0
                98.6507597440001,19.6287194130001,0
                98.6506684460001,19.628738448,0
                98.6505567730001,19.6287958880001,0
                98.650450101,19.6288869540001,0
                98.650308012,19.6289395250001,0
                98.65023196,19.6289393770001,0
                98.650150855,19.6289296050001,0
                98.6500698340001,19.6288814070001,0
                98.649968486,19.6288475920001,0
                98.6498417130001,19.6288569440001,0
                98.649714857,19.628904736,0
                98.6495929960001,19.6289813670001,0
                98.6494610410001,19.6290387660001,0
                98.6493596190001,19.6290481840001,0
                98.6492733600001,19.6290768440001,0
                98.6491617650001,19.6290958390001,0
                98.6490705020001,19.629090853,0
                98.648999609,19.6290522910001,0
                98.6489134390001,19.629037699,0
                98.6488222520001,19.628999096,0
                98.6487767900001,19.62892214,0
                98.6487616840001,19.628869261,0
                98.6486908630001,19.6287970450001,0
                98.6486402290001,19.628768118,0
                98.6485743750001,19.6287343720001,0
                98.648417313,19.628681219,0
                98.6483463470001,19.6286762710001,0
                98.6482600470001,19.628724144,0
                98.648153456,19.628776783,0
                98.64805197,19.6288054120001,0
                98.6479758170001,19.6288533050001,0
                98.6479401990001,19.6289060820001,0
                98.6479400950001,19.628954123,0
                98.6479449920001,19.629035807,0
                98.6479903860001,19.6291512080001,0
                98.648005362,19.629256933,0
                98.6480175170001,19.6293319270001,0
                98.6480045700001,19.629382563,0
                98.6480027160001,19.62943669,0
                98.6480075950001,19.6295279730001,0
                98.6480073850001,19.629624071,0
                98.6479462300001,19.6297632660001,0
                98.6478698750001,19.6299024480001,0
                98.6477428690001,19.630017491,0
                98.6476412380001,19.6301133910001,0
                98.6475193190001,19.6302236390001,0
                98.647417719,19.6303051150001,0
                98.647331464,19.630338581,0
                98.647133619,19.6303814250001,0
                98.646981436,19.6304099540001,0
                98.6469154590001,19.630443461,0
                98.6468493850001,19.630510584,0
                98.64679341,19.630601767,0
                98.646752383,19.6308178840001,0
                98.6467571540001,19.630947609,0
                98.6468024860001,19.631091821,0
                98.6468122380001,19.6312647890001,0
                98.64680193,19.631346443,0
                98.6467713690001,19.6314088460001,0
                98.646710414,19.631456767,0
                98.646644457,19.6314806570001,0
                98.6465734590001,19.631480518,0
                98.6464214270001,19.631446585,0
                98.6462288130001,19.631417378,0
                98.6461324840001,19.631407591,0
                98.6460665420001,19.6314266750001,0
                98.6459751070001,19.6314985550001,0
                98.6458123990001,19.631704819,0
                98.645771552,19.6318296470001,0
                98.6457612040001,19.631930534,0
                98.6457711630001,19.63200742,0
                98.645796337,19.6320891280001,0
                98.6457961360001,19.6321804180001,0
                98.645745118,19.63232444,0
                98.6456940890001,19.6324732850001,0
                98.645663368,19.6326077300001,0
                98.6455666690001,19.632775699,0
                98.645119353,19.6332792760001,0
                98.64504313,19.633355995,0
                98.644992228,19.633447167,0
                98.6449819420001,19.633509609,0
                98.6450419910001,19.633874856,0
                98.6450418530001,19.6339373010001,0
                98.645026504,19.6339949270001,0
                98.6449807700001,19.634042876,0
                98.644605018,19.6342871620001,0
                98.6445085500001,19.634339819,0
                98.6444526480001,19.6343973470001,0
                98.6443814150001,19.634512516,0
                98.6443812460001,19.634589385,0
                98.64440131,19.634685506,0
                98.6444062150001,19.6347623830001,0
                98.6444313540001,19.6348585310001,0
                98.6444970580001,19.634959549,0
                98.6446083470001,19.635079869,0
                98.644658871,19.635161645,0
                98.644668821,19.6352433390001,0
                98.644643257,19.6353393700001,0
                98.644612656,19.635420986,0
                98.6445567590001,19.635473722,0
                98.6443741080001,19.6355262110001,0
                98.6443334360001,19.6355789780001,0
                98.644318109,19.6356269890001,0
                98.6443180140001,19.6356702200001,0
                98.644338126,19.635747129,0
                98.6443835800001,19.6358337,0
                98.6444087980001,19.6358962140001,0
                98.6443883470001,19.6359730410001,0
                98.6443476680001,19.6360210020001,0
                98.6441294950001,19.6360830150001,0
                98.6440077280001,19.636111602,0
                98.643698488,19.6360869710001,0
                98.643586945,19.636081942,0
                98.6434855050001,19.636096164,0
                98.6433839580001,19.636153619,0
                98.6433483500001,19.636211185,0
                98.6433329430001,19.6362928300001,0
                98.6433575630001,19.636624371,0
                98.6433471720001,19.6367444700001,0
                98.6432962970001,19.636811621,0
                98.643098293,19.636931346,0
                98.6429410040001,19.63696946,0
                98.642869864,19.637041379,0
                98.6428036720001,19.637161367,0
                98.6427679050001,19.637291012,0
                98.6427068830001,19.637367759,0
                98.642640865,19.63741086,0
                98.642514018,19.637449051,0
                98.6423973060001,19.637487245,0
                98.64226025,19.6375542440001,0
                98.642016475,19.637726706,0
                98.6417575500001,19.63787512,0
                98.641650923,19.6379325620001,0
                98.6415291850001,19.6379563400001,0
                98.641453111,19.637965804,0
                98.6413618820001,19.6379416030001,0
                98.6412200290001,19.6378836650001,0
                98.6410629540001,19.6378353100001,0
                98.6409260680001,19.637825422,0
                98.6407992730001,19.6378395740001,0
                98.6406621410001,19.637940207,0
                98.6405504460001,19.6380024270001,0
                98.6404589960001,19.6380791130001,0
                98.6404181540001,19.6381991490001,0
                98.640306363,19.638304605,0
                98.6400523410001,19.63852991,0
                98.6399964340001,19.638587455,0
                98.6399353890001,19.6386737990001,0
                98.6399300790001,19.6387794830001,0
                98.6399298540001,19.638880371,0
                98.6399093850001,19.638966813,0
                98.639771984,19.639187527,0
                98.639746458,19.639264342,0
                98.6397361180001,19.639350806,0
                98.6397359570001,19.639422865,0
                98.6397003040001,19.639499663,0
                98.6396393000001,19.6395668110001,0
                98.6395529790001,19.6396194860001,0
                98.6394768900001,19.639633739,0
                98.639416005,19.6396480390001,0
                98.6392994380001,19.639618978,0
                98.6392133510001,19.639565958,0
                98.6391374140001,19.6395129580001,0
                98.6389854120001,19.639464612,0
                98.638868819,19.639445149,0
                98.638742096,19.6394304880001,0
                98.63863559,19.6394302740001,0
                98.6385392240001,19.639444487,0
                98.638422485,19.63949231,0
                98.638295531,19.63957852,0
                98.6377701530001,19.6399575460001,0
                98.6373460450001,19.6397430860001,0
                98.6370122540001,19.6395657910001,0
                98.6368669780001,19.6394685670001,0
                98.63670833,19.639250702,0
                98.6365020040001,19.639004738,0
                98.6362707650001,19.6387177980001,0
                98.6361145340001,19.6384374730001,0
                98.636039839,19.6382930070001,0
                98.635930886,19.63821955,0
                98.6357673300001,19.6381632170001,0
                98.6355582560001,19.6381304880001,0
                98.6354627460001,19.638143217,0
                98.6353807790001,19.638199054,0
                98.635184769,19.638418356,0
                98.6349934250001,19.638588129,0
                98.6347748790001,19.6387212290001,0
                98.63428558,19.638952858,0
                98.63375075,19.6392123950001,0
                98.633409224,19.639440017,0
                98.6332178870001,19.639605482,0
                98.6330355360001,19.639816194,0
                98.632967152,19.639897906,0
                98.6328670380001,19.6399343190001,0
                98.6327943080001,19.6399255540001,0
                98.632698954,19.6398693580001,0
                98.632637828,19.63975723,0
                98.632601767,19.639619301,0
                98.6325596670001,19.6391388870001,0
                98.6325376660001,19.639148047,0
                98.6324731990001,19.6392524720001,0
                98.632371543,19.639362767,0
                98.6323155860001,19.6394395190001,0
                98.6322749780001,19.6394538600001,0
                98.6322192000001,19.6394537460001,0
                98.6320823780001,19.6394150240001,0
                98.6320316740001,19.63941492,0
                98.6319707660001,19.6394388150001,0
                98.6319098310001,19.6394771330001,0
                98.6317878340001,19.63961139,0
                98.6317268160001,19.6396833430001,0
                98.631665834,19.6397408550001,0
                98.6315947740001,19.639774345,0
                98.631569346,19.639807928,0
                98.631564139,19.6398655730001,0
                98.6315791980001,19.6399376640001,0
                98.6315739920001,19.639995309,0
                98.6315534430001,19.6401057530001,0
                98.6315533330001,19.6401538110001,0
                98.6315683820001,19.640230709,0
                98.6316644090001,19.6403654110001,0
                98.6317402870001,19.6404520510001,0
                98.631806118,19.64048582,0
                98.6319125470001,19.640510057,0
                98.6320139310001,19.640529477,0
                98.6320645590001,19.640563217,0
                98.632140452,19.6406354320001,0
                98.632251877,19.6406933150001,0
                98.6324089560001,19.6407416760001,0
                98.632525533,19.640765935,0
                98.632611743,19.6407661110001,0
                98.6328498180001,19.640872292,0
                98.6329055200001,19.640906042,0
                98.63293587,19.6409397210001,0
                98.632950953,19.6409925990001,0
                98.6329457790001,19.641045438,0
                98.6329050290001,19.641122221,0
                98.6328033570001,19.6412373250001,0
                98.632645826,19.6413811240001,0
                98.632630519,19.641424344,0
                98.632625325,19.64147718,0
                98.6326200870001,19.6415492300001,0
                98.6326500110001,19.6417702800001,0
                98.6326752360001,19.6418279870001,0
                98.632675105,19.641885643,0
                98.6326699580001,19.6419240560001,0
                98.6326191250001,19.6419720100001,0
                98.632314405,19.6421779720001,0
                98.6320655170001,19.642369624,0
                98.63200964,19.642412742,0
                98.631826946,19.642470024,0
                98.6317863800001,19.642474749,0
                98.6317609870001,19.6424939080001,0
                98.6317406100001,19.6425275020001,0
                98.6317354450001,19.6425755330001,0
                98.6317404010001,19.6426187930001,0
                98.631775727,19.642695733,0
                98.6318211390001,19.6427919060001,0
                98.631841336,19.642835921,0
                98.631847113,19.6428962270001,0
                98.631854629,19.6429213820001,0
                98.6318646600001,19.642939352,0
                98.6318806290001,19.642955108,0
                98.6319139020001,19.642978871,0
                98.631952686,19.6430116820001,0
                98.6319737300001,19.643027359,0
                98.6320020150001,19.6430386590001,0
                98.63217009,19.6430921040001,0
                98.632197627,19.6431047030001,0
                98.632230265,19.643122066,0
                98.6323805850001,19.6432159770001,0
                98.6324130980001,19.643230069,0
                98.632440783,19.6432359460001,0
                98.6325027720001,19.643240265,0
                98.6326067730001,19.6432508710001,0
                98.6326302080001,19.6432554190001,0
                98.6326569540001,19.6432634980001,0
                98.6327029500001,19.6432810330001,0
                98.6327283270001,19.643293629,0
                98.632750494,19.6433106260001,0
                98.6327767230001,19.643335585,0
                98.632790437,19.6433540310001,0
                98.6327980440001,19.643372572,0
                98.6328105260001,19.6434122520001,0
                98.6328201920001,19.643439852,0
                98.6328258400001,19.643455967,0
                98.6328224950001,19.643483884,0
                98.6328149930001,19.6435034790001,0
                98.632802692,19.6435182930001,0
                98.632778343,19.643538123,0
                98.6327623130001,19.643550544,0
                98.6327401710001,19.6435554510001,0
                98.6326786430001,19.643557404,0
                98.6325712620001,19.6435571850001,0
                98.6325382530001,19.643543526,0
                98.6325203210001,19.643526464,0
                98.6324950590001,19.6435195440001,0
                98.6324724230001,19.643524848,0
                98.6324456030001,19.6435407170001,0
                98.632418692,19.643546154,0
                98.6323943850001,19.643556335,0
                98.632379079,19.6435674910001,0
                98.6321979520001,19.6436822530001,0
                98.632164016,19.6436902250001,0
                98.6321357450001,19.643698193,0
                98.6321103110001,19.643700816,0
                98.6320904980001,19.6437141660001,0
                98.632087428,19.6437170670001,0
                98.6309431810001,19.643141859,0
                98.630562474,19.643050854,0
                98.6296619600001,19.642833856,0
                98.6286736430001,19.64257503,0
                98.6281761830001,19.642289449,0
                98.627474212,19.641746659,0
                98.6270062790001,19.641363976,0
                98.6267812080001,19.6411043860001,0
                98.6267478880001,19.6410153690001,0
                98.626754711,19.640964556,0
                98.6268085440001,19.6408820720001,0
                98.626966537,19.6407076790001,0
                98.626980088,19.6406473500001,0
                98.6269466570001,19.640605986,0
                98.626722091,19.640570574,0
                98.6265410490001,19.640563845,0
                98.6263065250001,19.6404871190001,0
                98.626175807,19.640467788,0
                98.6261055360001,19.640407285,0
                98.6260019060001,19.640273645,0
                98.6258881790001,19.6401558700001,0
                98.6257474540001,19.6401142820001,0
                98.6255464370001,19.640047151,0
                98.6254125070001,19.639967455,0
                98.6253087570001,19.639884647,0
                98.6252183280001,19.6398431590001,0
                98.625097785,19.6397730210001,0
                98.6250611010001,19.6396871760001,0
                98.6250513530001,19.6395537290001,0
                98.625072,19.639325049,0
                98.62504526,19.639290052,0
                98.6249748580001,19.6392867280001,0
                98.6248843060001,19.6392960690001,0
                98.6247938390001,19.63927047,0
                98.624750459,19.6391814290001,0
                98.6247374530001,19.6390066810001,0
                98.624714038,19.638984398,0
                98.6246335910001,19.6389747000001,0
                98.624589943,19.6390000210001,0
                98.624549517,19.6390825300001,0
                98.6244955070001,19.6392380770001,0
                98.624428148,19.6393681820001,0
                98.62435759,19.639431567,0
                98.6242871210001,19.6394568370001,0
                98.6240155690001,19.639443563,0
                98.623911622,19.6394465230001,0
                98.6238042410001,19.6394844160001,0
                98.6237538180001,19.639541491,0
                98.6237234700001,19.639614491,0
                98.623709762,19.63974153,0
                98.6236559020001,19.639833545,0
                98.6236021970001,19.6398588480001,0
                98.623515023,19.6398586660001,0
                98.623364171,19.63984564,0
                98.6232099850001,19.639826258,0
                98.623065737,19.6398577250001,0
                98.6229381960001,19.6399146380001,0
                98.6227333450001,19.640053983,0
                98.622387458,19.640285158,0
                98.622316948,19.640326305,0
                98.622223008,19.640351523,0
                98.621971439,19.6403954690001,0
                98.6216492200001,19.640540919,0
                98.6214946420001,19.6406867200001,0
                98.6213735620001,19.64084848,0
                98.6213432790001,19.6408928910001,0
                98.6212089410001,19.6409879070001,0
                98.6211149680001,19.641025832,0
                98.620974118,19.6410382390001,0
                98.6208937100001,19.6410126590001,0
                98.6207530230001,19.640955182,0
                98.6206088750001,19.6409421720001,0
                98.620461348,19.640941861,0
                98.620404379,19.640929031,0
                98.6200326850001,19.6407249380001,0
                98.6199120110001,19.640711976,0
                98.6197946190001,19.640730788,0
                98.6196333940001,19.640851162,0
                98.619435169,19.6410222870001,0
                98.6193513040001,19.641041167,0
                98.619311081,19.641034728,0
                98.619086973,19.640808712,0
                98.61902674,19.6407577520001,0
                98.6189094470001,19.6407320920001,0
                98.6187819410001,19.6407731190001,0
                98.618557003,19.6408965360001,0
                98.6181605880001,19.641222892,0
                98.6180126720001,19.6413877680001,0
                98.617901341,19.6416766130001,0
                98.617723116,19.641895429,0
                98.6175950670001,19.6421651750001,0
                98.6175555460001,19.6423617740001,0
                98.617555456,19.6428049790001,0
                98.6175552190001,19.6429053250001,0
                98.6175492180001,19.6429499000001,0
                98.617484281,19.6430389560001,0
                98.6174605750001,19.643116965,0
                98.6174603100001,19.643228462,0
                98.6175248390001,19.643312209,0
                98.617524614,19.643406988,0
                98.6174535970001,19.643574073,0
                98.617424009,19.643646486,0
                98.617370775,19.643763456,0
                98.617346733,19.6439752470001,0
                98.617334725,19.644075566,0
                98.6172874250001,19.6441758120001,0
                98.617193065,19.644259221,0
                98.6170634490001,19.6443370050001,0
                98.617004422,19.6444093370001,0
                98.6169688140001,19.6445430630001,0
                98.6169685890001,19.644637839,0
                98.6169915450001,19.6448776020001,0
                98.6170205800001,19.6450449010001,0
                98.617026089,19.6452010140001,0
                98.6170081220001,19.6453347770001,0
                98.6170076060001,19.645552185,0
                98.6170309030001,19.6456470150001,0
                98.6170895820001,19.6457196150001,0
                98.6171835550001,19.645792273,0
                98.6172599480001,19.645837041,0
                98.6173540630001,19.645848394,0
                98.617442162,19.6459210560001,0
                98.6175242840001,19.646027143,0
                98.617594781,19.6460719,0
                98.6176946740001,19.6461334370001,0
                98.6179356960001,19.6462287090001,0
                98.6180179690001,19.646279056,0
                98.618064878,19.646346065,0
                98.6180646930001,19.646424107,0
                98.6180172300001,19.646591243,0
                98.6177814380001,19.646769149,0
                98.617681266,19.6468246750001,0
                98.6175574430001,19.646935909,0
                98.617415727,19.6471418840001,0
                98.6173390430001,19.6472197630001,0
                98.617268267,19.647292087,0
                98.6171792320001,19.6476152390001,0
                98.6171907250001,19.6477323280001,0
                98.6172258650001,19.647804878,0
                98.6172669320001,19.647855137,0
                98.6173316480001,19.6478608420001,0
                98.6174787640001,19.647855588,0
                98.6175375710001,19.647866865,0
                98.617572738,19.647928264,0
                98.6175726060001,19.647984003,0
                98.6175606370001,19.6480676050001,0
                98.6174956570001,19.6481733790001,0
                98.6174308010001,19.648228999,0
                98.617442317,19.648334936,0
                98.6174774830001,19.648396335,0
                98.6174714300001,19.6484632310001,0
                98.6173476420001,19.6485577280001,0
                98.617276959,19.6485910320001,0
                98.6172061240001,19.6486800760001,0
                98.617170743,19.6487190230001,0
                98.6171411970001,19.648763564,0
                98.6171881600001,19.6488138390001,0
                98.617993815,19.649021809,0
                98.6180702610001,19.6490442740001,0
                98.6181288760001,19.6491447450001,0
                98.6181404580001,19.649217245,0
                98.6181285060001,19.6493008460001,0
                98.618087115,19.6493788010001,0
                98.617857201,19.649562286,0
                98.617751034,19.6496679730001,0
                98.6176744140001,19.649717982,0
                98.61762143,19.649729022,0
                98.6174860830001,19.6497343190001,0
                98.6173623430001,19.649800945,0
                98.617161847,19.649984493,0
                98.616932057,19.6501122180001,0
                98.6168083170001,19.6501788460001,0
                98.6167139090001,19.6502901420001,0
                98.6166959550001,19.6504183380001,0
                98.6166957030001,19.6505242490001,0
                98.6166954780001,19.6506190280001,0
                98.6166717120001,19.650713737,0
                98.6165948400001,19.6508696770001,0
                98.616582845,19.6509644120001,0
                98.6165826590001,19.6510424730001,0
                98.6166118570001,19.6511428800001,0
                98.6167053820001,19.651405095,0
                98.6168166200001,19.6516394760001,0
                98.6169277180001,19.651940751,0
                98.616951036,19.652035561,0
                98.616927215,19.652152592,0
                98.6169094320001,19.652202726,0
                98.6168504110001,19.6522806450001,0
                98.6167029730001,19.652419697,0
                98.6166321360001,19.652508739,0
                98.6166024670001,19.652614606,0
                98.6166020960001,19.6527706910001,0
                98.6165783690001,19.652848702,0
                98.6164483910001,19.6530658340001,0
                98.6163597400001,19.6532328810001,0
                98.6163124460001,19.653321991,0
                98.616276886,19.6534334130001,0
                98.6162647610001,19.6535839060001,0
                98.6162468000001,19.653706497,0
                98.6161759400001,19.6538122760001,0
                98.6160224330001,19.654023791,0
                98.6159751970001,19.6540961650001,0
                98.615945561,19.654179712,0
                98.6159276130001,19.654307907,0
                98.615868574,19.654391391,0
                98.6155795670001,19.654669524,0
                98.6155323510001,19.654725162,0
                98.6155086800001,19.654780869,0
                98.6154964940001,19.6549536650001,0
                98.615478678,19.655026084,0
                98.6154550130001,19.655076206,0
                98.6154019460001,19.6551206990001,0
                98.6151487180001,19.655203784,0
                98.615066223,19.6552537800001,0
                98.6150130980001,19.6553205590001,0
                98.6149952740001,19.655387429,0
                98.614989225,19.655459874,0
                98.614988812,19.6556326950001,0
                98.6149827360001,19.655716308,0
                98.6149590750001,19.65576643,0
                98.6148824530001,19.655816439,0
                98.6147175170001,19.655882977,0
                98.6145350050001,19.655927191,0
                98.6144701710001,19.6559716580001,0
                98.6143934120001,19.6560774060001,0
                98.6141748350001,19.6564281450001,0
                98.6141452040001,19.656517276,0
                98.6140861390001,19.6566119280001,0
                98.6140035160001,19.6567065300001,0
                98.6138797470001,19.656789872,0
                98.6134198570001,19.657162397,0
                98.6133607890001,19.6572570490001,0
                98.613342962,19.657323902,0
                98.6133427350001,19.657418679,0
                98.6133483500001,19.657535755,0
                98.613371713,19.6576027150001,0
                98.6133950820001,19.657675222,0
                98.6133948280001,19.657781153,0
                98.6133591060001,19.6579594630001,0
                98.6133294800001,19.658037442,0
                98.6132999060001,19.6581042870001,0
                98.6132409460001,19.658154332,0
                98.6131526070001,19.658182013,0
                98.6130936800001,19.6582097560001,0
                98.6130641670001,19.658248714,0
                98.613064046,19.6582988860001,0
                98.6131166650001,19.658443951,0
                98.6131400300001,19.658516476,0
                98.6131456780001,19.658611249,0
                98.6131278710001,19.65867812,0
                98.6130865210001,19.658744922,0
                98.612874274,19.658911721,0
                98.6127681900001,19.658978382,0
                98.612703368,19.659017265,0
                98.6125913180001,19.6591118000001,0
                98.612402483,19.659334389,0
                98.6123199240001,19.659406668,0
                98.6122727060001,19.6594623230001,0
                98.6122607870001,19.6595236220001,0
                98.6122606260001,19.659590512,0
                98.61227225,19.659651861,0
                98.6123309060001,19.659735615,0
                98.6124190690001,19.659774826,0
                98.6124777790001,19.6598362780001,0
                98.6125422040001,19.659964631,0
                98.6125950320001,19.6600205030001,0
                98.6126832140001,19.6600597140001,0
                98.6127302390001,19.6600765330001,0
                98.612777232,19.6601156570001,0
                98.6128006000001,19.6601881820001,0
                98.6128003060001,19.6603108300001,0
                98.6127939300001,19.6605115080001,0
                98.6128171550001,19.6606453570001,0
                98.6128342640001,19.6608683870001,0
                98.6128522240001,19.66098491,0
                98.6128606120001,19.6610190160001,0
                98.6128753260001,19.661057129,0
                98.6128922,19.661087222,0
                98.6129238650001,19.661111347,0
                98.612993583,19.6611576020001,0
                98.6130231490001,19.6611837290001,0
                98.6130294500001,19.661205793,0
                98.6130462090001,19.661273985,0
                98.6130503200001,19.661326117,0
                98.6130460210001,19.6613521520001,0
                98.6130290360001,19.6613781790001,0
                98.6130057170001,19.661396165,0
                98.6128828490001,19.661452039,0
                98.6128595340001,19.66146802,0
                98.612857379,19.661484047,0
                98.6128573400001,19.661500097,0
                98.6128572870001,19.661522147,0
                98.612861481,19.6615401930001,0
                98.6128720390001,19.6615522340001,0
                98.6129015930001,19.661576355,0
                98.613007247,19.661640725,0
                98.6130558130001,19.66168493,0
                98.613070539,19.6617170430001,0
                98.613074698,19.661749114,0
                98.613074607,19.661787195,0
                98.6130679410001,19.6619174750001,0
                98.613061309,19.662033729,0
                98.61304211,19.662099837,0
                98.613020846,19.662143891,0
                98.6129974300001,19.6622019650001,0
                98.6129867600001,19.6622440370001,0
                98.6129866540001,19.6622881370001,0
                98.6129886470001,19.6623322410001,0
                98.6130033750001,19.662372379,0
                98.613030806,19.662406506,0
                98.6131046240001,19.662500885,0
                98.6131151160001,19.662540994,0
                98.6131065150001,19.662595088,0
                98.6130721790001,19.6627994830001,0
                98.6130508950001,19.662851561,0
                98.6130232890001,19.662891589,0
                98.6129893460001,19.6629235790001,0
                98.6129638410001,19.662969629,0
                98.6129488780001,19.663035748,0
                98.6129423850001,19.6630938760001,0
                98.612948401,19.6632341960001,0
                98.612950326,19.6633163820001,0
                98.6129755140001,19.6634006240001,0
                98.6130007350001,19.663472846,0
                98.6130005810001,19.663536989,0
                98.6129983280001,19.6635931220001,0
                98.6129789110001,19.663749436,0
                98.6129597030001,19.663819539,0
                98.6129341700001,19.663877626,0
                98.6128896390001,19.6639176200001,0
                98.612813364,19.663955537,0
                98.6127646950001,19.663955432,0
                98.6127117990001,19.663951304,0
                98.612646225,19.6639431570001,0
                98.6125870290001,19.6639249720001,0
                98.6125468480001,19.6639088540001,0
                98.612515187,19.6638827250001,0
                98.6124877240001,19.663860615,0
                98.6124623310001,19.663860561,0
                98.6124347850001,19.6638745450001,0
                98.61238596,19.6639385840001,0
                98.612368926,19.6639846520001,0
                98.6123328360001,19.6640366820001,0
                98.6122650010001,19.6640886600001,0
                98.6121929350001,19.664138623,0
                98.6121357110001,19.664172568,0
                98.61208057,19.664230575,0
                98.612076201,19.664284695,0
                98.612097276,19.664320816,0
                98.612113987,19.664409053,0
                98.612115981,19.6644591740001,0
                98.6121158460001,19.664515293,0
                98.612098759,19.6645834130001,0
                98.612083834,19.664625475,0
                98.6120773690001,19.664679591,0
                98.6120750870001,19.664747742,0
                98.612068579,19.664811872,0
                98.6120409700001,19.6648519,0
                98.6120049250001,19.6648858900001,0
                98.612002707,19.6649279800001,0
                98.6120047470001,19.664960066,0
                98.6120194840001,19.6649881650001,0
                98.6120384820001,19.665006244,0
                98.6120722690001,19.665040386,0
                98.6120932890001,19.665096568,0
                98.6120931780001,19.665142674,0
                98.612112654,19.6652713830001,0
                98.612037716,19.665292892,0
                98.6119586170001,19.6653390440001,0
                98.6118529890001,19.6654599830001,0
                98.6117586650001,19.665577365,0
                98.611683187,19.6656734270001,0
                98.61161157,19.6657338570001,0
                98.611528702,19.6657764390001,0
                98.6114684840001,19.6657941300001,0
                98.6113969340001,19.665818916,0
                98.6113441990001,19.6658508670001,0
                98.6112951870001,19.665897102,0
                98.6112423640001,19.66595757,0
                98.611182075,19.666003763,0
                98.6111029740001,19.6660427940001,0
                98.6109597600001,19.6661565100001,0
                98.6108768000001,19.6662382960001,0
                98.610805154,19.6663094040001,0
                98.610752312,19.6663770120001,0
                98.6107145350001,19.6664481940001,0
                98.610703147,19.6664873710001,0
                98.6107030000001,19.666547956,0
                98.6107254410001,19.6666014480001,0
                98.6108005500001,19.6666515110001,0
                98.6108418040001,19.6667050460001,0
                98.6108567470001,19.6667514010001,0
                98.610864108,19.6668155780001,0
                98.610867662,19.6669082330001,0
                98.6108373580001,19.666990131,0
                98.610803348,19.667057761,0
                98.6107165050001,19.6671894200001,0
                98.6106637410001,19.6672249480001,0
                98.6106072150001,19.667271149,0
                98.6105694660001,19.6673209680001,0
                98.610550517,19.667377932,0
                98.610550388,19.6674313930001,0
                98.6105464350001,19.667513349,0
                98.610546211,19.667605994,0
                98.610579763,19.6677343540001,0
                98.6105833060001,19.6678234660001,0
                98.6105756060001,19.667891153,0
                98.610552812,19.6679837500001,0
                98.6105225250001,19.668065649,0
                98.610477238,19.668126134,0
                98.610398118,19.6681722860001,0
                98.6103190010001,19.6682255750001,0
                98.6102662220001,19.668275345,0
                98.6102547610001,19.668343024,0
                98.6102507620001,19.668442799,0
                98.6102505900001,19.668514083,0
                98.6102729890001,19.668585396,0
                98.6102991720001,19.6686460350001,0
                98.6103102860001,19.6687209020001,0
                98.6103138460001,19.6688028560001,0
                98.6103099330001,19.6688669920001,0
                98.6102872150001,19.6689275260001,0
                98.6102645510001,19.6689666780001,0
                98.610204148,19.669052073,0
                98.6101325370001,19.6691089400001,0
                98.610023277,19.6691764070001,0
                98.609951648,19.6692332740001,0
                98.6098573290001,19.669347096,0
                98.6098157480001,19.6694289700001,0
                98.6097890930001,19.66947623,0
                98.6097410820001,19.669494833,0
                98.6096874890001,19.669494716,0
                98.6096367430001,19.6694759000001,0
                98.609603039,19.669463932,0
                98.6095155200001,19.6694328730001,0
                98.609428117,19.6694086270001,0
                98.6092730340001,19.6693708780001,0
                98.6092053020001,19.6693707310001,0
                98.6091290950001,19.6693892700001,0
                98.60905847,19.669423872,0
                98.6090019090001,19.6694745190001,0
                98.608965083,19.669538582,0
                98.6089423500001,19.669605351,0
                98.6089252450001,19.6696801580001,0
                98.6088940970001,19.6697228520001,0
                98.6088404390001,19.669741441,0
                98.608783986,19.6697573500001,0
                98.6087077390001,19.669781239,0
                98.6086343000001,19.669813161,0
                98.6085693430001,19.669842407,0
                98.6084676290001,19.669895648,0
                98.6083545760001,19.66997825,0
                98.6083177900001,19.6700236080001,0
                98.6082302010001,19.670076878,0
                98.60816235,19.6701328500001,0
                98.6081114470001,19.6701808510001,0
                98.608057661,19.670250228,0
                98.6079698810001,19.6703809970001,0
                98.6079190080001,19.670415624,0
                98.6078738180001,19.670434233,0
                98.6078060730001,19.6704474590001,0
                98.6077609100001,19.670455367,0
                98.6076874980001,19.670476588,0
                98.607645054,19.6705272840001,0
                98.6076111610001,19.670545916,0
                98.6075716430001,19.6705485040001,0
                98.6075152290001,19.670545706,0
                98.607450326,19.67054289,0
                98.6073882480001,19.670548103,0
                98.607323303,19.670572017,0
                98.6072724050001,19.6706146670001,0
                98.6072497360001,19.670654707,0
                98.6072496450001,19.670692119,0
                98.6072326500001,19.670721487,0
                98.60719312,19.6707374320001,0
                98.6071451230001,19.670748028,0
                98.6071027520001,19.6707693160001,0
                98.6070461450001,19.670838686,0
                98.6070023950001,19.670956485,0
                98.6069607970001,19.671045479,0
                98.60686653,19.6711272380001,0
                98.606708315,19.671215976,0
                98.6066216830001,19.6712585490001,0
                98.6063468950001,19.6713292310001,0
                98.6061511250001,19.6713893670001,0
                98.605823656,19.67145993,0
                98.605755877,19.671484724,0
                98.605673041,19.6715201820001,0
                98.6056165200001,19.6715556820001,0
                98.605571286,19.671591225,0
                98.6055297450001,19.6716552770001,0
                98.605510784,19.6717158170001,0
                98.60549554,19.671801309,0
                98.605491596,19.6718690050001,0
                98.605480093,19.671961643,0
                98.6054783490001,19.6719714220001,0
                98.6054435680001,19.6724412560001,0
                98.6052262680001,19.6727740150001,0
                98.605009151,19.673029876,0
                98.6046704510001,19.6732085670001,0
                98.602951137,19.67358928,0
                98.6025019580001,19.673668317,0
                98.600731748,19.6740102420001,0
                98.600527916,19.6740965820001,0
                98.5998916630001,19.6742233370001,0
                98.5997201750001,19.674231391,0
                98.5996672350001,19.67423388,0
                98.5988496860001,19.674272279,0
                98.597699585,19.6742016050001,0
                98.596901583,19.674152566,0
                98.5956293290001,19.6743035120001,0
                98.5948037110001,19.674404183,0
                98.59423488,19.6746207850001,0
                98.5935845070001,19.674978187,0
                98.592649151,19.675668177,0
                98.592296252,19.6761031510001,0
                98.5921774650001,19.676292529,0
                98.592173991,19.676295123,0
                98.592051874,19.6764294230001,0
                98.5917400040001,19.67669146,0
                98.5909132640001,19.677227886,0
                98.590465544,19.6777010860001,0
                98.590058415,19.678174379,0
                98.5898681680001,19.6784943690001,0
                98.5897449510001,19.6790580270001,0
                98.5896489040001,19.679276788,0
                98.5894595610001,19.6795444100001,0
                98.588957511,19.6800943860001,0
                98.588048841,19.6809125830001,0
                98.587997036,19.680964241,0
                98.5871633250001,19.681795671,0
                98.587112797,19.681846057,0
                98.586872241,19.682187524,0
                98.5861167960001,19.6832044720001,0
                98.5854430620001,19.683944167,0
                98.5851846140001,19.6844690610001,0
                98.5851024710001,19.684840556,0
                98.5850888410001,19.685446422,0
                98.5848886510001,19.686505782,0
                98.5849294560001,19.6874911210001,0
                98.5854864510001,19.689996579,0
                98.585484126,19.690899717,0
                98.5853564350001,19.6913136250001,0
                98.5850794340001,19.6916616710001,0
                98.584925453,19.6918551410001,0
                98.5849084290001,19.691876528,0
                98.5849007790001,19.691882272,0
                98.5841762780001,19.6924259580001,0
                98.583999502,19.692758785,0
                98.58390395,19.693078982,0
                98.583827113,19.6940468810001,0
                98.5836857230001,19.6947254670001,0
                98.5835334440001,19.6950647250001,0
                98.583406756,19.6953095010001,0
                98.5832652160001,19.69572005,0
                98.5832185880001,19.6964610220001,0
                98.58307955,19.6978961830001,0
                98.5828486080001,19.6987028450001,0
                98.58284753,19.698706599,0
                98.5825683930001,19.699283586,0
                98.582561694,19.6992920060001,0
                98.582330906,19.699573436,0
                98.582099719,19.6998155270001,0
                98.5818833970001,19.6999312630001,0
                98.5811917990001,19.700480773,0
                98.5807033510001,19.7009666710001,0
                98.5793872610001,19.702061671,0
                98.579197938,19.702219192,0
                98.5789398690001,19.7023812580001,0
                98.5781281810001,19.7027465730001,0
                98.5771741470001,19.7029085360001,0
                98.5755699320001,19.703068956,0
                98.572261381,19.704375085,0
                98.5734172990001,19.704252339,0
                98.5739095970001,19.704253508,0
                98.574742369,19.7043869890001,0
                98.575700522,19.704843544,0
                98.5767970620001,19.705479747,0
                98.577653678,19.706151242,0
                98.5781953470001,19.7065828950001,0
                98.578749955,19.706895027,0
                98.5795572790001,19.70711211,0
                98.580137355,19.7073406120001,0
                98.5804776250001,19.7075565980001,0
                98.580830017,19.70796389,0
                98.581219348,19.708729916,0
                98.5814713190001,19.7089217830001,0
                98.5820009120001,19.709150161,0
                98.582971892,19.7095469340001,0
                98.5837030320001,19.709943147,0
                98.584282321,19.7104824640001,0
                98.584647261,19.7109256410001,0
                98.585126094,19.711261488,0
                98.586046325,19.711765723,0
                98.5870295550001,19.7123179160001,0
                98.5877097320001,19.712905274,0
                98.588666415,19.7139714620001,0
                98.5893332480001,19.714845702,0
                98.589697877,19.7154203740001,0
                98.589962309,19.715683988,0
                98.5901262690001,19.7157441360001,0
                98.5903030040001,19.7157445400001,0
                98.590644307,19.7155659950001,0
                98.591377073,19.7153405230001,0
                98.5919200530001,19.715281985,0
                98.5925261820001,19.715211632,0
                98.5930314400001,19.71509323,0
                98.5936003020001,19.714783692,0
                98.5939783700001,19.7143841880001,0
                98.5945434660001,19.714145117,0
                98.5947824510001,19.7139062420001,0
                98.5953325410001,19.7136877520001,0
                98.5959768650001,19.71348597,0
                98.596582895,19.7134514690001,0
                98.5972770230001,19.7135247590001,0
                98.5977689040001,19.7137051870001,0
                98.5981223700001,19.7137059790001,0
                98.5987917900001,19.713564019,0
                98.599461207,19.7134220570001,0
                98.6002319720001,19.7131368560001,0
                98.6009148700001,19.7126482240001,0
                98.6009420410001,19.7126243820001,0
                98.601302961,19.712535911,0
                98.6024646330001,19.711727421,0
                98.602717677,19.7112987580001,0
                98.603180685,19.7107249170001,0
                98.6035330190001,19.7106097290001,0
                98.604872115,19.710206214,0
                98.605680433,19.7100406230001,0
                98.606337265,19.709874696,0
                98.6067292380001,19.7096125460001,0
                98.6070579730001,19.7093980770001,0
                98.6073612580001,19.7092672360001,0
                98.60789156,19.7092205770001,0
                98.6084344280001,19.709197852,0
                98.6091157760001,19.709330843,0
                98.609506465,19.709594704,0
                98.609985463,19.7098826650001,0
                98.6106666690001,19.710075424,0
                98.61162577,19.710197054,0
                98.612345168,19.710258384,0
                98.612774023,19.71040277,0
                98.6132020740001,19.7108818940001,0
                98.613806229,19.7116244040001,0
                98.614334876,19.7122711100001,0
                98.6145357080001,19.712749742,0
                98.6147480500001,19.7136946420001,0
                98.614999153,19.7142690200001,0
                98.615085832,19.7149745510001,0
                98.61514715,19.7157278450001,0
                98.615234403,19.716194278,0
                98.6155112450001,19.716565475,0
                98.6161030050001,19.7172242670001,0
                98.6164055290001,19.7174161930001,0
                98.6166201380001,19.7174166520001,0
                98.6171508630001,19.717202598,0
                98.6177322820001,19.7169049620001,0
                98.6183390610001,19.7165595600001,0
                98.618698501,19.716269127,0
                98.6187379240001,19.716251798,0
                98.6192932270001,19.715871169,0
                98.6198996400001,19.715298653,0
                98.620304332,19.71477308,0
                98.6205667360001,19.7143284380001,0
                98.621273896,19.71399546,0
                98.6222463540001,19.7138181870001,0
                98.6228145110001,19.713783517,0
                98.6233065330001,19.713916055,0
                98.624100662,19.714419832,0
                98.6247435330001,19.714827648,0
                98.6254496670001,19.715175819,0
                98.6264086150001,19.715381053,0
                98.626812165,19.7155612180001,0
                98.6270385660001,19.715920339,0
                98.6272265690001,19.7165065240001,0
                98.6275905630001,19.7174158610001,0
                98.627702576,19.718109483,0
                98.6278774880001,19.718898875,0
                98.6280777330001,19.719652454,0
                98.6281019310001,19.720106795,0
                98.6279747460001,19.720513,0
                98.627657975,19.7210144530001,0
                98.627467778,19.7213727070001,0
                98.627214597,19.7216710550001,0
                98.6267846440001,19.7219809900001,0
                98.6264173660001,19.7224823350001,0
                98.6261129310001,19.723103359,0
                98.6259097970001,19.7235930900001,0
                98.6257050470001,19.7247762060001,0
                98.6253736290001,19.726138382,0
                98.625321709,19.726747975,0
                98.62539573,19.727489341,0
                98.6254953380001,19.7280872970001,0
                98.625772419,19.728374794,0
                98.626150834,19.7285190440001,0
                98.626706196,19.728579977,0
                98.6274640020001,19.7284500490001,0
                98.628108292,19.728272062,0
                98.6291309980001,19.7282383150001,0
                98.6303553760001,19.72834844,0
                98.631768772,19.7286143590001,0
                98.6327528140001,19.728927207,0
                98.633471678,19.729263417,0
                98.6338502130001,19.7293598310001,0
                98.634140781,19.72927674,0
                98.6344314840001,19.7291338740001,0
                98.6347218070001,19.729158376,0
                98.634936161,19.7292783620001,0
                98.6352384570001,19.729589806,0
                98.6356280730001,19.730367673,0
                98.6360298860001,19.7313368430001,0
                98.6364071560001,19.7319951320001,0
                98.6366212710001,19.7322227120001,0
                98.6371003580001,19.732522557,0
                98.6376176730001,19.7326670640001,0
                98.6380846230001,19.7327516930001,0
                98.6386403000001,19.732681083,0
                98.638968451,19.7327295650001,0
                98.6395863710001,19.733053592,0
                98.6402043180001,19.7333656640001,0
                98.6409361920001,19.7335464560001,0
                98.6415798730001,19.7336433850001,0
                98.642211278,19.7335848720001,0
                98.6427797690001,19.733430592,0
                98.6433101690001,19.7333718720001,0
                98.643612993,19.7334561600001,0
                98.6438904610001,19.733588217,0
                98.6443185080001,19.7341389970001,0
                98.6451238450001,19.7353600010001,0
                98.6455644210001,19.735958623,0
                98.6463207740001,19.736498092,0
                98.647216067,19.737013921,0
                98.6482629010001,19.7375180880001,0
                98.6499533200001,19.738178922,0
                98.6508992920001,19.7386231030001,0
                98.652488131,19.7395586810001,0
                98.6533206140001,19.739942854,0
                98.6538378930001,19.740123179,0
                98.6541915220001,19.7400760410001,0
                98.654608512,19.739921431,0
                98.6552405800001,19.739563999,0
                98.655948526,19.7391469350001,0
                98.6564798100001,19.738681711,0
                98.656897767,19.738072807,0
                98.6573919570001,19.7372369030001,0
                98.6577590460001,19.736795269,0
                98.6582394590001,19.7364973100001,0
                98.658644091,19.7362111630001,0
                98.6590996530001,19.735721874,0
                98.6594278950001,19.735195924,0
                98.659433876,19.7351913850001,0
                98.6595014490001,19.735084849,0
                98.6599608020001,19.734492146,0
                98.660251594,19.734301417,0
                98.6604282490001,19.7343495710001,0
                98.6604404710001,19.7345408750001,0
                98.660199473,19.735066438,0
                98.659970973,19.7356518,0
                98.659970087,19.7360702230001,0
                98.6600449810001,19.7364768360001,0
                98.660309564,19.736740347,0
                98.66077606,19.737052061,0
                98.661305886,19.737268253,0
                98.6617976360001,19.7375800130001,0
                98.6626038520001,19.7384542460001,0
                98.6633721740001,19.7393403620001,0
                98.6646565220001,19.741016471,0
                98.665236248,19.741531621,0
                98.6654628700001,19.7418428730001,0
                98.665600737,19.742333285,0
                98.665537133,19.742560312,0
                98.665358848,19.743289233,0
                98.6648010230001,19.7443760940001,0
                98.6640659710001,19.7456778120001,0
                98.663610093,19.746310572,0
                98.6635083040001,19.746680983,0
                98.663495003,19.747003745,0
                98.6637093260001,19.747159562,0
                98.6647048250001,19.748117828,0
                98.6652463230001,19.7488122290001,0
                98.665851133,19.7494230630001,0
                98.666721458,19.7498670190001,0
                98.6675669790001,19.7500957350001,0
                98.668336422,19.750479722,0
                98.6689040360001,19.7507676920001,0
                98.669333076,19.7508999900001,0
                98.669901038,19.7510205880001,0
                98.6707214620001,19.7511775130001,0
                98.6716422200001,19.7516693580001,0
                98.6722224220001,19.7519812510001,0
                98.6725758300001,19.7520536280001,0
                98.6729546380001,19.7520543200001,0
                98.67340928,19.752019284,0
                98.6738387890001,19.7519244270001,0
                98.6746354960001,19.751328126,0
                98.6751916580001,19.7510422180001,0
                98.6755834050001,19.750887511,0
                98.675974909,19.7508523560001,0
                98.6764421490001,19.7508292900001,0
                98.6769347170001,19.750770405,0
                98.6772885560001,19.750627583,0
                98.6777440580001,19.7501621590001,0
                98.6783512690001,19.7496013640001,0
                98.67884431,19.7493033750001,0
                98.679311473,19.7493161670001,0
                98.6797404000001,19.749508215,0
                98.680282279,19.750047157,0
                98.6810886100001,19.7509452210001,0
                98.681845083,19.7515204060001,0
                98.6823240530001,19.7519516360001,0
                98.6825250200001,19.7524899690001,0
                98.682763751,19.753088141,0
                98.6832802070001,19.7537226690001,0
                98.6838222530001,19.754189873,0
                98.684276335,19.7544417300001,0
                98.6846170570001,19.754549925,0
                98.685147419,19.7545389040001,0
                98.686498826,19.7543858600001,0
                98.6872817540001,19.7543633180001,0
                98.6884934940001,19.754604531,0
                98.6898821790001,19.7547623560001,0
                98.6912578020001,19.755147294,0
                98.6917625450001,19.755327489,0
                98.692191871,19.7553282280001,0
                98.6925077340001,19.75523313,0
                98.6933166730001,19.754816093,0
                98.6938701920001,19.754521966,0
                98.6951113970001,19.754803152,0
                98.695311266,19.755082508,0
                98.6955630610001,19.755477451,0
                98.695789899,19.7557169360001,0
                98.696231444,19.7559328780001,0
                98.6967613370001,19.7561728750001,0
                98.6975815920001,19.7564492280001,0
                98.6983765950001,19.756725535,0
                98.6987675030001,19.757013112,0
                98.6993099420001,19.7573009450001,0
                98.6999661850001,19.7575052820001,0
                98.700559135,19.7577931930001,0
                98.7011904170001,19.757842069,0
                98.7020869850001,19.7578316080001,0
                98.7030215250001,19.7577733850001,0
                98.7042441310001,19.758176699,0
                98.704231861,19.7581479610001,0
              </coordinates>
                
            </LinearRing>
            
          </outerBoundaryIs>
        
        </Polygon>
        
      <styleUrl>
        #tambonStyle</styleUrl>
    </Placemark>

  </Document>
</kml>