<?xml version="1.0" encoding="UTF-8"?>
<kml xmlns="http://www.opengis.net/kml/2.2">
  <Document id="tambon_doc">
    <name>หนองเรือ, หนองเรือ, Khon Kaen</name>
    <description>ข้อมูลขอบเขตตำบลหนองเรือ อำเภอหนองเรือ จังหวัดKhon Kaen</description>
    
    <!-- Schema สำหรับข้อมูลตำบล -->
    <Schema id="tambon.schema">
      <SimpleField name="ADM3_EN" type="string">
        <displayName>Subdistrict Name (English)</displayName>
      </SimpleField>
      <SimpleField name="ADM3_TH" type="string">
        <displayName>ชื่อตำบล</displayName>
      </SimpleField>
      <SimpleField name="ADM2_EN" type="string">
        <displayName>District Name (English)</displayName>
      </SimpleField>
      <SimpleField name="ADM2_TH" type="string">
        <displayName>ชื่ออำเภอ</displayName>
      </SimpleField>
      <SimpleField name="ADM1_EN" type="string">
        <displayName>Province Name (English)</displayName>
      </SimpleField>
      <SimpleField name="ADM1_TH" type="string">
        <displayName>ชื่อจังหวัด</displayName>
      </SimpleField>
      <SimpleField name="ADM0_EN" type="string">
        <displayName>Country Name (English)</displayName>
      </SimpleField>
      <SimpleField name="ADM0_TH" type="string">
        <displayName>ชื่อประเทศ</displayName>
      </SimpleField>
    </Schema>

    <!-- Style สำหรับตำบล -->
    <Style id="tambonStyle">
      <LineStyle>
        <color>ffff0000</color>
        <width>1.5</width>
      </LineStyle>
      <PolyStyle>
        <color>33ff0000</color>
        <fill>1</fill>
        <outline>1</outline>
      </PolyStyle>
    </Style>

    <Placemark id="Khon_Kaen.31">
        
        <ExtendedData>
            
          <SchemaData schemaUrl="#tambon.schema">
                
            <SimpleData name="Shape_Leng">
                0.420285948728</SimpleData>
                
            <SimpleData name="Shape_Area">
                0.00460458010116</SimpleData>
                
            <SimpleData name="ADM3_EN">
                Nong Ruea</SimpleData>
                
            <SimpleData name="ADM3_TH">
                หนองเรือ</SimpleData>
                
            <SimpleData name="ADM3_PCODE">
                TH400401</SimpleData>
                
            <SimpleData name="ADM2_EN">
                Nong Ruea</SimpleData>
                
            <SimpleData name="ADM2_TH">
                หนองเรือ</SimpleData>
                
            <SimpleData name="ADM2_PCODE">
                TH4004</SimpleData>
                
            <SimpleData name="ADM1_EN">
                Khon Kaen</SimpleData>
                
            <SimpleData name="ADM1_TH">
                ขอนแก่น</SimpleData>
                
            <SimpleData name="ADM1_PCODE">
                TH40</SimpleData>
                
            <SimpleData name="ADM0_EN">
                Thailand</SimpleData>
                
            <SimpleData name="ADM0_TH">
                ประเทศไทย</SimpleData>
                
            <SimpleData name="ADM0_PCODE">
                TH</SimpleData>
            
          </SchemaData>
        
        </ExtendedData>
        
        <Polygon>
            
          <outerBoundaryIs>
                
            <LinearRing>
                    
              <coordinates>
                    
                102.48190376,16.5378589270001,0
                102.481733486,16.5377645780001,0
                102.481496458,16.5376492820001,0
                102.481308259,16.5375676300001,0
                102.481033378,16.537465603,0
                102.480849545,16.537428344,0
                102.480642811,16.5374361410001,0
                102.480324884,16.5374975020001,0
                102.480009962,16.5376069430001,0
                102.479694505,16.537757555,0
                102.479465492,16.537833807,0
                102.479327502,16.537845955,0
                102.479156778,16.5378279080001,0
                102.478967699,16.537772341,0
                102.478818683,16.537682309,0
                102.478737525,16.537599239,0
                102.47870196,16.5375254790001,0
                102.478664185,16.5373841430001,0
                102.478653627,16.537263726,0
                102.47866628,16.5371160450001,0
                102.478723416,16.5369439780001,0
                102.4788306,16.5367354000001,0
                102.479098668,16.5364107340001,0
                102.479458212,16.536105687,0
                102.479710529,16.535834202,0
                102.479978711,16.5355182960001,0
                102.480315579,16.5350921420001,0
                102.480593694,16.534784211,0
                102.480729726,16.5346609580001,0
                102.48093773,16.5345431810001,0
                102.481188411,16.534462945,0
                102.481472152,16.534429346,0
                102.48189449,16.534443746,0
                102.482143936,16.534482429,0
                102.482382615,16.5345594520001,0
                102.482662763,16.5345944420001,0
                102.483003523,16.534594038,0
                102.483415707,16.534557922,0
                102.483776208,16.5344939080001,0
                102.484193355,16.5344442140001,0
                102.48441107,16.53444684,0
                102.48464715,16.534486171,0
                102.484747413,16.5345190780001,0
                102.484831223,16.5345763500001,0
                102.484963512,16.534723973,0
                102.485157548,16.5350523230001,0
                102.485291306,16.5352713070001,0
                102.485425923,16.535477567,0
                102.485618968,16.535709728,0
                102.48578168,16.5358097640001,0
                102.485956727,16.535821808,0
                102.486121945,16.535793998,0
                102.486350111,16.535687475,0
                102.486828324,16.5353705680001,0
                102.487056525,16.535237404,0
                102.487219999,16.5351593610001,0
                102.487389977,16.535133595,0
                102.487505339,16.53514546,0
                102.487703189,16.535203473,0
                102.487849716,16.535313065,0
                102.488106167,16.5355803950001,0
                102.488603897,16.5361776340001,0
                102.489135456,16.5368641430001,0
                102.489764553,16.5375677210001,0
                102.489896741,16.537443061,0
                102.490258119,16.5372280510001,0
                102.49077286,16.5370422510001,0
                102.491558282,16.5346279880001,0
                102.492030983,16.5331749480001,0
                102.492500829,16.5320880470001,0
                102.492536749,16.531638564,0
                102.493119934,16.5302410410001,0
                102.494795972,16.526224504,0
                102.501362479,16.5104861300001,0
                102.505041297,16.5016674280001,0
                102.508586131,16.493168924,0
                102.508434705,16.493057122,0
                102.508203411,16.492954754,0
                102.508106962,16.4929204600001,0
                102.508014548,16.4929027420001,0
                102.507892031,16.4928846650001,0
                102.507802094,16.492848372,0
                102.507744874,16.492777157,0
                102.507728538,16.4927084190001,0
                102.507718733,16.4926361930001,0
                102.507695596,16.4925388770001,0
                102.507652832,16.492487657,0
                102.507621182,16.4924608220001,0
                102.507568827,16.492444764,0
                102.507520787,16.492448601,0
                102.507509727,16.4924507100001,0
                102.507455599,16.492482191,0
                102.507394109,16.492498846,0
                102.507367051,16.492497477,0
                102.507312383,16.492483597,0
                102.507269167,16.492467649,0
                102.507223921,16.4924318330001,0
                102.507203721,16.4924179810001,0
                102.507198143,16.4924141550001,0
                102.507162825,16.4923941700001,0
                102.507088745,16.4923675490001,0
                102.507026284,16.492331854,0
                102.506960123,16.4922771350001,0
                102.5069226,16.4922276030001,0
                102.506886889,16.4921610330001,0
                102.506842322,16.492072309,0
                102.506829176,16.492028057,0
                102.506831913,16.491992812,0
                102.50686898,16.491953568,0
                102.506997774,16.4918246890001,0
                102.507087462,16.4917349400001,0
                102.507088897,16.4917335060001,0
                102.50708892,16.4917334580001,0
                102.507105314,16.491700629,0
                102.50710334,16.4916763520001,0
                102.507098997,16.4916586630001,0
                102.507074117,16.4916385230001,0
                102.507041554,16.491620557,0
                102.506992425,16.4915934530001,0
                102.506962298,16.4915729360001,0
                102.506956178,16.491568768,0
                102.50695069,16.4915559790001,0
                102.506942864,16.491537742,0
                102.506943147,16.4915156970001,0
                102.506959565,16.491482821,0
                102.507003344,16.4914546800001,0
                102.507062568,16.4914356900001,0
                102.507063006,16.4914355500001,0
                102.507120354,16.491418594,0
                102.507143514,16.4913946180001,0
                102.507159875,16.491366151,0
                102.507162639,16.491328702,0
                102.50716141,16.491317678,0
                102.507152426,16.491277462,0
                102.507082472,16.491085533,0
                102.507058625,16.4909764270001,0
                102.50704469,16.490864909,0
                102.50704852,16.4908389720001,0
                102.507054975,16.4908137,0
                102.507085017,16.490787601,0
                102.50713331,16.4907639240001,0
                102.507195228,16.490747023,0
                102.507247752,16.490749855,0
                102.507322757,16.490781616,0
                102.507406401,16.490823221,0
                102.507418129,16.4908290540001,0
                102.507468495,16.4908505940001,0
                102.507481767,16.4908562690001,0
                102.50749457,16.49085797,0
                102.507536519,16.4908635370001,0
                102.507575418,16.4908595910001,0
                102.507612259,16.4908379820001,0
                102.507628761,16.4907984930001,0
                102.507633672,16.490736902,0
                102.507632188,16.4907196510001,0
                102.507611818,16.4905078140001,0
                102.507573651,16.4899134840001,0
                102.507573346,16.489833323,0
                102.507572567,16.4898173770001,0
                102.507570915,16.4897835940001,0
                102.50755622,16.489681999,0
                102.507530412,16.489556018,0
                102.507504377,16.489447672,0
                102.507455945,16.489303783,0
                102.507438485,16.489239635,0
                102.50743465,16.489215616,0
                102.507432138,16.4891998740001,0
                102.5074324,16.4891981380001,0
                102.507435324,16.489178806,0
                102.507437131,16.4891668610001,0
                102.507451688,16.4891008910001,0
                102.50745598,16.489031889,0
                102.507451961,16.488884495,0
                102.507451824,16.488635871,0
                102.507429037,16.4885269070001,0
                102.507425122,16.488498663,0
                102.507428478,16.488403691,0
                102.507428706,16.4883972850001,0
                102.507428928,16.4883963080001,0
                102.507443233,16.488333519,0
                102.507473613,16.488280966,0
                102.507517618,16.4882351900001,0
                102.507550114,16.488195891,0
                102.507571242,16.488152047,0
                102.507585628,16.4880993030001,0
                102.507604838,16.4880267730001,0
                102.507616744,16.487989434,0
                102.507637787,16.4879522030001,0
                102.507674852,16.487912958,0
                102.507718829,16.4878693860001,0
                102.507753666,16.487825706,0
                102.50775553,16.487819813,0
                102.507770337,16.4877729900001,0
                102.507770845,16.4877333090001,0
                102.507757672,16.4876912600001,0
                102.507741722,16.487664346,0
                102.507733559,16.487650569,0
                102.507712935,16.4876157640001,0
                102.507711129,16.487605962,0
                102.507704389,16.487569362,0
                102.507705122,16.4875120460001,0
                102.507701093,16.4874750710001,0
                102.507696942,16.4874369840001,0
                102.507683995,16.4873773,0
                102.50764593,16.4872885940001,0
                102.507613367,16.487221747,0
                102.507576778,16.48712504,0
                102.507561703,16.4870362670001,0
                102.507550161,16.4868825130001,0
                102.507556731,16.486791469,0
                102.50758498,16.4866954450001,0
                102.507600044,16.486574069,0
                102.507601545,16.486456865,0
                102.507583801,16.486365532,0
                102.507544145,16.486297327,0
                102.507445111,16.486218029,0
                102.507372637,16.486180771,0
                102.50724225,16.486150588,0
                102.507155625,16.486096995,0
                102.507101863,16.486033229,0
                102.507075423,16.4859698770001,0
                102.507078191,16.4857538000001,0
                102.507052046,16.485661373,0
                102.506988516,16.485558656,0
                102.506938443,16.4854659440001,0
                102.506874576,16.485389503,0
                102.506769937,16.48530192,0
                102.506695612,16.485254109,0
                102.506658103,16.4852242110001,0
                102.506585779,16.4851616130001,0
                102.506538419,16.4851125430001,0
                102.506507082,16.4850614590001,0
                102.50648477,16.4850193030001,0
                102.506476083,16.484983922,0
                102.506481132,16.4849465,0
                102.506488382,16.4849157190001,0
                102.506527873,16.4848654800001,0
                102.506543535,16.484838875,0
                102.506555342,16.484818815,0
                102.506565248,16.484801986,0
                102.506575015,16.4847748380001,0
                102.506587169,16.4847410560001,0
                102.506588943,16.484736125,0
                102.506590826,16.484725553,0
                102.506605747,16.484662289,0
                102.506639607,16.4844154890001,0
                102.506604715,16.483861485,0
                102.506605484,16.4838014870001,0
                102.506627317,16.4837025310001,0
                102.506660292,16.483625757,0
                102.506704974,16.4835270740001,0
                102.506765563,16.483435194,0
                102.506769936,16.483424862,0
                102.506796198,16.4833628010001,0
                102.506800498,16.483355375,0
                102.506837192,16.4832920380001,0
                102.506840596,16.4832861620001,0
                102.506870866,16.4832137220001,0
                102.506873599,16.4832071820001,0
                102.506922652,16.4831239850001,0
                102.506932679,16.4831057960001,0
                102.506960083,16.4830560820001,0
                102.506979652,16.4830226390001,0
                102.506999799,16.4829882060001,0
                102.507057709,16.4829271620001,0
                102.507120386,16.4828719760001,0
                102.507129356,16.4828640760001,0
                102.50719852,16.482816395,0
                102.50722864,16.482794971,0
                102.507257373,16.4827695170001,0
                102.507260859,16.482766428,0
                102.507269007,16.4827549450001,0
                102.507288784,16.482727074,0
                102.507294226,16.4827095250001,0
                102.507303086,16.482680944,0
                102.507322634,16.4825819610001,0
                102.507343931,16.482524891,0
                102.507378879,16.482472391,0
                102.507422939,16.482422205,0
                102.507469227,16.4823764560001,0
                102.507513118,16.482339498,0
                102.507584511,16.4822962530001,0
                102.507641997,16.482268275,0
                102.507685492,16.4822621800001,0
                102.507725163,16.482262652,0
                102.507726618,16.482262669,0
                102.507735013,16.4822661010001,0
                102.507753899,16.4822738190001,0
                102.50777663,16.482283108,0
                102.507824328,16.4823057240001,0
                102.507867682,16.482310651,0
                102.507909512,16.482300561,0
                102.507911234,16.4823001450001,0
                102.507952641,16.4822785910001,0
                102.508014951,16.4822308280001,0
                102.5080543,16.48219161,0
                102.508104903,16.482165756,0
                102.50813926,16.4821595510001,0
                102.508178129,16.4821578080001,0
                102.508223711,16.4821671710001,0
                102.508241154,16.4821720370001,0
                102.508292058,16.4821834140001,0
                102.508351349,16.4821929440001,0
                102.508401642,16.4821913380001,0
                102.508440625,16.482180779,0
                102.508448675,16.4821748300001,0
                102.508459921,16.482166518,0
                102.508472922,16.4821569110001,0
                102.508512412,16.4821066700001,0
                102.508549363,16.4820762430001,0
                102.508599966,16.4820503880001,0
                102.508666535,16.482026928,0
                102.508769632,16.4820061080001,0
                102.508815497,16.481993426,0
                102.508840855,16.4819760890001,0
                102.508859584,16.481941036,0
                102.508859979,16.4819101730001,0
                102.50885603,16.4818616210001,0
                102.508836172,16.4818062640001,0
                102.508839077,16.4817577920001,0
                102.508857807,16.4817227390001,0
                102.508887875,16.4816944350001,0
                102.508950016,16.481659898,0
                102.508961919,16.481655012,0
                102.509064874,16.4816127600001,0
                102.50919584,16.4815569940001,0
                102.509199243,16.4815561980001,0
                102.509294394,16.4815339140001,0
                102.509360766,16.481525886,0
                102.509415797,16.4815111080001,0
                102.50945729,16.481482939,0
                102.509480505,16.481454554,0
                102.509501856,16.481393073,0
                102.509507244,16.481329198,0
                102.50950603,16.4812454,0
                102.50950682,16.4811836760001,0
                102.509514378,16.4811286460001,0
                102.509533474,16.4810649340001,0
                102.509575675,16.480987638,0
                102.509587293,16.480966358,0
                102.509616301,16.4809115100001,0
                102.509699696,16.48075383,0
                102.509727027,16.4806965550001,0
                102.509805357,16.480532403,0
                102.509845382,16.4804402770001,0
                102.509875789,16.480385519,0
                102.509910708,16.480335224,0
                102.509956855,16.480300497,0
                102.510035043,16.480261741,0
                102.510202788,16.4801887740001,0
                102.5102948,16.480141363,0
                102.510402167,16.480087365,0
                102.510418993,16.4800789020001,0
                102.510486029,16.4800338960001,0
                102.510531932,16.480003078,0
                102.510607949,16.479955477,0
                102.510673699,16.4799258100001,0
                102.510674602,16.479925403,0
                102.510736431,16.4799151140001,0
                102.510808517,16.4799084200001,0
                102.510841671,16.479905343,0
                102.510898972,16.4798971230001,0
                102.510912638,16.479895163,0
                102.510919516,16.479892867,0
                102.510970011,16.4798760030001,0
                102.511009162,16.4798522150001,0
                102.511039839,16.4798286010001,0
                102.511053275,16.4798159690001,0
                102.511113659,16.4797662940001,0
                102.5111702,16.4797274110001,0
                102.51122665,16.479695662,0
                102.511301655,16.479667745,0
                102.51141858,16.479639515,0
                102.511505788,16.479605061,0
                102.511561233,16.479585491,0
                102.511589848,16.4795820420001,0
                102.511682594,16.479547144,0
                102.511804474,16.4794868590001,0
                102.511956563,16.479387247,0
                102.512136408,16.4792615060001,0
                102.512240292,16.479178959,0
                102.512323555,16.4791005760001,0
                102.512404647,16.4790133490001,0
                102.512405245,16.4790128340001,0
                102.512485515,16.478943756,0
                102.512575493,16.478876476,0
                102.512649337,16.4788200290001,0
                102.512700192,16.478774333,0
                102.512744278,16.478721942,0
                102.512837188,16.478603987,0
                102.512895095,16.4785429400001,0
                102.512942687,16.478503748,0
                102.512968994,16.4784820840001,0
                102.513008328,16.4784466670001,0
                102.513022163,16.47843421,0
                102.513105708,16.478333782,0
                102.513149568,16.478299027,0
                102.513204825,16.478266612,0
                102.513216848,16.478257942,0
                102.513232091,16.4782469510001,0
                102.513274014,16.4782167230001,0
                102.513363822,16.4781626700001,0
                102.513382419,16.4781490660001,0
                102.513426101,16.478117109,0
                102.513502285,16.478056281,0
                102.513549207,16.4780003650001,0
                102.513571897,16.4779733240001,0
                102.513574374,16.47796764,0
                102.513597255,16.477915163,0
                102.513602499,16.4779031350001,0
                102.513637889,16.477839994,0
                102.513692458,16.477752256,0
                102.513738276,16.477676489,0
                102.513787119,16.4775753800001,0
                102.513803999,16.477486716,0
                102.51381675,16.4771106370001,0
                102.513810324,16.4769911710001,0
                102.513794607,16.4767649390001,0
                102.513795709,16.476678599,0
                102.513795807,16.4766709410001,0
                102.513809524,16.476630464,0
                102.513862596,16.4766030980001,0
                102.51398422,16.476581695,0
                102.514158474,16.4765735610001,0
                102.514287807,16.4765649820001,0
                102.514404106,16.476543425,0
                102.514451128,16.4765027660001,0
                102.514472675,16.47646695,0
                102.51447369,16.4764652600001,0
                102.514481536,16.476387634,0
                102.514481324,16.4763816390001,0
                102.514477291,16.4762678270001,0
                102.514463468,16.4760231330001,0
                102.514440165,16.4757803750001,0
                102.514445827,16.475711715,0
                102.514475961,16.47558844,0
                102.514510959,16.475447069,0
                102.514527899,16.4753956820001,0
                102.514554947,16.4753351570001,0
                102.514570935,16.4753123260001,0
                102.514598587,16.4752728390001,0
                102.514690606,16.475179675,0
                102.51473065,16.475130542,0
                102.514753348,16.4750977410001,0
                102.514756413,16.475090601,0
                102.51477101,16.47505661,0
                102.514778118,16.475036851,0
                102.514790344,16.475018807,0
                102.514793673,16.4750156740001,0
                102.51481116,16.4749992110001,0
                102.514825163,16.474976226,0
                102.514829012,16.4749432,0
                102.514826197,16.474895212,0
                102.514818944,16.4748521020001,0
                102.514749536,16.4746747730001,0
                102.514626862,16.4743310420001,0
                102.514544842,16.47408605,0
                102.514531191,16.4740428100001,0
                102.514518039,16.4739723930001,0
                102.514504782,16.4739042320001,0
                102.514492064,16.4737998640001,0
                102.514490453,16.4737386140001,0
                102.514507558,16.4736867080001,0
                102.514562818,16.473596695,0
                102.51460413,16.47352304,0
                102.514622764,16.473502297,0
                102.514635117,16.4734840670001,0
                102.514654661,16.4734297310001,0
                102.514662212,16.473375251,0
                102.514663581,16.473352934,0
                102.514668702,16.4732694960001,0
                102.514681434,16.473211771,0
                102.514704342,16.4731624350001,0
                102.514735693,16.4731231210001,0
                102.514801417,16.473075947,0
                102.514817528,16.473068412,0
                102.514899487,16.4730300800001,0
                102.514975671,16.4729835160001,0
                102.515031747,16.4729445350001,0
                102.515088794,16.472902135,0
                102.515125446,16.472836644,0
                102.515144226,16.472762361,0
                102.51513912,16.4726905040001,0
                102.515083355,16.472632586,0
                102.514949989,16.4725822340001,0
                102.51479942,16.472591645,0
                102.514397194,16.47260177,0
                102.514049036,16.472627436,0
                102.513012178,16.472682127,0
                102.512052543,16.472752723,0
                102.508245791,16.4729937130001,0
                102.507399417,16.473032581,0
                102.506509971,16.4730592830001,0
                102.503125926,16.4731797750001,0
                102.484950479,16.473816534,0
                102.484821471,16.4738241050001,0
                102.484133099,16.4739002470001,0
                102.476363486,16.4747492500001,0
                102.476372485,16.4747584990001,0
                102.473687311,16.475055384,0
                102.473692013,16.4750410990001,0
                102.469217836,16.475548566,0
                102.46890311,16.475584258,0
                102.464942539,16.4760134790001,0
                102.450738742,16.4775912150001,0
                102.441261985,16.478637635,0
                102.440852068,16.478682887,0
                102.437876296,16.4790113720001,0
                102.437566342,16.4790455840001,0
                102.43645085,16.479168707,0
                102.418958875,16.4810985670001,0
                102.41891896,16.4813785590001,0
                102.418890738,16.4814986760001,0
                102.418837236,16.4816332020001,0
                102.418770515,16.4817924870001,0
                102.418750694,16.4818727040001,0
                102.418734879,16.48198846,0
                102.418697595,16.482186487,0
                102.418629752,16.482354609,0
                102.41856199,16.4824643960001,0
                102.418431895,16.482623532,0
                102.41825288,16.482856925,0
                102.418177974,16.4829755640001,0
                102.418139592,16.483052571,0
                102.418114104,16.483245778,0
                102.418104471,16.4835414940001,0
                102.418108729,16.4838665520001,0
                102.418084156,16.4839906870001,0
                102.417978359,16.484180194,0
                102.41781829,16.484346816,0
                102.417725753,16.484403738,0
                102.417633913,16.484408113,0
                102.417530975,16.4843820090001,0
                102.417385779,16.484294517,0
                102.417005384,16.483991184,0
                102.416777538,16.483797286,0
                102.416482315,16.483555869,0
                102.416363664,16.4834749350001,0
                102.416253862,16.483419396,0
                102.415965775,16.483320927,0
                102.41575173,16.483244686,0
                102.415619933,16.4831772250001,0
                102.415504317,16.483105992,0
                102.415450548,16.4830685740001,0
                102.415403083,16.4830098310001,0
                102.415365856,16.4829357740001,0
                102.415304386,16.482780685,0
                102.415190791,16.4825165870001,0
                102.415025697,16.4822302700001,0
                102.414954676,16.482137552,0
                102.414883504,16.4820737310001,0
                102.414820909,16.48203828,0
                102.414753475,16.482024353,0
                102.414629622,16.4820271570001,0
                102.414460418,16.482044661,0
                102.414279475,16.4821031990001,0
                102.414197573,16.4821672960001,0
                102.414117477,16.4822639240001,0
                102.414030415,16.48237356,0
                102.413993053,16.4824434450001,0
                102.413982986,16.482521433,0
                102.413967576,16.482664465,0
                102.413945857,16.482777076,0
                102.413896759,16.4829110220001,0
                102.413788497,16.483094173,0
                102.413671821,16.4832308050001,0
                102.413487253,16.483416807,0
                102.413244976,16.4836063380001,0
                102.413141803,16.4836677330001,0
                102.413039184,16.4837050240001,0
                102.41289429,16.4837459450001,0
                102.41261118,16.4838366290001,0
                102.412371544,16.483926136,0
                102.412281218,16.4839849790001,0
                102.412145097,16.484115139,0
                102.412071036,16.484262862,0
                102.412034587,16.484368428,0
                102.412033407,16.484457182,0
                102.412061906,16.48456057,0
                102.412135455,16.484643025,0
                102.412352552,16.4847799930001,0
                102.412494391,16.4848643760001,0
                102.41265688,16.484986582,0
                102.412728279,16.4850507670001,0
                102.412771256,16.485110268,0
                102.412807419,16.485188828,0
                102.412832259,16.48529452,0
                102.412828741,16.4853966090001,0
                102.412797816,16.485586046,0
                102.412756023,16.4857627050001,0
                102.412736753,16.485894128,0
                102.412739723,16.486001808,0
                102.412762627,16.4860905890001,0
                102.412837228,16.486239158,0
                102.412957239,16.4864094210001,0
                102.413077013,16.4865278460001,0
                102.413261752,16.4866429200001,0
                102.413451556,16.486707849,0
                102.413771553,16.486757772,0
                102.414057398,16.4867696150001,0
                102.414300832,16.486789602,0
                102.414585955,16.4868557990001,0
                102.414823214,16.486933865,0
                102.415120361,16.4870711880001,0
                102.415215218,16.4871419850001,0
                102.415330193,16.4872324460001,0
                102.415398235,16.4872705820001,0
                102.415543574,16.4873183440001,0
                102.415662457,16.487341305,0
                102.415986509,16.487394164,0
                102.416213036,16.487420172,0
                102.416495321,16.48743269,0
                102.416749538,16.4874430560001,0
                102.416863636,16.4874426590001,0
                102.417039599,16.487433996,0
                102.417260665,16.4874061140001,0
                102.41746751,16.4873562920001,0
                102.417770105,16.4872519350001,0
                102.418052328,16.4871238470001,0
                102.418154528,16.4870833890001,0
                102.418295506,16.487029321,0
                102.418438104,16.4869985730001,0
                102.418631107,16.4869739540001,0
                102.418876319,16.4869589200001,0
                102.419098106,16.486946577,0
                102.419259412,16.486954618,0
                102.419404087,16.4869825920001,0
                102.419514589,16.4870263990001,0
                102.419670362,16.487137408,0
                102.41976975,16.4872274950001,0
                102.419858533,16.4873316270001,0
                102.419910002,16.4874029690001,0
                102.419969156,16.487523443,0
                102.420000748,16.487673377,0
                102.420001326,16.487781297,0
                102.419985617,16.4878598490001,0
                102.419938174,16.4879623,0
                102.419838324,16.488064105,0
                102.419655539,16.4882496820001,0
                102.419448124,16.488423848,0
                102.419129714,16.4887544040001,0
                102.419126319,16.4887588730001,0
                102.41911785,16.488770061,0
                102.418917672,16.4890329940001,0
                102.418708827,16.4893266130001,0
                102.418679677,16.489370165,0
                102.418584078,16.489512996,0
                102.418467816,16.489688105,0
                102.418401937,16.4898301530001,0
                102.418383268,16.4899223940001,0
                102.418390688,16.490020556,0
                102.41844613,16.4902229790001,0
                102.418484932,16.4902833310001,0
                102.418555417,16.4903410910001,0
                102.418608078,16.490363325,0
                102.418689425,16.490376159,0
                102.418840372,16.49035644,0
                102.419016175,16.4903075890001,0
                102.419260038,16.490196725,0
                102.419447456,16.49009862,0
                102.419617578,16.490018273,0
                102.419817952,16.489955998,0
                102.419985599,16.489911018,0
                102.420124299,16.489895029,0
                102.420262764,16.489896738,0
                102.42041715,16.489926095,0
                102.420553062,16.4899690410001,0
                102.420700649,16.490051323,0
                102.420792018,16.4901235200001,0
                102.420846373,16.4901752120001,0
                102.420892001,16.490262197,0
                102.420906415,16.4904036090001,0
                102.420899566,16.4906175470001,0
                102.420846982,16.4908923250001,0
                102.420791474,16.4910848010001,0
                102.420730999,16.4911920600001,0
                102.420591803,16.4913793490001,0
                102.420455528,16.4915209800001,0
                102.420258203,16.491655898,0
                102.419995891,16.4917782740001,0
                102.419786325,16.4918290580001,0
                102.419645365,16.491858291,0
                102.419466456,16.491873421,0
                102.419314172,16.4918542030001,0
                102.419188132,16.4918177910001,0
                102.419042665,16.491738604,0
                102.418837191,16.4915565420001,0
                102.418684923,16.49139067,0
                102.418539884,16.4912734700001,0
                102.418438268,16.4912114410001,0
                102.418336249,16.491179839,0
                102.418246449,16.4911756590001,0
                102.418076632,16.4911979440001,0
                102.41801286,16.4912276790001,0
                102.417960748,16.491280406,0
                102.417916205,16.491356162,0
                102.417889187,16.4914549820001,0
                102.41788815,16.491533174,0
                102.417932423,16.4916233020001,0
                102.417995554,16.4917174560001,0
                102.418043513,16.491779997,0
                102.41807587,16.491848847,0
                102.418132116,16.4921187370001,0
                102.4181813,16.4922633800001,0
                102.418315515,16.4924866440001,0
                102.418452122,16.492675079,0
                102.418642943,16.4929025650001,0
                102.418857443,16.493218929,0
                102.419101865,16.4935317810001,0
                102.419275817,16.493750839,0
                102.419381369,16.493847955,0
                102.419595465,16.494008631,0
                102.420012616,16.494219673,0
                102.420070307,16.494241065,0
                102.420123508,16.4942400960001,0
                102.420182145,16.4942193270001,0
                102.420279716,16.494155603,0
                102.420448943,16.4940150100001,0
                102.420570032,16.493871927,0
                102.420748639,16.493594369,0
                102.420938172,16.4933776290001,0
                102.421212537,16.4930915900001,0
                102.421491655,16.492860423,0
                102.421669276,16.492726976,0
                102.421742835,16.4926810160001,0
                102.42180379,16.4926599140001,0
                102.421887299,16.4926554350001,0
                102.42199511,16.4926694970001,0
                102.422106585,16.492698325,0
                102.422196909,16.492750551,0
                102.422254821,16.4928133940001,0
                102.422357027,16.4929708810001,0
                102.422426691,16.4931025010001,0
                102.422470553,16.49320626,0
                102.422499713,16.4933418950001,0
                102.422533421,16.4936236090001,0
                102.422551122,16.493697696,0
                102.422602705,16.4938945640001,0
                102.422691877,16.494214346,0
                102.422851994,16.4946157360001,0
                102.422892545,16.494724692,0
                102.422926736,16.494830048,0
                102.422943806,16.494963457,0
                102.422928203,16.495039933,0
                102.422883513,16.4950918490001,0
                102.422834977,16.4951077760001,0
                102.422776368,16.49510904,0
                102.422580027,16.4950703170001,0
                102.422303066,16.4949579940001,0
                102.42164513,16.49468303,0
                102.421148078,16.4944952060001,0
                102.420899049,16.494442195,0
                102.420748292,16.494435819,0
                102.420650158,16.4944486960001,0
                102.420603207,16.4944731310001,0
                102.420537455,16.4945298440001,0
                102.42050559,16.4945868830001,0
                102.42046564,16.4946712760001,0
                102.420394276,16.4947728010001,0
                102.420279084,16.4948612310001,0
                102.420190321,16.494912603,0
                102.419963773,16.4949922540001,0
                102.41979638,16.495052678,0
                102.419746416,16.495088996,0
                102.419709002,16.4951392850001,0
                102.419683913,16.4952266610001,0
                102.419664324,16.4954812570001,0
                102.41966733,16.495685381,0
                102.419680279,16.495762481,0
                102.419715694,16.495845456,0
                102.419849507,16.4960353010001,0
                102.419998787,16.4962404180001,0
                102.420091212,16.496384511,0
                102.420132862,16.4964629570001,0
                102.420154231,16.496545579,0
                102.420157436,16.4966473910001,0
                102.420135239,16.496801718,0
                102.420098698,16.49687369,0
                102.420008291,16.4969849140001,0
                102.419926134,16.497067701,0
                102.419840395,16.497123806,0
                102.419717194,16.4971698740001,0
                102.419618068,16.497193484,0
                102.419437898,16.4972160030001,0
                102.419305245,16.497229626,0
                102.419200253,16.497247384,0
                102.418999843,16.497305865,0
                102.418830826,16.4973780060001,0
                102.418638435,16.4974780360001,0
                102.418472412,16.4975978950001,0
                102.418332901,16.497686205,0
                102.418239213,16.4977363410001,0
                102.418083439,16.4977877850001,0
                102.417974577,16.4978119960001,0
                102.417735265,16.497817619,0
                102.417551239,16.497828167,0
                102.417355638,16.4978791200001,0
                102.416962208,16.4979976130001,0
                102.416668065,16.4980920470001,0
                102.416470808,16.4981804550001,0
                102.416295443,16.4983002870001,0
                102.41611729,16.4984440150001,0
                102.416034747,16.4984919390001,0
                102.415930948,16.4985301180001,0
                102.415788371,16.4985527380001,0
                102.415687104,16.4985514860001,0
                102.41559185,16.498533421,0
                102.415501509,16.4984999750001,0
                102.415428339,16.498458252,0
                102.415348796,16.498384935,0
                102.415232829,16.498275678,0
                102.415065352,16.498086587,0
                102.414978785,16.498001533,0
                102.414922621,16.4979698650001,0
                102.414858598,16.4979543540001,0
                102.414734657,16.4979572450001,0
                102.414553786,16.4979859810001,0
                102.414454581,16.498032887,0
                102.414278044,16.498159565,0
                102.413985283,16.4983938020001,0
                102.4137665,16.4985799200001,0
                102.413633162,16.4986856420001,0
                102.413536056,16.4988068910001,0
                102.41347969,16.4988832230001,0
                102.413449411,16.4989599680001,0
                102.413415737,16.499112074,0
                102.413428306,16.4993046660001,0
                102.413440249,16.4994051420001,0
                102.413446163,16.4995292030001,0
                102.413433532,16.4996257610001,0
                102.413397628,16.4997481300001,0
                102.413339184,16.499829763,0
                102.413239434,16.499923348,0
                102.413017463,16.5000994010001,0
                102.412814889,16.5002216020001,0
                102.412643302,16.500312491,0
                102.412574394,16.500368257,0
                102.412508928,16.500449534,0
                102.412466625,16.5005190850001,0
                102.412433432,16.500605907,0
                102.412429271,16.5007214440001,0
                102.412467715,16.50083742,0
                102.412532578,16.500964015,0
                102.412682115,16.501137805,0
                102.412928055,16.501318929,0
                102.413168817,16.501442556,0
                102.413242687,16.501464313,0
                102.413423579,16.501517591,0
                102.413641471,16.501561377,0
                102.413894532,16.501567128,0
                102.414121193,16.5015493440001,0
                102.414405455,16.5015018400001,0
                102.414640681,16.5014379260001,0
                102.414854304,16.5014021000001,0
                102.415080557,16.5014151930001,0
                102.415229349,16.501447828,0
                102.415335049,16.5015107240001,0
                102.415387566,16.501572959,0
                102.415420883,16.5016683710001,0
                102.415422432,16.5018131480001,0
                102.415406192,16.5019082170001,0
                102.415356262,16.5020173180001,0
                102.415250412,16.5021166980001,0
                102.415122177,16.502215891,0
                102.415026337,16.502265004,0
                102.414915838,16.502296056,0
                102.414803447,16.502324195,0
                102.414722718,16.502357422,0
                102.414613594,16.5024243400001,0
                102.414440184,16.5025534970001,0
                102.414343603,16.5026352,0
                102.414258723,16.5027308640001,0
                102.414211513,16.5028210360001,0
                102.414154766,16.5029956130001,0
                102.414120775,16.5031946720001,0
                102.414125732,16.5032863930001,0
                102.414147662,16.503367214,0
                102.414208941,16.503478866,0
                102.414305647,16.503596916,0
                102.414508302,16.503770731,0
                102.414645266,16.503874469,0
                102.414717314,16.503960066,0
                102.414762247,16.504041172,0
                102.414810864,16.5041587170001,0
                102.414868641,16.504377065,0
                102.414927917,16.5046742650001,0
                102.414968591,16.504797039,0
                102.41506525,16.5049475980001,0
                102.415257448,16.505118393,0
                102.415355481,16.505165843,0
                102.415442754,16.5051804670001,0
                102.415521677,16.5051787350001,0
                102.415589655,16.505152394,0
                102.415635388,16.505109523,0
                102.415693141,16.505004313,0
                102.415734318,16.5048744220001,0
                102.415783223,16.5045870480001,0
                102.415835436,16.504306308,0
                102.415871194,16.5041600060001,0
                102.415984647,16.5038951930001,0
                102.416108506,16.5037012170001,0
                102.416188548,16.503615245,0
                102.416287988,16.5035566940001,0
                102.41638985,16.503530773,0
                102.416491311,16.5035293180001,0
                102.416589703,16.503549589,0
                102.416741051,16.503616659,0
                102.416900095,16.503743607,0
                102.417059065,16.5038704620001,0
                102.417131454,16.503941974,0
                102.417189534,16.5040215280001,0
                102.417233659,16.504134412,0
                102.417276429,16.504308775,0
                102.417310062,16.5045373890001,0
                102.417342926,16.5048238790001,0
                102.417352067,16.5049842810001,0
                102.417338813,16.5051335700001,0
                102.417302986,16.505285198,0
                102.417216258,16.505444417,0
                102.417055256,16.5056796540001,0
                102.416940083,16.505853239,0
                102.416913466,16.505950709,0
                102.416906857,16.5060239530001,0
                102.416899957,16.5063340620001,0
                102.416930735,16.5065626410001,0
                102.416980292,16.506650216,0
                102.417047446,16.5066917730001,0
                102.417128931,16.5067063270001,0
                102.417221943,16.5067074770001,0
                102.417442468,16.5066640580001,0
                102.417740045,16.5065969390001,0
                102.417975122,16.506515591,0
                102.418272904,16.5063807450001,0
                102.418486308,16.50623402,0
                102.418706976,16.506010987,0
                102.418832492,16.505895685,0
                102.418980952,16.505796649,0
                102.419120022,16.5057304590001,0
                102.419278198,16.505707941,0
                102.419373988,16.5057091240001,0
                102.419469532,16.505734777,0
                102.419544918,16.505790071,0
                102.419589312,16.505842183,0
                102.419630314,16.5059404900001,0
                102.4196763,16.506087801,0
                102.4197454,16.506413208,0
                102.419804723,16.5068295200001,0
                102.419842518,16.5071695290001,0
                102.419824913,16.507431465,0
                102.419804179,16.5075046260001,0
                102.419758199,16.507571967,0
                102.419709004,16.507666359,0
                102.419674206,16.507786937,0
                102.419641281,16.5079293910001,0
                102.41962182,16.508063523,0
                102.419619244,16.5082575540001,0
                102.419629316,16.5084294370001,0
                102.419656735,16.5085854600001,0
                102.419711314,16.5086904350001,0
                102.419772726,16.508774906,0
                102.419869142,16.50883967,0
                102.419991891,16.508886429,0
                102.420101225,16.508891121,0
                102.420482957,16.5088762400001,0
                102.420716831,16.508839214,0
                102.420999221,16.5087649490001,0
                102.421419809,16.508637756,0
                102.421664091,16.508549385,0
                102.421749767,16.5085042060001,0
                102.421912788,16.5083843080001,0
                102.422095415,16.508264652,0
                102.422229243,16.5082095010001,0
                102.422360497,16.5081796060001,0
                102.422541835,16.5081629690001,0
                102.422778376,16.5081809700001,0
                102.422917573,16.5082100490001,0
                102.423106407,16.5082858860001,0
                102.423321053,16.508383173,0
                102.423590986,16.5085904100001,0
                102.423862335,16.508818977,0
                102.42415982,16.5090210430001,0
                102.424522113,16.509331462,0
                102.424846224,16.509639243,0
                102.424987009,16.509816712,0
                102.4250518,16.509931835,0
                102.425105382,16.510100643,0
                102.425123484,16.5103194020001,0
                102.425105958,16.510476768,0
                102.425054278,16.51062477,0
                102.424989735,16.5107180730001,0
                102.424852212,16.5108829870001,0
                102.424726327,16.5109736360001,0
                102.424622437,16.5110241900001,0
                102.424372017,16.51109768,0
                102.424046226,16.5111786370001,0
                102.423828649,16.511209095,0
                102.423740161,16.5112042120001,0
                102.423640954,16.511186733,0
                102.423407131,16.511109076,0
                102.423169901,16.511020451,0
                102.422927112,16.5109318460001,0
                102.422778397,16.510875287,0
                102.422533389,16.510808507,0
                102.422367328,16.510779096,0
                102.42225188,16.5107812840001,0
                102.422102225,16.51080138,0
                102.421971273,16.510837511,0
                102.421866936,16.5108750530001,0
                102.421794158,16.5109313180001,0
                102.421714595,16.511016124,0
                102.421683712,16.511103608,0
                102.42163027,16.511296922,0
                102.421555763,16.511576577,0
                102.421547913,16.5116678680001,0
                102.42155876,16.5117289560001,0
                102.421586353,16.5117789650001,0
                102.42167289,16.511901853,0
                102.421941822,16.512324366,0
                102.422234952,16.512721169,0
                102.422504253,16.513081014,0
                102.422676278,16.513353689,0
                102.422730227,16.513465519,0
                102.422758821,16.513568186,0
                102.422757611,16.513659379,0
                102.422718561,16.513821174,0
                102.422666606,16.513908218,0
                102.42260803,16.513976396,0
                102.422484678,16.514050459,0
                102.422329502,16.514090805,0
                102.42215408,16.5140975800001,0
                102.421876938,16.514107433,0
                102.42162904,16.514136158,0
                102.421367653,16.5141863000001,0
                102.421159193,16.514239264,0
                102.421024751,16.5142821220001,0
                102.420913155,16.514342964,0
                102.420817503,16.5144240490001,0
                102.420741926,16.5145282300001,0
                102.420696929,16.5146144560001,0
                102.420681825,16.5147053860001,0
                102.420677414,16.5148632730001,0
                102.420690145,16.514933597,0
                102.420759292,16.515110183,0
                102.420932917,16.5154191820001,0
                102.421047812,16.5156508750001,0
                102.421137185,16.515903296,0
                102.421216728,16.5162449050001,0
                102.421240876,16.5163915860001,0
                102.421233457,16.5165143080001,0
                102.421239218,16.5169528060001,0
                102.421262302,16.517133066,0
                102.421283446,16.5172560510001,0
                102.421318153,16.517392478,0
                102.42139297,16.5175841240001,0
                102.421484475,16.517716738,0
                102.42156112,16.517799681,0
                102.42166467,16.5178798850001,0
                102.421730279,16.517916004,0
                102.421807221,16.517947658,0
                102.421900441,16.5179509760001,0
                102.422050641,16.5179484970001,0
                102.422210501,16.517904415,0
                102.422326659,16.5178549190001,0
                102.422439277,16.517821903,0
                102.422579624,16.5178113540001,0
                102.422717,16.517832646,0
                102.422871828,16.51788865,0
                102.422975391,16.5179562110001,0
                102.423071129,16.5180433630001,0
                102.423125947,16.5181422910001,0
                102.423179383,16.5183394520001,0
                102.423202739,16.5184993980001,0
                102.423204499,16.5185588410001,0
                102.42318778,16.5186085720001,0
                102.423152989,16.5186588020001,0
                102.423084316,16.5187080740001,0
                102.422856322,16.5188421610001,0
                102.422608917,16.518937899,0
                102.422339751,16.519085112,0
                102.42193609,16.5193370420001,0
                102.421784277,16.5194497480001,0
                102.421779829,16.519453049,0
                102.421675348,16.519547662,0
                102.421620631,16.5196214860001,0
                102.421600289,16.51969989,0
                102.421590045,16.519826009,0
                102.421617134,16.5200477700001,0
                102.421657906,16.520233487,0
                102.421705586,16.520358244,0
                102.421793903,16.5205041830001,0
                102.421942998,16.5206432860001,0
                102.422079492,16.520713604,0
                102.42225048,16.5207795600001,0
                102.422518471,16.520820074,0
                102.422692198,16.5208367590001,0
                102.423010113,16.520838607,0
                102.423210862,16.5208204960001,0
                102.423361572,16.5207912920001,0
                102.423607505,16.5207135960001,0
                102.423916466,16.5205929690001,0
                102.424205976,16.5205303500001,0
                102.424502014,16.5204876770001,0
                102.424776871,16.5204877260001,0
                102.424968714,16.5205298270001,0
                102.425108859,16.5205812240001,0
                102.425228209,16.52065214,0
                102.42530916,16.520765748,0
                102.425355585,16.520892115,0
                102.425407348,16.521145876,0
                102.425438801,16.521283435,0
                102.425493603,16.5214418740001,0
                102.425533046,16.521506747,0
                102.425565816,16.5215392100001,0
                102.425631976,16.5215688320001,0
                102.42570493,16.52158093,0
                102.42579633,16.521582057,0
                102.425902938,16.521565762,0
                102.425983021,16.5215411040001,0
                102.426060081,16.5214940130001,0
                102.426100691,16.5214416850001,0
                102.426123027,16.521387507,0
                102.42612871,16.5213314980001,0
                102.426114943,16.5212401220001,0
                102.426013443,16.5209700340001,0
                102.42591849,16.520712669,0
                102.425810808,16.520349853,0
                102.425747982,16.5200629030001,0
                102.425727063,16.519876078,0
                102.425741909,16.5197636510001,0
                102.425779383,16.519679949,0
                102.425817551,16.519619645,0
                102.425860058,16.5195930780001,0
                102.42594447,16.519573801,0
                102.426124414,16.5195873070001,0
                102.426514177,16.5196439470001,0
                102.426805617,16.5197151780001,0
                102.427103677,16.519811234,0
                102.427348692,16.5198959800001,0
                102.427518266,16.5199814210001,0
                102.427855674,16.5201437910001,0
                102.428087259,16.5203156050001,0
                102.428274398,16.5204914760001,0
                102.428357462,16.520585603,0
                102.42838918,16.520662572,0
                102.428394952,16.520757283,0
                102.42838193,16.5208544700001,0
                102.428359405,16.520957953,0
                102.428327345,16.521046777,0
                102.428257417,16.521202504,0
                102.428116904,16.521388787,0
                102.427981971,16.5215266440001,0
                102.427840803,16.5216922390001,0
                102.427746128,16.5218510920001,0
                102.427706687,16.521990036,0
                102.427681387,16.52215146,0
                102.427689383,16.52242211,0
                102.427724799,16.5225870800001,0
                102.427767606,16.522718641,0
                102.427843925,16.5228673190001,0
                102.427937085,16.5229512760001,0
                102.428055427,16.523016851,0
                102.428177113,16.523039753,0
                102.428265917,16.523032809,0
                102.428421407,16.523016033,0
                102.428646819,16.5229546940001,0
                102.42899631,16.522793742,0
                102.429166542,16.52271303,0
                102.429305887,16.522655958,0
                102.42943106,16.5226254410001,0
                102.429514236,16.5226237570001,0
                102.429644472,16.522630689,0
                102.429815964,16.522664859,0
                102.429970391,16.522728258,0
                102.430198096,16.5228669690001,0
                102.430381851,16.5230246460001,0
                102.430481654,16.5231259330001,0
                102.430529714,16.5232107790001,0
                102.430572601,16.523365547,0
                102.430596952,16.5234100960001,0
                102.430741951,16.5235908650001,0
                102.431046737,16.5238736590001,0
                102.431213472,16.5240048470001,0
                102.431371073,16.5241026900001,0
                102.431580106,16.5242232900001,0
                102.431771893,16.524340066,0
                102.432125489,16.524551939,0
                102.432366675,16.5246874740001,0
                102.43254337,16.5247545760001,0
                102.432769239,16.524816415,0
                102.432949646,16.524836334,0
                102.433176026,16.5248538380001,0
                102.433474834,16.5248415300001,0
                102.433569575,16.52481786,0
                102.433630126,16.5247813990001,0
                102.433701953,16.524703717,0
                102.433765544,16.5245949600001,0
                102.433788293,16.52449771,0
                102.433796198,16.5243902550001,0
                102.433791735,16.5242372230001,0
                102.433772709,16.524064417,0
                102.433770216,16.523925949,0
                102.433758763,16.5236591390001,0
                102.433747163,16.523397564,0
                102.433761408,16.523225257,0
                102.433804815,16.5230311830001,0
                102.433860782,16.522880092,0
                102.43389705,16.522782174,0
                102.433973901,16.522651545,0
                102.434028706,16.5225824120001,0
                102.434180044,16.522470669,0
                102.434309107,16.5223911620001,0
                102.434408951,16.522355094,0
                102.434496555,16.522351294,0
                102.434553707,16.5223616600001,0
                102.434637562,16.522390323,0
                102.434724504,16.522436815,0
                102.434890918,16.5225865090001,0
                102.435111331,16.5227808450001,0
                102.43523874,16.5229026060001,0
                102.435334822,16.5229934600001,0
                102.435393252,16.5230532370001,0
                102.435428447,16.52311273,0
                102.435444411,16.523184266,0
                102.435438066,16.5233431250001,0
                102.435396859,16.5236045020001,0
                102.435366052,16.523779947,0
                102.435374389,16.5238677350001,0
                102.435391735,16.5239867,0
                102.435474082,16.5242114870001,0
                102.435570423,16.524452432,0
                102.435669211,16.524706859,0
                102.435759658,16.524897251,0
                102.435941688,16.5251861140001,0
                102.436311662,16.5257370050001,0
                102.436583696,16.526068604,0
                102.43666972,16.52618462,0
                102.436721791,16.526281705,0
                102.436742155,16.526365126,0
                102.436736525,16.5264347730001,0
                102.436705533,16.5264838790001,0
                102.436648507,16.526557499,0
                102.436523345,16.5266571930001,0
                102.43630663,16.5267964010001,0
                102.436179299,16.5268848690001,0
                102.436110532,16.5269917100001,0
                102.43609037,16.5270589690001,0
                102.436079196,16.5271523970001,0
                102.436083817,16.527356443,0
                102.436146775,16.527529427,0
                102.436215837,16.5276320510001,0
                102.436343233,16.527760765,0
                102.436546974,16.527879129,0
                102.436642922,16.5279453270001,0
                102.436689225,16.5279939390001,0
                102.436813189,16.52812541,0
                102.436915051,16.528194028,0
                102.437023378,16.5282408740001,0
                102.437209857,16.5282748610001,0
                102.437408976,16.52829311,0
                102.437741569,16.5283189570001,0
                102.437973296,16.5283293900001,0
                102.438114805,16.528319116,0
                102.438223248,16.528310424,0
                102.438352606,16.528284741,0
                102.438609139,16.528205803,0
                102.439008318,16.5280714530001,0
                102.439397876,16.5279522440001,0
                102.439670644,16.5278775670001,0
                102.439867779,16.5278354660001,0
                102.440079857,16.5277901170001,0
                102.440250687,16.5277755060001,0
                102.440351894,16.5277767480001,0
                102.440420888,16.5278026980001,0
                102.440531972,16.5279040290001,0
                102.440690914,16.528076565,0
                102.440912132,16.5283395390001,0
                102.441137648,16.5285928100001,0
                102.441247255,16.528706765,0
                102.441371543,16.5287961560001,0
                102.441504834,16.5288471870001,0
                102.441652688,16.5288710350001,0
                102.441758252,16.5288640220001,0
                102.441883949,16.5288409090001,0
                102.442015977,16.5287766050001,0
                102.442171355,16.5286631910001,0
                102.442327528,16.528489372,0
                102.442565658,16.5281544590001,0
                102.442824378,16.5277922540001,0
                102.442911084,16.527727935,0
                102.443124281,16.5276093590001,0
                102.443333541,16.527490734,0
                102.443492069,16.5274310880001,0
                102.44365413,16.527408059,0
                102.443771782,16.5274152800001,0
                102.443899342,16.527432285,0
                102.444036482,16.527483994,0
                102.444254551,16.5276347650001,0
                102.444446164,16.527789096,0
                102.444570531,16.5279021470001,0
                102.444809594,16.528194232,0
                102.44498936,16.5283688260001,0
                102.445087355,16.528450037,0
                102.445130093,16.5284712710001,0
                102.4452206,16.5285162370001,0
                102.445335144,16.5285484350001,0
                102.44543926,16.5285633450001,0
                102.4456001,16.5285803940001,0
                102.445769894,16.528597555,0
                102.445975642,16.528610911,0
                102.44609828,16.528638239,0
                102.446256915,16.528705471,0
                102.446381332,16.52877382,0
                102.446489611,16.5288538020001,0
                102.446532894,16.5289033670001,0
                102.446597068,16.529013965,0
                102.44663744,16.529149826,0
                102.4467144,16.529491852,0
                102.446776141,16.5299284220001,0
                102.446802904,16.530024654,0
                102.446866408,16.5301510460001,0
                102.44691119,16.5302861490001,0
                102.446925095,16.530408865,0
                102.44690476,16.5305401900001,0
                102.446844245,16.530662084,0
                102.446787133,16.5307540380001,0
                102.44663609,16.5309136560001,0
                102.446445103,16.5310399140001,0
                102.446313479,16.5311203000001,0
                102.446162792,16.53124705,0
                102.446037117,16.531368146,0
                102.445869521,16.531588608,0
                102.445827926,16.5316807510001,0
                102.445810836,16.531800107,0
                102.445827434,16.5319528360001,0
                102.445850982,16.5320586010001,0
                102.44591186,16.5321733110001,0
                102.44599464,16.5322490990001,0
                102.446124011,16.532322385,0
                102.44632487,16.532390676,0
                102.446478654,16.5324278680001,0
                102.446657174,16.532486314,0
                102.446908763,16.5326132920001,0
                102.447349421,16.532889061,0
                102.447775219,16.5331619350001,0
                102.448006188,16.5332892930001,0
                102.448155235,16.5333462030001,0
                102.448220191,16.53335528,0
                102.448226758,16.533356199,0
                102.448330367,16.533362884,0
                102.448502598,16.533359573,0
                102.448698993,16.533327118,0
                102.44892584,16.5332747150001,0
                102.449077417,16.533215613,0
                102.449305065,16.533102172,0
                102.449511984,16.532962291,0
                102.449698204,16.532787388,0
                102.449904376,16.532510232,0
                102.45016532,16.5321899470001,0
                102.45033016,16.532037901,0
                102.45043051,16.531975281,0
                102.45058483,16.5319364380001,0
                102.450738575,16.5319354280001,0
                102.450838087,16.531936644,0
                102.45089529,16.531949264,0
                102.450952678,16.531971367,0
                102.451009975,16.5320062930001,0
                102.451072877,16.532061245,0
                102.451293332,16.532354363,0
                102.451572153,16.53274816,0
                102.451740047,16.5329398540001,0
                102.451926715,16.533107122,0
                102.452066595,16.5331624740001,0
                102.452143488,16.5331634130001,0
                102.452323999,16.533152794,0
                102.4524199,16.5331233520001,0
                102.452508015,16.53308099,0
                102.45257776,16.5330205240001,0
                102.452618425,16.5329520280001,0
                102.452673878,16.532768661,0
                102.452804448,16.5323626160001,0
                102.452932007,16.532062281,0
                102.45303766,16.531883861,0
                102.45313874,16.531736181,0
                102.453192955,16.5316941290001,0
                102.453286675,16.5316660130001,0
                102.453405925,16.531651756,0
                102.453485063,16.53166401,0
                102.45355005,16.5316894580001,0
                102.453610449,16.531735166,0
                102.453639934,16.5318007280001,0
                102.45367296,16.5319495040001,0
                102.453699614,16.53223086,0
                102.453689411,16.5328908720001,0
                102.453669185,16.533202542,0
                102.453590158,16.5334877560001,0
                102.453528837,16.5337005820001,0
                102.453480553,16.533873199,0
                102.453475628,16.533977803,0
                102.453486177,16.534068329,0
                102.453514781,16.5341422760001,0
                102.453566778,16.5342222,0
                102.453642345,16.5342711650001,0
                102.453773612,16.5343122310001,0
                102.453881744,16.5343333280001,0
                102.454066446,16.5343270930001,0
                102.454294926,16.5343327730001,0
                102.454458832,16.5343460610001,0
                102.454596531,16.534373569,0
                102.454783203,16.5344407760001,0
                102.454954984,16.53452478,0
                102.455062305,16.5346079070001,0
                102.455169511,16.5346995210001,0
                102.455261866,16.534805132,0
                102.455371045,16.534970189,0
                102.455479706,16.5351747930001,0
                102.455551905,16.5352863890001,0
                102.455638847,16.535386697,0
                102.455752116,16.5354518340001,0
                102.45589854,16.5355030170001,0
                102.456081495,16.5355181630001,0
                102.456218758,16.5354965380001,0
                102.456408656,16.5354591190001,0
                102.45654897,16.535416761,0
                102.456791864,16.5353420600001,0
                102.456959757,16.5352456740001,0
                102.457190813,16.535049095,0
                102.457444025,16.534829126,0
                102.457675967,16.534611206,0
                102.457716159,16.534573445,0
                102.457980756,16.534327245,0
                102.458201239,16.5341476030001,0
                102.458310462,16.53402657,0
                102.458332056,16.533988605,0
                102.458379223,16.533905675,0
                102.458424189,16.533756044,0
                102.458461638,16.533567399,0
                102.458502558,16.533314137,0
                102.458516777,16.533059736,0
                102.458527824,16.532829319,0
                102.45855449,16.532650296,0
                102.458587332,16.5325363690001,0
                102.458628865,16.5324366350001,0
                102.45869909,16.532327679,0
                102.458778512,16.5322238910001,0
                102.458955777,16.532048327,0
                102.459144703,16.5318843750001,0
                102.459353101,16.531701695,0
                102.45959213,16.531479292,0
                102.459777584,16.531256055,0
                102.459906382,16.5310726770001,0
                102.460039772,16.530898383,0
                102.460124941,16.5308272660001,0
                102.4602284,16.5307924030001,0
                102.460331211,16.5308072,0
                102.460400795,16.5308532,0
                102.460456112,16.5309215130001,0
                102.460496436,16.531061799,0
                102.460493368,16.531296287,0
                102.460490852,16.5315417080001,0
                102.460511548,16.53171264,0
                102.460543326,16.531791953,0
                102.460604801,16.531855917,0
                102.460699339,16.5318949970001,0
                102.460827145,16.531917413,0
                102.460937465,16.531918755,0
                102.461082547,16.531889456,0
                102.461216404,16.531844667,0
                102.46134369,16.5317709010001,0
                102.461449389,16.5316769140001,0
                102.461566982,16.5315060410001,0
                102.461800422,16.531102682,0
                102.462033552,16.530705282,0
                102.462367392,16.530217443,0
                102.462675454,16.5298348590001,0
                102.462886931,16.529587463,0
                102.462967037,16.529478354,0
                102.463016436,16.5293909960001,0
                102.463027381,16.529327553,0
                102.463025802,16.529206071,0
                102.463015143,16.529070572,0
                102.462985016,16.5289297800001,0
                102.462945992,16.528831774,0
                102.462895543,16.5287275790001,0
                102.462805237,16.528624705,0
                102.462708407,16.528566003,0
                102.462559803,16.5285046830001,0
                102.462373245,16.5284524740001,0
                102.462186283,16.5284252760001,0
                102.461897805,16.528402532,0
                102.461517001,16.5283902240001,0
                102.461214262,16.5283657700001,0
                102.461084993,16.528349205,0
                102.460931682,16.5282935170001,0
                102.46081434,16.5282211090001,0
                102.460681748,16.5281162750001,0
                102.460587138,16.528011904,0
                102.460483554,16.5278735580001,0
                102.460403004,16.527715534,0
                102.460342996,16.5275276900001,0
                102.460298083,16.527372358,0
                102.460280346,16.5271936070001,0
                102.460302436,16.5268683210001,0
                102.46030856,16.526577248,0
                102.460288362,16.5264803740001,0
                102.460233656,16.5263300710001,0
                102.460143198,16.526079543,0
                102.460086891,16.525862665,0
                102.460052066,16.525697613,0
                102.460046581,16.5255502570001,0
                102.460053299,16.525438088,0
                102.460076461,16.525331898,0
                102.460090092,16.5252932330001,0
                102.460111858,16.525258368,0
                102.460159295,16.5252325760001,0
                102.460211075,16.5252230020001,0
                102.460297461,16.525235793,0
                102.460619523,16.525376346,0
                102.461221394,16.525629483,0
                102.461832644,16.525915605,0
                102.462152558,16.526019736,0
                102.462521764,16.5261039650001,0
                102.463194843,16.526267477,0
                102.463498355,16.5263803460001,0
                102.463834876,16.526632057,0
                102.464070643,16.526924536,0
                102.464328473,16.5272365180001,0
                102.464466283,16.527355772,0
                102.464647878,16.5274628240001,0
                102.46479113,16.527502403,0
                102.465169666,16.527540597,0
                102.465631619,16.527529411,0
                102.466046289,16.527467259,0
                102.46629555,16.527418359,0
                102.466454233,16.527417396,0
                102.466554826,16.5274244870001,0
                102.466679737,16.527443615,0
                102.466795116,16.527489175,0
                102.466906717,16.5275933890001,0
                102.467172117,16.5279114210001,0
                102.467377323,16.5281560230001,0
                102.467502702,16.528411578,0
                102.467555589,16.528589402,0
                102.467582541,16.5288732010001,0
                102.467515621,16.529303514,0
                102.467419463,16.5295955720001,0
                102.467386355,16.5298310520001,0
                102.467389849,16.530036813,0
                102.467442716,16.530328603,0
                102.467592123,16.5307489890001,0
                102.4678154,16.531121397,0
                102.467836136,16.5311559840001,0
                102.467935325,16.5313832250001,0
                102.467975694,16.53156198,0
                102.467973488,16.5317310080001,0
                102.467891788,16.5319979560001,0
                102.467803521,16.532140924,0
                102.467544248,16.532400298,0
                102.46709678,16.5327739740001,0
                102.466754685,16.533013195,0
                102.466576874,16.5331423420001,0
                102.466384781,16.533348076,0
                102.466326286,16.5334578100001,0
                102.466254531,16.53360739,0
                102.466015817,16.5340720070001,0
                102.465886171,16.53431462,0
                102.465764787,16.5344508640001,0
                102.465650674,16.534532739,0
                102.465336216,16.534695352,0
                102.465071551,16.534858661,0
                102.464477557,16.5352410250001,0
                102.463837093,16.535681428,0
                102.463524786,16.5359568590001,0
                102.463479006,16.536038842,0
                102.463443999,16.536153196,0
                102.463422063,16.536407683,0
                102.463442358,16.5365740940001,0
                102.463489123,16.5367002790001,0
                102.463595302,16.5368414550001,0
                102.463768511,16.536976312,0
                102.463916593,16.537042682,0
                102.464147274,16.537063458,0
                102.464739225,16.537074267,0
                102.46536998,16.5370287440001,0
                102.465630713,16.537024778,0
                102.465932114,16.5370464120001,0
                102.466285177,16.5370973,0
                102.466771453,16.5372179870001,0
                102.467163618,16.537272328,0
                102.467647455,16.537296084,0
                102.467934395,16.5372780760001,0
                102.46815496,16.537216184,0
                102.4683158,16.5371570890001,0
                102.468634114,16.537024681,0
                102.46878829,16.5369081590001,0
                102.468935709,16.536741346,0
                102.46914866,16.5364343580001,0
                102.469300325,16.5362379760001,0
                102.469399422,16.5361351440001,0
                102.469536625,16.5360649260001,0
                102.469616589,16.536043589,0
                102.469732284,16.5360475210001,0
                102.469865647,16.536076322,0
                102.470042252,16.536140414,0
                102.470443978,16.5364921560001,0
                102.470651027,16.5366319340001,0
                102.470992926,16.536834304,0
                102.471125639,16.5369485260001,0
                102.471193497,16.5370682830001,0
                102.471305804,16.5373322570001,0
                102.471425925,16.5377846160001,0
                102.471514144,16.538018768,0
                102.471589307,16.538200112,0
                102.471647302,16.538276673,0
                102.47175039,16.53834764,0
                102.47184501,16.5383749750001,0
                102.471967168,16.5383807920001,0
                102.472064596,16.538364544,0
                102.472205247,16.5383378920001,0
                102.472285007,16.538290906,0
                102.472381047,16.5382092580001,0
                102.472475501,16.5380774710001,0
                102.472538442,16.537934465,0
                102.472623669,16.537645614,0
                102.472784238,16.5373108040001,0
                102.472903361,16.537116913,0
                102.472980775,16.537012825,0
                102.473054909,16.5369648670001,0
                102.473179562,16.536927274,0
                102.473306332,16.5369288100001,0
                102.473445304,16.536959844,0
                102.473591537,16.5370202240001,0
                102.473775356,16.537117725,0
                102.473906012,16.5372300240001,0
                102.473973429,16.537306518,0
                102.4740429,16.537427016,0
                102.474116612,16.5376012990001,0
                102.474175161,16.537777835,0
                102.474207877,16.5379931620001,0
                102.474201324,16.5383068100001,0
                102.474180665,16.538565019,0
                102.474196173,16.5387439240001,0
                102.474219904,16.5388369570001,0
                102.47427211,16.5389372880001,0
                102.474322616,16.5389901880001,0
                102.47437848,16.5390288840001,0
                102.474457007,16.5390588240001,0
                102.474532104,16.539061539,0
                102.474641158,16.5390538290001,0
                102.474800598,16.539019276,0
                102.474880516,16.538960009,0
                102.474961819,16.5388004270001,0
                102.475032053,16.5385242150001,0
                102.475148599,16.537899166,0
                102.475227714,16.537272579,0
                102.475253731,16.536875363,0
                102.475301872,16.536427571,0
                102.475350502,16.536215305,0
                102.47544048,16.536023679,0
                102.475559302,16.5358644610001,0
                102.475664181,16.535809559,0
                102.475751992,16.535790483,0
                102.475856087,16.5357958070001,0
                102.475951504,16.535833085,0
                102.476071441,16.5359028080001,0
                102.476174361,16.536004475,0
                102.476305186,16.5361987740001,0
                102.476398097,16.5364288270001,0
                102.476497807,16.5367713050001,0
                102.476523754,16.537020596,0
                102.476544694,16.537334124,0
                102.476502775,16.5376896080001,0
                102.476417349,16.5381663900001,0
                102.476370566,16.5385633550001,0
                102.47637601,16.538774108,0
                102.476399404,16.5388989260001,0
                102.476488722,16.539084685,0
                102.476587188,16.539202373,0
                102.476700029,16.5392834790001,0
                102.476827727,16.5393384870001,0
                102.477034219,16.5394028440001,0
                102.477392794,16.539452156,0
                102.478034774,16.539482498,0
                102.478432952,16.539490927,0
                102.478756691,16.5395173270001,0
                102.479054003,16.5395630950001,0
                102.479342033,16.5396397260001,0
                102.479606126,16.539763931,0
                102.479790684,16.5398822060001,0
                102.480168802,16.540192828,0
                102.480519567,16.540480992,0
                102.480684273,16.5405583890001,0
                102.48082205,16.5405866040001,0
                102.481001804,16.540575501,0
                102.481177424,16.5405200060001,0
                102.48136037,16.54041755,0
                102.481501863,16.5403082710001,0
                102.481596177,16.540180993,0
                102.481663739,16.5400207000001,0
                102.481715918,16.5398319550001,0
                102.481823146,16.539506788,0
                102.481953423,16.539232382,0
                102.482152905,16.538897041,0
                102.482249709,16.538678852,0
                102.482284279,16.538526018,0
                102.482271602,16.5383901330001,0
                102.482226461,16.538221164,0
                102.482170006,16.538108863,0
                102.48209107,16.5380092030001,0
                102.48190376,16.5378589270001,0
              </coordinates>
                
            </LinearRing>
            
          </outerBoundaryIs>
        
        </Polygon>
        
      <styleUrl>
        #tambonStyle</styleUrl>
    </Placemark>

  </Document>
</kml>