<?xml version="1.0" encoding="UTF-8"?>
<kml xmlns="http://www.opengis.net/kml/2.2">
  <Document id="tambon_doc">
    <name>คลองต้นไทร, คลองสาน, Bangkok</name>
    <description>ข้อมูลขอบเขตตำบลคลองต้นไทร อำเภอคลองสาน จังหวัดBangkok</description>
    
    <!-- Schema สำหรับข้อมูลตำบล -->
    <Schema id="tambon.schema">
      <SimpleField name="ADM3_EN" type="string">
        <displayName>Subdistrict Name (English)</displayName>
      </SimpleField>
      <SimpleField name="ADM3_TH" type="string">
        <displayName>ชื่อตำบล</displayName>
      </SimpleField>
      <SimpleField name="ADM2_EN" type="string">
        <displayName>District Name (English)</displayName>
      </SimpleField>
      <SimpleField name="ADM2_TH" type="string">
        <displayName>ชื่ออำเภอ</displayName>
      </SimpleField>
      <SimpleField name="ADM1_EN" type="string">
        <displayName>Province Name (English)</displayName>
      </SimpleField>
      <SimpleField name="ADM1_TH" type="string">
        <displayName>ชื่อจังหวัด</displayName>
      </SimpleField>
      <SimpleField name="ADM0_EN" type="string">
        <displayName>Country Name (English)</displayName>
      </SimpleField>
      <SimpleField name="ADM0_TH" type="string">
        <displayName>ชื่อประเทศ</displayName>
      </SimpleField>
    </Schema>

    <!-- Style สำหรับตำบล -->
    <Style id="tambonStyle">
      <LineStyle>
        <color>ffff0000</color>
        <width>1.5</width>
      </LineStyle>
      <PolyStyle>
        <color>33ff0000</color>
        <fill>1</fill>
        <outline>1</outline>
      </PolyStyle>
    </Style>

    <Placemark id="Bangkok.74">
        
        <ExtendedData>
            
          <SchemaData schemaUrl="#tambon.schema">
                
            <SimpleData name="Shape_Leng">
                0.0553990230072</SimpleData>
                
            <SimpleData name="Shape_Area">
                0.000142560744119</SimpleData>
                
            <SimpleData name="ADM3_EN">
                Khlong Ton Sai</SimpleData>
                
            <SimpleData name="ADM3_TH">
                คลองต้นไทร</SimpleData>
                
            <SimpleData name="ADM3_PCODE">
                TH101804</SimpleData>
                
            <SimpleData name="ADM2_EN">
                Khlong San</SimpleData>
                
            <SimpleData name="ADM2_TH">
                คลองสาน</SimpleData>
                
            <SimpleData name="ADM2_PCODE">
                TH1018</SimpleData>
                
            <SimpleData name="ADM1_EN">
                Bangkok</SimpleData>
                
            <SimpleData name="ADM1_TH">
                กรุงเทพมหานคร</SimpleData>
                
            <SimpleData name="ADM1_PCODE">
                TH10</SimpleData>
                
            <SimpleData name="ADM0_EN">
                Thailand</SimpleData>
                
            <SimpleData name="ADM0_TH">
                ประเทศไทย</SimpleData>
                
            <SimpleData name="ADM0_PCODE">
                TH</SimpleData>
            
          </SchemaData>
        
        </ExtendedData>
        
        <Polygon>
            
          <outerBoundaryIs>
                
            <LinearRing>
                    
              <coordinates>
                    
                100.512031695,13.719335614,0
                100.511288457,13.71733564,0
                100.510153931,13.717769173,0
                100.509558145,13.7179973890001,0
                100.50905146,13.718190126,0
                100.508499024,13.7184130900001,0
                100.508249527,13.718511931,0
                100.507788411,13.7186469970001,0
                100.507464849,13.7187388,0
                100.507291505,13.7187722960001,0
                100.5071283,13.71879575,0
                100.506957413,13.718814261,0
                100.506771448,13.718870291,0
                100.506506475,13.718944272,0
                100.506325582,13.718995282,0
                100.506162525,13.7190411880001,0
                100.50611115,13.7190602040001,0
                100.505958968,13.719139748,0
                100.505712175,13.7192635230001,0
                100.505428913,13.71938626,0
                100.504954511,13.71957567,0
                100.504687268,13.7196716510001,0
                100.504090373,13.7198997260001,0
                100.503318894,13.720196373,0
                100.502443039,13.7205360740001,0
                100.501904083,13.7209374660001,0
                100.501268492,13.7209526240001,0
                100.500673383,13.7209675350001,0
                100.499986359,13.7209818860001,0
                100.499472706,13.720996299,0
                100.498951472,13.7210028700001,0
                100.498312452,13.7210214090001,0
                100.497824797,13.721031178,0
                100.497392581,13.721041685,0
                100.49697138,13.721051013,0
                100.496379668,13.7210580010001,0
                100.495951512,13.721068486,0
                100.495363947,13.721090141,0
                100.494251287,13.721060702,0
                100.493855971,13.721048395,0
                100.493133424,13.7209931350001,0
                100.492973883,13.720980933,0
                100.492957641,13.7210590460001,0
                100.492920456,13.7211202880001,0
                100.492873569,13.721343308,0
                100.492784637,13.7217663220001,0
                100.492433683,13.7225526030001,0
                100.492324669,13.722861724,0
                100.492313818,13.72288216,0
                100.492206084,13.723118958,0
                100.492243217,13.723229476,0
                100.49234438,13.723583325,0
                100.492554738,13.7242384310001,0
                100.492691488,13.7246290900001,0
                100.492725228,13.7247094100001,0
                100.493147846,13.724820589,0
                100.493300061,13.7248558220001,0
                100.493392081,13.724877851,0
                100.493486058,13.724901495,0
                100.493575582,13.724922142,0
                100.493864889,13.724986895,0
                100.493979513,13.7250155670001,0
                100.494284509,13.725087171,0
                100.494395509,13.7251146310001,0
                100.49459158,13.7251631340001,0
                100.494734813,13.72519856,0
                100.494872,13.725230502,0
                100.495131311,13.7252956080001,0
                100.49526847,13.725329819,0
                100.495382201,13.725357568,0
                100.495581616,13.7254069950001,0
                100.495756963,13.725447731,0
                100.495924788,13.7254862620001,0
                100.4961077,13.7255314770001,0
                100.496275565,13.72557342,0
                100.496428342,13.7256097640001,0
                100.496588688,13.725650595,0
                100.496740917,13.725688104,0
                100.496901251,13.7257277910001,0
                100.497084713,13.725770773,0
                100.497244446,13.7258104640001,0
                100.497382216,13.725842401,0
                100.497534441,13.7258799100001,0
                100.49769478,13.725919601,0
                100.497900837,13.725971472,0
                100.498068679,13.7260133680001,0
                100.498221473,13.7260486170001,0
                100.498366176,13.726083901,0
                100.498579722,13.7261357030001,0
                100.498763202,13.7261786610001,0
                100.498922992,13.7262206290001,0
                100.499098946,13.726261359,0
                100.499251167,13.726301139,0
                100.499442142,13.7263440290001,0
                100.499640041,13.726386899,0
                100.499815995,13.7264276290001,0
                100.499982088,13.726465381,0
                100.500136026,13.7265002550001,0
                100.500243098,13.726525598,0
                100.50051748,13.726593973,0
                100.500715996,13.7266413620001,0
                100.500899485,13.7266854530001,0
                100.501020998,13.7267140970001,0
                100.501181338,13.7267537860001,0
                100.501372344,13.72680236,0
                100.501494501,13.7268332690001,0
                100.501517055,13.7268387500001,0
                100.501607311,13.726860759,0
                100.501746247,13.726892709,0
                100.501816648,13.7269084660001,0
                100.501979789,13.7269488380001,0
                100.502211582,13.727004037,0
                100.502295532,13.727026111,0
                100.502425185,13.7270580900001,0
                100.502516622,13.727079003,0
                100.502600539,13.7270988220001,0
                100.502768361,13.727137348,0
                100.502928735,13.727179327,0
                100.503080943,13.7272168320001,0
                100.503195543,13.727244378,0
                100.50327194,13.7272630850001,0
                100.503355883,13.727284065,0
                100.503561941,13.727335931,0
                100.503729797,13.7273767070001,0
                100.503905191,13.7274208040001,0
                100.504164479,13.727484765,0
                100.504362982,13.7275299230001,0
                100.504538403,13.7275751770001,0
                100.504643864,13.7276022450001,0
                100.504683701,13.727612171,0
                100.504859054,13.727653452,0
                100.505034425,13.727697549,0
                100.505156538,13.727725048,0
                100.505362589,13.727775778,0
                100.505492236,13.7278066430001,0
                100.505698288,13.72785735,0
                100.505873708,13.7279026250001,0
                100.506018398,13.727939039,0
                100.506155594,13.727972064,0
                100.506300882,13.7280073580001,0
                100.506468712,13.728046997,0
                100.506552618,13.7280656990001,0
                100.506636552,13.7280844040001,0
                100.506819467,13.728129611,0
                100.506994823,13.7281748400001,0
                100.507140096,13.728207883,0
                100.507338633,13.728255244,0
                100.507457377,13.728283689,0
                100.507605435,13.7283191550001,0
                100.507780793,13.7283610220001,0
                100.508017537,13.7284171970001,0
                100.508238614,13.728467833,0
                100.50836078,13.7284998590001,0
                100.508391421,13.728507585,0
                100.508551191,13.728546152,0
                100.508658251,13.7285692400001,0
                100.50884111,13.7286121720001,0
                100.509512639,13.7287888590001,0
                100.509840812,13.728871606,0
                100.511229202,13.729182875,0
                100.512298349,13.7293925870001,0
                100.512712302,13.7242737230001,0
                100.512641807,13.7221624420001,0
                100.512615284,13.721817458,0
                100.512503639,13.7211112570001,0
                100.512289719,13.720283153,0
                100.512174232,13.7198488440001,0
                100.512031695,13.719335614,0
              </coordinates>
                
            </LinearRing>
            
          </outerBoundaryIs>
        
        </Polygon>
        
      <styleUrl>
        #tambonStyle</styleUrl>
    </Placemark>

  </Document>
</kml>