<?xml version="1.0" encoding="UTF-8"?>
<kml xmlns="http://www.opengis.net/kml/2.2">
  <Document id="tambon_doc">
    <name>ยางสีสุราช, ยางสีสุราช, Maha Sarakham</name>
    <description>ข้อมูลขอบเขตตำบลยางสีสุราช อำเภอยางสีสุราช จังหวัดMaha Sarakham</description>
    
    <!-- Schema สำหรับข้อมูลตำบล -->
    <Schema id="tambon.schema">
      <SimpleField name="ADM3_EN" type="string">
        <displayName>Subdistrict Name (English)</displayName>
      </SimpleField>
      <SimpleField name="ADM3_TH" type="string">
        <displayName>ชื่อตำบล</displayName>
      </SimpleField>
      <SimpleField name="ADM2_EN" type="string">
        <displayName>District Name (English)</displayName>
      </SimpleField>
      <SimpleField name="ADM2_TH" type="string">
        <displayName>ชื่ออำเภอ</displayName>
      </SimpleField>
      <SimpleField name="ADM1_EN" type="string">
        <displayName>Province Name (English)</displayName>
      </SimpleField>
      <SimpleField name="ADM1_TH" type="string">
        <displayName>ชื่อจังหวัด</displayName>
      </SimpleField>
      <SimpleField name="ADM0_EN" type="string">
        <displayName>Country Name (English)</displayName>
      </SimpleField>
      <SimpleField name="ADM0_TH" type="string">
        <displayName>ชื่อประเทศ</displayName>
      </SimpleField>
    </Schema>

    <!-- Style สำหรับตำบล -->
    <Style id="tambonStyle">
      <LineStyle>
        <color>ffff0000</color>
        <width>1.5</width>
      </LineStyle>
      <PolyStyle>
        <color>33ff0000</color>
        <fill>1</fill>
        <outline>1</outline>
      </PolyStyle>
    </Style>

    <Placemark id="Maha_Sarakham.118">
        
        <ExtendedData>
            
          <SchemaData schemaUrl="#tambon.schema">
                
            <SimpleData name="Shape_Leng">
                0.232344203245</SimpleData>
                
            <SimpleData name="Shape_Area">
                0.00297433885444</SimpleData>
                
            <SimpleData name="ADM3_EN">
                Yang Sisurat</SimpleData>
                
            <SimpleData name="ADM3_TH">
                ยางสีสุราช</SimpleData>
                
            <SimpleData name="ADM3_PCODE">
                TH441101</SimpleData>
                
            <SimpleData name="ADM2_EN">
                Yang Sisurat</SimpleData>
                
            <SimpleData name="ADM2_TH">
                ยางสีสุราช</SimpleData>
                
            <SimpleData name="ADM2_PCODE">
                TH4411</SimpleData>
                
            <SimpleData name="ADM1_EN">
                Maha Sarakham</SimpleData>
                
            <SimpleData name="ADM1_TH">
                มหาสารคาม</SimpleData>
                
            <SimpleData name="ADM1_PCODE">
                TH44</SimpleData>
                
            <SimpleData name="ADM0_EN">
                Thailand</SimpleData>
                
            <SimpleData name="ADM0_TH">
                ประเทศไทย</SimpleData>
                
            <SimpleData name="ADM0_PCODE">
                TH</SimpleData>
            
          </SchemaData>
        
        </ExtendedData>
        
        <Polygon>
            
          <outerBoundaryIs>
                
            <LinearRing>
                    
              <coordinates>
                    
                103.090289938,15.7079580000001,0
                103.09144546,15.707092156,0
                103.091458935,15.7070820590001,0
                103.091490096,15.707058709,0
                103.091563977,15.70704806,0
                103.091639602,15.707037158,0
                103.091769711,15.7070176710001,0
                103.091830073,15.7070086300001,0
                103.091879551,15.7070012190001,0
                103.091920534,15.7070032280001,0
                103.092068,15.707010455,0
                103.092461094,15.706983533,0
                103.09263472,15.7069741720001,0
                103.092704828,15.7069703930001,0
                103.092756251,15.706974244,0
                103.093043723,15.7069957750001,0
                103.093050277,15.706996267,0
                103.093282272,15.7069716400001,0
                103.093557544,15.706954336,0
                103.093572515,15.706953394,0
                103.093589024,15.7069504090001,0
                103.093741396,15.7069228550001,0
                103.093765925,15.706916709,0
                103.093801488,15.7069059560001,0
                103.093979996,15.7068321720001,0
                103.094030911,15.706811127,0
                103.094094155,15.706804269,0
                103.094104659,15.7068031310001,0
                103.094270765,15.706785122,0
                103.09444631,15.70670977,0
                103.094701495,15.706623458,0
                103.095040872,15.7064418430001,0
                103.096837005,15.7054394890001,0
                103.098138761,15.7048582520001,0
                103.100574691,15.7040145710001,0
                103.101380063,15.703839616,0
                103.101855235,15.703868803,0
                103.10185632,15.7038688700001,0
                103.103409863,15.7039397340001,0
                103.104801189,15.7040239150001,0
                103.10636366,15.704118441,0
                103.106871549,15.7041189990001,0
                103.115307759,15.7034099250001,0
                103.115495303,15.7031662530001,0
                103.115733475,15.7030214960001,0
                103.116029787,15.7029953210001,0
                103.11620391,15.7030569930001,0
                103.116342044,15.703079319,0
                103.116343853,15.7030796110001,0
                103.1166609,15.703107371,0
                103.117170276,15.7031576570001,0
                103.117319765,15.70332175,0
                103.117421649,15.7030043560001,0
                103.117458863,15.702806303,0
                103.117543579,15.702355438,0
                103.117659579,15.70189163,0
                103.117703281,15.7017537360001,0
                103.1177527,15.701631794,0
                103.1178466,15.7014593380001,0
                103.117981061,15.70118882,0
                103.11806135,15.701069927,0
                103.118068414,15.7010636430001,0
                103.118130053,15.701008819,0
                103.118221466,15.700944437,0
                103.118289064,15.700909176,0
                103.118347596,15.7008721,0
                103.118350603,15.700870196,0
                103.118400717,15.700838452,0
                103.118431099,15.700810651,0
                103.118450805,15.7007926210001,0
                103.118510591,15.7007320970001,0
                103.118538731,15.7007036090001,0
                103.118575843,15.700655904,0
                103.118614454,15.700597831,0
                103.11861529,15.700596573,0
                103.118660701,15.700489374,0
                103.118668504,15.700470953,0
                103.118684118,15.700434092,0
                103.11870334,15.7004059970001,0
                103.118745286,15.700344683,0
                103.118754667,15.7003309720001,0
                103.118853125,15.7002304230001,0
                103.118990288,15.7000761950001,0
                103.119050264,15.6999954200001,0
                103.11908413,15.6999332190001,0
                103.11909233,15.6999132780001,0
                103.119098477,15.6998861870001,0
                103.119100719,15.699876309,0
                103.119101071,15.699838057,0
                103.119101273,15.699816022,0
                103.119089697,15.699786412,0
                103.119072122,15.699761279,0
                103.119047609,15.699746743,0
                103.119005808,15.699729646,0
                103.118794002,15.6996800050001,0
                103.118702885,15.6996577030001,0
                103.118668131,15.699643488,0
                103.118644233,15.6996269740001,0
                103.118629234,15.6995980950001,0
                103.118623016,15.6995689130001,0
                103.118617968,15.6995239030001,0
                103.118605146,15.699418248,0
                103.118595514,15.6992551060001,0
                103.118559669,15.698857908,0
                103.118543643,15.6987214870001,0
                103.118516002,15.698506068,0
                103.118444446,15.6982441440001,0
                103.118393308,15.6980698940001,0
                103.118365935,15.698025043,0
                103.118318939,15.697979354,0
                103.118318168,15.6979786040001,0
                103.118209513,15.6979085460001,0
                103.118035082,15.697755171,0
                103.118011848,15.6977319050001,0
                103.117997006,15.697702597,0
                103.117990186,15.6976672210001,0
                103.11798501,15.6976330750001,0
                103.117971404,15.697543307,0
                103.117958279,15.6974981870001,0
                103.117933021,15.6974572400001,0
                103.117893838,15.697413801,0
                103.117763067,15.697297302,0
                103.117746238,15.697277161,0
                103.117722754,15.6972389950001,0
                103.117720729,15.697228491,0
                103.117713767,15.697187559,0
                103.117715942,15.6969506900001,0
                103.117644436,15.69653701,0
                103.117503408,15.695769839,0
                103.117474531,15.6954800300001,0
                103.117492466,15.6952439290001,0
                103.117557913,15.69498538,0
                103.117614731,15.6947953280001,0
                103.117622088,15.694752884,0
                103.117625643,15.694727174,0
                103.117623092,15.694701579,0
                103.117610444,15.69468012,0
                103.117581156,15.6946412230001,0
                103.117479932,15.694506212,0
                103.117436789,15.6944486680001,0
                103.117335284,15.694261222,0
                103.117213283,15.693980502,0
                103.117183774,15.69389656,0
                103.117143009,15.6937042280001,0
                103.117135875,15.6936398620001,0
                103.117165802,15.693382602,0
                103.117274043,15.6930584570001,0
                103.117345816,15.6928435190001,0
                103.117507083,15.6924862330001,0
                103.117896373,15.6924601320001,0
                103.118316658,15.6923755720001,0
                103.118811892,15.6922549400001,0
                103.118889077,15.692245595,0
                103.119303029,15.6922017420001,0
                103.119515339,15.6922022160001,0
                103.119719075,15.6922082340001,0
                103.119845585,15.692221627,0
                103.119913268,15.692245991,0
                103.119997472,15.6922818800001,0
                103.120116912,15.6923486630001,0
                103.120158254,15.692379443,0
                103.12028629,15.6925149730001,0
                103.120374057,15.692580509,0
                103.120433758,15.692612915,0
                103.120472668,15.692624015,0
                103.120527861,15.692634808,0
                103.121309433,15.6927206510001,0
                103.121370653,15.6927273850001,0
                103.121423574,15.6927263860001,0
                103.121460052,15.6927178070001,0
                103.121488388,15.692709383,0
                103.121512495,15.6926931470001,0
                103.121522275,15.6926732380001,0
                103.121527826,15.6926455170001,0
                103.121534685,15.692599644,0
                103.121513731,15.692409949,0
                103.121482525,15.692231957,0
                103.121436393,15.6919610640001,0
                103.121445431,15.6916377900001,0
                103.121467078,15.6914814350001,0
                103.121519232,15.6912708310001,0
                103.121622314,15.690854566,0
                103.121666831,15.6907485250001,0
                103.121726328,15.690647025,0
                103.121817437,15.6904696290001,0
                103.121833214,15.690425819,0
                103.121838831,15.6903929700001,0
                103.121838236,15.690363393,0
                103.121833253,15.69031812,0
                103.121819791,15.690242804,0
                103.121751521,15.6900164620001,0
                103.121709463,15.6899338470001,0
                103.121690828,15.689918419,0
                103.121664217,15.689906663,0
                103.121657905,15.6899047370001,0
                103.121486861,15.6898857580001,0
                103.121363271,15.689853215,0
                103.12128432,15.6898249930001,0
                103.121138608,15.6897686500001,0
                103.12101944,15.6896967960001,0
                103.12101157,15.689688258,0
                103.120999329,15.6896749800001,0
                103.120991422,15.6896513020001,0
                103.120991639,15.689627694,0
                103.120995952,15.6896001860001,0
                103.121004363,15.6895687790001,0
                103.121018922,15.6895315200001,0
                103.121093688,15.6893511530001,0
                103.121218365,15.689043327,0
                103.121271994,15.6889007290001,0
                103.121283631,15.688873041,0
                103.12131687,15.68882445,0
                103.121352475,15.6887929860001,0
                103.121408656,15.6887553450001,0
                103.12146418,15.688715743,0
                103.121492218,15.688684213,0
                103.121502395,15.688663568,0
                103.121578303,15.688395219,0
                103.121601017,15.6882762600001,0
                103.121647908,15.6879208660001,0
                103.121656018,15.687694267,0
                103.12165602,15.687600549,0
                103.121659147,15.6875345920001,0
                103.121662026,15.687495514,0
                103.121674997,15.687456524,0
                103.121698012,15.6874225080001,0
                103.121728505,15.6873983310001,0
                103.121776789,15.6873596450001,0
                103.121782192,15.687356817,0
                103.121850299,15.687321175,0
                103.121933831,15.687290122,0
                103.121976636,15.687276528,0
                103.122126985,15.6872353640001,0
                103.122439283,15.6871259540001,0
                103.122451935,15.6871170160001,0
                103.122458003,15.68711273,0
                103.12248064,15.687084025,0
                103.12249229,15.687038515,0
                103.122496108,15.6870235980001,0
                103.122493964,15.687022945,0
                103.122496314,15.6870010710001,0
                103.122497009,15.6869252130001,0
                103.12248688,15.686809526,0
                103.122462199,15.6866539750001,0
                103.122449168,15.686447948,0
                103.122450028,15.6863540300001,0
                103.122461648,15.6862967980001,0
                103.122461743,15.6862963300001,0
                103.122472095,15.686264738,0
                103.122493005,15.686226807,0
                103.122514869,15.686195636,0
                103.122596658,15.6860477170001,0
                103.122604399,15.686022553,0
                103.12262462,15.685956822,0
                103.122627567,15.685910413,0
                103.12262538,15.6858737360001,0
                103.12261883,15.68584048,0
                103.122617467,15.6858335580001,0
                103.12260755,15.6858145730001,0
                103.122568347,15.685765718,0
                103.122503457,15.685689402,0
                103.122461157,15.685625498,0
                103.122438902,15.68557643,0
                103.122429238,15.685529913,0
                103.122424767,15.68550728,0
                103.122406418,15.685414399,0
                103.122393261,15.6853447930001,0
                103.122389164,15.6853329040001,0
                103.122378246,15.6853012280001,0
                103.122366563,15.685281467,0
                103.122357752,15.6852665660001,0
                103.122354762,15.6852627970001,0
                103.122287873,15.685148381,0
                103.122266344,15.685078393,0
                103.122257146,15.6850193510001,0
                103.122243222,15.684910856,0
                103.122240419,15.684809681,0
                103.122242195,15.6847929320001,0
                103.122252662,15.6846941850001,0
                103.122272034,15.6846148760001,0
                103.122295133,15.684535598,0
                103.122333046,15.684467285,0
                103.122370762,15.684420646,0
                103.122393132,15.6843965200001,0
                103.122401206,15.684387811,0
                103.122442227,15.6843338910001,0
                103.122455528,15.684310946,0
                103.122462683,15.684298601,0
                103.122468929,15.6842878260001,0
                103.122503151,15.684173839,0
                103.122507375,15.6841435470001,0
                103.122516027,15.684078088,0
                103.122523577,15.684020968,0
                103.122540572,15.6837935240001,0
                103.122549782,15.6836021390001,0
                103.122551004,15.683468486,0
                103.122544768,15.6833347690001,0
                103.122542683,15.683268163,0
                103.122538997,15.6831504790001,0
                103.122540086,15.6830312760001,0
                103.122548369,15.6829410340001,0
                103.122553237,15.6829058490001,0
                103.122561175,15.682873525,0
                103.122582952,15.682829343,0
                103.12261321,15.682782638,0
                103.122662078,15.682739708,0
                103.122689805,15.6827181240001,0
                103.122718673,15.68270276,0
                103.122793142,15.6826794200001,0
                103.122808067,15.6826727270001,0
                103.122864283,15.6826475180001,0
                103.122909291,15.682619005,0
                103.122954398,15.6825796530001,0
                103.122991379,15.6825298420001,0
                103.122999702,15.6825186290001,0
                103.123018742,15.6824754420001,0
                103.123025941,15.682435771,0
                103.123026596,15.682432159,0
                103.123027124,15.6823743630001,0
                103.122995945,15.6821139940001,0
                103.122993672,15.682043272,0
                103.122994076,15.6820111800001,0
                103.123004814,15.6819587470001,0
                103.12302759,15.6819155750001,0
                103.123084147,15.681847423,0
                103.123170731,15.681757852,0
                103.123328819,15.6815966460001,0
                103.123490574,15.681426324,0
                103.12352159,15.681384732,0
                103.123567708,15.6813069250001,0
                103.123590968,15.681246028,0
                103.123607562,15.6811840600001,0
                103.123612558,15.681151125,0
                103.123627305,15.68100923,0
                103.12362826,15.6810030400001,0
                103.123642957,15.680907731,0
                103.12366803,15.680798528,0
                103.12369139,15.68065331,0
                103.123694969,15.680631067,0
                103.123698429,15.680528456,0
                103.123693965,15.6804648770001,0
                103.123676665,15.680425626,0
                103.123634276,15.6803714980001,0
                103.123562043,15.680270681,0
                103.123507571,15.680186968,0
                103.123498653,15.6801695620001,0
                103.123488757,15.6801376770001,0
                103.123482808,15.680099167,0
                103.123481887,15.68008661,0
                103.123486397,15.6799914310001,0
                103.123487525,15.679966214,0
                103.123488339,15.6799480340001,0
                103.123489566,15.679920587,0
                103.123479879,15.679876515,0
                103.123452714,15.679812741,0
                103.123427937,15.679763651,0
                103.123416638,15.679726508,0
                103.12341491,15.679704712,0
                103.123411402,15.6796604350001,0
                103.123411241,15.679658422,0
                103.12341251,15.679646737,0
                103.12341675,15.6796076370001,0
                103.123419359,15.67958359,0
                103.123428306,15.6795428880001,0
                103.123445819,15.6794632100001,0
                103.123448812,15.679452332,0
                103.123467455,15.6793261830001,0
                103.123467627,15.679284995,0
                103.123455396,15.6792433460001,0
                103.123441563,15.6792218680001,0
                103.123431908,15.6792118710001,0
                103.123370328,15.6791668560001,0
                103.123201714,15.679055851,0
                103.123189791,15.6790480020001,0
                103.123184141,15.6790426040001,0
                103.123146108,15.679006271,0
                103.123117582,15.6789756420001,0
                103.123077402,15.678924845,0
                103.123064596,15.678900641,0
                103.123050125,15.6788732900001,0
                103.123040461,15.678826773,0
                103.123040666,15.678804391,0
                103.123040965,15.6787716260001,0
                103.123041086,15.6787583500001,0
                103.123044638,15.678737744,0
                103.123052904,15.678704393,0
                103.12310303,15.6786049190001,0
                103.123169929,15.678461305,0
                103.123213656,15.6783688150001,0
                103.123258238,15.678234785,0
                103.123270846,15.678183571,0
                103.123292297,15.6780444560001,0
                103.123315936,15.677942016,0
                103.123326428,15.6778981160001,0
                103.123346875,15.6778689670001,0
                103.123370757,15.6778514910001,0
                103.123388729,15.6778425850001,0
                103.123445626,15.6778282670001,0
                103.123541653,15.677809541,0
                103.123571346,15.677793891,0
                103.123597869,15.6777700480001,0
                103.123610392,15.6777404800001,0
                103.123613089,15.677721359,0
                103.123613256,15.6777031140001,0
                103.12360716,15.6776494530001,0
                103.123591632,15.677585133,0
                103.12358677,15.6775628610001,0
                103.123550471,15.677396604,0
                103.123538304,15.6773255480001,0
                103.123517688,15.6771195100001,0
                103.123518263,15.677056631,0
                103.123534044,15.6769858960001,0
                103.123552014,15.6769518350001,0
                103.123577571,15.6769153970001,0
                103.123608085,15.6768887760001,0
                103.123633231,15.6768690100001,0
                103.123666522,15.6768428440001,0
                103.123695465,15.676822563,0
                103.123719893,15.6767993120001,0
                103.12373295,15.676774559,0
                103.123738834,15.6767496530001,0
                103.123737793,15.6767364090001,0
                103.123732647,15.6767214380001,0
                103.12372443,15.676705643,0
                103.123723855,15.6767050880001,0
                103.123717943,15.6766993740001,0
                103.123619883,15.676613909,0
                103.123613959,15.676607545,0
                103.12360072,15.6765905610001,0
                103.123583354,15.676558642,0
                103.123575774,15.676520157,0
                103.123570399,15.6764206600001,0
                103.12355976,15.676380039,0
                103.12354274,15.6763525100001,0
                103.123433038,15.676261503,0
                103.123284378,15.676089846,0
                103.123273485,15.676076414,0
                103.123241972,15.6760254480001,0
                103.123230321,15.6759935270001,0
                103.123203225,15.6758861910001,0
                103.123173565,15.6757199080001,0
                103.123128916,15.675578785,0
                103.123093932,15.6753744760001,0
                103.123086478,15.67531222,0
                103.123058778,15.6750809110001,0
                103.123042192,15.674933052,0
                103.12304027,15.674873243,0
                103.1230387,15.674824406,0
                103.123058818,15.6746995570001,0
                103.12306247,15.674676893,0
                103.123090566,15.674546794,0
                103.123148575,15.6743511990001,0
                103.123155566,15.674304051,0
                103.123170289,15.67416515,0
                103.123166837,15.674052159,0
                103.123147632,15.6739271480001,0
                103.123065193,15.6735656540001,0
                103.123293674,15.6733827640001,0
                103.123344409,15.6733902130001,0
                103.123349219,15.673389995,0
                103.123413417,15.673394838,0
                103.123477064,15.6734096870001,0
                103.123543991,15.6734195130001,0
                103.12409292,15.673508763,0
                103.124196554,15.673511008,0
                103.124390891,15.6734966980001,0
                103.124928996,15.673428584,0
                103.125356918,15.6733959310001,0
                103.124222391,15.670146463,0
                103.123258696,15.668422336,0
                103.122388641,15.6674778880001,0
                103.12238418,15.667472495,0
                103.118291167,15.6625245070001,0
                103.11476475,15.659088835,0
                103.11406765,15.657591573,0
                103.110440121,15.6534426850001,0
                103.110427625,15.653346358,0
                103.110408319,15.6532630730001,0
                103.110329388,15.653132203,0
                103.110242076,15.6529846380001,0
                103.110087163,15.6527201220001,0
                103.109988672,15.6525420140001,0
                103.109940837,15.6524501700001,0
                103.109865019,15.652365585,0
                103.108319967,15.6526800880001,0
                103.107729192,15.6528003390001,0
                103.107676437,15.652806807,0
                103.107615067,15.652806277,0
                103.107573641,15.6528042680001,0
                103.107167772,15.6527458850001,0
                103.106574322,15.6526605180001,0
                103.106538248,15.652655329,0
                103.104737693,15.652509391,0
                103.103537163,15.6525186970001,0
                103.10306849,15.652688918,0
                103.102862406,15.6527290540001,0
                103.101635928,15.652583544,0
                103.10155436,15.6524723430001,0
                103.100447891,15.651914624,0
                103.098760167,15.651236306,0
                103.096216618,15.6501843680001,0
                103.095259716,15.650053814,0
                103.094298262,15.6497674620001,0
                103.09371735,15.649195219,0
                103.092592964,15.648782854,0
                103.084336769,15.650362429,0
                103.084334467,15.6503628680001,0
                103.080807421,15.651459146,0
                103.079302648,15.652611796,0
                103.079098376,15.6527682650001,0
                103.077595346,15.654056826,0
                103.07683161,15.6547115720001,0
                103.073064291,15.655404822,0
                103.072362744,15.65553391,0
                103.069082601,15.6596207580001,0
                103.069055244,15.65965484,0
                103.068737711,15.661332897,0
                103.068597768,15.6618706580001,0
                103.068126106,15.66313159,0
                103.067766131,15.664512308,0
                103.067740449,15.6647898900001,0
                103.067643346,15.6649422560001,0
                103.06697052,15.665602334,0
                103.066256496,15.666643751,0
                103.065883179,15.667086392,0
                103.065686193,15.667489936,0
                103.065561888,15.6683339160001,0
                103.065509983,15.668839475,0
                103.065521057,15.6695257380001,0
                103.065543658,15.669845394,0
                103.065555171,15.6699947450001,0
                103.06560735,15.670187007,0
                103.065770077,15.670449359,0
                103.066052713,15.67091487,0
                103.066282818,15.6714136160001,0
                103.066339919,15.67181823,0
                103.06636179,15.6722646330001,0
                103.066263272,15.672566777,0
                103.066086147,15.6729104180001,0
                103.065860326,15.67316536,0
                103.065533251,15.6734028220001,0
                103.065531176,15.673404437,0
                103.06551063,15.6734433560001,0
                103.065508328,15.673459001,0
                103.065505241,15.6734799650001,0
                103.06550587,15.673489746,0
                103.065530214,15.6735752450001,0
                103.065545573,15.6736221080001,0
                103.065573574,15.673729157,0
                103.065584396,15.6738121660001,0
                103.065583813,15.673873993,0
                103.065581927,15.673920352,0
                103.065574252,15.6739652530001,0
                103.065555269,15.6740406480001,0
                103.065479193,15.6744917710001,0
                103.065476109,15.6745264800001,0
                103.065474192,15.6746029660001,0
                103.065474861,15.674670502,0
                103.065480802,15.675270095,0
                103.065608142,15.675603757,0
                103.065612282,15.675610061,0
                103.065648816,15.6756439870001,0
                103.06570396,15.675681131,0
                103.065715449,15.6756859830001,0
                103.065851149,15.675741127,0
                103.06590876,15.6757645390001,0
                103.065929802,15.6757845430001,0
                103.065977593,15.6758204020001,0
                103.066017174,15.675861083,0
                103.066030259,15.6758800480001,0
                103.06605504,15.6759036060001,0
                103.066084045,15.6759835720001,0
                103.066190827,15.676277971,0
                103.06619732,15.6762958730001,0
                103.066199198,15.6763189700001,0
                103.066208886,15.676438096,0
                103.066210348,15.676456079,0
                103.066206214,15.676471759,0
                103.066133381,15.6767480230001,0
                103.066125643,15.676826681,0
                103.06610948,15.676991017,0
                103.065990883,15.677016962,0
                103.065975504,15.677023714,0
                103.065938429,15.677033341,0
                103.065917455,15.6770487100001,0
                103.065901534,15.677073751,0
                103.065895569,15.6770855570001,0
                103.065847504,15.67724308,0
                103.065828886,15.6773367230001,0
                103.065791732,15.677425866,0
                103.065712073,15.6776869330001,0
                103.065686292,15.677766697,0
                103.065632014,15.677872784,0
                103.065603516,15.6779098480001,0
                103.06549599,15.67805952,0
                103.065398967,15.6781587360001,0
                103.065385356,15.6781702660001,0
                103.065331664,15.678213472,0
                103.065207494,15.678296054,0
                103.0651279,15.6783622940001,0
                103.064983562,15.6784901230001,0
                103.064755251,15.6786959890001,0
                103.06471252,15.6787265720001,0
                103.06459315,15.6788046510001,0
                103.064429204,15.678917961,0
                103.06425806,15.67900969,0
                103.064089496,15.6790894870001,0
                103.063923959,15.679164671,0
                103.063874858,15.6791795120001,0
                103.063809633,15.679192212,0
                103.063730628,15.679201071,0
                103.06360476,15.679199957,0
                103.06341731,15.679188734,0
                103.063320634,15.6791818300001,0
                103.06318751,15.6791548100001,0
                103.063050311,15.6791137600001,0
                103.06299689,15.6791018590001,0
                103.062837324,15.6790581770001,0
                103.062511436,15.67894641,0
                103.062125591,15.6787879460001,0
                103.062073001,15.678762239,0
                103.061870142,15.678649047,0
                103.061571355,15.6784178,0
                103.061510257,15.678451153,0
                103.061389496,15.6785170740001,0
                103.06114886,15.6787026760001,0
                103.060827272,15.6790962530001,0
                103.06078342,15.679153408,0
                103.060671536,15.6792992320001,0
                103.060631743,15.6793510970001,0
                103.060706281,15.679463158,0
                103.060720544,15.6794846,0
                103.060733852,15.6795415710001,0
                103.060734427,15.679544036,0
                103.060746047,15.6795937810001,0
                103.060737277,15.6796590210001,0
                103.060723936,15.679687137,0
                103.060717948,15.679699756,0
                103.060710126,15.6797162400001,0
                103.060703145,15.6797252740001,0
                103.060639193,15.679808032,0
                103.060455278,15.680006749,0
                103.060337314,15.680134208,0
                103.059994426,15.6804698660001,0
                103.059992003,15.6804717110001,0
                103.059911225,15.680533181,0
                103.059922073,15.6806207920001,0
                103.059947597,15.6808269410001,0
                103.059924792,15.6808879910001,0
                103.059788836,15.681251956,0
                103.059702638,15.6815508610001,0
                103.059701596,15.681661084,0
                103.059699371,15.6818965790001,0
                103.059706598,15.6821658270001,0
                103.059708188,15.682225056,0
                103.059725096,15.6822735540001,0
                103.059820097,15.6825460360001,0
                103.059841649,15.6826023880001,0
                103.059846342,15.682621312,0
                103.059847242,15.682623893,0
                103.059905374,15.682788021,0
                103.060035329,15.683026779,0
                103.060101862,15.683173003,0
                103.060264318,15.683480258,0
                103.060441271,15.683702356,0
                103.06070478,15.683961992,0
                103.060918613,15.6843103570001,0
                103.0611817,15.6846067590001,0
                103.061353073,15.6848497670001,0
                103.061454815,15.684997659,0
                103.061483249,15.6851387580001,0
                103.061480145,15.6852392820001,0
                103.061506923,15.685319474,0
                103.061554985,15.6853937110001,0
                103.061653822,15.6854828530001,0
                103.061733046,15.6856209690001,0
                103.061751193,15.685694579,0
                103.061877539,15.685819109,0
                103.061918317,15.685882801,0
                103.061934662,15.685976361,0
                103.061992132,15.686096939,0
                103.062124028,15.686374921,0
                103.06226609,15.6866596790001,0
                103.062354242,15.686813322,0
                103.062384544,15.68688695,0
                103.062646438,15.6872694370001,0
                103.063173867,15.688056578,0
                103.063367407,15.6883717870001,0
                103.063568247,15.6886470370001,0
                103.063718863,15.6888408030001,0
                103.063865316,15.689035527,0
                103.064044794,15.6893740090001,0
                103.064111578,15.6896080490001,0
                103.064164701,15.6898471170001,0
                103.064194576,15.689974136,0
                103.064259208,15.690061348,0
                103.064317403,15.6901052270001,0
                103.064378806,15.690175879,0
                103.064542426,15.690377439,0
                103.064623562,15.6905414990001,0
                103.064662767,15.690772043,0
                103.064706395,15.690949684,0
                103.064709111,15.690964477,0
                103.064978611,15.6924321990001,0
                103.064428651,15.6924500060001,0
                103.064501105,15.6933792030001,0
                103.064589956,15.694792825,0
                103.064602356,15.6949901190001,0
                103.064593614,15.6952400230001,0
                103.064572956,15.6953425620001,0
                103.064493388,15.695493003,0
                103.064085244,15.695968119,0
                103.063703927,15.696355209,0
                103.063457251,15.696596615,0
                103.063290063,15.696760231,0
                103.063286329,15.6967655490001,0
                103.063278321,15.696781823,0
                103.063278081,15.6967824650001,0
                103.063269586,15.6968051170001,0
                103.063258204,15.6968808,0
                103.063241849,15.697018846,0
                103.063088927,15.6980378330001,0
                103.063016085,15.6983939420001,0
                103.062911433,15.698905548,0
                103.062705177,15.6996261090001,0
                103.062682936,15.69982277,0
                103.06268569,15.699955693,0
                103.062687267,15.7000318660001,0
                103.062680152,15.7001028870001,0
                103.062662638,15.7002777430001,0
                103.062661888,15.700357038,0
                103.062661358,15.7004130670001,0
                103.062673114,15.700504058,0
                103.06263421,15.700583667,0
                103.062572874,15.700684579,0
                103.06252068,15.700819451,0
                103.062513647,15.700896271,0
                103.06247072,15.7009399610001,0
                103.062468678,15.7009420370001,0
                103.062433248,15.7009877990001,0
                103.062414259,15.70109261,0
                103.062412264,15.701128544,0
                103.062408139,15.701202865,0
                103.062380978,15.7012310170001,0
                103.062364406,15.701248192,0
                103.062361373,15.7012792470001,0
                103.062353165,15.7013632810001,0
                103.062298962,15.7014259320001,0
                103.062294215,15.7014314190001,0
                103.062288505,15.7014504210001,0
                103.062270709,15.701509629,0
                103.062242052,15.701567626,0
                103.062216443,15.701619458,0
                103.06220823,15.7016552220001,0
                103.062193419,15.7017197160001,0
                103.062155918,15.701854446,0
                103.062143179,15.7018684830001,0
                103.062085806,15.7019317,0
                103.062077765,15.701943557,0
                103.06201053,15.7020426980001,0
                103.062009626,15.7021383640001,0
                103.061998642,15.7022359750001,0
                103.061996189,15.702257769,0
                103.061995638,15.7022643720001,0
                103.061982223,15.702425052,0
                103.061988551,15.7025287340001,0
                103.062004333,15.702608647,0
                103.061997973,15.702695502,0
                103.061973671,15.702752022,0
                103.061952548,15.7028546450001,0
                103.061938949,15.7029342980001,0
                103.061901806,15.702999715,0
                103.061884898,15.703029493,0
                103.061875125,15.7030949960001,0
                103.06187426,15.7031702890001,0
                103.061874254,15.703170877,0
                103.061873926,15.7031723600001,0
                103.061858986,15.7032399440001,0
                103.061843526,15.703321298,0
                103.061844684,15.703394035,0
                103.061850882,15.7034250940001,0
                103.061869139,15.703516576,0
                103.061883092,15.7035946670001,0
                103.061882388,15.7036691050001,0
                103.061853034,15.703788188,0
                103.061843679,15.70382306,0
                103.061815001,15.7039299620001,0
                103.061766175,15.7041070540001,0
                103.06175456,15.704196849,0
                103.061728085,15.704401508,0
                103.063322204,15.704813792,0
                103.066633852,15.705140451,0
                103.069146757,15.704717956,0
                103.071063875,15.7043956110001,0
                103.071796786,15.7059085270001,0
                103.071854732,15.706065742,0
                103.071885562,15.7061841570001,0
                103.072260451,15.7080673740001,0
                103.072270612,15.708171603,0
                103.07227121,15.7081777450001,0
                103.072607772,15.7081187200001,0
                103.073951395,15.7076592390001,0
                103.074136538,15.707597532,0
                103.074615345,15.7074475090001,0
                103.074892792,15.707339975,0
                103.075086565,15.708257379,0
                103.07509238,15.708256529,0
                103.075093094,15.708259883,0
                103.076001515,15.7081540790001,0
                103.076004891,15.708176699,0
                103.076142175,15.7081629,0
                103.07635965,15.7081337340001,0
                103.077024436,15.7080439540001,0
                103.077563109,15.7079793620001,0
                103.078041122,15.7079165110001,0
                103.078057448,15.7079146090001,0
                103.078261267,15.708430594,0
                103.078511098,15.709481962,0
                103.078531559,15.709711618,0
                103.078493411,15.7101703220001,0
                103.07847985,15.7104106100001,0
                103.078502315,15.710532759,0
                103.078512054,15.710585709,0
                103.079287552,15.7120259380001,0
                103.079850227,15.7122087760001,0
                103.080923743,15.712452113,0
                103.080941488,15.7124561360001,0
                103.08106888,15.7124850120001,0
                103.081986831,15.712542157,0
                103.082351377,15.71256485,0
                103.082490809,15.712523619,0
                103.083514454,15.7122209120001,0
                103.084175736,15.711961102,0
                103.085223527,15.7113756430001,0
                103.085476029,15.711297453,0
                103.086292858,15.711044509,0
                103.087133421,15.710646949,0
                103.087786271,15.710218288,0
                103.089356756,15.7086572320001,0
                103.090289938,15.7079580000001,0
              </coordinates>
                
            </LinearRing>
            
          </outerBoundaryIs>
        
        </Polygon>
        
      <styleUrl>
        #tambonStyle</styleUrl>
    </Placemark>

  </Document>
</kml>