<?xml version="1.0" encoding="UTF-8"?>
<kml xmlns="http://www.opengis.net/kml/2.2">
  <Document id="tambon_doc">
    <name>ช้างเผือก, สุวรรณภูมิ, Roi Et</name>
    <description>ข้อมูลขอบเขตตำบลช้างเผือก อำเภอสุวรรณภูมิ จังหวัดRoi Et</description>
    
    <!-- Schema สำหรับข้อมูลตำบล -->
    <Schema id="tambon.schema">
      <SimpleField name="ADM3_EN" type="string">
        <displayName>Subdistrict Name (English)</displayName>
      </SimpleField>
      <SimpleField name="ADM3_TH" type="string">
        <displayName>ชื่อตำบล</displayName>
      </SimpleField>
      <SimpleField name="ADM2_EN" type="string">
        <displayName>District Name (English)</displayName>
      </SimpleField>
      <SimpleField name="ADM2_TH" type="string">
        <displayName>ชื่ออำเภอ</displayName>
      </SimpleField>
      <SimpleField name="ADM1_EN" type="string">
        <displayName>Province Name (English)</displayName>
      </SimpleField>
      <SimpleField name="ADM1_TH" type="string">
        <displayName>ชื่อจังหวัด</displayName>
      </SimpleField>
      <SimpleField name="ADM0_EN" type="string">
        <displayName>Country Name (English)</displayName>
      </SimpleField>
      <SimpleField name="ADM0_TH" type="string">
        <displayName>ชื่อประเทศ</displayName>
      </SimpleField>
    </Schema>

    <!-- Style สำหรับตำบล -->
    <Style id="tambonStyle">
      <LineStyle>
        <color>ffff0000</color>
        <width>1.5</width>
      </LineStyle>
      <PolyStyle>
        <color>33ff0000</color>
        <fill>1</fill>
        <outline>1</outline>
      </PolyStyle>
    </Style>

    <Placemark id="Roi_Et.135">
        
        <ExtendedData>
            
          <SchemaData schemaUrl="#tambon.schema">
                
            <SimpleData name="Shape_Leng">
                0.251552695265</SimpleData>
                
            <SimpleData name="Shape_Area">
                0.00296342108555</SimpleData>
                
            <SimpleData name="ADM3_EN">
                Chang Phueak</SimpleData>
                
            <SimpleData name="ADM3_TH">
                ช้างเผือก</SimpleData>
                
            <SimpleData name="ADM3_PCODE">
                TH451112</SimpleData>
                
            <SimpleData name="ADM2_EN">
                Suwannaphum</SimpleData>
                
            <SimpleData name="ADM2_TH">
                สุวรรณภูมิ</SimpleData>
                
            <SimpleData name="ADM2_PCODE">
                TH4511</SimpleData>
                
            <SimpleData name="ADM1_EN">
                Roi Et</SimpleData>
                
            <SimpleData name="ADM1_TH">
                ร้อยเอ็ด</SimpleData>
                
            <SimpleData name="ADM1_PCODE">
                TH45</SimpleData>
                
            <SimpleData name="ADM0_EN">
                Thailand</SimpleData>
                
            <SimpleData name="ADM0_TH">
                ประเทศไทย</SimpleData>
                
            <SimpleData name="ADM0_PCODE">
                TH</SimpleData>
            
          </SchemaData>
        
        </ExtendedData>
        
        <Polygon>
            
          <outerBoundaryIs>
                
            <LinearRing>
                    
              <coordinates>
                    
                103.942810077,15.7050919440001,0
                103.944091035,15.7047694340001,0
                103.946745132,15.704134584,0
                103.948167602,15.7040092840001,0
                103.952490632,15.704125456,0
                103.955188769,15.703717092,0
                103.957442992,15.7028186520001,0
                103.959269618,15.7021034410001,0
                103.960932819,15.701167379,0
                103.961522615,15.700722704,0
                103.962412522,15.700051757,0
                103.963750962,15.6988212520001,0
                103.965894371,15.69665817,0
                103.966063976,15.696503594,0
                103.966710375,15.6954812600001,0
                103.967370668,15.694299282,0
                103.967913205,15.693210412,0
                103.968441315,15.691893651,0
                103.968510464,15.691629403,0
                103.968611559,15.6906668560001,0
                103.968785423,15.689039515,0
                103.968959703,15.687429394,0
                103.968961236,15.6865767640001,0
                103.968923754,15.684665733,0
                103.968873039,15.683491341,0
                103.968778933,15.6827270090001,0
                103.968356672,15.680527619,0
                103.967939331,15.678530499,0
                103.96770926,15.6776573020001,0
                103.96732151,15.675780075,0
                103.966866535,15.673512525,0
                103.966744177,15.6728650920001,0
                103.966272685,15.6719327930001,0
                103.965804077,15.6709358270001,0
                103.964995113,15.669098309,0
                103.964651357,15.6683008900001,0
                103.964428684,15.6675480820001,0
                103.964101797,15.6668966830001,0
                103.963607921,15.665956264,0
                103.963596121,15.6658359630001,0
                103.963723077,15.6656184450001,0
                103.963838145,15.665414791,0
                103.96386846,15.6653244830001,0
                103.963878376,15.665217682,0
                103.963896135,15.6651252360001,0
                103.963940621,15.6650006940001,0
                103.964060843,15.664700037,0
                103.964177337,15.6643485980001,0
                103.964230173,15.6641560460001,0
                103.964249086,15.6640078630001,0
                103.964257789,15.6639543800001,0
                103.96429851,15.6638807910001,0
                103.964394429,15.663815635,0
                103.964619752,15.663725737,0
                103.964693771,15.663685302,0
                103.964712879,15.663648532,0
                103.964714716,15.6635176980001,0
                103.964727302,15.6634181000001,0
                103.964745652,15.6633498620001,0
                103.964805595,15.663244349,0
                103.964891851,15.663089793,0
                103.96495703,15.662993848,0
                103.96497317,15.6629377720001,0
                103.964973616,15.6628529870001,0
                103.964967325,15.662489803,0
                103.964953544,15.66243683,0
                103.964917802,15.662406151,0
                103.964857658,15.6624002500001,0
                103.96469531,15.6624063630001,0
                103.964597515,15.662394055,0
                103.964493787,15.662343122,0
                103.964333973,15.662247445,0
                103.964207636,15.6621921830001,0
                103.964026864,15.6621599600001,0
                103.963886006,15.6621244020001,0
                103.963847705,15.662091365,0
                103.963839154,15.6620479580001,0
                103.963852859,15.661994362,0
                103.963903196,15.6618018660001,0
                103.963931228,15.6616171420001,0
                103.963949145,15.6614278070001,0
                103.963940928,15.661294777,0
                103.963903932,15.661109111,0
                103.963902115,15.661034064,0
                103.963923197,15.66097545,0
                103.963978964,15.6609039430001,0
                103.964034673,15.6608300120001,0
                103.964101473,15.660697697,0
                103.964171937,15.660613746,0
                103.964300106,15.6605381680001,0
                103.964567604,15.6604352030001,0
                103.964790777,15.6603598880001,0
                103.964974321,15.660300008,0
                103.965067916,15.660242173,0
                103.965128737,15.6601729710001,0
                103.965210266,15.6600677280001,0
                103.965297084,15.6599365710001,0
                103.96535929,15.6598899470001,0
                103.965457979,15.659836032,0
                103.965506779,15.6597864770001,0
                103.965540922,15.6596823570001,0
                103.965567599,15.659407238,0
                103.965558094,15.6591523230001,0
                103.96553409,15.658849289,0
                103.965525008,15.6587493820001,0
                103.965556445,15.658671154,0
                103.965671769,15.6584779900001,0
                103.965736961,15.6582795080001,0
                103.965769933,15.658126969,0
                103.965780263,15.657865144,0
                103.965788197,15.657642122,0
                103.965793971,15.6574676000001,0
                103.965771403,15.657361538,0
                103.96573606,15.6572783720001,0
                103.965677553,15.657202188,0
                103.965576049,15.657139903,0
                103.965438215,15.6570913640001,0
                103.965343611,15.6570386110001,0
                103.965312066,15.656974737,0
                103.965292049,15.656836319,0
                103.965282468,15.6565781730001,0
                103.965264566,15.6565269070001,0
                103.96523039,15.65649216,0
                103.965019891,15.656471106,0
                103.964615783,15.6564383,0
                103.964048442,15.6564092020001,0
                103.963751565,15.6563997960001,0
                103.963674318,15.656375715,0
                103.963599856,15.656328963,0
                103.96354895,15.6562913650001,0
                103.963507568,15.6562341710001,0
                103.963475322,15.656141248,0
                103.963446486,15.656051475,0
                103.963368822,15.6558723810001,0
                103.963320791,15.655678085,0
                103.96326576,15.655240115,0
                103.963220094,15.654638302,0
                103.963209091,15.654367268,0
                103.963169396,15.654195927,0
                103.963119775,15.6539817510001,0
                103.96312137,15.6536802860001,0
                103.963134215,15.6532924520001,0
                103.963136644,15.653025418,0
                103.963103958,15.652776408,0
                103.963048436,15.6525020780001,0
                103.962948364,15.6520392960001,0
                103.962946595,15.6519661340001,0
                103.962976232,15.651905174,0
                103.963055038,15.6518560160001,0
                103.963611673,15.6517185050001,0
                103.964213449,15.6516101080001,0
                103.964349893,15.651555339,0
                103.964371475,15.6515290080001,0
                103.964396772,15.6514724580001,0
                103.964378138,15.6512532690001,0
                103.964402048,15.650955606,0
                103.964491439,15.6506090930001,0
                103.964579372,15.6502023250001,0
                103.964623335,15.6499989430001,0
                103.964665669,15.6499118620001,0
                103.96482481,15.64969294,0
                103.964959166,15.6495520980001,0
                103.965022775,15.649425777,0
                103.965047237,15.649334794,0
                103.965080791,15.649252217,0
                103.965154428,15.649173037,0
                103.96526349,15.649088745,0
                103.965275254,15.649023888,0
                103.965268834,15.6489422180001,0
                103.96523958,15.64883523,0
                103.965246381,15.648748954,0
                103.965274872,15.648640653,0
                103.965503566,15.6479902670001,0
                103.965577592,15.647621137,0
                103.965597902,15.6472360010001,0
                103.96562691,15.6469654960001,0
                103.965607066,15.6468798240001,0
                103.965490659,15.646721707,0
                103.965349872,15.64653544,0
                103.965204412,15.646400946,0
                103.965155369,15.6463331640001,0
                103.96515301,15.6462356120001,0
                103.965178734,15.6460742670001,0
                103.965221671,15.6458895700001,0
                103.965218063,15.6457403750001,0
                103.965165552,15.6455291350001,0
                103.96509292,15.6452207470001,0
                103.96508848,15.64503712,0
                103.965111568,15.6447667510001,0
                103.965144699,15.644421514,0
                103.965232788,15.644143924,0
                103.965485035,15.643793714,0
                103.965768137,15.6434944710001,0
                103.966093521,15.643228723,0
                103.966385598,15.6430555900001,0
                103.966591477,15.6429935,0
                103.966952857,15.6429910370001,0
                103.967046638,15.6429487180001,0
                103.967098132,15.6428729100001,0
                103.967112845,15.6427462610001,0
                103.967099008,15.6424193190001,0
                103.967055467,15.642370892,0
                103.966968221,15.6422949830001,0
                103.966888154,15.642204302,0
                103.966824365,15.6420597000001,0
                103.966724118,15.6417577030001,0
                103.966650305,15.6414064300001,0
                103.966613336,15.6410202330001,0
                103.966597133,15.6408696870001,0
                103.966605298,15.6407916050001,0
                103.966640721,15.640698302,0
                103.96669319,15.6405827040001,0
                103.966780225,15.6404419840001,0
                103.966843325,15.6403504850001,0
                103.966954126,15.6402579040001,0
                103.967003047,15.640203243,0
                103.967039415,15.6401488660001,0
                103.967091297,15.6400089420001,0
                103.967144686,15.6398276,0
                103.967232877,15.6396308670001,0
                103.967301859,15.6394710770001,0
                103.967466117,15.6391995880001,0
                103.967542338,15.6390274680001,0
                103.967629367,15.638886746,0
                103.967716987,15.6387703520001,0
                103.967738054,15.6387065820001,0
                103.967744507,15.638557952,0
                103.967743821,15.638321853,0
                103.967733998,15.638227144,0
                103.967699948,15.6381695000001,0
                103.967646577,15.638143933,0
                103.967546148,15.638146213,0
                103.967460672,15.638143289,0
                103.967409928,15.638122529,0
                103.96736858,15.638074789,0
                103.967343984,15.6379925850001,0
                103.96736358,15.6378679970001,0
                103.967414422,15.637788947,0
                103.967535382,15.637701007,0
                103.967623533,15.637606507,0
                103.967699988,15.6374441190001,0
                103.967720408,15.637353589,0
                103.967723314,15.637265895,0
                103.967698131,15.6371593600001,0
                103.967665413,15.637053001,0
                103.967615538,15.63696407,0
                103.96754808,15.6368755390001,0
                103.967526292,15.636805442,0
                103.967488478,15.636592094,0
                103.967484028,15.636200296,0
                103.967492934,15.636049175,0
                103.967506235,15.635975848,0
                103.967535129,15.635924075,0
                103.967581593,15.6358719030001,0
                103.967667641,15.6357944920001,0
                103.96782683,15.6356253540001,0
                103.967989101,15.6353758170001,0
                103.968034454,15.635277424,0
                103.968054815,15.635184463,0
                103.968071546,15.6350453330001,0
                103.968114211,15.6346281240001,0
                103.968139806,15.634440113,0
                103.968169032,15.6342982690001,0
                103.96819914,15.634192913,0
                103.968304904,15.633995783,0
                103.968541766,15.6336106750001,0
                103.968567381,15.633527332,0
                103.968566146,15.633476241,0
                103.968547457,15.633430418,0
                103.968406041,15.6330879760001,0
                103.968242075,15.632643812,0
                103.968165895,15.6324021290001,0
                103.968147717,15.632273529,0
                103.968130401,15.632076754,0
                103.968125343,15.6318675310001,0
                103.968138864,15.631387697,0
                103.968144298,15.631093036,0
                103.968159053,15.6309758620001,0
                103.96819885,15.630855689,0
                103.968337467,15.6305628760001,0
                103.96838099,15.6303890610001,0
                103.968381322,15.630298988,0
                103.968364438,15.6302239130001,0
                103.968324956,15.630149353,0
                103.968148535,15.629917241,0
                103.968072611,15.629789956,0
                103.967999477,15.629570105,0
                103.967968159,15.6294174670001,0
                103.967925813,15.629328362,0
                103.967824316,15.6291821790001,0
                103.967692045,15.629009921,0
                103.967568421,15.6288837170001,0
                103.967283873,15.62864676,0
                103.967206499,15.6285633200001,0
                103.967192948,15.6285222430001,0
                103.966309781,15.628615084,0
                103.96566484,15.628724124,0
                103.964524086,15.6289276320001,0
                103.963360961,15.629153843,0
                103.961420268,15.629442086,0
                103.959470718,15.629676261,0
                103.957011574,15.630040547,0
                103.954762257,15.6305234910001,0
                103.954566295,15.630573989,0
                103.951908852,15.6314314420001,0
                103.950760518,15.6319730060001,0
                103.950015702,15.632436119,0
                103.949676728,15.632685511,0
                103.948672234,15.6335528020001,0
                103.948301193,15.6339715440001,0
                103.947719107,15.6349259030001,0
                103.947304702,15.635826088,0
                103.946946167,15.636723954,0
                103.946712811,15.63760109,0
                103.946597393,15.638263309,0
                103.946555259,15.6389933,0
                103.946604478,15.6400452500001,0
                103.946554543,15.640451404,0
                103.946373318,15.6408605240001,0
                103.945794619,15.6416257930001,0
                103.945592306,15.642151111,0
                103.945517427,15.6430091410001,0
                103.945463952,15.6442601370001,0
                103.945518467,15.6455318390001,0
                103.945582129,15.6466876100001,0
                103.945512933,15.6474713760001,0
                103.945402601,15.6481898960001,0
                103.945183608,15.649138696,0
                103.945020636,15.6496240700001,0
                103.944661561,15.6503351970001,0
                103.944168511,15.6510623730001,0
                103.943525393,15.651695304,0
                103.942385272,15.6526128570001,0
                103.941632677,15.6531636390001,0
                103.940767492,15.653782053,0
                103.939569715,15.654538169,0
                103.939286062,15.6547056920001,0
                103.939285703,15.6547054930001,0
                103.937574529,15.6555873180001,0
                103.936360132,15.656161368,0
                103.93523755,15.657198899,0
                103.932777966,15.6600430730001,0
                103.931591153,15.6615389410001,0
                103.928230662,15.6641738160001,0
                103.925971713,15.665836015,0
                103.920881214,15.6689762660001,0
                103.920885647,15.669728262,0
                103.920817052,15.67013466,0
                103.920629778,15.670765139,0
                103.920511102,15.6712612330001,0
                103.920428999,15.671648955,0
                103.920308497,15.6720691800001,0
                103.9200071,15.6744734640001,0
                103.915407909,15.6755947290001,0
                103.912214981,15.676411463,0
                103.911577783,15.676591853,0
                103.909295984,15.6771890640001,0
                103.909482694,15.6787726750001,0
                103.909636604,15.6809526110001,0
                103.909733985,15.681692148,0
                103.909752226,15.6818307020001,0
                103.909837044,15.6820797780001,0
                103.909939858,15.68224099,0
                103.910397331,15.683034079,0
                103.911244714,15.684584837,0
                103.911346624,15.684859568,0
                103.911393142,15.685209424,0
                103.911419952,15.685581427,0
                103.911534031,15.686007175,0
                103.912021875,15.6867835620001,0
                103.912848252,15.687854599,0
                103.913135158,15.688291383,0
                103.913496067,15.689031227,0
                103.913859853,15.6906851960001,0
                103.914337751,15.6935185680001,0
                103.914575778,15.6989106020001,0
                103.914659905,15.6996901140001,0
                103.914803409,15.7008669530001,0
                103.915130975,15.7026476230001,0
                103.915524964,15.70513148,0
                103.915832837,15.707487787,0
                103.916702076,15.709715896,0
                103.917742431,15.7111814530001,0
                103.919416964,15.712090323,0
                103.922128564,15.712439384,0
                103.922674237,15.712522189,0
                103.92284667,15.712545477,0
                103.923021383,15.7125177450001,0
                103.923157533,15.7124908820001,0
                103.9233232,15.712524516,0
                103.923552541,15.7125804890001,0
                103.923991356,15.712630759,0
                103.924812923,15.712724866,0
                103.926061199,15.7126266540001,0
                103.927131676,15.7122823180001,0
                103.927459081,15.7121541120001,0
                103.929752688,15.7105559440001,0
                103.930297313,15.7101268490001,0
                103.931500737,15.7090909140001,0
                103.9334755,15.7073965050001,0
                103.93435468,15.706620071,0
                103.934723468,15.706398807,0
                103.935640646,15.706228545,0
                103.935922595,15.706090789,0
                103.936305183,15.70586015,0
                103.936443437,15.7057754780001,0
                103.936576905,15.7056863830001,0
                103.937019295,15.70560841,0
                103.937151916,15.7055931350001,0
                103.937411039,15.7055632940001,0
                103.937958224,15.7055644880001,0
                103.938654103,15.705526074,0
                103.93913443,15.705469888,0
                103.940228333,15.7052593610001,0
                103.941062351,15.705131738,0
                103.941598869,15.7050788020001,0
                103.94215496,15.7050616660001,0
                103.94247812,15.7050815170001,0
                103.942810077,15.7050919440001,0
              </coordinates>
                
            </LinearRing>
            
          </outerBoundaryIs>
        
        </Polygon>
        
      <styleUrl>
        #tambonStyle</styleUrl>
    </Placemark>

  </Document>
</kml>