<?xml version="1.0" encoding="UTF-8"?>
<kml xmlns="http://www.opengis.net/kml/2.2">
  <Document id="tambon_doc">
    <name>ทุ่งกระตาดพัฒนา, หนองกี่, Buri Ram</name>
    <description>ข้อมูลขอบเขตตำบลทุ่งกระตาดพัฒนา อำเภอหนองกี่ จังหวัดBuri Ram</description>
    
    <!-- Schema สำหรับข้อมูลตำบล -->
    <Schema id="tambon.schema">
      <SimpleField name="ADM3_EN" type="string">
        <displayName>Subdistrict Name (English)</displayName>
      </SimpleField>
      <SimpleField name="ADM3_TH" type="string">
        <displayName>ชื่อตำบล</displayName>
      </SimpleField>
      <SimpleField name="ADM2_EN" type="string">
        <displayName>District Name (English)</displayName>
      </SimpleField>
      <SimpleField name="ADM2_TH" type="string">
        <displayName>ชื่ออำเภอ</displayName>
      </SimpleField>
      <SimpleField name="ADM1_EN" type="string">
        <displayName>Province Name (English)</displayName>
      </SimpleField>
      <SimpleField name="ADM1_TH" type="string">
        <displayName>ชื่อจังหวัด</displayName>
      </SimpleField>
      <SimpleField name="ADM0_EN" type="string">
        <displayName>Country Name (English)</displayName>
      </SimpleField>
      <SimpleField name="ADM0_TH" type="string">
        <displayName>ชื่อประเทศ</displayName>
      </SimpleField>
    </Schema>

    <!-- Style สำหรับตำบล -->
    <Style id="tambonStyle">
      <LineStyle>
        <color>ffff0000</color>
        <width>1.5</width>
      </LineStyle>
      <PolyStyle>
        <color>33ff0000</color>
        <fill>1</fill>
        <outline>1</outline>
      </PolyStyle>
    </Style>

    <Placemark id="Buri_Ram.58">
        
        <ExtendedData>
            
          <SchemaData schemaUrl="#tambon.schema">
                
            <SimpleData name="Shape_Leng">
                0.304763327624</SimpleData>
                
            <SimpleData name="Shape_Area">
                0.00307069651768</SimpleData>
                
            <SimpleData name="ADM3_EN">
                Thung Kratat Phatthana</SimpleData>
                
            <SimpleData name="ADM3_TH">
                ทุ่งกระตาดพัฒนา</SimpleData>
                
            <SimpleData name="ADM3_PCODE">
                TH310506</SimpleData>
                
            <SimpleData name="ADM2_EN">
                Nong Ki</SimpleData>
                
            <SimpleData name="ADM2_TH">
                หนองกี่</SimpleData>
                
            <SimpleData name="ADM2_PCODE">
                TH3105</SimpleData>
                
            <SimpleData name="ADM1_EN">
                Buri Ram</SimpleData>
                
            <SimpleData name="ADM1_TH">
                บุรีรัมย์</SimpleData>
                
            <SimpleData name="ADM1_PCODE">
                TH31</SimpleData>
                
            <SimpleData name="ADM0_EN">
                Thailand</SimpleData>
                
            <SimpleData name="ADM0_TH">
                ประเทศไทย</SimpleData>
                
            <SimpleData name="ADM0_PCODE">
                TH</SimpleData>
            
          </SchemaData>
        
        </ExtendedData>
        
        <Polygon>
            
          <outerBoundaryIs>
                
            <LinearRing>
                    
              <coordinates>
                    
                102.556160421,14.7113329750001,0
                102.553914193,14.7085159440001,0
                102.550010826,14.703640475,0
                102.546349367,14.699071943,0
                102.544256304,14.6964201600001,0
                102.54371819,14.69575746,0
                102.544893531,14.6943659790001,0
                102.545318842,14.693850796,0
                102.545296284,14.6937398960001,0
                102.545181208,14.693652392,0
                102.544926442,14.6934120770001,0
                102.544840942,14.693285126,0
                102.544759212,14.693119638,0
                102.544614945,14.692617356,0
                102.544514527,14.6921101290001,0
                102.544366065,14.691437196,0
                102.544168596,14.690542099,0
                102.544004012,14.6898691120001,0
                102.54395955,14.6898355920001,0
                102.543911171,14.6898311040001,0
                102.542166034,14.690012638,0
                102.541175245,14.6901261080001,0
                102.540675562,14.690189321,0
                102.540636612,14.690169011,0
                102.540238011,14.6883914040001,0
                102.539479063,14.6885217350001,0
                102.539033968,14.688591709,0
                102.537668614,14.688768591,0
                102.537590037,14.6885193900001,0
                102.537362723,14.6872821860001,0
                102.537331509,14.68704997,0
                102.537149231,14.6859168820001,0
                102.537019092,14.685011619,0
                102.539264046,14.6843762830001,0
                102.538551994,14.6813149700001,0
                102.538658941,14.680138734,0
                102.536217499,14.6804701360001,0
                102.535932416,14.679553662,0
                102.535566962,14.6783391550001,0
                102.534862797,14.678320523,0
                102.53073517,14.678432545,0
                102.530743871,14.6780766040001,0
                102.530802912,14.675661448,0
                102.530947354,14.6742367410001,0
                102.530933587,14.672560719,0
                102.530868698,14.671793968,0
                102.530789683,14.671443443,0
                102.539207298,14.6713845990001,0
                102.539424219,14.671250319,0
                102.539641785,14.6708937490001,0
                102.539745974,14.670430223,0
                102.539739854,14.670049895,0
                102.539673111,14.6693715860001,0
                102.539666357,14.668951824,0
                102.539470824,14.668281784,0
                102.538861533,14.6672681790001,0
                102.538053457,14.6665057540001,0
                102.537994311,14.666401873,0
                102.536563968,14.6650847400001,0
                102.534552594,14.663330597,0
                102.532126931,14.66054316,0
                102.526815164,14.6548579240001,0
                102.526183002,14.6537395230001,0
                102.523788807,14.650136165,0
                102.520183388,14.644894422,0
                102.511229333,14.6475876150001,0
                102.507053774,14.6483379800001,0
                102.5014283,14.6492934460001,0
                102.491336641,14.651514836,0
                102.484735082,14.653183556,0
                102.475458531,14.655388718,0
                102.475461097,14.6567546950001,0
                102.475521477,14.6573326130001,0
                102.475664247,14.657830812,0
                102.475744111,14.6579760280001,0
                102.4758843,14.6582581650001,0
                102.475931946,14.6583798620001,0
                102.475998092,14.65858753,0
                102.476112085,14.658986649,0
                102.476160119,14.6590990620001,0
                102.476179804,14.659127198,0
                102.476232757,14.6592028900001,0
                102.476680104,14.6596122500001,0
                102.476708296,14.6596476890001,0
                102.47674761,14.6597260080001,0
                102.476765678,14.659783459,0
                102.477013442,14.6611763510001,0
                102.477088511,14.661586974,0
                102.477585758,14.6635770520001,0
                102.47801014,14.6651147480001,0
                102.478043856,14.665258905,0
                102.478073569,14.6655116320001,0
                102.478148162,14.666072491,0
                102.478184645,14.6662110500001,0
                102.478241264,14.6663576490001,0
                102.478482882,14.6668186310001,0
                102.478527673,14.6669403760001,0
                102.478557915,14.667045639,0
                102.478580201,14.667189971,0
                102.478692386,14.6683205910001,0
                102.478808493,14.6706029270001,0
                102.478939993,14.6725929150001,0
                102.478980175,14.6729651100001,0
                102.479027256,14.6732314810001,0
                102.479098554,14.673402901,0
                102.479210208,14.6735959750001,0
                102.479341157,14.6737442360001,0
                102.479449249,14.673892853,0
                102.479555098,14.6740804410001,0
                102.479644114,14.674287759,0
                102.480207628,14.6757649300001,0
                102.480252555,14.6758950180001,0
                102.480283418,14.676039217,0
                102.480297792,14.6762254010001,0
                102.480380299,14.677826629,0
                102.480409699,14.6782096470001,0
                102.480447508,14.678431647,0
                102.480512457,14.678682914,0
                102.480589183,14.6789562540001,0
                102.480982197,14.679951902,0
                102.481050481,14.680173445,0
                102.481358216,14.6810776290001,0
                102.481433653,14.6812693860001,0
                102.481596606,14.6816935200001,0
                102.481700067,14.681970176,0
                102.481829024,14.682413367,0
                102.48224949,14.683697927,0
                102.482386071,14.684141009,0
                102.482517096,14.6847139930001,0
                102.48257484,14.6849913340001,0
                102.482831358,14.6869905560001,0
                102.4829825,14.6878711250001,0
                102.483215121,14.6888431990001,0
                102.483779211,14.691012142,0
                102.483824468,14.6912228960001,0
                102.483956163,14.692077791,0
                102.484151143,14.6935586180001,0
                102.484541139,14.696041757,0
                102.484640098,14.6965500530001,0
                102.484667087,14.6967311780001,0
                102.484687379,14.696895188,0
                102.484722259,14.697877422,0
                102.484730053,14.69796337,0
                102.484742399,14.6980320390001,0
                102.484777643,14.6981254080001,0
                102.484839496,14.698274702,0
                102.48491862,14.6984988610001,0
                102.485094156,14.699125311,0
                102.485448563,14.700182544,0
                102.485693768,14.700842369,0
                102.485890766,14.701301056,0
                102.486028131,14.7016325750001,0
                102.486094315,14.7016124830001,0
                102.489327006,14.7004577170001,0
                102.494909455,14.698510674,0
                102.498105968,14.697382411,0
                102.50075872,14.6964264270001,0
                102.504212437,14.695214089,0
                102.507865706,14.693927998,0
                102.511476475,14.6926591280001,0
                102.51511662,14.69136066,0
                102.516674178,14.69086113,0
                102.51899793,14.690187388,0
                102.519123993,14.692189698,0
                102.519271534,14.694732238,0
                102.519348675,14.6976791910001,0
                102.519410825,14.698912368,0
                102.519500842,14.7002637850001,0
                102.519557084,14.7006475370001,0
                102.519786299,14.701515633,0
                102.520081269,14.7025216170001,0
                102.521006524,14.701863453,0
                102.52165963,14.701398872,0
                102.522973913,14.7004647960001,0
                102.523153772,14.7007349530001,0
                102.523267065,14.7008613530001,0
                102.523442409,14.7009745080001,0
                102.52376929,14.701200037,0
                102.524688763,14.7019079090001,0
                102.525689411,14.7028573650001,0
                102.526041951,14.7031899470001,0
                102.526238407,14.7033364550001,0
                102.526300139,14.703387488,0
                102.526366094,14.7034957280001,0
                102.526392973,14.703558308,0
                102.526428807,14.703588693,0
                102.526450094,14.7036017080001,0
                102.526465263,14.7036063410001,0
                102.526497147,14.7036083350001,0
                102.526589115,14.70360464,0
                102.526708033,14.703565086,0
                102.526762946,14.7035642500001,0
                102.526801847,14.7035799390001,0
                102.526980854,14.70365214,0
                102.527081297,14.7036694820001,0
                102.527162007,14.7036651070001,0
                102.527332459,14.7036153330001,0
                102.52748469,14.7035553640001,0
                102.527750743,14.7035051770001,0
                102.527918522,14.7034900400001,0
                102.527989891,14.7035078270001,0
                102.528048074,14.703543145,0
                102.528143396,14.7038105610001,0
                102.528316031,14.70429856,0
                102.528377621,14.7045114900001,0
                102.528390343,14.704699997,0
                102.528369549,14.704813539,0
                102.528360219,14.70483661,0
                102.528352881,14.704847756,0
                102.528284458,14.7049004620001,0
                102.528192853,14.704948358,0
                102.528120563,14.705002893,0
                102.528037986,14.7050922130001,0
                102.528013206,14.7051586380001,0
                102.527989709,14.705243737,0
                102.528030801,14.7062528540001,0
                102.528000861,14.706368678,0
                102.527969933,14.7064865130001,0
                102.52796827,14.7065840390001,0
                102.528003865,14.706671564,0
                102.528057562,14.706711629,0
                102.528168772,14.706765548,0
                102.528431546,14.7068600420001,0
                102.52853875,14.7068961470001,0
                102.528747271,14.7070030470001,0
                102.528802748,14.707036794,0
                102.528924398,14.707167037,0
                102.529040045,14.707325671,0
                102.529103127,14.7073868800001,0
                102.529163826,14.7074715210001,0
                102.529181735,14.707496495,0
                102.529196274,14.707596912,0
                102.529242872,14.707882403,0
                102.529298153,14.70810486,0
                102.529304914,14.708234008,0
                102.529170584,14.708696015,0
                102.529185615,14.708741881,0
                102.529320546,14.7088939340001,0
                102.529769145,14.709462644,0
                102.530225121,14.71008785,0
                102.530708208,14.710861988,0
                102.531416127,14.711643795,0
                102.531771838,14.712061899,0
                102.531892257,14.7123158650001,0
                102.532230661,14.713367648,0
                102.532430039,14.7141319080001,0
                102.532724938,14.7152623010001,0
                102.532783831,14.7154880480001,0
                102.532905177,14.716250529,0
                102.533036091,14.717073167,0
                102.533027091,14.717273951,0
                102.532784224,14.719649157,0
                102.532689013,14.7207559170001,0
                102.532746605,14.7209070160001,0
                102.532748317,14.721013224,0
                102.532742076,14.721177803,0
                102.532622872,14.7215246550001,0
                102.532552998,14.721726287,0
                102.532520975,14.721877745,0
                102.53253433,14.7221144330001,0
                102.532501585,14.722934455,0
                102.532392132,14.723239719,0
                102.53239283,14.723311628,0
                102.532504403,14.7235656190001,0
                102.532695587,14.723913006,0
                102.533539636,14.7235455790001,0
                102.534404368,14.7230918830001,0
                102.534908731,14.722880053,0
                102.535544826,14.722623233,0
                102.53647906,14.7223725970001,0
                102.537579,14.722130167,0
                102.53853495,14.721857706,0
                102.539073451,14.7217098040001,0
                102.539501749,14.7214931240001,0
                102.539852308,14.7211868910001,0
                102.540390905,14.7205830780001,0
                102.541674098,14.7189988650001,0
                102.544767066,14.716111293,0
                102.545577699,14.7155202270001,0
                102.547323587,14.714271121,0
                102.547570836,14.714070071,0
                102.548381887,14.713713856,0
                102.549953815,14.7131039440001,0
                102.5516509,14.7124604690001,0
                102.553617314,14.7118823800001,0
                102.554981136,14.7115821150001,0
                102.556160421,14.7113329750001,0
              </coordinates>
                
            </LinearRing>
            
          </outerBoundaryIs>
        
        </Polygon>
        
      <styleUrl>
        #tambonStyle</styleUrl>
    </Placemark>

  </Document>
</kml>