<?xml version="1.0" encoding="UTF-8"?>
<kml xmlns="http://www.opengis.net/kml/2.2">
  <Document id="tambon_doc">
    <name>ฉลอง, เมืองภูเก็ต, Phuket</name>
    <description>ข้อมูลขอบเขตตำบลฉลอง อำเภอเมืองภูเก็ต จังหวัดPhuket</description>
    
    <!-- Schema สำหรับข้อมูลตำบล -->
    <Schema id="tambon.schema">
      <SimpleField name="ADM3_EN" type="string">
        <displayName>Subdistrict Name (English)</displayName>
      </SimpleField>
      <SimpleField name="ADM3_TH" type="string">
        <displayName>ชื่อตำบล</displayName>
      </SimpleField>
      <SimpleField name="ADM2_EN" type="string">
        <displayName>District Name (English)</displayName>
      </SimpleField>
      <SimpleField name="ADM2_TH" type="string">
        <displayName>ชื่ออำเภอ</displayName>
      </SimpleField>
      <SimpleField name="ADM1_EN" type="string">
        <displayName>Province Name (English)</displayName>
      </SimpleField>
      <SimpleField name="ADM1_TH" type="string">
        <displayName>ชื่อจังหวัด</displayName>
      </SimpleField>
      <SimpleField name="ADM0_EN" type="string">
        <displayName>Country Name (English)</displayName>
      </SimpleField>
      <SimpleField name="ADM0_TH" type="string">
        <displayName>ชื่อประเทศ</displayName>
      </SimpleField>
    </Schema>

    <!-- Style สำหรับตำบล -->
    <Style id="tambonStyle">
      <LineStyle>
        <color>ffff0000</color>
        <width>1.5</width>
      </LineStyle>
      <PolyStyle>
        <color>33ff0000</color>
        <fill>1</fill>
        <outline>1</outline>
      </PolyStyle>
    </Style>

    <Placemark id="Phuket.6">
        
        <ExtendedData>
            
          <SchemaData schemaUrl="#tambon.schema">
                
            <SimpleData name="Shape_Leng">
                0.224453851664</SimpleData>
                
            <SimpleData name="Shape_Area">
                0.0021251990149</SimpleData>
                
            <SimpleData name="ADM3_EN">
                Chalong</SimpleData>
                
            <SimpleData name="ADM3_TH">
                ฉลอง</SimpleData>
                
            <SimpleData name="ADM3_PCODE">
                TH830106</SimpleData>
                
            <SimpleData name="ADM2_EN">
                Mueang Phuket</SimpleData>
                
            <SimpleData name="ADM2_TH">
                เมืองภูเก็ต</SimpleData>
                
            <SimpleData name="ADM2_PCODE">
                TH8301</SimpleData>
                
            <SimpleData name="ADM1_EN">
                Phuket</SimpleData>
                
            <SimpleData name="ADM1_TH">
                ภูเก็ต</SimpleData>
                
            <SimpleData name="ADM1_PCODE">
                TH83</SimpleData>
                
            <SimpleData name="ADM0_EN">
                Thailand</SimpleData>
                
            <SimpleData name="ADM0_TH">
                ประเทศไทย</SimpleData>
                
            <SimpleData name="ADM0_PCODE">
                TH</SimpleData>
            
          </SchemaData>
        
        </ExtendedData>
        
        <Polygon>
            
          <outerBoundaryIs>
                
            <LinearRing>
                    
              <coordinates>
                    
                98.3149193550001,7.87254887300003,0
                98.315193277,7.87252201000007,0
                98.3154306340001,7.87252239700007,0
                98.3156678770001,7.87259560800004,0
                98.3160781830001,7.87290577900006,0
                98.3165523640001,7.87323425600005,0
                98.316844244,7.87338948300004,0
                98.316990295,7.87339882400005,0
                98.3171272970001,7.87336263800006,0
                98.3174653730001,7.87318112500003,0
                98.3180228640001,7.87280881200007,0
                98.318443254,7.87253640400007,0
                98.318717414,7.87236389200007,0
                98.3188210600001,7.87231639700008,0
                98.318954949,7.87225504100007,0
                98.3192563320001,7.87218270900007,0
                98.3194298170001,7.87216478400006,0
                98.3196671590001,7.87217427300004,0
                98.319949959,7.87230217600006,0
                98.3201652720001,7.87239731000005,0
                98.3202601280001,7.87243922100004,0
                98.3205156430001,7.87250335700003,0
                98.3210359620001,7.87253150700008,0
                98.3216384,7.87258709900004,0
                98.3219944680001,7.87256946700006,0
                98.322297086,7.87254801400007,0
                98.322496635,7.87253386800006,0
                98.3230902970001,7.87237097100007,0
                98.324149789,7.87206317800008,0
                98.325072161,7.87186439700002,0
                98.3261132870001,7.87162029200005,0
                98.3271089630001,7.87135840800005,0
                98.3276522210001,7.87121160500004,0
                98.32805404,7.87112729000006,0
                98.3284314540001,7.87107934600004,0
                98.328674902,7.87107973500002,0
                98.3291250980001,7.87118969100004,0
                98.329514379,7.87133596100006,0
                98.329903771,7.87140940900002,0
                98.3301471,7.87148261900006,0
                98.330353851,7.87159218500005,0
                98.330584775,7.87181102700004,0
                98.3308277350001,7.87211484800002,0
                98.3311921040001,7.87261305800007,0
                98.3314230490001,7.87281976200006,0
                98.331685985,7.87315043200005,0
                98.331761628,7.87293781900007,0
                98.331887447,7.87273780000004,0
                98.3320446850001,7.87250654600007,0
                98.3322206650001,7.87233163300004,0
                98.3325097370001,7.87206305300003,0
                98.3327862390001,7.87180695900003,0
                98.333458476,7.87129496000006,0
                98.3344805450001,7.87067523300004,0
                98.3351643440001,7.87014125500002,0
                98.3356306790001,7.86973568500002,0
                98.3357505330001,7.86963144200007,0
                98.335802334,7.86958124400007,0
                98.336727678,7.86868446800003,0
                98.337086163,7.86842618200006,0
                98.337704434,7.86798070000003,0
                98.338583811,7.86715517400006,0
                98.339658081,7.86647587400006,0
                98.3402442660001,7.86596605400007,0
                98.3409282050001,7.86533478100006,0
                98.3417099690001,7.86453341600003,0
                98.3431511590001,7.86317369500006,0
                98.3437582990001,7.86242303500006,0
                98.343880357,7.86227212600005,0
                98.34415312,7.86193488400005,0
                98.3448128890001,7.86115764000004,0
                98.345404402,7.86039776500007,0
                98.3460104910001,7.85957863800007,0
                98.3465723850001,7.85899580000006,0
                98.3472094080001,7.85861754000007,0
                98.347621421,7.85834456600003,0
                98.34845921,7.85777127700004,0
                98.3492008740001,7.85725256400002,0
                98.3508624660001,7.85627012900005,0
                98.351919965,7.85556036800006,0
                98.352936222,7.85490526000007,0
                98.353842533,7.85437310900005,0
                98.3543094340001,7.85408653800005,0
                98.354982277,7.85370451600005,0
                98.3555589960001,7.85337706000007,0
                98.3558885610001,7.85318603600007,0
                98.3564102750001,7.85294058700003,0
                98.3568219420001,7.85288649400007,0
                98.3572472580001,7.85287346300004,0
                98.3577823570001,7.85284691600003,0
                98.3582816910001,7.85276987600002,0
                98.3585675300001,7.85272578500008,0
                98.3587818870001,7.85270830500002,0
                98.358951603,7.85268184600005,0
                98.359103502,7.85262864400005,0
                98.3592733030001,7.85254876100004,0
                98.3594252500001,7.85245993700005,0
                98.3595772580001,7.85233550000004,0
                98.35969357,7.85219319600003,0
                98.359827823,7.85199748600007,0
                98.3599352470001,7.85182845800006,0
                98.360078366,7.85167728600004,0
                98.360257258,7.85149054500005,0
                98.3603346190001,7.85143731100004,0
                98.3604005920001,7.85140819100008,0
                98.3604616640001,7.85138880700003,0
                98.360534929,7.85137918300006,0
                98.360588648,7.85138169600003,0
                98.360659437,7.85139641100005,0
                98.3607399690001,7.85142818500003,0
                98.36086928,7.85149168900006,0
                98.3609327140001,7.85152587800007,0
                98.3609766640001,7.85152837600003,0
                98.361025521,7.85151384200003,0
                98.361140371,7.85145801300007,0
                98.3612063630001,7.85141185400005,0
                98.3612626280001,7.85134376400003,0
                98.361309136,7.85126835000005,0
                98.3613508060001,7.85116615100003,0
                98.361380243,7.85107366900007,0
                98.3614120700001,7.85102015200005,0
                98.3614536380001,7.85098125700006,0
                98.3615464860001,7.85094243900005,0
                98.3616441890001,7.85092067600004,0
                98.3618713430001,7.85087475900002,0
                98.3620520960001,7.85083363700005,0
                98.362176649,7.85081678300003,0
                98.3622572240001,7.85081934200002,0
                98.362384176,7.85083170800004,0
                98.362552636,7.85084657200002,0
                98.3627381860001,7.85085902600002,0
                98.362835858,7.85085674500004,0
                98.363072779,7.85081327500006,0
                98.363282858,7.85075515200003,0
                98.363407447,7.85071394800002,0
                98.3634978640001,7.85066538800004,0
                98.3635883380001,7.85058517400006,0
                98.363688643,7.85045384400007,0
                98.3637620140001,7.85037847500007,0
                98.3638402490001,7.85031285300005,0
                98.363928216,7.85026916100003,0
                98.3640137070001,7.85024980700007,0
                98.3641211450001,7.85024997000005,0
                98.364267634,7.85025993000005,0
                98.364355527,7.85026493300006,0
                98.3644507720001,7.85025533400005,0
                98.364594879,7.85022634000006,0
                98.3648148010001,7.85011709700007,0
                98.3650665150001,7.84997625500006,0
                98.3652888610001,7.84988163300005,0
                98.3654207850001,7.84983557200007,0
                98.365523366,7.84981867900007,0
                98.3655990600001,7.84981879400004,0
                98.3656722850001,7.84983351400007,0
                98.365743045,7.84986770800003,0
                98.365791802,7.84991891700002,0
                98.365816146,7.84997008100004,0
                98.3658282760001,7.85002123200007,0
                98.3658233030001,7.85007966300003,0
                98.3657914620001,7.85014292100004,0
                98.365673992,7.85032048800002,0
                98.3654194920001,7.85068777000004,0
                98.3653729660001,7.85077292200003,0
                98.3653361990001,7.85086782400003,0
                98.3653189720001,7.85095545500008,0
                98.3653064690001,7.85115022300005,0
                98.3653171400001,7.85129847600007,0
                98.3653460830001,7.85139518100004,0
                98.36538963,7.85144116200007,0
                98.365447723,7.85148716500004,0
                98.3655228170001,7.85150660900007,0
                98.3656149130001,7.85150191800005,0
                98.3656997580001,7.85148512500007,0
                98.3657725140001,7.85145140300006,0
                98.3658914600001,7.85131867200005,0
                98.3664256800001,7.85061142500007,0
                98.366627276,7.85031207200007,0
                98.3667997220001,7.85006101200003,0
                98.3668289180001,7.84998372300004,0
                98.3668290460001,7.84989914900007,0
                98.366797648,7.84982660000003,0
                98.3667140100001,7.84972932500006,0
                98.3666936270001,7.84970562100006,0
                98.3658322030001,7.84884402500006,0
                98.3657475360001,7.84874481900005,0
                98.3656943700001,7.84864565800007,0
                98.3656557890001,7.84851993700005,0
                98.3656269020001,7.84839181600006,0
                98.365619817,7.84826856000007,0
                98.365629744,7.84811392100005,0
                98.365663956,7.84792547700005,0
                98.3657126420001,7.84778297400004,0
                98.365761289,7.84766705100003,0
                98.365829299,7.84756324200004,0
                98.3659021060001,7.84749085600004,0
                98.3659748950001,7.84743538300006,0
                98.3660621970001,7.84739201800005,0
                98.366183429,7.84735353200006,0
                98.366292506,7.84733678100002,0
                98.3665591020001,7.84732268500005,0
                98.367150393,7.84732840800007,0
                98.367581767,7.84732181000004,0
                98.3679332010001,7.84729333900003,0
                98.368510035,7.84724587100004,0
                98.3688105700001,7.84722215400006,0
                98.3690650170001,7.84722736900005,0
                98.3692034060001,7.84723275200002,0
                98.3692588740001,7.84723491100004,0
                98.369423618,7.84726656900006,0
                98.3695737690001,7.84733204500003,0
                98.3697552960001,7.84748456200003,0
                98.3700675360001,7.84773393600005,0
                98.370258763,7.84788163000007,0
                98.3703870830001,7.84795915200004,0
                98.370479135,7.84798104000004,0
                98.3705978880001,7.84797880100007,0
                98.3707021260001,7.84795721000006,0
                98.3708160890001,7.84791388200006,0
                98.3709131160001,7.84785361100006,0
                98.371017436,7.84777643400002,0
                98.3710999580001,7.84769198100003,0
                98.3711873870001,7.84756886300005,0
                98.371250569,7.84745296200003,0
                98.3712870780001,7.84734911000004,0
                98.3713041890001,7.84725005400003,0
                98.37130921,7.84713406900005,0
                98.3713094390001,7.84698181900006,0
                98.3712928470001,7.84673289500006,0
                98.371261738,7.84646943800004,0
                98.371242694,7.84624225600004,0
                98.3712381080001,7.84607067000007,0
                98.3712554990001,7.84578554200004,0
                98.371280132,7.84551734000007,0
                98.371314397,7.84529264700006,0
                98.3713510090001,7.84511871000007,0
                98.371369616,7.84506027000003,0
                98.3713948390001,7.84498103200002,0
                98.3714580700001,7.84483130000007,0
                98.3715430930001,7.84469368400005,0
                98.3717202860001,7.84450545600004,0
                98.3718998400001,7.84435106600006,0
                98.3721618770001,7.84414363100007,0
                98.3723607790001,7.84402068100007,0
                98.372466182,7.84396050800007,0
                98.372702766,7.84382544700003,0
                98.372906464,7.84373150500005,0
                98.3730349850001,7.84367611500005,0
                98.3731731780001,7.84364007200003,0
                98.3733210340001,7.84361854300005,0
                98.3735900240001,7.84361894300002,0
                98.373955923,7.84363882300005,0
                98.3744042010001,7.84366607100003,0
                98.374598109,7.84364219100007,0
                98.3747217530001,7.84360371100007,0
                98.3748939320001,7.84352664000005,0
                98.375056445,7.84342780000003,0
                98.3751631980001,7.84334338200006,0
                98.3752991220001,7.84319617000006,0
                98.3753890020001,7.84305372600005,0
                98.375542157,7.84273013200004,0
                98.3757507720001,7.84214039200003,0
                98.3758677980001,7.84166800100007,0
                98.375863268,7.84122557100005,0
                98.3758315110001,7.84046120400006,0
                98.375621273,7.84046663300006,0
                98.3756111500001,7.84041999800007,0
                98.3755046570001,7.83992941100007,0
                98.3753997050001,7.83949848100002,0
                98.375332766,7.83932607500003,0
                98.3752708090001,7.83917872400002,0
                98.3751566240001,7.83913919800005,0
                98.3750546640001,7.83913420500005,0
                98.3745747450001,7.83909520200007,0
                98.3742771440001,7.83910433300002,0
                98.371511889,7.83949269800007,0
                98.369572711,7.83953766400003,0
                98.3683728550001,7.83947843100003,0
                98.3672403100001,7.83934271400005,0
                98.3660408490001,7.83902500900007,0
                98.3652159150001,7.83861214000007,0
                98.364554259,7.83814207800003,0
                98.3643723920001,7.83779718500006,0
                98.3643918660001,7.83761533200004,0
                98.36439204,7.83750045900007,0
                98.3643634470001,7.83736639800003,0
                98.364286824,7.83725141000002,0
                98.364143019,7.83712674900005,0
                98.3639996680001,7.83670533200007,0
                98.3639711170001,7.83654255200003,0
                98.363894482,7.83643713500004,0
                98.3638850560001,7.83632225000002,0
                98.3638371910001,7.83623602300003,0
                98.3637508510001,7.83619760100004,0
                98.3636453020001,7.83616872300007,0
                98.3633574360001,7.83609170600005,0
                98.3632425320001,7.83590007800007,0
                98.363098817,7.83571798100007,0
                98.3630223280001,7.83551683700006,0
                98.362869086,7.83528686100004,0
                98.3626007240001,7.83500884400007,0
                98.3622356530001,7.83448708300006,0
                98.3621984220001,7.83443387200003,0
                98.361948624,7.83399424200007,0
                98.3619207820001,7.83394524200003,0
                98.3618772610001,7.83389735600002,0
                98.3617523940001,7.83375996400002,0
                98.36168618,7.83368710900004,0
                98.361633284,7.83362890600006,0
                98.3614509650001,7.83358076700006,0
                98.3612784850001,7.83337947800004,0
                98.3611920640001,7.83334341600005,0
                98.3609331250001,7.83323536400007,0
                98.3609146000001,7.83321477300007,0
                98.360911989,7.83321617600006,0
                98.3607793520001,7.83309881000002,0
                98.3606824830001,7.83297640500007,0
                98.3606187990001,7.83286424000005,0
                98.3606002450001,7.83278974200005,0
                98.3605959530001,7.83277251200008,0
                98.360590927,7.83271901500007,0
                98.3605902640001,7.83270656700006,0
                98.3605842910001,7.83259423100003,0
                98.360583477,7.83257891700003,0
                98.3605758790001,7.83253560600002,0
                98.3605197100001,7.83252278600003,0
                98.3605029970001,7.83253415200005,0
                98.3604711310001,7.83255582300006,0
                98.360460297,7.83256986900005,0
                98.36043564,7.83260184200003,0
                98.36041227,7.83263214600004,0
                98.3603304040001,7.83271862000004,0
                98.3602487250001,7.83268283800004,0
                98.360233507,7.83261404500007,0
                98.360228443,7.83259598400002,0
                98.3602106450001,7.83253250300004,0
                98.3601715820001,7.83251609900003,0
                98.3601315160001,7.83249927300005,0
                98.3601045600001,7.83248785000006,0
                98.3599816940001,7.83245191100002,0
                98.3598848670001,7.83242358900003,0
                98.35976127,7.83236481300003,0
                98.35950117,7.83224112400006,0
                98.358714375,7.83201018300002,0
                98.3581575540001,7.83204762600008,0
                98.3574962770001,7.83217846900004,0
                98.357437384,7.83219012100005,0
                98.3574344510001,7.83219230900005,0
                98.357245177,7.83233341900007,0
                98.3571681320001,7.83249603700006,0
                98.3571007310001,7.83262995400003,0
                98.3568703460001,7.83262960200005,0
                98.356630511,7.83253350900003,0
                98.356131668,7.83232214800006,0
                98.3557733100001,7.83210005500007,0
                98.355612857,7.83200061500003,0
                98.3546451820001,7.83140089400007,0
                98.354434192,7.83128570700006,0
                98.3539066550001,7.83099770900003,0
                98.35388493,7.83097054400002,0
                98.353881212,7.83096589400003,0
                98.3538668850001,7.83094797800004,0
                98.353844532,7.83082051800005,0
                98.3537391890001,7.83065762000007,0
                98.353470481,7.83060934500003,0
                98.3533989460001,7.83056639300003,0
                98.3533266270001,7.83052297000006,0
                98.353144624,7.83027380000004,0
                98.353037596,7.83018656000007,0
                98.352885767,7.83006280500007,0
                98.3527447210001,7.82999591200007,0
                98.352703514,7.82997637100004,0
                98.352557598,7.82992373100006,0
                98.3524636650001,7.82988984500003,0
                98.352233341,7.82985120100005,0
                98.3521897700001,7.82982877100005,0
                98.3520855570001,7.82977512100007,0
                98.3519548450001,7.82970783000007,0
                98.351897632,7.82967837800004,0
                98.3517517000001,7.82959622300007,0
                98.351744178,7.82959198800006,0
                98.351735961,7.82958518000004,0
                98.351484488,7.82937681300007,0
                98.3507950630001,7.82880556500004,0
                98.350756436,7.82874808700006,0
                98.3504215520001,7.82824977200005,0
                98.3502532460001,7.82801170000005,0
                98.3502222390001,7.82796784000004,0
                98.3501878230001,7.82791916000002,0
                98.3501702330001,7.82789428100006,0
                98.3501150590001,7.82780895500002,0
                98.3499326880001,7.82779910300007,0
                98.3498529670001,7.82784175100005,0
                98.349812645,7.82786332200004,0
                98.3498077930001,7.82786591800004,0
                98.349746016,7.82794097700003,0
                98.3497212380001,7.82797108300002,0
                98.349538824,7.82798994900003,0
                98.3495172510001,7.82797868100005,0
                98.3493182190001,7.82787473700006,0
                98.349135995,7.82776915400007,0
                98.3487961380001,7.82758661900004,0
                98.348742755,7.82755794800005,0
                98.3481198160001,7.82690604100003,0
                98.347477757,7.82620624200007,0
                98.3473155500001,7.82594472500006,0
                98.347154779,7.82568552400005,0
                98.346960697,7.82537261600004,0
                98.3465345820001,7.82485159900006,0
                98.346529553,7.82484545000005,0
                98.3463478040001,7.82462409900006,0
                98.3463091900001,7.82457707200007,0
                98.346069824,7.82418422000006,0
                98.345562515,7.82325488100003,0
                98.345218248,7.82242152400005,0
                98.3450655410001,7.82185649500008,0
                98.3449164880001,7.82114272500007,0
                98.3449035680001,7.82108085400006,0
                98.3447793770001,7.82069775500003,0
                98.3446265380001,7.82021888100007,0
                98.344252769,7.82036346400002,0
                98.3439835410001,7.82044541300007,0
                98.3436663190001,7.82054589000006,0
                98.3435463610001,7.82058555600003,0
                98.343415721,7.82064115100007,0
                98.3433024010001,7.82069279000007,0
                98.343226407,7.82073120000007,0
                98.3428970830001,7.82090339800004,0
                98.3426810940001,7.82101465500006,0
                98.3424317500001,7.82115642500003,0
                98.3423144260001,7.82121735500004,0
                98.3422170860001,7.82127299600006,0
                98.3421304180001,7.82132202100007,0
                98.3420424780001,7.82137812700006,0
                98.3420224000001,7.82139093600006,0
                98.3418316890001,7.82152349100005,0
                98.3415729540001,7.82170908100005,0
                98.3413048950001,7.82189067200005,0
                98.3412075320001,7.82196359000005,0
                98.341152853,7.82199937300004,0
                98.3410622010001,7.82204041800003,0
                98.3409942160001,7.82206688100007,0
                98.3409182500001,7.82208801900003,0
                98.3408129640001,7.82211442500005,0
                98.340706341,7.82214348700006,0
                98.3405566180001,7.82217774200006,0
                98.3402028290001,7.82225277100002,0
                98.339558379,7.82241551300007,0
                98.3389897600001,7.82255318600005,0
                98.338067311,7.82278687400003,0
                98.337081701,7.82302465800007,0
                98.3358559970001,7.82332504500005,0
                98.3347987640001,7.82358790700005,0
                98.3336193810001,7.82388416200007,0
                98.332402103,7.82417615700007,0
                98.331357515,7.82443063000005,0
                98.3300812460001,7.82475191200007,0
                98.329039321,7.82500392500003,0
                98.3284174300001,7.82512870200003,0
                98.327953693,7.82520945000005,0
                98.3275859340001,7.82525137600004,0
                98.327509552,7.82525479500003,0
                98.327426077,7.82524758000005,0
                98.3273426320001,7.82522264600004,0
                98.3272716340001,7.82519064800005,0
                98.327193552,7.82514269900003,0
                98.327106626,7.82507524600004,0
                98.3269895780001,7.82495814900005,0
                98.3268920610001,7.82484816900006,0
                98.3268051630001,7.82475946100004,0
                98.326702299,7.82466010000007,0
                98.326571056,7.82453589300007,0
                98.326450444,7.82442764900003,0
                98.3263404640001,7.82433536400004,0
                98.32623226,7.82424130700002,0
                98.3261542210001,7.82416855500003,0
                98.3260690980001,7.82408339200003,0
                98.3260265500001,7.82403018400004,0
                98.325969854,7.82394329900006,0
                98.3259255570001,7.82387414200002,0
                98.3258670970001,7.82377485200004,0
                98.325824583,7.82370392900003,0
                98.3257518710001,7.82363118600006,0
                98.32555677,7.82345373600003,0
                98.3252764740001,7.82323187100008,0
                98.325086646,7.82308808600004,0
                98.3250085910001,7.82302596300002,0
                98.3249394260001,7.82295676600006,0
                98.324889785,7.82289823200006,0
                98.324859684,7.82283973100004,0
                98.3248367,7.82277238200004,0
                98.3248261470001,7.82270859200003,0
                98.3248209260001,7.82264127500002,0
                98.3248281570001,7.82256334600004,0
                98.3248478020001,7.82249606500005,0
                98.3248745480001,7.82243233500003,0
                98.3249190720001,7.82235978400007,0
                98.3249795850001,7.82228370800004,0
                98.3250401070001,7.82220409600006,0
                98.325082831,7.82214748000007,0
                98.3251006550001,7.82210676900007,0
                98.3251096160001,7.82205895200002,0
                98.3251096960001,7.82200935600002,0
                98.3251062250001,7.82195975200005,0
                98.325085012,7.82189417600006,0
                98.325056664,7.82185161900003,0
                98.3250070000001,7.82180725600006,0
                98.324937778,7.82177348900007,0
                98.324868537,7.82175389000002,0
                98.3247655310001,7.82174133000007,0
                98.3246447440001,7.82174290400008,0
                98.324495514,7.82175860700005,0
                98.3243107210001,7.82179551400003,0
                98.324064864,7.82183874100002,0
                98.3238716320001,7.82187961300002,0
                98.323778346,7.82189939500006,0
                98.323677047,7.82193111500004,0
                98.323589074,7.82196152700004,0
                98.3234464440001,7.82201577300003,0
                98.323359795,7.82204884800007,0
                98.3232931510001,7.82206866700005,0
                98.323233185,7.82208052900006,0
                98.3231825550001,7.82208443200005,0
                98.323137262,7.82208568900006,0
                98.3230879800001,7.82208029700007,0
                98.323041366,7.82207091900005,0
                98.3230040880001,7.82205757600008,0
                98.3229574110001,7.82204222400003,0
                98.3226568160001,7.82192837100007,0
                98.3223122210001,7.82179075900007,0
                98.321988714,7.82165473100002,0
                98.3216212900001,7.82149604400007,0
                98.3214096,7.82141466500002,0
                98.3211779590001,7.82131598100005,0
                98.3210825730001,7.82127219500006,0
                98.321002444,7.82123918300005,0
                98.3209477710001,7.82121966600005,0
                98.3208923510001,7.82120089500006,0
                98.3207960760001,7.82117995500005,0
                98.3204042820001,7.82175089700007,0
                98.319760783,7.82249714100004,0
                98.3183762660001,7.82382015600007,0
                98.3174896670001,7.82450466000006,0
                98.3163212470001,7.82540789200004,0
                98.315465391,7.82597180000005,0
                98.314881906,7.82638767400005,0
                98.31422717,7.82700195900003,0
                98.3140854150001,7.82714286300006,0
                98.314006433,7.82736228000005,0
                98.3140060480001,7.82759750300005,0
                98.3141626540001,7.82798979500006,0
                98.3145699680001,7.82893135500007,0
                98.314867516,7.82968455400004,0
                98.3149295200001,7.83023351400004,0
                98.314960151,7.83073537100006,0
                98.3148962510001,7.83134685500005,0
                98.3146904130001,7.83220900600003,0
                98.3143203970001,7.83361200200005,0
                98.3142173460001,7.83507723800005,0
                98.314209013,7.83519579000006,0
                98.3140390500001,7.83815918400006,0
                98.3143107000001,7.84031835100006,0
                98.3144560260001,7.84119671100007,0
                98.3148759370001,7.84244140200008,0
                98.315753267,7.84443690700004,0
                98.3161906650001,7.84621216000005,0
                98.316226429,7.84677934000007,0
                98.3161564320001,7.84736441900003,0
                98.316112069,7.84745511300002,0
                98.3158946180001,7.84774839700003,0
                98.315225877,7.84820825500003,0
                98.3134342390001,7.84898839700003,0
                98.312993637,7.84917062200003,0
                98.3128097260001,7.84944473800005,0
                98.3127175450001,7.84971899800007,0
                98.3127167330001,7.85021294400002,0
                98.31271502,7.85125571000003,0
                98.3126584520001,7.85218862500005,0
                98.3124734250001,7.85313962000004,0
                98.3120682140001,7.85410855400005,0
                98.3115161750001,7.85511383200003,0
                98.311258487,7.85562565000004,0
                98.310725543,7.85617360300006,0
                98.3101009870001,7.85664822700005,0
                98.3084487390001,7.85730410400004,0
                98.3082537480001,7.85740426800004,0
                98.307864452,7.85778514000003,0
                98.307803027,7.85791673300002,0
                98.307768292,7.85829087700006,0
                98.307802167,7.85999229100003,0
                98.3076721050001,7.86097996400002,0
                98.3073958190001,7.86163810100004,0
                98.306696678,7.86282607300006,0
                98.306199898,7.86368508100003,0
                98.305792807,7.86576994700005,0
                98.3053684600001,7.86719619300004,0
                98.304834461,7.86836613800006,0
                98.30455813,7.86904256600008,0
                98.3045207380001,7.86946327100003,0
                98.3046661980001,7.87025016200005,0
                98.304995375,7.87089100400004,0
                98.3056543970001,7.87177021700006,0
                98.306276853,7.87257619000007,0
                98.3068998740001,7.87423207800003,0
                98.3093467260001,7.87393096900007,0
                98.3100773040001,7.87378652500007,0
                98.3108078010001,7.87369062800008,0
                98.311635649,7.87361107200007,0
                98.31233366,7.87353130000002,0
                98.312739643,7.87338631900008,0
                98.3135841500001,7.87304786000004,0
                98.3141850750001,7.87278991200003,0
                98.3146636330001,7.87261217200006,0
                98.3149193550001,7.87254887300003,0
              </coordinates>
                
            </LinearRing>
            
          </outerBoundaryIs>
        
        </Polygon>
        
      <styleUrl>
        #tambonStyle</styleUrl>
    </Placemark>

  </Document>
</kml>