<?xml version="1.0" encoding="UTF-8"?>
<kml xmlns="http://www.opengis.net/kml/2.2">
  <Document id="tambon_doc">
    <name>นราภิรมย์, บางเลน, Nakhon Pathom</name>
    <description>ข้อมูลขอบเขตตำบลนราภิรมย์ อำเภอบางเลน จังหวัดNakhon Pathom</description>
    
    <!-- Schema สำหรับข้อมูลตำบล -->
    <Schema id="tambon.schema">
      <SimpleField name="ADM3_EN" type="string">
        <displayName>Subdistrict Name (English)</displayName>
      </SimpleField>
      <SimpleField name="ADM3_TH" type="string">
        <displayName>ชื่อตำบล</displayName>
      </SimpleField>
      <SimpleField name="ADM2_EN" type="string">
        <displayName>District Name (English)</displayName>
      </SimpleField>
      <SimpleField name="ADM2_TH" type="string">
        <displayName>ชื่ออำเภอ</displayName>
      </SimpleField>
      <SimpleField name="ADM1_EN" type="string">
        <displayName>Province Name (English)</displayName>
      </SimpleField>
      <SimpleField name="ADM1_TH" type="string">
        <displayName>ชื่อจังหวัด</displayName>
      </SimpleField>
      <SimpleField name="ADM0_EN" type="string">
        <displayName>Country Name (English)</displayName>
      </SimpleField>
      <SimpleField name="ADM0_TH" type="string">
        <displayName>ชื่อประเทศ</displayName>
      </SimpleField>
    </Schema>

    <!-- Style สำหรับตำบล -->
    <Style id="tambonStyle">
      <LineStyle>
        <color>ffff0000</color>
        <width>1.5</width>
      </LineStyle>
      <PolyStyle>
        <color>33ff0000</color>
        <fill>1</fill>
        <outline>1</outline>
      </PolyStyle>
    </Style>

    <Placemark id="Nakhon_Pathom.85">
        
        <ExtendedData>
            
          <SchemaData schemaUrl="#tambon.schema">
                
            <SimpleData name="Shape_Leng">
                0.328008840464</SimpleData>
                
            <SimpleData name="Shape_Area">
                0.00331518267811</SimpleData>
                
            <SimpleData name="ADM3_EN">
                Nara Phirom</SimpleData>
                
            <SimpleData name="ADM3_TH">
                นราภิรมย์</SimpleData>
                
            <SimpleData name="ADM3_PCODE">
                TH730513</SimpleData>
                
            <SimpleData name="ADM2_EN">
                Bang Len</SimpleData>
                
            <SimpleData name="ADM2_TH">
                บางเลน</SimpleData>
                
            <SimpleData name="ADM2_PCODE">
                TH7305</SimpleData>
                
            <SimpleData name="ADM1_EN">
                Nakhon Pathom</SimpleData>
                
            <SimpleData name="ADM1_TH">
                นครปฐม</SimpleData>
                
            <SimpleData name="ADM1_PCODE">
                TH73</SimpleData>
                
            <SimpleData name="ADM0_EN">
                Thailand</SimpleData>
                
            <SimpleData name="ADM0_TH">
                ประเทศไทย</SimpleData>
                
            <SimpleData name="ADM0_PCODE">
                TH</SimpleData>
            
          </SchemaData>
        
        </ExtendedData>
        
        <Polygon>
            
          <outerBoundaryIs>
                
            <LinearRing>
                    
              <coordinates>
                    
                100.287449802,13.947849806,0
                100.287008015,13.9472070890001,0
                100.28626218,13.946299378,0
                100.285476917,13.945406356,0
                100.284607495,13.944475174,0
                100.28385252,13.9436977410001,0
                100.283787828,13.9436333410001,0
                100.283033138,13.94288206,0
                100.282144139,13.941979916,0
                100.281473638,13.941293678,0
                100.281324583,13.941130462,0
                100.281215294,13.9410152720001,0
                100.281026513,13.940813672,0
                100.280852579,13.9406168240001,0
                100.280604301,13.940372128,0
                100.279914192,13.9397101060001,0
                100.278881606,13.938736347,0
                100.278280769,13.9381413830001,0
                100.278017548,13.93787265,0
                100.277555649,13.9373975390001,0
                100.276954946,13.936826685,0
                100.276572813,13.936486216,0
                100.275852482,13.9357133950001,0
                100.275301469,13.935195337,0
                100.275053439,13.934994047,0
                100.274921458,13.934871507,0
                100.274259361,13.934279492,0
                100.273653189,13.9336073600001,0
                100.273096343,13.932925326,0
                100.27242967,13.9320268000001,0
                100.272066087,13.93146434,0
                100.271358575,13.930320024,0
                100.270631421,13.9291951000001,0
                100.269998626,13.9281661530001,0
                100.269597486,13.927493946,0
                100.269430453,13.927214043,0
                100.269335594,13.927071417,0
                100.269126725,13.9267573860001,0
                100.268444251,13.9256708090001,0
                100.267886284,13.924776529,0
                100.267373864,13.9239331900001,0
                100.266989351,13.923300351,0
                100.2669311,13.9232036940001,0
                100.265922934,13.921530811,0
                100.265796425,13.921288243,0
                100.265518834,13.920755973,0
                100.265490138,13.920695472,0
                100.265448989,13.9206087100001,0
                100.265448782,13.9206071420001,0
                100.266474934,13.9199663850001,0
                100.267801228,13.9191382010001,0
                100.268475814,13.918782568,0
                100.269238761,13.918330004,0
                100.26982955,13.9180037520001,0
                100.27013468,13.917814042,0
                100.27043981,13.917624333,0
                100.270858116,13.917361677,0
                100.271527598,13.9169771250001,0
                100.272324987,13.91650508,0
                100.272812209,13.9162034730001,0
                100.273284611,13.915901945,0
                100.27392369,13.915377662,0
                100.274523529,13.9149018160001,0
                100.274862663,13.914610629,0
                100.275137676,13.9143342470001,0
                100.275363421,13.914077419,0
                100.275691613,13.913593344,0
                100.276122577,13.9129399060001,0
                100.276615931,13.911958139,0
                100.277510006,13.9101916180001,0
                100.278299037,13.90844466,0
                100.278920873,13.9071965270001,0
                100.279357443,13.906248132,0
                100.279575411,13.9057158430001,0
                100.279777116,13.905316429,0
                100.280304741,13.9043198310001,0
                100.281476438,13.90187373,0
                100.282194295,13.900326319,0
                100.283454058,13.8976805680001,0
                100.284536974,13.8953220650001,0
                100.285975821,13.892333072,0
                100.284514221,13.8916809,0
                100.283362843,13.8911962660001,0
                100.283306651,13.8911726150001,0
                100.283216923,13.891468467,0
                100.282303339,13.8910836150001,0
                100.280392346,13.890278591,0
                100.280329714,13.8902516320001,0
                100.280230349,13.8906121690001,0
                100.279971367,13.8915518540001,0
                100.279869858,13.8918056470001,0
                100.279793852,13.891961097,0
                100.279274606,13.893992923,0
                100.278694577,13.8960171580001,0
                100.278328794,13.8972412860001,0
                100.277537972,13.8992231140001,0
                100.276374829,13.9012424860001,0
                100.275717248,13.9024206720001,0
                100.274614066,13.9043052810001,0
                100.274284119,13.904834228,0
                100.272266,13.9039550470001,0
                100.269938213,13.902968457,0
                100.269318945,13.9045832040001,0
                100.269306951,13.904592856,0
                100.269275688,13.9046041440001,0
                100.269270074,13.9046049840001,0
                100.269266468,13.9046055310001,0
                100.269228918,13.90460699,0
                100.269204184,13.9046038430001,0
                100.268698152,13.9042992190001,0
                100.268657244,13.904289524,0
                100.268629373,13.904295174,0
                100.268616412,13.904302635,0
                100.268589805,13.904339436,0
                100.268556083,13.9044118100001,0
                100.26852479,13.904448766,0
                100.268486081,13.904465213,0
                100.268430646,13.9044618890001,0
                100.267759257,13.904321001,0
                100.267758616,13.9043202280001,0
                100.267747254,13.904318221,0
                100.266869134,13.904259462,0
                100.264900883,13.9041898670001,0
                100.264892621,13.904189257,0
                100.264850736,13.904172266,0
                100.264828943,13.9041619820001,0
                100.264805366,13.9041363490001,0
                100.264552235,13.9032876110001,0
                100.264491717,13.902983756,0
                100.264482979,13.9029807910001,0
                100.263863382,13.9030683450001,0
                100.26192083,13.9032524310001,0
                100.261903824,13.9032550160001,0
                100.261861069,13.903269181,0
                100.261831556,13.903287134,0
                100.261820026,13.9033171780001,0
                100.261828603,13.903419038,0
                100.261828988,13.9034902330001,0
                100.261826765,13.9034968660001,0
                100.261814554,13.9035119390001,0
                100.261797402,13.903521832,0
                100.261774542,13.90352941,0
                100.260021447,13.9038074330001,0
                100.257421762,13.904274393,0
                100.25612202,13.9044955050001,0
                100.255951057,13.9052604130001,0
                100.255890416,13.905653709,0
                100.255700121,13.9064831320001,0
                100.255494571,13.9074949720001,0
                100.255328508,13.9083044440001,0
                100.255162899,13.9091971610001,0
                100.254893257,13.9103639210001,0
                100.25474327,13.9111455670001,0
                100.254497926,13.91230427,0
                100.254296384,13.9133081570001,0
                100.254110929,13.914284219,0
                100.253814002,13.915661196,0
                100.253632025,13.916530215,0
                100.253240075,13.918347666,0
                100.253078229,13.9191888300001,0
                100.253003455,13.919621271,0
                100.252910142,13.9203788460001,0
                100.252832594,13.9210491370001,0
                100.252793984,13.921414005,0
                100.252795329,13.9216637220001,0
                100.252796589,13.921897578,0
                100.252843697,13.922357145,0
                100.252948094,13.9229036180001,0
                100.253085094,13.923475969,0
                100.253098853,13.9235284980001,0
                100.253361578,13.9247789500001,0
                100.251353742,13.925534752,0
                100.251062844,13.9256737170001,0
                100.249724102,13.926266765,0
                100.249358192,13.926430139,0
                100.249017709,13.9265821590001,0
                100.248838112,13.926662349,0
                100.248136076,13.927039011,0
                100.246445628,13.923786471,0
                100.246417516,13.923728397,0
                100.246289466,13.923463918,0
                100.246275503,13.923433543,0
                100.24622582,13.9234402220001,0
                100.246088565,13.9234586630001,0
                100.245920772,13.923484009,0
                100.244951041,13.9236066,0
                100.244344788,13.9236135960001,0
                100.244030909,13.923625864,0
                100.244027664,13.923624714,0
                100.243934106,13.9236239730001,0
                100.243851813,13.923630487,0
                100.243802819,13.923642715,0
                100.243793822,13.923648271,0
                100.243780895,13.923664962,0
                100.243767879,13.923796623,0
                100.243758864,13.923812469,0
                100.24373766,13.923826229,0
                100.243608099,13.9238622020001,0
                100.243224859,13.923940981,0
                100.242499232,13.9240901430001,0
                100.242463033,13.924109502,0
                100.242450754,13.9241258750001,0
                100.242443837,13.9241490640001,0
                100.242447828,13.9241717250001,0
                100.242958715,13.925122964,0
                100.242967932,13.9251680190001,0
                100.24297051,13.9251806360001,0
                100.242968298,13.92523656,0
                100.242951323,13.925278651,0
                100.242909155,13.9253181060001,0
                100.242232658,13.9257169420001,0
                100.240449945,13.926935944,0
                100.238866159,13.927921709,0
                100.238613495,13.928069696,0
                100.238414411,13.9282008060001,0
                100.238124951,13.9284030000001,0
                100.237817309,13.928592614,0
                100.237789209,13.928609927,0
                100.237659794,13.928664881,0
                100.237580479,13.9286833830001,0
                100.237207441,13.9287240680001,0
                100.237009046,13.92875093,0
                100.236977529,13.928767549,0
                100.236966096,13.9287860650001,0
                100.236959298,13.9288149770001,0
                100.237045607,13.9297054830001,0
                100.237041855,13.929760838,0
                100.237033848,13.92977669,0
                100.237012922,13.929796357,0
                100.236767255,13.9298689500001,0
                100.236698674,13.9299088290001,0
                100.236670146,13.9299657500001,0
                100.236839074,13.930437769,0
                100.236823355,13.9305248090001,0
                100.236771959,13.930571629,0
                100.23676886,13.9305731200001,0
                100.235861877,13.930834035,0
                100.235101979,13.9309999500001,0
                100.234124081,13.93126578,0
                100.231565855,13.931899287,0
                100.231517568,13.931950919,0
                100.231502768,13.932010033,0
                100.231501716,13.9320142450001,0
                100.231560601,13.932239274,0
                100.231553847,13.932276646,0
                100.231529948,13.9323058900001,0
                100.231206585,13.9324585300001,0
                100.230545714,13.9327932530001,0
                100.228917079,13.9335729790001,0
                100.22863766,13.93367912,0
                100.228273975,13.933883918,0
                100.227071843,13.934613767,0
                100.226951728,13.934692007,0
                100.226934667,13.9347132720001,0
                100.22692576,13.934734769,0
                100.226925422,13.934904954,0
                100.226915241,13.9349200340001,0
                100.226900155,13.9349320540001,0
                100.226659401,13.9350171790001,0
                100.226397056,13.935109932,0
                100.226369291,13.935115221,0
                100.226341762,13.9351054740001,0
                100.226323816,13.9350811900001,0
                100.226316933,13.9347458280001,0
                100.226312726,13.9347319010001,0
                100.226298327,13.9347163460001,0
                100.226289762,13.9347070910001,0
                100.226249343,13.9346897610001,0
                100.224969048,13.934602448,0
                100.224884236,13.934596668,0
                100.224833572,13.9346014170001,0
                100.224801422,13.9346218330001,0
                100.224777913,13.934665227,0
                100.224703699,13.9349602780001,0
                100.224691112,13.934981749,0
                100.224673572,13.9349929430001,0
                100.224652384,13.9349928660001,0
                100.22423521,13.934880682,0
                100.224207736,13.9348897190001,0
                100.224132912,13.9350633500001,0
                100.224114756,13.9350780940001,0
                100.224103284,13.9350811910001,0
                100.223491013,13.934950305,0
                100.222991811,13.9348717180001,0
                100.222599438,13.9348259610001,0
                100.22253472,13.9348330990001,0
                100.22253081,13.9348335280001,0
                100.222473864,13.934852447,0
                100.222364044,13.9348925,0
                100.222872468,13.935731064,0
                100.223146779,13.93613921,0
                100.224006936,13.9374425120001,0
                100.224956452,13.938950119,0
                100.225594301,13.9399419980001,0
                100.226195152,13.940890944,0
                100.226280624,13.941026935,0
                100.226562156,13.941493673,0
                100.226904225,13.942009811,0
                100.227681248,13.9432280510001,0
                100.227895041,13.9435515000001,0
                100.228340423,13.944219021,0
                100.228643435,13.9447008330001,0
                100.229381351,13.945874379,0
                100.230165619,13.947120193,0
                100.230511327,13.947653566,0
                100.230946211,13.9483384010001,0
                100.231102726,13.948588919,0
                100.23158607,13.9493743190001,0
                100.231757708,13.949653214,0
                100.233338857,13.948886223,0
                100.234637413,13.9480943950001,0
                100.238056362,13.953481192,0
                100.241619596,13.958908523,0
                100.240536591,13.9669987340001,0
                100.245789746,13.973222106,0
                100.251228733,13.980169597,0
                100.251209784,13.9801918640001,0
                100.251263144,13.980215405,0
                100.253794789,13.984448442,0
                100.256580705,13.9886799400001,0
                100.260738303,13.992417527,0
                100.25919721,13.995606101,0
                100.260231148,13.9964760280001,0
                100.260987302,13.9970974610001,0
                100.262429008,13.9981207110001,0
                100.262966654,13.9977509350001,0
                100.263527042,13.997346051,0
                100.264310684,13.9967836820001,0
                100.265021604,13.9963065480001,0
                100.265495323,13.9959467740001,0
                100.26597797,13.995546753,0
                100.266565511,13.995092593,0
                100.266580831,13.9950785890001,0
                100.267120749,13.9945850030001,0
                100.267516508,13.9941899070001,0
                100.267701023,13.9940002050001,0
                100.267734827,13.993965449,0
                100.267870984,13.993772688,0
                100.267967659,13.993642976,0
                100.267973809,13.9936305140001,0
                100.268047262,13.9934817270001,0
                100.268074602,13.99336966,0
                100.268094288,13.993292867,0
                100.268124182,13.993176234,0
                100.2682179,13.9928106260001,0
                100.268300597,13.9924395040001,0
                100.268329495,13.992309817,0
                100.268369486,13.9920952250001,0
                100.268405464,13.991983385,0
                100.268581709,13.9915938940001,0
                100.268793341,13.990985374,0
                100.268928436,13.9905907730001,0
                100.269013921,13.9903410790001,0
                100.269298559,13.9897009110001,0
                100.269472492,13.989326799,0
                100.269476783,13.9893175610001,0
                100.269595704,13.989024601,0
                100.269639736,13.9889161200001,0
                100.269656774,13.9888858310001,0
                100.269786463,13.9886552780001,0
                100.269788641,13.9886508060001,0
                100.269981446,13.9882942410001,0
                100.270393786,13.987582629,0
                100.271061004,13.9866501490001,0
                100.271542272,13.9860044870001,0
                100.271715858,13.9857459290001,0
                100.272141095,13.9851125590001,0
                100.272518479,13.9845913890001,0
                100.272654031,13.9844042,0
                100.273285523,13.983632689,0
                100.273753923,13.9831434060001,0
                100.274076676,13.98278441,0
                100.274472453,13.9823982350001,0
                100.275009202,13.981863929,0
                100.275709872,13.9811992420001,0
                100.276090423,13.9808630370001,0
                100.276281153,13.9806676270001,0
                100.276860582,13.980076593,0
                100.277377398,13.979578358,0
                100.277901545,13.979089561,0
                100.278768526,13.9782528120001,0
                100.279553404,13.977497101,0
                100.28007732,13.9769679990001,0
                100.280768016,13.9763052440001,0
                100.281021588,13.9760620750001,0
                100.281574592,13.9755257080001,0
                100.28202386,13.9751084270001,0
                100.28262044,13.9745504900001,0
                100.283323301,13.9738947760001,0
                100.284028683,13.9732580190001,0
                100.284461077,13.9728645340001,0
                100.284531129,13.972800149,0
                100.28480409,13.9725521350001,0
                100.285541244,13.971953135,0
                100.285865122,13.9716929950001,0
                100.286261419,13.971358971,0
                100.286384695,13.971261111,0
                100.286996688,13.970859562,0
                100.287809415,13.970319433,0
                100.28844088,13.969927253,0
                100.288827807,13.969654919,0
                100.289272761,13.9693396010001,0
                100.289807216,13.968966903,0
                100.290068359,13.9687782180001,0
                100.290416703,13.9685535040001,0
                100.291009354,13.9681686390001,0
                100.291524676,13.9678482050001,0
                100.292022965,13.967520742,0
                100.292511576,13.9672004400001,0
                100.293150121,13.9667750300001,0
                100.29373782,13.9663735890001,0
                100.294279598,13.966010333,0
                100.29507049,13.9654797800001,0
                100.295699312,13.9650544080001,0
                100.296357244,13.9646241410001,0
                100.296872375,13.9642728700001,0
                100.297919603,13.963565494,0
                100.297994997,13.963518918,0
                100.298219919,13.963371049,0
                100.298139605,13.9632530590001,0
                100.296944741,13.961497616,0
                100.295519249,13.959378578,0
                100.295130982,13.958808994,0
                100.294412644,13.957755192,0
                100.293978932,13.957100708,0
                100.293926688,13.9570218690001,0
                100.293093271,13.9557642,0
                100.292104352,13.9544141480001,0
                100.291704217,13.953867889,0
                100.290979637,13.952802219,0
                100.290588788,13.9522273810001,0
                100.289436874,13.9505851760001,0
                100.289288033,13.9503777790001,0
                100.28856377,13.949368576,0
                100.288471281,13.9492397020001,0
                100.28770506,13.948221168,0
                100.287449802,13.947849806,0
              </coordinates>
                
            </LinearRing>
            
          </outerBoundaryIs>
        
        </Polygon>
        
      <styleUrl>
        #tambonStyle</styleUrl>
    </Placemark>

  </Document>
</kml>