<?xml version="1.0" encoding="UTF-8"?>
<kml xmlns="http://www.opengis.net/kml/2.2">
  <Document id="tambon_doc">
    <name>หนองโก, บรบือ, Maha Sarakham</name>
    <description>ข้อมูลขอบเขตตำบลหนองโก อำเภอบรบือ จังหวัดMaha Sarakham</description>
    
    <!-- Schema สำหรับข้อมูลตำบล -->
    <Schema id="tambon.schema">
      <SimpleField name="ADM3_EN" type="string">
        <displayName>Subdistrict Name (English)</displayName>
      </SimpleField>
      <SimpleField name="ADM3_TH" type="string">
        <displayName>ชื่อตำบล</displayName>
      </SimpleField>
      <SimpleField name="ADM2_EN" type="string">
        <displayName>District Name (English)</displayName>
      </SimpleField>
      <SimpleField name="ADM2_TH" type="string">
        <displayName>ชื่ออำเภอ</displayName>
      </SimpleField>
      <SimpleField name="ADM1_EN" type="string">
        <displayName>Province Name (English)</displayName>
      </SimpleField>
      <SimpleField name="ADM1_TH" type="string">
        <displayName>ชื่อจังหวัด</displayName>
      </SimpleField>
      <SimpleField name="ADM0_EN" type="string">
        <displayName>Country Name (English)</displayName>
      </SimpleField>
      <SimpleField name="ADM0_TH" type="string">
        <displayName>ชื่อประเทศ</displayName>
      </SimpleField>
    </Schema>

    <!-- Style สำหรับตำบล -->
    <Style id="tambonStyle">
      <LineStyle>
        <color>ffff0000</color>
        <width>1.5</width>
      </LineStyle>
      <PolyStyle>
        <color>33ff0000</color>
        <fill>1</fill>
        <outline>1</outline>
      </PolyStyle>
    </Style>

    <Placemark id="Maha_Sarakham.68">
        
        <ExtendedData>
            
          <SchemaData schemaUrl="#tambon.schema">
                
            <SimpleData name="Shape_Leng">
                0.316325870752</SimpleData>
                
            <SimpleData name="Shape_Area">
                0.00316351298765</SimpleData>
                
            <SimpleData name="ADM3_EN">
                Nong Ko</SimpleData>
                
            <SimpleData name="ADM3_TH">
                หนองโก</SimpleData>
                
            <SimpleData name="ADM3_PCODE">
                TH440619</SimpleData>
                
            <SimpleData name="ADM2_EN">
                Borabue</SimpleData>
                
            <SimpleData name="ADM2_TH">
                บรบือ</SimpleData>
                
            <SimpleData name="ADM2_PCODE">
                TH4406</SimpleData>
                
            <SimpleData name="ADM1_EN">
                Maha Sarakham</SimpleData>
                
            <SimpleData name="ADM1_TH">
                มหาสารคาม</SimpleData>
                
            <SimpleData name="ADM1_PCODE">
                TH44</SimpleData>
                
            <SimpleData name="ADM0_EN">
                Thailand</SimpleData>
                
            <SimpleData name="ADM0_TH">
                ประเทศไทย</SimpleData>
                
            <SimpleData name="ADM0_PCODE">
                TH</SimpleData>
            
          </SchemaData>
        
        </ExtendedData>
        
        <Polygon>
            
          <outerBoundaryIs>
                
            <LinearRing>
                    
              <coordinates>
                    
                103.159004095,16.1015137680001,0
                103.159863884,16.101016412,0
                103.159952054,16.101217336,0
                103.160182553,16.101114888,0
                103.161421159,16.1005381100001,0
                103.161452143,16.1005949450001,0
                103.161994951,16.1003037190001,0
                103.162198403,16.1002053880001,0
                103.162150138,16.100070078,0
                103.162485111,16.099864091,0
                103.162573604,16.100030206,0
                103.162705164,16.099918201,0
                103.162762993,16.099992672,0
                103.162970745,16.099916133,0
                103.16300213,16.099929457,0
                103.163326845,16.099767537,0
                103.16354418,16.099659162,0
                103.163496979,16.0995608490001,0
                103.163563185,16.099519808,0
                103.163964713,16.0993568170001,0
                103.164765036,16.099052838,0
                103.165194748,16.0988533720001,0
                103.165545237,16.0987339980001,0
                103.165530216,16.098717675,0
                103.165231886,16.098393527,0
                103.164698004,16.097806394,0
                103.164239713,16.097259074,0
                103.163760361,16.096799687,0
                103.16364743,16.0966910180001,0
                103.163352746,16.0964932160001,0
                103.163175483,16.0961914440001,0
                103.162389821,16.09548411,0
                103.162408663,16.0953928920001,0
                103.162599569,16.0952819410001,0
                103.162851298,16.09516417,0
                103.162965444,16.095140674,0
                103.163148438,16.0950639210001,0
                103.163283376,16.094981859,0
                103.163342685,16.0949204140001,0
                103.163423965,16.0948362070001,0
                103.163528817,16.0947220680001,0
                103.163737576,16.0945965830001,0
                103.163874821,16.094539018,0
                103.163964109,16.09446604,0
                103.163964565,16.094465547,0
                103.164004229,16.094396977,0
                103.164033229,16.094380818,0
                103.164061404,16.0943865190001,0
                103.164067108,16.094387672,0
                103.16411719,16.0944289780001,0
                103.164137018,16.0944417650001,0
                103.164166127,16.094452099,0
                103.164183817,16.0944551630001,0
                103.164215012,16.094451954,0
                103.164259941,16.094422357,0
                103.164323487,16.0943751080001,0
                103.164348579,16.0943512750001,0
                103.164391671,16.094323101,0
                103.164396331,16.0943192400001,0
                103.164407242,16.094310197,0
                103.164413059,16.0942898390001,0
                103.164406978,16.094271882,0
                103.16437046,16.094202808,0
                103.164366699,16.094185883,0
                103.164430865,16.094090973,0
                103.164607526,16.0939684750001,0
                103.164618095,16.0939494730001,0
                103.164843965,16.093862046,0
                103.165146721,16.093747969,0
                103.165656516,16.093429546,0
                103.165783434,16.093327973,0
                103.165940193,16.09320252,0
                103.166066816,16.0930485260001,0
                103.166280859,16.0927382560001,0
                103.166464626,16.092439395,0
                103.166528782,16.092352438,0
                103.166653207,16.0922633160001,0
                103.166571475,16.0918409180001,0
                103.171766818,16.091922944,0
                103.172539203,16.0918229690001,0
                103.179222934,16.0909577300001,0
                103.190851413,16.089291136,0
                103.194082038,16.088963984,0
                103.195965965,16.089076381,0
                103.199689747,16.089514696,0
                103.199694957,16.089513631,0
                103.205320803,16.08836359,0
                103.207966676,16.08813173,0
                103.208008039,16.088124835,0
                103.208038588,16.0881124800001,0
                103.208067331,16.088107059,0
                103.208106421,16.0880996870001,0
                103.208194972,16.0880884040001,0
                103.20834155,16.088078943,0
                103.208503424,16.088058921,0
                103.20857326,16.088047669,0
                103.208609274,16.0880387170001,0
                103.208899647,16.087966533,0
                103.209107639,16.087925311,0
                103.209289784,16.0878892120001,0
                103.209577801,16.087828922,0
                103.209810178,16.087768168,0
                103.210005646,16.0876891240001,0
                103.210136144,16.0876185710001,0
                103.210518075,16.0874247200001,0
                103.211217619,16.087070742,0
                103.211719822,16.0868166180001,0
                103.212207612,16.0865969270001,0
                103.212321566,16.086545605,0
                103.212350722,16.086513289,0
                103.212377494,16.0864501680001,0
                103.212394551,16.0863743,0
                103.212422198,16.086047105,0
                103.212425597,16.085666976,0
                103.212448897,16.0851386370001,0
                103.212465837,16.0845542320001,0
                103.213635502,16.0845064540001,0
                103.214442028,16.0846077310001,0
                103.214916764,16.0846455380001,0
                103.215727439,16.0846523050001,0
                103.216507616,16.084731092,0
                103.217267382,16.0848847180001,0
                103.21752312,16.0849364260001,0
                103.217612761,16.0849676170001,0
                103.218491979,16.085273548,0
                103.219187942,16.085479918,0
                103.219304198,16.085512646,0
                103.219468452,16.085558884,0
                103.219511062,16.085570879,0
                103.219533739,16.085634762,0
                103.21973,16.086187608,0
                103.220105229,16.0870824670001,0
                103.220321236,16.087604578,0
                103.220329271,16.087792748,0
                103.220398479,16.0880440400001,0
                103.220429985,16.088253638,0
                103.220820867,16.088490531,0
                103.221150595,16.088783563,0
                103.221575266,16.0891124390001,0
                103.221737376,16.0892481340001,0
                103.222179949,16.089618267,0
                103.222372502,16.0897886380001,0
                103.222451276,16.0898487420001,0
                103.222493237,16.0898536990001,0
                103.222569413,16.0898418640001,0
                103.22268939,16.089810066,0
                103.222753692,16.0898101400001,0
                103.222828818,16.089806777,0
                103.222876957,16.0898096280001,0
                103.222908958,16.0898087790001,0
                103.222932761,16.089810072,0
                103.222941784,16.0898131110001,0
                103.222958565,16.089825224,0
                103.222981665,16.08986951,0
                103.223022042,16.089991436,0
                103.223032783,16.090015668,0
                103.223035752,16.090024208,0
                103.223130935,16.090226627,0
                103.223135203,16.0902338450001,0
                103.223227233,16.0903846360001,0
                103.223260525,16.0904398440001,0
                103.223300942,16.0904881330001,0
                103.223343497,16.0905205550001,0
                103.223386993,16.0905428830001,0
                103.22344513,16.090563715,0
                103.223470208,16.090569709,0
                103.223616407,16.0906029920001,0
                103.223709673,16.090616665,0
                103.223806975,16.0906220050001,0
                103.22388491,16.0906377420001,0
                103.223968041,16.09065858,0
                103.224011061,16.0906672570001,0
                103.224190644,16.090666533,0
                103.224243968,16.090660225,0
                103.224294558,16.0906513840001,0
                103.224330814,16.090639283,0
                103.224443592,16.090588354,0
                103.224592618,16.090514152,0
                103.224652713,16.0904695940001,0
                103.224677824,16.0904461260001,0
                103.224680296,16.0904424030001,0
                103.224700451,16.0903918130001,0
                103.224704143,16.090271139,0
                103.224710188,16.09018066,0
                103.224719533,16.090160784,0
                103.224720548,16.090148518,0
                103.224729101,16.0901191940001,0
                103.224736105,16.0901085620001,0
                103.224752832,16.0900926680001,0
                103.22480758,16.090044495,0
                103.224845711,16.09000467,0
                103.224873401,16.0899757510001,0
                103.225037346,16.089857743,0
                103.225037691,16.0898574940001,0
                103.225037987,16.0898572040001,0
                103.225363308,16.089538288,0
                103.225406473,16.0894978370001,0
                103.22553069,16.0893814300001,0
                103.225578076,16.08933004,0
                103.225604475,16.0893142250001,0
                103.225636391,16.0892997920001,0
                103.225668269,16.089289367,0
                103.225726274,16.0892938580001,0
                103.225855998,16.089314976,0
                103.226017412,16.089340613,0
                103.22608783,16.0893543120001,0
                103.22622836,16.089375551,0
                103.226665322,16.0894319120001,0
                103.226914512,16.0894888550001,0
                103.227088271,16.0895269590001,0
                103.227151992,16.0895427,0
                103.227631953,16.0896511620001,0
                103.227805431,16.0897048470001,0
                103.22782741,16.089710799,0
                103.227948784,16.0897385270001,0
                103.228050868,16.089759416,0
                103.228095467,16.0897662040001,0
                103.228188931,16.089775258,0
                103.228189962,16.0897754910001,0
                103.228389728,16.089787044,0
                103.228414415,16.0897884710001,0
                103.228431178,16.0897933730001,0
                103.228551788,16.0898286410001,0
                103.231261882,16.091457964,0
                103.232204436,16.092024618,0
                103.23517574,16.0926770940001,0
                103.235561307,16.0925503560001,0
                103.237877345,16.091026943,0
                103.24091094,16.089184242,0
                103.241748121,16.088850243,0
                103.241957485,16.0887589060001,0
                103.24214559,16.088657185,0
                103.242482273,16.08839993,0
                103.243009377,16.088058136,0
                103.243353449,16.087854335,0
                103.243933806,16.0875388160001,0
                103.244159788,16.0873804840001,0
                103.244304589,16.0873299940001,0
                103.24444924,16.087305342,0
                103.244612315,16.0872986300001,0
                103.244657874,16.0872967560001,0
                103.245085856,16.087279579,0
                103.245343958,16.08726159,0
                103.245388552,16.087258482,0
                103.245405603,16.087230483,0
                103.245795505,16.086590259,0
                103.245958224,16.086333285,0
                103.246056185,16.086167828,0
                103.246088705,16.086132376,0
                103.246116932,16.0861109210001,0
                103.246180819,16.08607349,0
                103.246218346,16.086057532,0
                103.246272632,16.0860489400001,0
                103.246330577,16.086049415,0
                103.246398,16.0860586260001,0
                103.246457894,16.086068776,0
                103.246660634,16.086116879,0
                103.246809016,16.086160116,0
                103.247007422,16.086217931,0
                103.247131676,16.0862435170001,0
                103.247217608,16.086271561,0
                103.247253092,16.0862754670001,0
                103.24728677,16.0862721290001,0
                103.24732895,16.086251555,0
                103.247335591,16.0862472260001,0
                103.247401335,16.0862143310001,0
                103.247429961,16.0862058550001,0
                103.247451709,16.086189577,0
                103.247532292,16.0861292660001,0
                103.247612442,16.0861299220001,0
                103.24768787,16.0860942410001,0
                103.247698426,16.0860892470001,0
                103.247701381,16.086082918,0
                103.247780114,16.0859142780001,0
                103.247815522,16.0857806540001,0
                103.247835752,16.085704311,0
                103.247827493,16.085577567,0
                103.247812179,16.085342541,0
                103.247735983,16.084882131,0
                103.247658838,16.0845301320001,0
                103.247591525,16.0842570080001,0
                103.247550402,16.084090147,0
                103.247498367,16.083924381,0
                103.247455356,16.083835476,0
                103.247419517,16.0837613950001,0
                103.247417085,16.0837503700001,0
                103.247419713,16.0837291500001,0
                103.247532929,16.0836216340001,0
                103.247659112,16.083514214,0
                103.24768924,16.083488566,0
                103.247730824,16.0834207350001,0
                103.247786899,16.0833292680001,0
                103.24794354,16.083149674,0
                103.24847148,16.082709752,0
                103.24888097,16.082356587,0
                103.249107064,16.082193191,0
                103.249513334,16.0819520320001,0
                103.249677894,16.0818741630001,0
                103.249687697,16.0818695250001,0
                103.249695539,16.0818603610001,0
                103.249972849,16.081536301,0
                103.250390792,16.080921011,0
                103.251252756,16.078876462,0
                103.251264242,16.0788492190001,0
                103.251258282,16.078805586,0
                103.251206875,16.0784292590001,0
                103.251195604,16.078167063,0
                103.25112391,16.077825681,0
                103.251054518,16.077480597,0
                103.25104173,16.077327172,0
                103.251043814,16.077256548,0
                103.25105336,16.0772279650001,0
                103.251572539,16.0766170420001,0
                103.252676611,16.0757204550001,0
                103.252689563,16.0757099370001,0
                103.252706331,16.0756483170001,0
                103.252935682,16.074805473,0
                103.2529441,16.074724137,0
                103.252948564,16.07469761,0
                103.252976453,16.0745318670001,0
                103.253176986,16.0735168030001,0
                103.253259517,16.073129517,0
                103.253301981,16.072944196,0
                103.253388594,16.072751103,0
                103.25346686,16.072596251,0
                103.25348062,16.072570571,0
                103.25348975,16.0725618920001,0
                103.253502438,16.0725538620001,0
                103.253505394,16.072552973,0
                103.253583612,16.072543899,0
                103.253694647,16.072517465,0
                103.253714978,16.072512626,0
                103.253729792,16.072500701,0
                103.253748768,16.072485428,0
                103.253754869,16.072480516,0
                103.253757819,16.072474943,0
                103.253782767,16.072427799,0
                103.253804883,16.072330763,0
                103.253731756,16.0722870490001,0
                103.253651369,16.0722139260001,0
                103.253635734,16.072198927,0
                103.253506723,16.0720468010001,0
                103.253422315,16.072006437,0
                103.253264308,16.0719308760001,0
                103.253251464,16.0719247330001,0
                103.253242706,16.0719244430001,0
                103.253099243,16.071919684,0
                103.253060007,16.071918382,0
                103.253035285,16.071922246,0
                103.252987193,16.071929762,0
                103.252679139,16.0719553710001,0
                103.252620928,16.071958007,0
                103.252473737,16.071955969,0
                103.25219849,16.0719771450001,0
                103.252093217,16.0719819120001,0
                103.251905474,16.071999212,0
                103.251680348,16.072015714,0
                103.251637888,16.0720238660001,0
                103.25145285,16.072059391,0
                103.251251091,16.072103278,0
                103.25092017,16.072208271,0
                103.250534986,16.072332062,0
                103.250321887,16.0723681760001,0
                103.250179547,16.0723942070001,0
                103.250090462,16.0724025120001,0
                103.25004208,16.0724005810001,0
                103.249954345,16.072395526,0
                103.249798404,16.0723731100001,0
                103.249715613,16.0723754150001,0
                103.249643672,16.072388468,0
                103.249593552,16.07240911,0
                103.249444122,16.072488117,0
                103.249291876,16.0725803830001,0
                103.249109368,16.072687671,0
                103.248905409,16.0727975820001,0
                103.248811307,16.0728420770001,0
                103.248610786,16.072920305,0
                103.248411741,16.072997098,0
                103.248262251,16.0730564080001,0
                103.24813059,16.073112612,0
                103.248066381,16.0731316920001,0
                103.24800392,16.073135698,0
                103.247947704,16.0731307200001,0
                103.247890144,16.0731121790001,0
                103.247824881,16.0730754140001,0
                103.247772182,16.073029718,0
                103.247738222,16.072982729,0
                103.247695373,16.0728858860001,0
                103.24767275,16.0727763780001,0
                103.247664815,16.0726088970001,0
                103.247669938,16.072411254,0
                103.247680059,16.0722586470001,0
                103.247673845,16.0721850520001,0
                103.247672151,16.0721586560001,0
                103.247662041,16.0721337270001,0
                103.247645532,16.072109289,0
                103.247619288,16.0720875710001,0
                103.247590157,16.072069895,0
                103.247548555,16.0720506710001,0
                103.247454987,16.07202533,0
                103.247285461,16.0719700930001,0
                103.247193739,16.071945128,0
                103.247019933,16.0719034090001,0
                103.246878133,16.0718591510001,0
                103.246714221,16.0718053150001,0
                103.246409219,16.0717228560001,0
                103.246307675,16.0717018770001,0
                103.246229938,16.0716729600001,0
                103.246026976,16.071589983,0
                103.245924283,16.071541978,0
                103.245886947,16.0715107730001,0
                103.245851084,16.0714700930001,0
                103.245826445,16.0714146880001,0
                103.245818558,16.0713648400001,0
                103.245817445,16.071289752,0
                103.245813061,16.0711306110001,0
                103.24580765,16.0710357,0
                103.24580185,16.0709852370001,0
                103.245781337,16.070916405,0
                103.245763015,16.0708790310001,0
                103.245735985,16.070841585,0
                103.245711128,16.070819968,0
                103.24568295,16.070799229,0
                103.24562288,16.0707592530001,0
                103.245472416,16.070683662,0
                103.245380563,16.0706297850001,0
                103.245338264,16.070593387,0
                103.245304995,16.0705468570001,0
                103.245256387,16.070421325,0
                103.24516286,16.070145536,0
                103.24509367,16.0699415030001,0
                103.245017728,16.069743105,0
                103.244981896,16.069654902,0
                103.244972291,16.06960766,0
                103.244970575,16.069557323,0
                103.244971283,16.069476556,0
                103.244963052,16.069404661,0
                103.244934245,16.0692710700001,0
                103.244915976,16.069201262,0
                103.24487701,16.0690836690001,0
                103.244831668,16.0689374730001,0
                103.244797206,16.068816123,0
                103.244789953,16.0687468560001,0
                103.244790695,16.0686622060001,0
                103.244785701,16.0685989200001,0
                103.244780614,16.068546385,0
                103.244771029,16.0684969760001,0
                103.244751418,16.0684572430001,0
                103.244726165,16.068428034,0
                103.244670983,16.0683757210001,0
                103.244606019,16.0683226950001,0
                103.244401679,16.0681778160001,0
                103.244290227,16.068109411,0
                103.244209632,16.068063667,0
                103.244145577,16.068021399,0
                103.244061998,16.067938134,0
                103.243911041,16.0677961320001,0
                103.243784371,16.0676789940001,0
                103.243685161,16.0676031,0
                103.243579245,16.0675184780001,0
                103.243541816,16.067480586,0
                103.243527659,16.0674515580001,0
                103.243526702,16.0674290530001,0
                103.243536493,16.0674023,0
                103.243594751,16.0672796320001,0
                103.243620721,16.067209464,0
                103.243623377,16.067176294,0
                103.24362427,16.0671651320001,0
                103.24361546,16.067149026,0
                103.243613349,16.0671451640001,0
                103.243591544,16.067100624,0
                103.243550704,16.0670650540001,0
                103.243457781,16.067001589,0
                103.243373627,16.066957621,0
                103.24326942,16.0669154760001,0
                103.243171623,16.066871758,0
                103.243111748,16.0668361200001,0
                103.243032582,16.0667770150001,0
                103.242868767,16.066677731,0
                103.242763036,16.066624823,0
                103.242641451,16.066587143,0
                103.242503954,16.066544724,0
                103.242382329,16.0665115620001,0
                103.242244791,16.0664739310001,0
                103.242170314,16.0664601290001,0
                103.242092897,16.0664563300001,0
                103.242022335,16.0664531310001,0
                103.241853008,16.0664811030001,0
                103.241631629,16.0665044020001,0
                103.241527227,16.066537064,0
                103.241401126,16.0666186070001,0
                103.240961239,16.066724043,0
                103.24029012,16.0662309200001,0
                103.232474883,16.060488134,0
                103.229739441,16.058477941,0
                103.225399972,16.055400719,0
                103.225388025,16.0553931540001,0
                103.225371013,16.0554001200001,0
                103.225135203,16.0552502640001,0
                103.21742393,16.050349537,0
                103.212766473,16.0473997230001,0
                103.211946576,16.0467196110001,0
                103.21018928,16.045576226,0
                103.205666082,16.0464161250001,0
                103.204718643,16.0466062580001,0
                103.20187251,16.0471773940001,0
                103.201723472,16.047209939,0
                103.199567565,16.047680698,0
                103.199518475,16.0476976100001,0
                103.192017907,16.050281367,0
                103.18892168,16.051163618,0
                103.188918399,16.0511608140001,0
                103.188835112,16.0510896270001,0
                103.18878221,16.051034966,0
                103.188642585,16.050923632,0
                103.188593129,16.050884196,0
                103.18857165,16.050869232,0
                103.188459274,16.0507909350001,0
                103.18843794,16.050776071,0
                103.188295834,16.05069568,0
                103.1882263,16.05065699,0
                103.188197657,16.050640522,0
                103.187966265,16.050535435,0
                103.187931432,16.0505236390001,0
                103.187901558,16.050510129,0
                103.187864366,16.0505023650001,0
                103.18771548,16.050468858,0
                103.187697106,16.05046745,0
                103.187674208,16.050462671,0
                103.187640722,16.0504631310001,0
                103.187580356,16.050458507,0
                103.187324052,16.050465149,0
                103.187199768,16.0504737050001,0
                103.187014384,16.0504854640001,0
                103.186903626,16.0504982420001,0
                103.186860835,16.050501323,0
                103.186622423,16.050522534,0
                103.18643244,16.050539438,0
                103.186364388,16.050552678,0
                103.186133397,16.050597619,0
                103.186068373,16.0506144820001,0
                103.186044554,16.050619784,0
                103.185932385,16.0506496090001,0
                103.185928432,16.0506507740001,0
                103.185850011,16.0506711100001,0
                103.185816423,16.0506842620001,0
                103.185768711,16.0506988500001,0
                103.185638903,16.050749372,0
                103.185527607,16.0507960800001,0
                103.185399817,16.05085059,0
                103.185143125,16.0509685330001,0
                103.185055972,16.051009752,0
                103.18450992,16.0512578510001,0
                103.184207263,16.051367134,0
                103.184134261,16.051390822,0
                103.183948903,16.0514537780001,0
                103.183768584,16.0515141390001,0
                103.183670697,16.051546714,0
                103.183501843,16.05162073,0
                103.183367877,16.0516771750001,0
                103.183242155,16.0517297160001,0
                103.18316485,16.0517638060001,0
                103.183076219,16.0518017690001,0
                103.183010242,16.0518319830001,0
                103.182929796,16.051872996,0
                103.182846233,16.0519179510001,0
                103.182772982,16.0519580320001,0
                103.182679073,16.0520118330001,0
                103.182574845,16.0520715050001,0
                103.182469581,16.05213216,0
                103.182339546,16.0522074960001,0
                103.182284866,16.0522391750001,0
                103.182065573,16.052363364,0
                103.181986319,16.0524015720001,0
                103.18189996,16.0524362260001,0
                103.181829058,16.0524632550001,0
                103.181650901,16.052524283,0
                103.181533535,16.052561009,0
                103.181407099,16.0525925690001,0
                103.181184208,16.052635342,0
                103.180932418,16.0526825330001,0
                103.180692763,16.052691881,0
                103.1800089,16.0527236560001,0
                103.179964338,16.0527246410001,0
                103.178460283,16.052757905,0
                103.178454797,16.0527576600001,0
                103.178295772,16.052757134,0
                103.178116031,16.0527448760001,0
                103.177579365,16.052688518,0
                103.177519717,16.052682254,0
                103.177456006,16.052681712,0
                103.177231231,16.0526798,0
                103.17721367,16.0526796500001,0
                103.177183778,16.052682147,0
                103.177091807,16.0526898310001,0
                103.176991885,16.05269818,0
                103.176951446,16.0527075000001,0
                103.176889587,16.0527185330001,0
                103.176655026,16.05277312,0
                103.176495396,16.052806661,0
                103.176195388,16.0528545660001,0
                103.176053881,16.0528622840001,0
                103.176033488,16.0528633960001,0
                103.176014,16.0528606140001,0
                103.175913155,16.052846216,0
                103.175906971,16.052845334,0
                103.175894773,16.052841164,0
                103.175854669,16.052827457,0
                103.175794739,16.0528069750001,0
                103.175739498,16.053085223,0
                103.17456423,16.0533297150001,0
                103.1733265,16.053328612,0
                103.173120422,16.0533284270001,0
                103.172534178,16.053657076,0
                103.171268501,16.054603668,0
                103.170421409,16.0553879550001,0
                103.169404772,16.05677186,0
                103.169360706,16.0568337330001,0
                103.168054784,16.058667336,0
                103.167965449,16.0587626990001,0
                103.167889794,16.058811201,0
                103.167837076,16.058833647,0
                103.167820944,16.058840516,0
                103.167189754,16.0590087590001,0
                103.16685302,16.059082941,0
                103.166670158,16.059141907,0
                103.166550118,16.059190389,0
                103.166452658,16.0592555970001,0
                103.166165226,16.059550283,0
                103.165648635,16.060146236,0
                103.165832322,16.060660162,0
                103.165853183,16.0607185270001,0
                103.165899371,16.0608477550001,0
                103.165978812,16.0612398440001,0
                103.166017569,16.0615412610001,0
                103.166040847,16.0618325090001,0
                103.166100912,16.0620738910001,0
                103.166401645,16.062102811,0
                103.166698189,16.062022552,0
                103.166896883,16.0620016730001,0
                103.167035661,16.062006625,0
                103.167205891,16.062685522,0
                103.167276059,16.062957098,0
                103.16751008,16.0629039030001,0
                103.167506681,16.0632752110001,0
                103.167554807,16.063687105,0
                103.167815004,16.0636090420001,0
                103.167957415,16.0635587900001,0
                103.168106568,16.063506159,0
                103.168281113,16.063455623,0
                103.168392758,16.0634233000001,0
                103.168689463,16.063325477,0
                103.168765696,16.063501762,0
                103.16880496,16.063747983,0
                103.168828152,16.064049267,0
                103.168897312,16.0644312320001,0
                103.168936899,16.064642329,0
                103.16885323,16.0652789100001,0
                103.168830543,16.0654894740001,0
                103.168855021,16.0656502620001,0
                103.168851807,16.0660015,0
                103.168986638,16.06601269,0
                103.169104621,16.0664264110001,0
                103.169192514,16.0667671620001,0
                103.169242513,16.066909943,0
                103.169308839,16.06709935,0
                103.169420067,16.0674214580001,0
                103.16946434,16.0676877940001,0
                103.169396189,16.067762483,0
                103.169414329,16.0680486690001,0
                103.169416231,16.068194819,0
                103.169397554,16.0685794120001,0
                103.169302058,16.0690157650001,0
                103.16925043,16.069364018,0
                103.169239081,16.0695900280001,0
                103.169175266,16.0699284030001,0
                103.169123533,16.0704774380001,0
                103.169648378,16.070545908,0
                103.170179528,16.0706345040001,0
                103.170171729,16.0708381960001,0
                103.170164006,16.070999284,0
                103.170165601,16.0710099400001,0
                103.17018415,16.071018286,0
                103.170219318,16.071033705,0
                103.170222562,16.071036318,0
                103.170224583,16.0713825820001,0
                103.170228905,16.0713833510001,0
                103.170226572,16.0714361280001,0
                103.170221321,16.0715687950001,0
                103.170157023,16.0719780920001,0
                103.170086222,16.0722155870001,0
                103.170056681,16.072355853,0
                103.169985559,16.072628477,0
                103.169971306,16.0728625520001,0
                103.169976308,16.0729462520001,0
                103.169978308,16.0729797120001,0
                103.170012782,16.073182977,0
                103.170001693,16.073259475,0
                103.1699973,16.073289779,0
                103.169935727,16.073457596,0
                103.169771454,16.073827527,0
                103.16962477,16.073976815,0
                103.169413147,16.0744165950001,0
                103.169217919,16.0747661890001,0
                103.169362354,16.074862769,0
                103.169260675,16.07519811,0
                103.169322352,16.0752638710001,0
                103.169156377,16.0758194580001,0
                103.169022595,16.0762599030001,0
                103.168957196,16.0766005720001,0
                103.168882519,16.076820728,0
                103.168768621,16.077356686,0
                103.168739319,16.077722754,0
                103.168673275,16.078133671,0
                103.168885223,16.078225811,0
                103.168695639,16.078525273,0
                103.168422329,16.0788992870001,0
                103.16825952,16.0791086510001,0
                103.167938076,16.079637814,0
                103.167683624,16.0799493160001,0
                103.16805463,16.0805119550001,0
                103.167720741,16.0806997820001,0
                103.167345702,16.080847111,0
                103.166924048,16.080984003,0
                103.166564761,16.081111392,0
                103.166345193,16.0807181010001,0
                103.166263171,16.080607,0
                103.165913804,16.0807846550001,0
                103.165687793,16.081093836,0
                103.165680952,16.0811019290001,0
                103.165367722,16.0814724640001,0
                103.165193697,16.0817720540001,0
                103.164947846,16.0819807030001,0
                103.164587083,16.0822686540001,0
                103.164206665,16.0824360020001,0
                103.163868642,16.0825083710001,0
                103.163598083,16.082581319,0
                103.163496612,16.0824373310001,0
                103.163481961,16.08238397,0
                103.163480727,16.0823351780001,0
                103.163468772,16.082047056,0
                103.163443499,16.081936715,0
                103.163357317,16.081780671,0
                103.163210586,16.0815393940001,0
                103.163156786,16.081458362,0
                103.163126273,16.0813980240001,0
                103.162634978,16.080641096,0
                103.162503224,16.080418568,0
                103.162407045,16.0802561240001,0
                103.162338661,16.0801611840001,0
                103.162335453,16.0801567300001,0
                103.162112227,16.0799769170001,0
                103.162037118,16.079927566,0
                103.161885795,16.079828139,0
                103.161681024,16.07969716,0
                103.161263807,16.0794492960001,0
                103.161257174,16.0794453560001,0
                103.160846016,16.0793447470001,0
                103.160739647,16.0793354310001,0
                103.160701684,16.0793351040001,0
                103.160660245,16.079349012,0
                103.15944403,16.0801340950001,0
                103.158844615,16.080417214,0
                103.158835592,16.080421476,0
                103.158732827,16.080470013,0
                103.158450592,16.080580872,0
                103.158345974,16.080608431,0
                103.158284312,16.080620837,0
                103.158220021,16.080628045,0
                103.158059403,16.080634424,0
                103.156966719,16.0806358360001,0
                103.15678033,16.0806285790001,0
                103.156596493,16.0806090020001,0
                103.156506886,16.080582894,0
                103.156304279,16.0804729880001,0
                103.156246466,16.080427738,0
                103.156193817,16.0803865290001,0
                103.156132913,16.08033306,0
                103.156089475,16.0802972770001,0
                103.154254856,16.078442927,0
                103.154211301,16.078418573,0
                103.154150715,16.078411149,0
                103.15409,16.0784175260001,0
                103.154022056,16.0784341880001,0
                103.153953919,16.0784715460001,0
                103.153833542,16.078550776,0
                103.153272898,16.0790084120001,0
                103.152504689,16.0795267730001,0
                103.15229962,16.079942515,0
                103.152196046,16.0801275150001,0
                103.151900737,16.08059991,0
                103.151797348,16.0807652990001,0
                103.151786968,16.0807819030001,0
                103.151767073,16.080817838,0
                103.151558269,16.0811950090001,0
                103.151519304,16.081284339,0
                103.151331457,16.0818229440001,0
                103.151318529,16.0819549070001,0
                103.151325679,16.082028813,0
                103.1513473,16.0821803690001,0
                103.151353107,16.082221061,0
                103.151371487,16.082329498,0
                103.15137803,16.0823681090001,0
                103.151393046,16.0825679640001,0
                103.151393402,16.082623373,0
                103.151393653,16.082662365,0
                103.151365236,16.082856968,0
                103.151353345,16.082999924,0
                103.151324957,16.0831694070001,0
                103.151295668,16.083419297,0
                103.151291588,16.083442216,0
                103.151289938,16.083468189,0
                103.151146926,16.083432965,0
                103.151117411,16.0834269920001,0
                103.151098502,16.0834231650001,0
                103.151074817,16.0834229610001,0
                103.150883871,16.083452037,0
                103.150840192,16.0834586880001,0
                103.150553947,16.08351951,0
                103.150375622,16.08349495,0
                103.150220821,16.083582177,0
                103.150088588,16.083656687,0
                103.150074239,16.0836534750001,0
                103.149895995,16.083279497,0
                103.149887324,16.083278346,0
                103.149880033,16.083277378,0
                103.149552384,16.083378152,0
                103.149053289,16.0835316550001,0
                103.150693802,16.086260759,0
                103.151603886,16.0877747110001,0
                103.152999216,16.089167774,0
                103.152647095,16.089197638,0
                103.15156408,16.0893931950001,0
                103.151174591,16.0895149830001,0
                103.151104811,16.089337433,0
                103.150115607,16.0896266620001,0
                103.148773537,16.0899387260001,0
                103.14832578,16.0900859000001,0
                103.148389783,16.090462159,0
                103.148417258,16.090829124,0
                103.148419542,16.0908596240001,0
                103.148363613,16.091224018,0
                103.148395076,16.0918544960001,0
                103.148331593,16.0924643120001,0
                103.148225428,16.0929992110001,0
                103.148091774,16.0933801150001,0
                103.14783769,16.0937553150001,0
                103.147660967,16.09410323,0
                103.147186432,16.094991399,0
                103.14714871,16.0951413230001,0
                103.147133479,16.0951725690001,0
                103.146921752,16.0954026100001,0
                103.146923024,16.09540896,0
                103.147675851,16.096097367,0
                103.147714104,16.096132346,0
                103.147718876,16.096131762,0
                103.148137487,16.0959140580001,0
                103.148187574,16.095882015,0
                103.148244342,16.0958335030001,0
                103.148251507,16.0958337500001,0
                103.148254986,16.09583387,0
                103.148255699,16.095834096,0
                103.14869376,16.0966017280001,0
                103.148700855,16.096602553,0
                103.14875622,16.096549979,0
                103.148760399,16.0965510820001,0
                103.148890923,16.0967264290001,0
                103.149029604,16.096967277,0
                103.149029768,16.0969673380001,0
                103.149039288,16.096970953,0
                103.149468391,16.09681411,0
                103.149793059,16.0967565130001,0
                103.149825674,16.0967590660001,0
                103.150095382,16.096831351,0
                103.150363642,16.096852244,0
                103.150367157,16.0968642940001,0
                103.150333445,16.0970709960001,0
                103.15033843,16.0970764570001,0
                103.150695391,16.097102851,0
                103.150728199,16.0971198290001,0
                103.150731997,16.097122573,0
                103.150734136,16.0971319170001,0
                103.150733485,16.097143262,0
                103.150600097,16.0974554050001,0
                103.15060059,16.097456562,0
                103.150601107,16.0974577750001,0
                103.151334068,16.097775653,0
                103.151879313,16.098049986,0
                103.151884238,16.0980517200001,0
                103.151885614,16.0980517740001,0
                103.151890348,16.098054559,0
                103.151894283,16.0980600350001,0
                103.151948274,16.098135139,0
                103.152148742,16.098103506,0
                103.153037394,16.0994158010001,0
                103.153443569,16.099142789,0
                103.153444437,16.099142941,0
                103.153450189,16.0991439470001,0
                103.156034263,16.100789675,0
                103.156489756,16.100998416,0
                103.156490166,16.100998788,0
                103.156494162,16.1009974040001,0
                103.156736624,16.1009130740001,0
                103.156856866,16.101181039,0
                103.157089893,16.101090621,0
                103.157520409,16.101750279,0
                103.157821716,16.102085301,0
                103.158047244,16.102336064,0
                103.15816182,16.1024634610001,0
                103.158523967,16.102121206,0
                103.158673068,16.1019674840001,0
                103.158533773,16.101753393,0
                103.159004095,16.1015137680001,0
              </coordinates>
                
            </LinearRing>
            
          </outerBoundaryIs>
        
        </Polygon>
        
      <styleUrl>
        #tambonStyle</styleUrl>
    </Placemark>

  </Document>
</kml>