<?xml version="1.0" encoding="UTF-8"?>
<kml xmlns="http://www.opengis.net/kml/2.2">
  <Document id="tambon_doc">
    <name>เหมือง, เมืองชลบุรี, Chon Buri</name>
    <description>ข้อมูลขอบเขตตำบลเหมือง อำเภอเมืองชลบุรี จังหวัดChon Buri</description>
    
    <!-- Schema สำหรับข้อมูลตำบล -->
    <Schema id="tambon.schema">
      <SimpleField name="ADM3_EN" type="string">
        <displayName>Subdistrict Name (English)</displayName>
      </SimpleField>
      <SimpleField name="ADM3_TH" type="string">
        <displayName>ชื่อตำบล</displayName>
      </SimpleField>
      <SimpleField name="ADM2_EN" type="string">
        <displayName>District Name (English)</displayName>
      </SimpleField>
      <SimpleField name="ADM2_TH" type="string">
        <displayName>ชื่ออำเภอ</displayName>
      </SimpleField>
      <SimpleField name="ADM1_EN" type="string">
        <displayName>Province Name (English)</displayName>
      </SimpleField>
      <SimpleField name="ADM1_TH" type="string">
        <displayName>ชื่อจังหวัด</displayName>
      </SimpleField>
      <SimpleField name="ADM0_EN" type="string">
        <displayName>Country Name (English)</displayName>
      </SimpleField>
      <SimpleField name="ADM0_TH" type="string">
        <displayName>ชื่อประเทศ</displayName>
      </SimpleField>
    </Schema>

    <!-- Style สำหรับตำบล -->
    <Style id="tambonStyle">
      <LineStyle>
        <color>ffff0000</color>
        <width>1.5</width>
      </LineStyle>
      <PolyStyle>
        <color>33ff0000</color>
        <fill>1</fill>
        <outline>1</outline>
      </PolyStyle>
    </Style>

    <Placemark id="Chon_Buri.13">
        
        <ExtendedData>
            
          <SchemaData schemaUrl="#tambon.schema">
                
            <SimpleData name="Shape_Leng">
                0.23054721409</SimpleData>
                
            <SimpleData name="Shape_Area">
                0.00187458965604</SimpleData>
                
            <SimpleData name="ADM3_EN">
                Mueang</SimpleData>
                
            <SimpleData name="ADM3_TH">
                เหมือง</SimpleData>
                
            <SimpleData name="ADM3_PCODE">
                TH200113</SimpleData>
                
            <SimpleData name="ADM2_EN">
                Mueang Chon Buri</SimpleData>
                
            <SimpleData name="ADM2_TH">
                เมืองชลบุรี</SimpleData>
                
            <SimpleData name="ADM2_PCODE">
                TH2001</SimpleData>
                
            <SimpleData name="ADM1_EN">
                Chon Buri</SimpleData>
                
            <SimpleData name="ADM1_TH">
                ชลบุรี</SimpleData>
                
            <SimpleData name="ADM1_PCODE">
                TH20</SimpleData>
                
            <SimpleData name="ADM0_EN">
                Thailand</SimpleData>
                
            <SimpleData name="ADM0_TH">
                ประเทศไทย</SimpleData>
                
            <SimpleData name="ADM0_PCODE">
                TH</SimpleData>
            
          </SchemaData>
        
        </ExtendedData>
        
        <Polygon>
            
          <outerBoundaryIs>
                
            <LinearRing>
                    
              <coordinates>
                    
                100.985954198,13.292387288,0
                100.986142019,13.292151505,0
                100.986271837,13.291883855,0
                100.986313175,13.291583314,0
                100.986929561,13.291279119,0
                100.986937273,13.2912801370001,0
                100.986935041,13.29127641,0
                100.986694922,13.2909650510001,0
                100.986532283,13.290769423,0
                100.986744165,13.290591788,0
                100.986835478,13.2905138890001,0
                100.986874479,13.2904647,0
                100.986882342,13.290428696,0
                100.986884611,13.290418308,0
                100.98687887,13.290359182,0
                100.986876189,13.290343202,0
                100.98686507,13.290276958,0
                100.986824811,13.290171781,0
                100.986766078,13.290056463,0
                100.986715561,13.2899822430001,0
                100.986652022,13.289920995,0
                100.986469497,13.2897654770001,0
                100.986249675,13.28954593,0
                100.986185946,13.289461513,0
                100.986153924,13.289400019,0
                100.9861297,13.28932817,0
                100.986105202,13.2892228690001,0
                100.986086039,13.289127821,0
                100.986042706,13.288970992,0
                100.986074578,13.288947708,0
                100.986085004,13.288915183,0
                100.98609056,13.2888574900001,0
                100.986085976,13.288767078,0
                100.986006045,13.2884021360001,0
                100.985981618,13.288236501,0
                100.985981035,13.288164899,0
                100.986003468,13.288085575,0
                100.986067871,13.287960717,0
                100.986169617,13.2878049620001,0
                100.986209714,13.2876616070001,0
                100.986244067,13.287582059,0
                100.986409883,13.2872593610001,0
                100.98653019,13.286988449,0
                100.986615538,13.286800789,0
                100.986620431,13.286790726,0
                100.986717054,13.286592039,0
                100.98678637,13.2864124220001,0
                100.98681199,13.2862995690001,0
                100.986823292,13.2862388290001,0
                100.986821999,13.2860799760001,0
                100.986829172,13.2858748420001,0
                100.986842932,13.285753421,0
                100.986865579,13.2856377160001,0
                100.986890808,13.2854757690001,0
                100.986907299,13.2853283260001,0
                100.986903388,13.2852099420001,0
                100.986884823,13.285103215,0
                100.986842713,13.285002445,0
                100.986752989,13.284847176,0
                100.986731915,13.2847953470001,0
                100.986731539,13.284749139,0
                100.986742794,13.284682613,0
                100.986785661,13.28451476,0
                100.986854813,13.2843149170001,0
                100.986953112,13.28421035,0
                100.987107708,13.284035956,0
                100.987179883,13.283957291,0
                100.987251988,13.2838718360001,0
                100.987299772,13.2837797770001,0
                100.987340661,13.2836911650001,0
                100.987384618,13.283554985,0
                100.987408063,13.2834529360001,0
                100.987421314,13.2833781210001,0
                100.987420567,13.2832864430001,0
                100.987409291,13.2831778670001,0
                100.987356207,13.283045842,0
                100.987285765,13.282910556,0
                100.987186985,13.282700795,0
                100.987151456,13.282595805,0
                100.987107978,13.2823652220001,0
                100.987063287,13.281985247,0
                100.987051002,13.281754434,0
                100.98705754,13.2812789650001,0
                100.987070311,13.280718559,0
                100.987079051,13.2805147450001,0
                100.987115913,13.280358252,0
                100.987224531,13.280072154,0
                100.987251241,13.2799463060001,0
                100.98725044,13.2798478350001,0
                100.987212073,13.2796306650001,0
                100.987073858,13.2790240350001,0
                100.986995157,13.2787258180001,0
                100.986979349,13.2786768710001,0
                100.986966706,13.2786377470001,0
                100.986921111,13.278573587,0
                100.986858301,13.278523136,0
                100.986715495,13.278442752,0
                100.986642203,13.278382202,0
                100.986607122,13.278331533,0
                100.986585848,13.2782739800001,0
                100.986557119,13.2781519500001,0
                100.9865216,13.27804696,0
                100.986460055,13.277884859,0
                100.986500124,13.277864,0
                100.986622278,13.277789053,0
                100.986856989,13.2776207250001,0
                100.987342612,13.277339447,0
                100.987549505,13.277232999,0
                100.987700186,13.277182489,0
                100.988133605,13.2770619520001,0
                100.988378512,13.2769860340001,0
                100.988507113,13.2769295310001,0
                100.988541066,13.276906382,0
                100.988566594,13.2768889820001,0
                100.988610202,13.2768331510001,0
                100.988622295,13.276771393,0
                100.988630977,13.2766788230001,0
                100.988649394,13.2766201000001,0
                100.988717733,13.2765085720001,0
                100.988871994,13.276278473,0
                100.989193568,13.2757988000001,0
                100.989423627,13.2754455100001,0
                100.989467242,13.2753896790001,0
                100.989546951,13.2753212210001,0
                100.989540915,13.275263796,0
                100.989535605,13.2751741070001,0
                100.989534765,13.275070912,0
                100.989559983,13.274792534,0
                100.989592716,13.274312181,0
                100.989595468,13.27408781,0
                100.989576275,13.2739802740001,0
                100.989564177,13.273925569,0
                100.989552493,13.2738727780001,0
                100.989425901,13.2735148140001,0
                100.989359978,13.2732954700001,0
                100.989350068,13.273244822,0
                100.989307404,13.2730266680001,0
                100.989278416,13.272842929,0
                100.989258373,13.272769424,0
                100.989299162,13.2725780440001,0
                100.989320758,13.272416353,0
                100.989365287,13.27225896,0
                100.989432275,13.272047553,0
                100.989561744,13.271633749,0
                100.989646113,13.2713055420001,0
                100.989712262,13.2709909490001,0
                100.989769253,13.2706764180001,0
                100.989814634,13.270495442,0
                100.988728201,13.270762984,0
                100.987729907,13.270830678,0
                100.987077152,13.27077587,0
                100.98634091,13.2704821070001,0
                100.985320608,13.270350294,0
                100.984299329,13.2700986790001,0
                100.983541741,13.2696852720001,0
                100.982730532,13.268858569,0
                100.982593338,13.268654455,0
                100.982553907,13.268435503,0
                100.982504881,13.2677921800001,0
                100.982476186,13.266955592,0
                100.982447991,13.266676358,0
                100.9823645,13.2662665,0
                100.982214693,13.266026271,0
                100.981947649,13.2657153070001,0
                100.981828087,13.265585699,0
                100.981694186,13.2654405320001,0
                100.980896849,13.2645761250001,0
                100.980722308,13.264324022,0
                100.980656959,13.2641159990001,0
                100.980454091,13.2634095060001,0
                100.980094081,13.2622321810001,0
                100.979824292,13.2613760080001,0
                100.979483998,13.2605197090001,0
                100.979433836,13.260411472,0
                100.979402512,13.260372236,0
                100.979309362,13.260255541,0
                100.978800605,13.2598129200001,0
                100.978688551,13.2596689580001,0
                100.978663127,13.2595726010001,0
                100.978636925,13.2593796940001,0
                100.978835718,13.2583153690001,0
                100.978792571,13.2578175350001,0
                100.978662378,13.2573612690001,0
                100.978557357,13.2571595380001,0
                100.978358183,13.2569076250001,0
                100.978033507,13.2566265080001,0
                100.977700712,13.256357532,0
                100.97737312,13.2562239540001,0
                100.976519078,13.2562520320001,0
                100.975511548,13.25625984,0
                100.975272034,13.2561832440001,0
                100.974830478,13.256007637,0
                100.974591294,13.255802294,0
                100.974388608,13.255539007,0
                100.974105636,13.2551663790001,0
                100.973856533,13.254749228,0
                100.973643458,13.2543854360001,0
                100.973410865,13.2538085740001,0
                100.973273739,13.2531015610001,0
                100.973135575,13.252265811,0
                100.972977068,13.2516233380001,0
                100.972753374,13.251045731,0
                100.972467612,13.250665065,0
                100.971598492,13.249838997,0
                100.971346406,13.249637115,0
                100.970743736,13.249296622,0
                100.970586977,13.249164379,0
                100.9704421,13.2488517200001,0
                100.970428531,13.248822438,0
                100.970114247,13.2484626350001,0
                100.969761656,13.2481793850001,0
                100.969744357,13.248171079,0
                100.969409986,13.2480105170001,0
                100.969077317,13.2477843080001,0
                100.968722735,13.2472532300001,0
                100.96847775,13.246881296,0
                100.96821048,13.246475527,0
                100.968012965,13.2461148190001,0
                100.967952438,13.2458483780001,0
                100.967949527,13.24548617,0
                100.968310693,13.244415756,0
                100.968558312,13.2437465780001,0
                100.968806698,13.243172719,0
                100.968803633,13.2427914470001,0
                100.968800568,13.242410175,0
                100.968856343,13.2420856430001,0
                100.969082508,13.241168789,0
                100.96965052,13.2392007340001,0
                100.969759615,13.238246653,0
                100.9698943,13.238054966,0
                100.969990373,13.237901707,0
                100.970339728,13.237784622,0
                100.97107659,13.2374548330001,0
                100.971620233,13.237298117,0
                100.971852368,13.237124742,0
                100.971987051,13.236933053,0
                100.971985977,13.2367996090001,0
                100.971328015,13.2348410180001,0
                100.971189498,13.2345561170001,0
                100.970849336,13.23339579,0
                100.970827885,13.2331481140001,0
                100.970801528,13.232290402,0
                100.970696569,13.231337974,0
                100.970691205,13.230670747,0
                100.970550087,13.230061763,0
                100.970508718,13.229757045,0
                100.970506266,13.229452028,0
                100.970561426,13.229051242,0
                100.970579045,13.228822328,0
                100.970511408,13.228796426,0
                100.970458897,13.228790901,0
                100.970034806,13.2289027850001,0
                100.969879747,13.2289802400001,0
                100.969434487,13.229269645,0
                100.968912614,13.229712158,0
                100.968584412,13.230038789,0
                100.968469647,13.230287516,0
                100.968464881,13.230308085,0
                100.968394413,13.230612197,0
                100.968357484,13.230860325,0
                100.968284393,13.2314518970001,0
                100.968068143,13.2327877230001,0
                100.968031874,13.2328462250001,0
                100.967887686,13.2329420090001,0
                100.967343589,13.233041524,0
                100.965378312,13.2330709190001,0
                100.96485639,13.2330787240001,0
                100.964531083,13.233129784,0
                100.964282242,13.2331954270001,0
                100.964228954,13.2332597280001,0
                100.963890511,13.234402641,0
                100.962227758,13.2381902660001,0
                100.961019041,13.2409556600001,0
                100.961014839,13.240959639,0
                100.960782179,13.2415200890001,0
                100.960669551,13.2414833070001,0
                100.960570916,13.241462047,0
                100.960497779,13.241464201,0
                100.960486006,13.2414645490001,0
                100.960482561,13.24146525,0
                100.96040664,13.2414807330001,0
                100.960391791,13.241483761,0
                100.960220617,13.2415553330001,0
                100.960119124,13.241604168,0
                100.960017565,13.2416530360001,0
                100.95997665,13.241672282,0
                100.959761849,13.241773328,0
                100.959528927,13.2419119350001,0
                100.959265794,13.2420489250001,0
                100.959196129,13.242069798,0
                100.959148948,13.24207016,0
                100.9588997,13.2420554330001,0
                100.958771309,13.242049023,0
                100.958741113,13.2420492540001,0
                100.95871282,13.2420513210001,0
                100.958678953,13.2420645230001,0
                100.958350106,13.2422445400001,0
                100.958218576,13.2423176560001,0
                100.958075781,13.2423982550001,0
                100.958075271,13.24239857,0
                100.958021318,13.2424319530001,0
                100.957923905,13.2425232960001,0
                100.957918085,13.2425297840001,0
                100.957877138,13.2425754240001,0
                100.957854728,13.2426051790001,0
                100.957832937,13.2426802900001,0
                100.957810646,13.2427571270001,0
                100.95778116,13.2428461000001,0
                100.957754959,13.2428740340001,0
                100.95772357,13.2428950620001,0
                100.957646076,13.242946976,0
                100.95745849,13.24309078,0
                100.957180877,13.2433055330001,0
                100.957019489,13.2434214030001,0
                100.956917962,13.2434702520001,0
                100.956812617,13.2435135850001,0
                100.956729932,13.243558593,0
                100.956634052,13.243605551,0
                100.95659271,13.2436280540001,0
                100.956557133,13.243663456,0
                100.956424201,13.243797596,0
                100.956341841,13.2438832760001,0
                100.956257403,13.243944938,0
                100.956208615,13.2439804410001,0
                100.956140999,13.244021635,0
                100.956079103,13.244070181,0
                100.956013566,13.2441353950001,0
                100.955938667,13.2442099250001,0
                100.955822425,13.244306959,0
                100.955675972,13.244402375,0
                100.955595278,13.244460309,0
                100.955535196,13.244499596,0
                100.955428316,13.2445873140001,0
                100.955379631,13.2446357590001,0
                100.955331123,13.244706389,0
                100.95526799,13.244836295,0
                100.955211222,13.2449762100001,0
                100.955106957,13.245233194,0
                100.955040063,13.245364979,0
                100.955006447,13.24540961,0
                100.954935204,13.24546932,0
                100.954880635,13.2454900760001,0
                100.954780817,13.2455167260001,0
                100.954665886,13.245541642,0
                100.954556439,13.245544329,0
                100.954492419,13.245563308,0
                100.954443572,13.2455914170001,0
                100.95436646,13.2456252870001,0
                100.953903432,13.2457841410001,0
                100.953726426,13.245835416,0
                100.953624794,13.2458713250001,0
                100.953545573,13.2458774780001,0
                100.953460646,13.2458781280001,0
                100.953202046,13.2458745610001,0
                100.953077501,13.245877363,0
                100.952960491,13.2458782580001,0
                100.95293028,13.2458766410001,0
                100.95284516,13.245853257,0
                100.952775184,13.245835303,0
                100.951970003,13.2454537080001,0
                100.951185191,13.2450751370001,0
                100.950521611,13.2447515160001,0
                100.950342925,13.2446444130001,0
                100.950258523,13.244579319,0
                100.94976583,13.244073884,0
                100.949727397,13.2440344570001,0
                100.948864647,13.2431371370001,0
                100.948242573,13.242546949,0
                100.948185275,13.2425145170001,0
                100.94808436,13.2424824170001,0
                100.947912962,13.24244757,0
                100.947738497,13.242448901,0
                100.946466283,13.24237972,0
                100.946392392,13.242370422,0
                100.946271451,13.242351623,0
                100.946140419,13.242329613,0
                100.94606286,13.2422809,0
                100.946012246,13.2422451300001,0
                100.945863759,13.242137793,0
                100.945708406,13.242010786,0
                100.945657949,13.241994735,0
                100.945604215,13.241988572,0
                100.945483457,13.2419927780001,0
                100.945319135,13.2420038920001,0
                100.94515138,13.2420051710001,0
                100.945044017,13.2420059890001,0
                100.94492976,13.241983851,0
                100.944815269,13.241932132,0
                100.944687593,13.241910096,0
                100.944617135,13.241910633,0
                100.944573519,13.241910965,0
                100.944539941,13.241907934,0
                100.944523114,13.2419014880001,0
                100.944441678,13.241787065,0
                100.944367369,13.2417251790001,0
                100.944313557,13.241709154,0
                100.944135763,13.2417137950001,0
                100.944098883,13.2417173630001,0
                100.944058491,13.241701237,0
                100.944031546,13.241688294,0
                100.943946782,13.2415771830001,0
                100.943915986,13.241501817,0
                100.94388545,13.24145932,0
                100.943757279,13.241374835,0
                100.943588871,13.2412939430001,0
                100.943410373,13.241209842,0
                100.943339837,13.241200518,0
                100.943057931,13.241192803,0
                100.94297062,13.241183607,0
                100.942835947,13.2411254670001,0
                100.942711001,13.241024522,0
                100.94111958,13.2403259880001,0
                100.940422181,13.240019869,0
                100.940008713,13.2398839750001,0
                100.938707239,13.239555452,0
                100.938152608,13.239521984,0
                100.937635808,13.239460217,0
                100.936479012,13.2393219570001,0
                100.934849928,13.239067898,0
                100.934655035,13.240850046,0
                100.934399669,13.2431262060001,0
                100.934192844,13.24491047,0
                100.933881765,13.2477189300001,0
                100.933801765,13.2484935050001,0
                100.9337743,13.2488091660001,0
                100.933765445,13.2491100230001,0
                100.933762159,13.249641921,0
                100.933766869,13.251186155,0
                100.933754603,13.252477416,0
                100.933737253,13.2545463600001,0
                100.933727344,13.255835953,0
                100.933722485,13.25646856,0
                100.933721015,13.2586510850001,0
                100.933721029,13.260547495,0
                100.933723685,13.2623044910001,0
                100.933714514,13.262724002,0
                100.933824674,13.2627318790001,0
                100.933976929,13.2627458220001,0
                100.934235533,13.2627960770001,0
                100.934450346,13.2628236780001,0
                100.934487326,13.2628284350001,0
                100.934693998,13.262841553,0
                100.934882173,13.262833588,0
                100.935125265,13.262818693,0
                100.935220161,13.2628114460001,0
                100.935229573,13.262894585,0
                100.935246591,13.2630259270001,0
                100.935277956,13.263180726,0
                100.935287946,13.2632065990001,0
                100.935307295,13.2632801340001,0
                100.935327068,13.263342031,0
                100.935352386,13.263409285,0
                100.935397043,13.26348448,0
                100.935503906,13.2636618610001,0
                100.935508671,13.2636697670001,0
                100.935784762,13.264117745,0
                100.936025587,13.264575614,0
                100.936077169,13.2646476740001,0
                100.936156569,13.264689547,0
                100.936192294,13.2646917770001,0
                100.936536354,13.2645800980001,0
                100.936589803,13.264592135,0
                100.936611617,13.2646196590001,0
                100.936797704,13.265104358,0
                100.936963292,13.265594778,0
                100.937080485,13.2658771260001,0
                100.937196334,13.2661195100001,0
                100.937242006,13.266215082,0
                100.937379399,13.266507328,0
                100.937435884,13.266627473,0
                100.937462802,13.266681609,0
                100.937484375,13.2667329080001,0
                100.937654543,13.2671638960001,0
                100.937728283,13.267318693,0
                100.937819721,13.267500397,0
                100.937876325,13.267594208,0
                100.9379422,13.267681865,0
                100.938008014,13.267763444,0
                100.938076971,13.267848036,0
                100.938158374,13.2679386190001,0
                100.938211715,13.2680111760001,0
                100.938231763,13.2680443950001,0
                100.938268321,13.2681049830001,0
                100.938331397,13.2682321820001,0
                100.938365993,13.2682896750001,0
                100.938397491,13.2683471940001,0
                100.938429074,13.268416873,0
                100.938448294,13.2684927280001,0
                100.938477148,13.2686080240001,0
                100.938566372,13.268902225,0
                100.938684605,13.2693299690001,0
                100.938861046,13.2699259020001,0
                100.938881187,13.269980294,0
                100.938921446,13.2701099220001,0
                100.938946223,13.2701741830001,0
                100.938959086,13.270205628,0
                100.938978598,13.270272004,0
                100.938990992,13.270308802,0
                100.939010395,13.270379807,0
                100.939151998,13.270970119,0
                100.939218157,13.271212711,0
                100.93927838,13.271491102,0
                100.939336614,13.2717446390001,0
                100.939434442,13.2722615590001,0
                100.939667123,13.273316129,0
                100.939752887,13.273787193,0
                100.939768439,13.27387995,0
                100.939804477,13.274094905,0
                100.939845173,13.274358379,0
                100.939875932,13.274596484,0
                100.939887533,13.2747318670001,0
                100.939936526,13.2750979480001,0
                100.939941872,13.275137876,0
                100.939965314,13.2753370930001,0
                100.939993462,13.2755763010001,0
                100.940009072,13.2757221310001,0
                100.940048951,13.2760947080001,0
                100.940055804,13.2761587700001,0
                100.940078748,13.276349704,0
                100.940124461,13.276732238,0
                100.940151842,13.277075511,0
                100.940217638,13.277426534,0
                100.940252091,13.277624847,0
                100.940300115,13.2778069610001,0
                100.940332051,13.2779433690001,0
                100.940365334,13.2780855400001,0
                100.940436165,13.27838017,0
                100.940473112,13.278553984,0
                100.940970225,13.278443725,0
                100.941752366,13.278257022,0
                100.942066676,13.2781841300001,0
                100.94419606,13.277707003,0
                100.945597925,13.2773964300001,0
                100.947148507,13.277068206,0
                100.947697217,13.2769893980001,0
                100.948033528,13.276963611,0
                100.948316246,13.276953715,0
                100.948801407,13.276971663,0
                100.949409981,13.2770118820001,0
                100.949771987,13.2770385100001,0
                100.951248279,13.277157964,0
                100.95222327,13.277205512,0
                100.953765707,13.277265205,0
                100.956069465,13.2773465540001,0
                100.957232634,13.2773953880001,0
                100.958895879,13.277459621,0
                100.960123627,13.2775051950001,0
                100.960746447,13.27751055,0
                100.960816107,13.277645778,0
                100.961031345,13.2780929630001,0
                100.961169364,13.2783543580001,0
                100.961334169,13.2785660980001,0
                100.96148367,13.2788064850001,0
                100.961682965,13.2792024410001,0
                100.961791189,13.279380383,0
                100.961834149,13.2794104820001,0
                100.961878943,13.2794272530001,0
                100.961974097,13.279428422,0
                100.962121874,13.279453909,0
                100.962221247,13.2794968860001,0
                100.962303238,13.279551409,0
                100.962360018,13.2796099290001,0
                100.962430879,13.2797292000001,0
                100.962549163,13.279950808,0
                100.962622501,13.2801366260001,0
                100.962674419,13.2803150020001,0
                100.96270547,13.280496242,0
                100.962721278,13.28058851,0
                100.962734166,13.280742462,0
                100.962737513,13.280917409,0
                100.962729181,13.281088642,0
                100.962700617,13.281711936,0
                100.962683881,13.281733726,0
                100.962660719,13.281751021,0
                100.962643367,13.2817663700001,0
                100.962631839,13.2817816740001,0
                100.962630036,13.2817988050001,0
                100.96262447,13.2818311790001,0
                100.962656346,13.281931733,0
                100.962715527,13.282047291,0
                100.962813618,13.2821720580001,0
                100.962890075,13.2822627580001,0
                100.962941081,13.282311936,0
                100.962950521,13.28236904,0
                100.962897758,13.282514721,0
                100.96277137,13.282727003,0
                100.962584735,13.282992575,0
                100.962445113,13.283126538,0
                100.962373486,13.2832305100001,0
                100.962351121,13.283284924,0
                100.962295813,13.2834673410001,0
                100.962298306,13.283466769,0
                100.962324257,13.283477831,0
                100.96235611,13.283505749,0
                100.96243177,13.2836205990001,0
                100.962530426,13.283735273,0
                100.962574152,13.2838109620001,0
                100.962609436,13.2839092310001,0
                100.962636029,13.283999121,0
                100.962642616,13.2841032420001,0
                100.962632227,13.2842412900001,0
                100.962627257,13.284337054,0
                100.962647934,13.2844072820001,0
                100.9626658,13.28448317,0
                100.962704095,13.2845983080001,0
                100.962742593,13.2847387850001,0
                100.962812982,13.28491281,0
                100.962868341,13.285005293,0
                100.962943664,13.2850779240001,0
                100.963076572,13.2851613620001,0
                100.963200509,13.285202638,0
                100.96329276,13.285235712,0
                100.963393508,13.2852518280001,0
                100.963543087,13.2852647510001,0
                100.963660967,13.285266656,0
                100.963775829,13.2852516930001,0
                100.963953744,13.285213718,0
                100.964002758,13.285200388,0
                100.964028328,13.2851934340001,0
                100.964076716,13.285133936,0
                100.964087602,13.2850578260001,0
                100.964098239,13.2849507560001,0
                100.964154775,13.28483207,0
                100.964188836,13.2847783130001,0
                100.964226089,13.2847639390001,0
                100.964257707,13.284763695,0
                100.964286528,13.2847719280001,0
                100.964436402,13.28482145,0
                100.964540105,13.284848804,0
                100.964620859,13.2848819660001,0
                100.964713029,13.2849037780001,0
                100.964799418,13.284922819,0
                100.964862721,13.2849307770001,0
                100.964931751,13.284935875,0
                100.964983648,13.284955182,0
                100.965035736,13.2849970120001,0
                100.965093358,13.2850134600001,0
                100.965156752,13.285032679,0
                100.96523154,13.285037732,0
                100.965349275,13.285022745,0
                100.965452752,13.285021946,0
                100.965510194,13.285015872,0
                100.96554197,13.285035334,0
                100.965573973,13.2850829500001,0
                100.96557755,13.28517021,0
                100.965560939,13.285249172,0
                100.965538511,13.2853197320001,0
                100.965518979,13.2853930850001,0
                100.965499698,13.2854974140001,0
                100.965465841,13.2855765090001,0
                100.965457716,13.285638512,0
                100.965478154,13.285677779,0
                100.965509931,13.2856972330001,0
                100.965607917,13.2857274460001,0
                100.966077127,13.285808294,0
                100.96626129,13.28583221,0
                100.966347643,13.28584562,0
                100.966419766,13.285878848,0
                100.966480545,13.285929057,0
                100.966547154,13.285990482,0
                100.966630987,13.286048959,0
                100.966697514,13.286099123,0
                100.966740902,13.2861325820001,0
                100.966838948,13.286171241,0
                100.966913659,13.2861678470001,0
                100.966979587,13.2861448150001,0
                100.967042483,13.2861020870001,0
                100.967082597,13.2860848940001,0
                100.967148617,13.2860731210001,0
                100.967252025,13.286063875,0
                100.967364103,13.286060193,0
                100.967459125,13.286079166,0
                100.967534062,13.286103918,0
                100.96758897,13.286140103,0
                100.967641307,13.2862129000001,0
                100.967716872,13.286316487,0
                100.967789284,13.286383508,0
                100.967858632,13.286428018,0
                100.967953668,13.286449799,0
                100.968045829,13.2864716180001,0
                100.968129377,13.2864934950001,0
                100.968233217,13.28653774,0
                100.968360188,13.286598697,0
                100.968466958,13.2866485490001,0
                100.968539067,13.2866789710001,0
                100.968631296,13.2867092180001,0
                100.968671765,13.286737068,0
                100.968720924,13.28677329,0
                100.968793019,13.286800886,0
                100.968853494,13.286814495,0
                100.968954151,13.2868193480001,0
                100.969008832,13.28682737,0
                100.969069375,13.2868494250001,0
                100.969115729,13.2868941140001,0
                100.969142007,13.286944589,0
                100.969176931,13.286997813,0
                100.969229033,13.2870424650001,0
                100.969306755,13.287055932,0
                100.96937025,13.28708642,0
                100.969416535,13.2871226620001,0
                100.969451277,13.2871533630001,0
                100.969506072,13.2871754620001,0
                100.969615457,13.287194324,0
                100.969661379,13.2871855220001,0
                100.969773352,13.2871677630001,0
                100.969873705,13.287136015,0
                100.969945391,13.287112929,0
                100.970014299,13.2871039570001,0
                100.970057583,13.28712333,0
                100.970089542,13.287165315,0
                100.970147665,13.2872436970001,0
                100.97018268,13.2873081820001,0
                100.97018318,13.287370127,0
                100.970166343,13.2874209350001,0
                100.970137895,13.287457756,0
                100.970115173,13.2874917180001,0
                100.970092701,13.287556647,0
                100.970092996,13.287593246,0
                100.970116264,13.287626851,0
                100.970162708,13.2876828010001,0
                100.970243736,13.2877497530001,0
                100.970315854,13.2877801650001,0
                100.970428433,13.287838418,0
                100.970552576,13.287905026,0
                100.970653498,13.2879436700001,0
                100.970731479,13.287988113,0
                100.97082697,13.288066207,0
                100.970893739,13.2881473370001,0
                100.970957749,13.2882425660001,0
                100.970987084,13.288315541,0
                100.971022008,13.288368765,0
                100.971094536,13.288449859,0
                100.971158205,13.2885028600001,0
                100.971253605,13.2885696920001,0
                100.971395018,13.2886389820001,0
                100.971498824,13.288677594,0
                100.971587953,13.2886797190001,0
                100.971682657,13.2886592850001,0
                100.971785885,13.2886275070001,0
                100.97184878,13.288584787,0
                100.971906063,13.288559004,0
                100.97194343,13.288558714,0
                100.972012642,13.288586332,0
                100.972142772,13.2886810580001,0
                100.972307886,13.288837443,0
                100.972363077,13.2889074020001,0
                100.97242695,13.2889857480001,0
                100.972444561,13.289030649,0
                100.972462444,13.2891093530001,0
                100.972503937,13.2892638810001,0
                100.972575085,13.2895308060001,0
                100.972671436,13.2897686040001,0
                100.972812635,13.289952897,0
                100.973111344,13.2901094800001,0
                100.973441054,13.290199612,0
                100.97361694,13.290215899,0
                100.973720733,13.290232754,0
                100.973973835,13.29032348,0
                100.974109388,13.290366566,0
                100.974247024,13.2903418170001,0
                100.974432451,13.2901919190001,0
                100.97468771,13.2899913110001,0
                100.974961776,13.289887659,0
                100.975056192,13.289860441,0
                100.975182439,13.2898682950001,0
                100.975345131,13.289924409,0
                100.975553072,13.290002244,0
                100.975643331,13.2900191950001,0
                100.975692871,13.2900144060001,0
                100.975823302,13.289982493,0
                100.976111456,13.289949356,0
                100.976386129,13.2899207350001,0
                100.976633877,13.2899055720001,0
                100.976958233,13.289889804,0
                100.976987554,13.289907439,0
                100.977003646,13.290485539,0
                100.977024808,13.290531543,0
                100.977112314,13.290573545,0
                100.977285748,13.290596441,0
                100.977520747,13.2905824960001,0
                100.977685044,13.290496376,0
                100.977882068,13.2903776900001,0
                100.978063223,13.2903358770001,0
                100.97824903,13.290358676,0
                100.979187362,13.290605896,0
                100.979237849,13.2907267000001,0
                100.9793185,13.29100887,0
                100.979362268,13.2911489570001,0
                100.97936509,13.2911579820001,0
                100.979458201,13.291297693,0
                100.979506797,13.2913386820001,0
                100.979630607,13.2913457940001,0
                100.979844324,13.2912512120001,0
                100.980041454,13.2911446410001,0
                100.980184732,13.291010203,0
                100.98036176,13.290968429,0
                100.980584682,13.290990929,0
                100.98101942,13.291417175,0
                100.98102566,13.2914520950001,0
                100.981010276,13.291589571,0
                100.980961896,13.2917273050001,0
                100.980946611,13.291876906,0
                100.98097238,13.292001944,0
                100.981031105,13.2921226920001,0
                100.981135231,13.2922471200001,0
                100.981292529,13.2923145680001,0
                100.982159511,13.292408815,0
                100.982493534,13.2923981270001,0
                100.982896563,13.292249554,0
                100.982995423,13.2922326230001,0
                100.983135787,13.292247688,0
                100.983889686,13.2926377260001,0
                100.984240996,13.2927238610001,0
                100.984600069,13.292749337,0
                100.985432772,13.2926862730001,0
                100.985683588,13.292587355,0
                100.985954198,13.292387288,0
              </coordinates>
                
            </LinearRing>
            
          </outerBoundaryIs>
        
        </Polygon>
        
      <styleUrl>
        #tambonStyle</styleUrl>
    </Placemark>

  </Document>
</kml>