<?xml version="1.0" encoding="UTF-8"?>
<kml xmlns="http://www.opengis.net/kml/2.2">
  <Document id="tambon_doc">
    <name>ลุมพุก, คำเขื่อนแก้ว, Yasothon</name>
    <description>ข้อมูลขอบเขตตำบลลุมพุก อำเภอคำเขื่อนแก้ว จังหวัดYasothon</description>
    
    <!-- Schema สำหรับข้อมูลตำบล -->
    <Schema id="tambon.schema">
      <SimpleField name="ADM3_EN" type="string">
        <displayName>Subdistrict Name (English)</displayName>
      </SimpleField>
      <SimpleField name="ADM3_TH" type="string">
        <displayName>ชื่อตำบล</displayName>
      </SimpleField>
      <SimpleField name="ADM2_EN" type="string">
        <displayName>District Name (English)</displayName>
      </SimpleField>
      <SimpleField name="ADM2_TH" type="string">
        <displayName>ชื่ออำเภอ</displayName>
      </SimpleField>
      <SimpleField name="ADM1_EN" type="string">
        <displayName>Province Name (English)</displayName>
      </SimpleField>
      <SimpleField name="ADM1_TH" type="string">
        <displayName>ชื่อจังหวัด</displayName>
      </SimpleField>
      <SimpleField name="ADM0_EN" type="string">
        <displayName>Country Name (English)</displayName>
      </SimpleField>
      <SimpleField name="ADM0_TH" type="string">
        <displayName>ชื่อประเทศ</displayName>
      </SimpleField>
    </Schema>

    <!-- Style สำหรับตำบล -->
    <Style id="tambonStyle">
      <LineStyle>
        <color>ffff0000</color>
        <width>1.5</width>
      </LineStyle>
      <PolyStyle>
        <color>33ff0000</color>
        <fill>1</fill>
        <outline>1</outline>
      </PolyStyle>
    </Style>

    <Placemark id="Yasothon.33">
        
        <ExtendedData>
            
          <SchemaData schemaUrl="#tambon.schema">
                
            <SimpleData name="Shape_Leng">
                0.485211950198</SimpleData>
                
            <SimpleData name="Shape_Area">
                0.00686509902307</SimpleData>
                
            <SimpleData name="ADM3_EN">
                Lumphuk</SimpleData>
                
            <SimpleData name="ADM3_TH">
                ลุมพุก</SimpleData>
                
            <SimpleData name="ADM3_PCODE">
                TH350401</SimpleData>
                
            <SimpleData name="ADM2_EN">
                Kham Khuean Kaeo</SimpleData>
                
            <SimpleData name="ADM2_TH">
                คำเขื่อนแก้ว</SimpleData>
                
            <SimpleData name="ADM2_PCODE">
                TH3504</SimpleData>
                
            <SimpleData name="ADM1_EN">
                Yasothon</SimpleData>
                
            <SimpleData name="ADM1_TH">
                ยโสธร</SimpleData>
                
            <SimpleData name="ADM1_PCODE">
                TH35</SimpleData>
                
            <SimpleData name="ADM0_EN">
                Thailand</SimpleData>
                
            <SimpleData name="ADM0_TH">
                ประเทศไทย</SimpleData>
                
            <SimpleData name="ADM0_PCODE">
                TH</SimpleData>
            
          </SchemaData>
        
        </ExtendedData>
        
        <Polygon>
            
          <outerBoundaryIs>
                
            <LinearRing>
                    
              <coordinates>
                    
                104.315986586,15.7202308870001,0
                104.316339066,15.720214044,0
                104.316738933,15.7202207500001,0
                104.316928158,15.72020437,0
                104.317705031,15.720099786,0
                104.3182733,15.719997248,0
                104.319746039,15.7199141510001,0
                104.323093613,15.719725225,0
                104.325913374,15.7193089670001,0
                104.32623633,15.719229442,0
                104.333732288,15.7180313750001,0
                104.33348709,15.715381919,0
                104.334066242,15.7088648270001,0
                104.334550708,15.7010146390001,0
                104.334792684,15.698802374,0
                104.334862102,15.6980168440001,0
                104.334660147,15.696018661,0
                104.334302477,15.694363432,0
                104.334208726,15.6939295600001,0
                104.33418531,15.6935540490001,0
                104.334158239,15.69168287,0
                104.334157205,15.691611127,0
                104.33423644,15.6913862970001,0
                104.334404564,15.690909257,0
                104.334723938,15.690003059,0
                104.334880272,15.689082028,0
                104.334849553,15.6879035110001,0
                104.334736225,15.6850788250001,0
                104.334592236,15.681489331,0
                104.334562641,15.6807267990001,0
                104.334538072,15.6800936930001,0
                104.334523655,15.6797221050001,0
                104.334720911,15.675770443,0
                104.334731027,15.67556775,0
                104.3346247,15.6732268820001,0
                104.334472091,15.669866793,0
                104.334640658,15.669870573,0
                104.334775478,15.6698829160001,0
                104.335095895,15.669928946,0
                104.335156828,15.669927457,0
                104.335215832,15.6699208000001,0
                104.335293786,15.6698841460001,0
                104.335346311,15.669837102,0
                104.335351621,15.6698323470001,0
                104.335485313,15.6696635170001,0
                104.335629418,15.669481535,0
                104.335706675,15.6693493380001,0
                104.33575523,15.6692856010001,0
                104.335815214,15.6692476480001,0
                104.335897157,15.669226533,0
                104.335968799,15.669223049,0
                104.336049994,15.66924191,0
                104.336119179,15.669281922,0
                104.336326898,15.6694766520001,0
                104.336420541,15.6695369650001,0
                104.336430861,15.669543608,0
                104.336896911,15.6696729510001,0
                104.337091594,15.669711631,0
                104.33718488,15.6697128230001,0
                104.337254551,15.6697024310001,0
                104.337330617,15.669662348,0
                104.337421506,15.669571519,0
                104.337528766,15.669386995,0
                104.33755367,15.6693441530001,0
                104.337590357,15.6693067680001,0
                104.337645372,15.669284572,0
                104.337725748,15.669272182,0
                104.337802813,15.6692702980001,0
                104.338039066,15.6692523620001,0
                104.338254562,15.669194969,0
                104.338348825,15.669164865,0
                104.338439095,15.66911922,0
                104.338506747,15.669100192,0
                104.338562033,15.669088415,0
                104.338647875,15.669079363,0
                104.338722785,15.6690636330001,0
                104.338804229,15.669023415,0
                104.339001154,15.668872654,0
                104.339067902,15.668818898,0
                104.339128201,15.6687930960001,0
                104.339208395,15.6687737610001,0
                104.33976046,15.6686942380001,0
                104.340010276,15.6686464260001,0
                104.340189976,15.668591645,0
                104.340331946,15.668534311,0
                104.34085754,15.6683338080001,0
                104.341359927,15.6681373480001,0
                104.342192051,15.667863321,0
                104.342437648,15.6677912860001,0
                104.342505526,15.6677809390001,0
                104.342573584,15.667777535,0
                104.34266584,15.6678082880001,0
                104.34280422,15.667888303,0
                104.342945231,15.6679317640001,0
                104.343105274,15.667948693,0
                104.343962216,15.6680076430001,0
                104.344226476,15.668032451,0
                104.344289655,15.6680482780001,0
                104.344361046,15.668103869,0
                104.344465282,15.66818124,0
                104.344729311,15.668412469,0
                104.345175511,15.668803235,0
                104.345284715,15.668864844,0
                104.345360802,15.668894256,0
                104.346140651,15.6691601040001,0
                104.346294839,15.669227563,0
                104.346378775,15.6692828440001,0
                104.346575862,15.669413536,0
                104.346781295,15.6695892020001,0
                104.346933035,15.669700155,0
                104.34720589,15.6698481020001,0
                104.347667309,15.6700748330001,0
                104.347817826,15.6701389040001,0
                104.348436774,15.670354822,0
                104.348608069,15.670390588,0
                104.348755206,15.670393931,0
                104.349022376,15.6703925960001,0
                104.349122555,15.6703831930001,0
                104.349230789,15.670338842,0
                104.349333376,15.6702842060001,0
                104.349402635,15.6702581820001,0
                104.349525615,15.6702291070001,0
                104.349777853,15.670205551,0
                104.349949764,15.670196128,0
                104.350235579,15.670222133,0
                104.350343294,15.6702264420001,0
                104.350411302,15.6702213040001,0
                104.350542335,15.6701572810001,0
                104.350615135,15.670129435,0
                104.350691515,15.670101502,0
                104.350750838,15.670106994,0
                104.350794665,15.6701371940001,0
                104.3508145,15.6701641130001,0
                104.350837429,15.6701952220001,0
                104.35087572,15.6702881040001,0
                104.350924311,15.670363357,0
                104.350993045,15.6703860000001,0
                104.351071767,15.6703788560001,0
                104.351137621,15.670359868,0
                104.351202796,15.6703148340001,0
                104.351329791,15.670233538,0
                104.351416203,15.670177558,0
                104.35148376,15.670155052,0
                104.351560824,15.6701531630001,0
                104.351671777,15.67021299,0
                104.351895769,15.6704125160001,0
                104.351938397,15.670465333,0
                104.35197131,15.6705583450001,0
                104.352042973,15.6707616050001,0
                104.352077044,15.6708302710001,0
                104.352110075,15.670858993,0
                104.352151932,15.6708822950001,0
                104.352211071,15.6708808450001,0
                104.352367828,15.6708405140001,0
                104.352522387,15.670784602,0
                104.352631617,15.670778448,0
                104.352759223,15.670789217,0
                104.352834721,15.6707960520001,0
                104.352908152,15.670792518,0
                104.352964773,15.6707633300001,0
                104.353013503,15.670706535,0
                104.353193448,15.6704554090001,0
                104.353674538,15.6699936140001,0
                104.353914412,15.669840053,0
                104.354342054,15.6696662430001,0
                104.354950627,15.6695257390001,0
                104.355252557,15.66953069,0
                104.355671193,15.669721317,0
                104.355792087,15.6698642960001,0
                104.355989664,15.670105005,0
                104.356055633,15.6701589850001,0
                104.356127984,15.67018269,0
                104.35617807,15.670185051,0
                104.356192623,15.6701857370001,0
                104.356254448,15.670172639,0
                104.356344159,15.670128735,0
                104.356565324,15.669991265,0
                104.356905967,15.669850863,0
                104.357020915,15.6697907550001,0
                104.357399873,15.6695557790001,0
                104.357966816,15.669237864,0
                104.358129172,15.6691614970001,0
                104.358248065,15.6691368640001,0
                104.358447249,15.669137843,0
                104.35881883,15.6691205290001,0
                104.359744051,15.669101429,0
                104.360006524,15.6690960070001,0
                104.360400673,15.669081695,0
                104.360564818,15.669049871,0
                104.360714448,15.669011444,0
                104.360815804,15.6689556760001,0
                104.360878197,15.6688730660001,0
                104.360903904,15.6687589220001,0
                104.360912219,15.6686197280001,0
                104.360900802,15.6680918340001,0
                104.360929402,15.667722801,0
                104.36097032,15.6673673600001,0
                104.361055514,15.6670594870001,0
                104.3613709,15.6665633370001,0
                104.361563183,15.6661332260001,0
                104.361581723,15.666091764,0
                104.361772019,15.6656886420001,0
                104.361883242,15.6655530950001,0
                104.362008499,15.6654666260001,0
                104.362163318,15.665413405,0
                104.362325474,15.665397066,0
                104.362884903,15.665333907,0
                104.363464531,15.665189943,0
                104.364181722,15.665064224,0
                104.36437142,15.6650039670001,0
                104.364859257,15.664763415,0
                104.365061458,15.6646935850001,0
                104.365515183,15.664611397,0
                104.365984029,15.6644979490001,0
                104.366268655,15.664410646,0
                104.366385642,15.6643737950001,0
                104.366538241,15.6643576920001,0
                104.366652935,15.664354873,0
                104.366793596,15.6643699470001,0
                104.366899781,15.6644074930001,0
                104.366983828,15.664451758,0
                104.367455076,15.6647953740001,0
                104.367669144,15.664935284,0
                104.36774347,15.6649736100001,0
                104.367811018,15.6649966590001,0
                104.367928898,15.6649937620001,0
                104.368153802,15.664938813,0
                104.368420524,15.6648982780001,0
                104.368561024,15.664907181,0
                104.368831713,15.6650178940001,0
                104.369009764,15.6651245740001,0
                104.369430885,15.6653768960001,0
                104.369542035,15.6654822680001,0
                104.369559904,15.6655139330001,0
                104.369602209,15.66558889,0
                104.369628152,15.6657272420001,0
                104.369648009,15.6659985590001,0
                104.369666849,15.6661092910001,0
                104.369736908,15.6662280260001,0
                104.369842093,15.666348988,0
                104.36995937,15.6664449420001,0
                104.370120687,15.666518191,0
                104.370297124,15.6665601830001,0
                104.37052054,15.666570128,0
                104.370870664,15.6665491640001,0
                104.371560843,15.6666094030001,0
                104.371739091,15.6665988400001,0
                104.371887937,15.6665612,0
                104.372004195,15.6664965680001,0
                104.372122912,15.666404072,0
                104.372253241,15.666268055,0
                104.372581343,15.6657719720001,0
                104.372993423,15.664952597,0
                104.373178593,15.664616046,0
                104.373212039,15.66455526,0
                104.373319018,15.664360822,0
                104.373855952,15.663370636,0
                104.374395388,15.6622231150001,0
                104.374405067,15.662190633,0
                104.374708327,15.6614363940001,0
                104.374861698,15.6606347600001,0
                104.374893194,15.6603668650001,0
                104.374888876,15.6603162960001,0
                104.37478949,15.659151681,0
                104.374774915,15.6585956210001,0
                104.374803448,15.6581611070001,0
                104.374955672,15.6574197630001,0
                104.37561662,15.6558736540001,0
                104.376354737,15.654197224,0
                104.376880817,15.652672511,0
                104.377462832,15.65143934,0
                104.37776432,15.650800545,0
                104.378070381,15.650177968,0
                104.378754155,15.648787042,0
                104.379772357,15.6469412910001,0
                104.381046941,15.645150356,0
                104.383077388,15.642551757,0
                104.385151598,15.640288565,0
                104.386665814,15.6392505970001,0
                104.380005764,15.634325178,0
                104.378730583,15.633658149,0
                104.378224826,15.6332323840001,0
                104.377140561,15.632300464,0
                104.375927055,15.6312895470001,0
                104.375298147,15.6310174270001,0
                104.374304204,15.6308364330001,0
                104.373087169,15.630770469,0
                104.370876492,15.630363968,0
                104.36936585,15.6299049790001,0
                104.36878861,15.6297295910001,0
                104.365768446,15.628257272,0
                104.362569392,15.6302753360001,0
                104.359510554,15.6321028460001,0
                104.358126291,15.6328631320001,0
                104.357551432,15.6330699960001,0
                104.35713723,15.6330801400001,0
                104.356919337,15.6329890810001,0
                104.356386888,15.6322791850001,0
                104.35565609,15.6315099550001,0
                104.354858773,15.6306956670001,0
                104.354467567,15.6302961270001,0
                104.354436216,15.630273076,0
                104.354378615,15.630247324,0
                104.354274941,15.6302306910001,0
                104.353728967,15.630195401,0
                104.353669241,15.630196862,0
                104.353518789,15.630202862,0
                104.35319399,15.630225351,0
                104.353163833,15.6302096160001,0
                104.353141308,15.6301607460001,0
                104.353127055,15.630091355,0
                104.353021475,15.629179892,0
                104.35300164,15.628856979,0
                104.352356318,15.629233615,0
                104.349907001,15.630667353,0
                104.348785333,15.631328296,0
                104.348345344,15.6315875500001,0
                104.347723389,15.6319485500001,0
                104.347234156,15.6322327720001,0
                104.347163542,15.6322738210001,0
                104.347103946,15.632158851,0
                104.347077,15.6321194110001,0
                104.347048363,15.632078329,0
                104.34700789,15.6320322930001,0
                104.346971402,15.631995563,0
                104.346754383,15.631785918,0
                104.346549827,15.6315749090001,0
                104.346212104,15.631250429,0
                104.345861957,15.630945087,0
                104.345649943,15.630747984,0
                104.345477416,15.6305701520001,0
                104.345403533,15.6304788850001,0
                104.345299871,15.630336415,0
                104.344856991,15.6297865940001,0
                104.344762534,15.6296475890001,0
                104.344736535,15.629567143,0
                104.34471997,15.629481834,0
                104.344678534,15.629267401,0
                104.344620494,15.629058007,0
                104.34457382,15.6289178330001,0
                104.344493335,15.628764588,0
                104.344440757,15.6286732080001,0
                104.344378738,15.628586694,0
                104.343945898,15.6280296950001,0
                104.343755137,15.6277725750001,0
                104.343688103,15.627676917,0
                104.343547151,15.6274046830001,0
                104.343355287,15.6270132290001,0
                104.343170414,15.626703123,0
                104.34302131,15.6264064980001,0
                104.342489062,15.625029652,0
                104.34182127,15.6233021350001,0
                104.341589433,15.6228494910001,0
                104.341462866,15.62260238,0
                104.340600439,15.620506004,0
                104.338438035,15.615249352,0
                104.338146954,15.614541725,0
                104.337762842,15.6133006320001,0
                104.337390642,15.612097987,0
                104.336945452,15.6104162610001,0
                104.336483814,15.608672369,0
                104.336118205,15.606324613,0
                104.335707314,15.6049809190001,0
                104.335122888,15.6031396060001,0
                104.334441503,15.6016390840001,0
                104.334091459,15.60075319,0
                104.333685979,15.599981859,0
                104.333394952,15.5995700350001,0
                104.332522505,15.598810067,0
                104.33208758,15.598254556,0
                104.331363938,15.5969248700001,0
                104.330759394,15.595682858,0
                104.330566846,15.595027573,0
                104.330375343,15.594523705,0
                104.330262959,15.59424376,0
                104.330241929,15.594211801,0
                104.330221996,15.5942036020001,0
                104.330177848,15.594202879,0
                104.330056093,15.5942142860001,0
                104.329917344,15.5942430100001,0
                104.329739604,15.5942811260001,0
                104.329544444,15.594319668,0
                104.329323583,15.5943757370001,0
                104.329024631,15.594446378,0
                104.32879974,15.5945152210001,0
                104.328510263,15.5946152010001,0
                104.328234399,15.594735981,0
                104.328148804,15.5947972070001,0
                104.328067672,15.5948625560001,0
                104.32801338,15.594920959,0
                104.327951903,15.594959256,0
                104.327917931,15.594971813,0
                104.327801615,15.5950253410001,0
                104.327633468,15.59509702,0
                104.327584674,15.5951173240001,0
                104.327417825,15.595186756,0
                104.32724924,15.595241554,0
                104.32709786,15.5952874880001,0
                104.326920771,15.595350937,0
                104.326722014,15.59541914,0
                104.326566384,15.595469392,0
                104.326463362,15.5955310460001,0
                104.326299783,15.595611067,0
                104.326102225,15.595725718,0
                104.325839104,15.5958335120001,0
                104.325515098,15.5959470020001,0
                104.325320813,15.596019314,0
                104.325138709,15.596057537,0
                104.324970122,15.5961123330001,0
                104.32483137,15.5961410530001,0
                104.324693161,15.596190882,0
                104.324571952,15.596223401,0
                104.324437011,15.5962309070001,0
                104.324306208,15.596229855,0
                104.324175835,15.5962456990001,0
                104.324076293,15.596273468,0
                104.323981328,15.596309568,0
                104.323908579,15.5963620360001,0
                104.323835828,15.5964145040001,0
                104.323720603,15.596510247,0
                104.323587408,15.5965853050001,0
                104.323458678,15.596664483,0
                104.323295315,15.596752945,0
                104.323127922,15.596854185,0
                104.323002787,15.596903696,0
                104.32286425,15.596940859,0
                104.322674408,15.5969719390001,0
                104.322577706,15.5969858400001,0
                104.322508663,15.5970128660001,0
                104.322287666,15.59672671,0
                104.322095528,15.596429458,0
                104.322083325,15.596410583,0
                104.321874541,15.5961467860001,0
                104.321817027,15.5960579200001,0
                104.321694708,15.5958792180001,0
                104.321523374,15.59565945,0
                104.321365664,15.595460486,0
                104.321239536,15.595302996,0
                104.321192922,15.5952222670001,0
                104.321161556,15.595167954,0
                104.321079644,15.5950195840001,0
                104.320971112,15.5948649470001,0
                104.32080833,15.5946416900001,0
                104.320630362,15.594333369,0
                104.320516973,15.594162894,0
                104.320438369,15.5940177900001,0
                104.320365365,15.5938623760001,0
                104.32029075,15.5936740670001,0
                104.320230194,15.5935234310001,0
                104.320161138,15.59338146,0
                104.320073026,15.593176575,0
                104.320003425,15.593013495,0
                104.319914927,15.592859391,0
                104.319819028,15.5926250470001,0
                104.319653904,15.592307954,0
                104.31944697,15.591890478,0
                104.319346441,15.5917112430001,0
                104.319291332,15.5916027320001,0
                104.319241996,15.5915490080001,0
                104.319161832,15.591483349,0
                104.319077092,15.591409351,0
                104.318982892,15.5913060180001,0
                104.318891841,15.5911561290001,0
                104.318809608,15.591010247,0
                104.318689472,15.590746994,0
                104.318521412,15.5903158890001,0
                104.318345307,15.589910344,0
                104.318135532,15.589383083,0
                104.318038271,15.5891615140001,0
                104.317976846,15.5889771020001,0
                104.317874472,15.588726089,0
                104.317794194,15.5884872130001,0
                104.317734952,15.588218253,0
                104.317671557,15.5879578440001,0
                104.317642153,15.587831803,0
                104.317604688,15.587731321,0
                104.317562322,15.587609822,0
                104.317462669,15.587464362,0
                104.317391986,15.587259052,0
                104.317283945,15.586957474,0
                104.317285537,15.58690341,0
                104.317133044,15.586469965,0
                104.316938081,15.5858585410001,0
                104.316807741,15.5853919080001,0
                104.316744176,15.5851905060001,0
                104.316621805,15.584927991,0
                104.316521161,15.5847697770001,0
                104.316504343,15.584732053,0
                104.316491277,15.5846945800001,0
                104.316468873,15.5846078110001,0
                104.316394571,15.58428122,0
                104.3162745,15.5837818210001,0
                104.316179218,15.5834902170001,0
                104.316092303,15.5832859760001,0
                104.315706453,15.5819530160001,0
                104.315512122,15.581345804,0
                104.315462037,15.581189296,0
                104.315254485,15.58069333,0
                104.314651939,15.5796536660001,0
                104.312561103,15.581322561,0
                104.310910717,15.582618832,0
                104.309105739,15.583836498,0
                104.306902779,15.584976775,0
                104.305057242,15.586527157,0
                104.303851942,15.5875169770001,0
                104.303307703,15.5879639140001,0
                104.301695612,15.5892134600001,0
                104.300723937,15.589748897,0
                104.299108164,15.590368573,0
                104.298990992,15.590424892,0
                104.298758389,15.590553707,0
                104.298557941,15.590664712,0
                104.298382379,15.590764334,0
                104.29823777,15.590832302,0
                104.298074324,15.5908901180001,0
                104.297969242,15.590916979,0
                104.297739089,15.5909540160001,0
                104.297171203,15.5910457250001,0
                104.296677344,15.5911417660001,0
                104.296008151,15.591271899,0
                104.295460486,15.5913772110001,0
                104.294241573,15.5915925630001,0
                104.293856394,15.5916757850001,0
                104.293676658,15.591724356,0
                104.293647259,15.591731082,0
                104.293572569,15.5917548850001,0
                104.293538053,15.591758719,0
                104.293533703,15.591759734,0
                104.293497487,15.5917632160001,0
                104.293303386,15.591744444,0
                104.293268835,15.5917456060001,0
                104.293226134,15.5917532720001,0
                104.293184298,15.5917668650001,0
                104.292735762,15.5921021840001,0
                104.292698991,15.5921272480001,0
                104.292628726,15.5921751390001,0
                104.292602007,15.5921883670001,0
                104.292573528,15.5921985850001,0
                104.292545445,15.5922072970001,0
                104.292083593,15.592277998,0
                104.291899157,15.592326459,0
                104.291873913,15.592333089,0
                104.291586267,15.592389041,0
                104.291211938,15.592472791,0
                104.290981929,15.59252178,0
                104.290829402,15.592552046,0
                104.290646793,15.592595891,0
                104.290599169,15.5926107500001,0
                104.290554914,15.5926326700001,0
                104.29051966,15.592656106,0
                104.290485406,15.5926994270001,0
                104.290324096,15.5929837260001,0
                104.290112552,15.5934336490001,0
                104.290053753,15.5936216960001,0
                104.2898104,15.594093027,0
                104.28976046,15.5941581450001,0
                104.289290042,15.5945673800001,0
                104.289238367,15.5946148150001,0
                104.288745959,15.5950030760001,0
                104.288641616,15.595114832,0
                104.288546495,15.5952784840001,0
                104.288493683,15.5954717330001,0
                104.288510443,15.5958163020001,0
                104.288511171,15.595831259,0
                104.288425138,15.5959827350001,0
                104.288245147,15.5961828170001,0
                104.287993175,15.596326554,0
                104.286810067,15.597001456,0
                104.286454273,15.597107051,0
                104.285975341,15.597200442,0
                104.285350103,15.597251236,0
                104.284899357,15.597232767,0
                104.284320002,15.597114192,0
                104.283320609,15.5967986250001,0
                104.283029357,15.596706656,0
                104.282900136,15.598088648,0
                104.282781571,15.600667167,0
                104.282678567,15.6029074960001,0
                104.282673847,15.6029559180001,0
                104.282603984,15.6032955520001,0
                104.282538772,15.6035780390001,0
                104.282416053,15.603826412,0
                104.282365409,15.60392891,0
                104.282291516,15.6040221320001,0
                104.280764378,15.604780045,0
                104.279598668,15.605289154,0
                104.27470735,15.6074252760001,0
                104.273235911,15.608361073,0
                104.273144077,15.6084792190001,0
                104.273054646,15.6086257850001,0
                104.273044224,15.6087431920001,0
                104.273103729,15.609036873,0
                104.27390796,15.61083023,0
                104.27407128,15.611534657,0
                104.274184026,15.6119369740001,0
                104.274623115,15.612943597,0
                104.274748887,15.613152309,0
                104.274990585,15.6134253430001,0
                104.275281648,15.613579428,0
                104.275685044,15.61369419,0
                104.276135428,15.6138737200001,0
                104.276441299,15.614034159,0
                104.276634314,15.61417656,0
                104.276758582,15.614326728,0
                104.276879095,15.614588037,0
                104.277034205,15.6150382810001,0
                104.277182765,15.616411295,0
                104.277222362,15.616776454,0
                104.277454672,15.6172907380001,0
                104.277960668,15.618164542,0
                104.27844994,15.618979063,0
                104.278574149,15.619123014,0
                104.2786589,15.6191868710001,0
                104.278804395,15.6192869830001,0
                104.279240978,15.619473654,0
                104.279801482,15.619740946,0
                104.280414593,15.6199694270001,0
                104.2809802,15.620303307,0
                104.281040644,15.6203296520001,0
                104.281129641,15.6203506730001,0
                104.281230229,15.6203575110001,0
                104.281330578,15.62035509,0
                104.281387916,15.620353707,0
                104.281568665,15.620316915,0
                104.281704316,15.6202927900001,0
                104.281774044,15.620284951,0
                104.28185878,15.620285515,0
                104.281930276,15.620294216,0
                104.282020955,15.6203167910001,0
                104.282125875,15.620370296,0
                104.282373812,15.6205467610001,0
                104.282572473,15.620637103,0
                104.282740884,15.6207146530001,0
                104.283036189,15.6209421020001,0
                104.283333943,15.6211470160001,0
                104.283468674,15.6212092490001,0
                104.284018464,15.6214491270001,0
                104.284488051,15.6216684570001,0
                104.28455228,15.621695253,0
                104.284625457,15.6217169440001,0
                104.284667034,15.621725713,0
                104.284751904,15.6217314840001,0
                104.284828507,15.6217296340001,0
                104.285082792,15.621695152,0
                104.285172923,15.621678902,0
                104.285432361,15.6216425430001,0
                104.285774071,15.6215306620001,0
                104.285809703,15.621534395,0
                104.285856574,15.621559061,0
                104.28589658,15.621741838,0
                104.285946917,15.622340464,0
                104.285951733,15.6225277560001,0
                104.285939711,15.622787938,0
                104.286046407,15.6261904410001,0
                104.286567246,15.631853757,0
                104.287373521,15.6360582560001,0
                104.28736812,15.636607253,0
                104.287240743,15.636907056,0
                104.286862859,15.6374163040001,0
                104.286572938,15.6376885620001,0
                104.285311624,15.6388435120001,0
                104.284316023,15.639658567,0
                104.282567081,15.6410903300001,0
                104.27922614,15.643135446,0
                104.277644111,15.6443082530001,0
                104.27762688,15.6450453360001,0
                104.277604693,15.6459944000001,0
                104.277605254,15.646351413,0
                104.277606991,15.6474569550001,0
                104.277647469,15.647676839,0
                104.277825634,15.6485596150001,0
                104.278180974,15.649279107,0
                104.27843455,15.6496986670001,0
                104.279699128,15.6508826950001,0
                104.282271826,15.652833344,0
                104.282423027,15.6529163480001,0
                104.283523541,15.653520488,0
                104.285323213,15.6546342400001,0
                104.28672945,15.6555044840001,0
                104.286783262,15.6555335140001,0
                104.288797838,15.6566202550001,0
                104.288832576,15.6566427930001,0
                104.290527028,15.6577421480001,0
                104.291218389,15.65819069,0
                104.291697422,15.658651391,0
                104.2919294,15.658938666,0
                104.292887099,15.6605724230001,0
                104.293545419,15.661326515,0
                104.296348524,15.664170638,0
                104.296182552,15.664321527,0
                104.295938807,15.664543108,0
                104.29592619,15.6645542140001,0
                104.289050999,15.6706048350001,0
                104.289022822,15.6706301140001,0
                104.289158915,15.670746077,0
                104.289360615,15.6709179420001,0
                104.289612485,15.67113756,0
                104.28979561,15.671314319,0
                104.290049308,15.6715636050001,0
                104.290327907,15.6718037140001,0
                104.290744002,15.6721351300001,0
                104.291150578,15.6724498180001,0
                104.291660238,15.6728445800001,0
                104.291948475,15.6730680270001,0
                104.29232074,15.673343662,0
                104.292643413,15.6735727880001,0
                104.292811351,15.673714255,0
                104.292981157,15.673870557,0
                104.293255891,15.674123631,0
                104.293484853,15.6743301930001,0
                104.293883799,15.6746411510001,0
                104.294322713,15.6750189900001,0
                104.294523087,15.675192081,0
                104.294683303,15.6753539150001,0
                104.294816343,15.675481414,0
                104.294902689,15.6755641560001,0
                104.29506107,15.675701885,0
                104.295184473,15.675796281,0
                104.295241572,15.6756943350001,0
                104.295253521,15.6756772690001,0
                104.295326699,15.675572722,0
                104.295473129,15.6753740570001,0
                104.295587025,15.6752175350001,0
                104.295717161,15.6750477800001,0
                104.295932386,15.6747660670001,0
                104.296055078,15.674589047,0
                104.29612521,15.6744794580001,0
                104.296233044,15.674274632,0
                104.296334631,15.6740734110001,0
                104.296437537,15.6738528870001,0
                104.296530156,15.6736487910001,0
                104.296535429,15.673637173,0
                104.296601929,15.6735010090001,0
                104.29672724,15.6732805550001,0
                104.296791403,15.673161887,0
                104.296979729,15.672847635,0
                104.29725004,15.672302256,0
                104.297321518,15.6721649040001,0
                104.297503351,15.6718118750001,0
                104.297599869,15.6716347770001,0
                104.297705078,15.671468566,0
                104.297728642,15.6714388520001,0
                104.297881431,15.671168199,0
                104.297915502,15.6710782280001,0
                104.297958421,15.6709649040001,0
                104.298016187,15.670828719,0
                104.298112723,15.670647995,0
                104.298205409,15.670501055,0
                104.29835685,15.6702915490001,0
                104.298494486,15.6701109640001,0
                104.298697052,15.669885923,0
                104.298813373,15.66974751,0
                104.29898812,15.669538948,0
                104.299068527,15.6694429840001,0
                104.299197404,15.6692756410001,0
                104.299281258,15.6691600550001,0
                104.299308974,15.669114811,0
                104.29933512,15.669072127,0
                104.299445313,15.6689035110001,0
                104.299551704,15.6687554050001,0
                104.299614258,15.6686735480001,0
                104.299837027,15.6683689170001,0
                104.299898408,15.668270152,0
                104.29996716,15.6681979580001,0
                104.300113365,15.6680620490001,0
                104.300353341,15.667825061,0
                104.30037426,15.667803696,0
                104.300394202,15.6677832020001,0
                104.30056478,15.6676079160001,0
                104.300674266,15.667495408,0
                104.300911142,15.667285044,0
                104.301043174,15.667175974,0
                104.301092609,15.6671351320001,0
                104.301105285,15.667124834,0
                104.301332679,15.6669352770001,0
                104.301501846,15.666853734,0
                104.302258664,15.6665366610001,0
                104.302407295,15.6665441120001,0
                104.303956148,15.6677123330001,0
                104.304836267,15.6681887730001,0
                104.305639625,15.668528741,0
                104.306796481,15.6689265900001,0
                104.307445809,15.6693090580001,0
                104.30751687,15.669353889,0
                104.307817264,15.6695434050001,0
                104.30791199,15.6696738570001,0
                104.307969415,15.670034134,0
                104.308014883,15.6708253890001,0
                104.308141222,15.6713539990001,0
                104.308266876,15.671913601,0
                104.308626491,15.6752113650001,0
                104.308999124,15.676457129,0
                104.309611808,15.678209969,0
                104.309999275,15.6789332820001,0
                104.310488346,15.6799289040001,0
                104.310904217,15.681017895,0
                104.311978927,15.6841791590001,0
                104.312179772,15.6846322270001,0
                104.312460061,15.685295711,0
                104.312915122,15.6863728980001,0
                104.313185919,15.6869708130001,0
                104.313861983,15.6886121650001,0
                104.314075379,15.689183997,0
                104.314521367,15.6907027190001,0
                104.31465258,15.6913864650001,0
                104.314802394,15.6923402240001,0
                104.315006517,15.694395801,0
                104.315003824,15.6958967900001,0
                104.315002574,15.696596546,0
                104.315181668,15.6972615620001,0
                104.315286793,15.6980730980001,0
                104.315316433,15.6989928510001,0
                104.31536434,15.699300878,0
                104.315455536,15.699612072,0
                104.315563306,15.6999797940001,0
                104.315545065,15.7003864550001,0
                104.315499236,15.7006854420001,0
                104.31525911,15.7020226990001,0
                104.315264051,15.7022127750001,0
                104.315290572,15.702292641,0
                104.315293178,15.702326188,0
                104.315407311,15.702683123,0
                104.316277058,15.7064358550001,0
                104.31623264,15.7067412590001,0
                104.316107755,15.7069725440001,0
                104.315856098,15.707296335,0
                104.315816428,15.707347376,0
                104.315273557,15.7078801690001,0
                104.315055967,15.7080937270001,0
                104.31476503,15.708290375,0
                104.314750821,15.70830125,0
                104.314602063,15.708448334,0
                104.31431999,15.7090801090001,0
                104.31367047,15.709880125,0
                104.313202756,15.7104562010001,0
                104.31309927,15.710583666,0
                104.31188687,15.712287002,0
                104.311675012,15.712697931,0
                104.311680612,15.712913358,0
                104.311791199,15.713138902,0
                104.312129788,15.713574441,0
                104.312310069,15.7139631270001,0
                104.312465176,15.7145669930001,0
                104.312515241,15.7149274920001,0
                104.312540881,15.7150303830001,0
                104.312630212,15.7152608800001,0
                104.312696716,15.7155171810001,0
                104.312760705,15.715906857,0
                104.312786981,15.7161119790001,0
                104.312842107,15.71668931,0
                104.312865106,15.7169302180001,0
                104.312973845,15.717544848,0
                104.313010952,15.717706231,0
                104.31319507,15.7181132630001,0
                104.313249063,15.7182336610001,0
                104.313326627,15.7184549190001,0
                104.313392779,15.71881266,0
                104.313415662,15.718902848,0
                104.313549689,15.7192087610001,0
                104.313666804,15.719455135,0
                104.313750001,15.719600459,0
                104.313800094,15.719687949,0
                104.313889343,15.7198438350001,0
                104.313903114,15.719913053,0
                104.313972291,15.7203347010001,0
                104.313981238,15.720389207,0
                104.31397716,15.720528555,0
                104.31412753,15.720521278,0
                104.314272772,15.7205122990001,0
                104.315630177,15.7202601860001,0
                104.315986586,15.7202308870001,0
              </coordinates>
                
            </LinearRing>
            
          </outerBoundaryIs>
        
        </Polygon>
        
      <styleUrl>
        #tambonStyle</styleUrl>
    </Placemark>

  </Document>
</kml>