<?xml version="1.0" encoding="UTF-8"?>
<kml xmlns="http://www.opengis.net/kml/2.2">
  <Document id="tambon_doc">
    <name>สงเปือย, คำเขื่อนแก้ว, Yasothon</name>
    <description>ข้อมูลขอบเขตตำบลสงเปือย อำเภอคำเขื่อนแก้ว จังหวัดYasothon</description>
    
    <!-- Schema สำหรับข้อมูลตำบล -->
    <Schema id="tambon.schema">
      <SimpleField name="ADM3_EN" type="string">
        <displayName>Subdistrict Name (English)</displayName>
      </SimpleField>
      <SimpleField name="ADM3_TH" type="string">
        <displayName>ชื่อตำบล</displayName>
      </SimpleField>
      <SimpleField name="ADM2_EN" type="string">
        <displayName>District Name (English)</displayName>
      </SimpleField>
      <SimpleField name="ADM2_TH" type="string">
        <displayName>ชื่ออำเภอ</displayName>
      </SimpleField>
      <SimpleField name="ADM1_EN" type="string">
        <displayName>Province Name (English)</displayName>
      </SimpleField>
      <SimpleField name="ADM1_TH" type="string">
        <displayName>ชื่อจังหวัด</displayName>
      </SimpleField>
      <SimpleField name="ADM0_EN" type="string">
        <displayName>Country Name (English)</displayName>
      </SimpleField>
      <SimpleField name="ADM0_TH" type="string">
        <displayName>ชื่อประเทศ</displayName>
      </SimpleField>
    </Schema>

    <!-- Style สำหรับตำบล -->
    <Style id="tambonStyle">
      <LineStyle>
        <color>ffff0000</color>
        <width>1.5</width>
      </LineStyle>
      <PolyStyle>
        <color>33ff0000</color>
        <fill>1</fill>
        <outline>1</outline>
      </PolyStyle>
    </Style>

    <Placemark id="Yasothon.35">
        
        <ExtendedData>
            
          <SchemaData schemaUrl="#tambon.schema">
                
            <SimpleData name="Shape_Leng">
                0.33470118388</SimpleData>
                
            <SimpleData name="Shape_Area">
                0.00405931839505</SimpleData>
                
            <SimpleData name="ADM3_EN">
                Song Pueai</SimpleData>
                
            <SimpleData name="ADM3_TH">
                สงเปือย</SimpleData>
                
            <SimpleData name="ADM3_PCODE">
                TH350403</SimpleData>
                
            <SimpleData name="ADM2_EN">
                Kham Khuean Kaeo</SimpleData>
                
            <SimpleData name="ADM2_TH">
                คำเขื่อนแก้ว</SimpleData>
                
            <SimpleData name="ADM2_PCODE">
                TH3504</SimpleData>
                
            <SimpleData name="ADM1_EN">
                Yasothon</SimpleData>
                
            <SimpleData name="ADM1_TH">
                ยโสธร</SimpleData>
                
            <SimpleData name="ADM1_PCODE">
                TH35</SimpleData>
                
            <SimpleData name="ADM0_EN">
                Thailand</SimpleData>
                
            <SimpleData name="ADM0_TH">
                ประเทศไทย</SimpleData>
                
            <SimpleData name="ADM0_PCODE">
                TH</SimpleData>
            
          </SchemaData>
        
        </ExtendedData>
        
        <Polygon>
            
          <outerBoundaryIs>
                
            <LinearRing>
                    
              <coordinates>
                    
                104.240348147,15.675102281,0
                104.241230385,15.6734810620001,0
                104.24126545,15.6734811800001,0
                104.241323916,15.6734662870001,0
                104.241651721,15.6732863180001,0
                104.241729625,15.6732828080001,0
                104.241799716,15.6732830490001,0
                104.241873674,15.6732984010001,0
                104.241963091,15.673336444,0
                104.24245676,15.673590947,0
                104.242573475,15.6736253240001,0
                104.242674703,15.673633217,0
                104.242768179,15.673633539,0
                104.242982473,15.673607867,0
                104.243227965,15.673567222,0
                104.243352713,15.6735336790001,0
                104.24341899,15.673515052,0
                104.243454122,15.6734925330001,0
                104.243672524,15.6734102680001,0
                104.243824727,15.6733240250001,0
                104.243926263,15.6732489130001,0
                104.244059185,15.673113533,0
                104.244309366,15.672857826,0
                104.244360243,15.672790074,0
                104.244387705,15.6727373570001,0
                104.244407378,15.6726808170001,0
                104.244415454,15.6726053780001,0
                104.244404045,15.6725261130001,0
                104.244396514,15.6724581620001,0
                104.244396749,15.6723940320001,0
                104.2444086,15.6723487830001,0
                104.244443838,15.672296094,0
                104.244510241,15.67224349,0
                104.24469752,15.672149814,0
                104.244826248,15.67209365,0
                104.24488864,15.67207123,0
                104.244935415,15.67206385,0
                104.244982155,15.672060231,0
                104.245036657,15.6720679810001,0
                104.245098844,15.6721021490001,0
                104.245161042,15.6721325340001,0
                104.245219423,15.672140298,0
                104.245266139,15.672144216,0
                104.245324581,15.672140658,0
                104.245429842,15.6721070510001,0
                104.245585946,15.672020821,0
                104.245667918,15.671972053,0
                104.245722486,15.671957145,0
                104.245773124,15.671953538,0
                104.245831526,15.6719612810001,0
                104.245882142,15.6719652310001,0
                104.245944463,15.67196167,0
                104.246026336,15.671935552,0
                104.246225278,15.671845676,0
                104.246295556,15.6718006450001,0
                104.246350169,15.6717781990001,0
                104.246412494,15.6717746350001,0
                104.246470899,15.6717748340001,0
                104.246564279,15.671801572,0
                104.246649926,15.671809406,0
                104.246692806,15.6717944530001,0
                104.246720139,15.6717756940001,0
                104.246747543,15.671738052,0
                104.24682135,15.67164158,0
                104.247212689,15.6711911240001,0
                104.247283089,15.671127272,0
                104.247323731,15.671097564,0
                104.247356841,15.671076342,0
                104.247391769,15.6710578020001,0
                104.247471911,15.671019153,0
                104.247518149,15.6709843420001,0
                104.247558194,15.67094995,0
                104.248065462,15.6704768390001,0
                104.248165404,15.6704033400001,0
                104.24829468,15.6703185910001,0
                104.248538494,15.6701745930001,0
                104.249076341,15.6698769560001,0
                104.249197684,15.669818449,0
                104.249293423,15.669775966,0
                104.249418919,15.669730094,0
                104.249516433,15.6696980990001,0
                104.249576808,15.6696755990001,0
                104.249644544,15.669645727,0
                104.249815786,15.6695268780001,0
                104.250163243,15.6692809150001,0
                104.250323158,15.6691407800001,0
                104.250662106,15.668853945,0
                104.251237773,15.6684686940001,0
                104.251649788,15.668105844,0
                104.252030435,15.667912514,0
                104.252433005,15.6677295960001,0
                104.252642375,15.6676448110001,0
                104.253188521,15.6673751820001,0
                104.253519075,15.6671263540001,0
                104.25364252,15.667033427,0
                104.253977943,15.6668152440001,0
                104.254352895,15.6665590590001,0
                104.254629168,15.666369274,0
                104.254856132,15.666207937,0
                104.255053468,15.666075107,0
                104.255378984,15.66587594,0
                104.25562567,15.665705147,0
                104.256296609,15.665249691,0
                104.256725843,15.664963243,0
                104.256951846,15.6648232910001,0
                104.257184486,15.664680543,0
                104.257431095,15.664528804,0
                104.257717163,15.6643485720001,0
                104.257859133,15.664271833,0
                104.258908242,15.663620926,0
                104.259088591,15.663524642,0
                104.259282236,15.663441317,0
                104.259502383,15.663403295,0
                104.259709046,15.663410469,0
                104.259875534,15.663462705,0
                104.260061803,15.663573134,0
                104.260447398,15.663878036,0
                104.260522951,15.6639455320001,0
                104.261082988,15.664426705,0
                104.261573807,15.664790741,0
                104.261663768,15.664839226,0
                104.261858676,15.6649442780001,0
                104.261891042,15.6649600960001,0
                104.262114126,15.6650690970001,0
                104.262567998,15.665209643,0
                104.2628987,15.665419076,0
                104.264673342,15.664591312,0
                104.267307478,15.663341297,0
                104.267562062,15.6631838660001,0
                104.267667467,15.6631186820001,0
                104.268162924,15.662726489,0
                104.26894285,15.6619182900001,0
                104.270027767,15.6609530170001,0
                104.270727642,15.6603100680001,0
                104.271227077,15.6600666420001,0
                104.271617,15.659934746,0
                104.271963279,15.6599263890001,0
                104.272051836,15.6599106410001,0
                104.272359283,15.6598487810001,0
                104.272870506,15.65948946,0
                104.273475591,15.6589987850001,0
                104.273692056,15.658851461,0
                104.273801084,15.658788117,0
                104.274360038,15.6585002530001,0
                104.27506568,15.6582128760001,0
                104.275777115,15.6581506430001,0
                104.276395601,15.6580906510001,0
                104.277259627,15.657934611,0
                104.27756752,15.657852081,0
                104.277810741,15.6576659780001,0
                104.278111676,15.657313279,0
                104.27847655,15.6564333800001,0
                104.278600518,15.6558296370001,0
                104.278617209,15.655273543,0
                104.278591675,15.6548836700001,0
                104.278414441,15.653846086,0
                104.278391877,15.653511791,0
                104.278357046,15.6533455920001,0
                104.278350964,15.6533165540001,0
                104.27815791,15.6526172710001,0
                104.278167362,15.6519639860001,0
                104.278305904,15.6505442770001,0
                104.27843455,15.6496986670001,0
                104.278180974,15.649279107,0
                104.277825634,15.6485596150001,0
                104.277647469,15.647676839,0
                104.277606991,15.6474569550001,0
                104.277605254,15.646351413,0
                104.277604693,15.6459944000001,0
                104.27762688,15.6450453360001,0
                104.277644111,15.6443082530001,0
                104.276644832,15.643458944,0
                104.275200411,15.642092582,0
                104.274817005,15.6418903960001,0
                104.274348181,15.641760751,0
                104.273977772,15.641654015,0
                104.273219735,15.6414355750001,0
                104.272158553,15.640897341,0
                104.271477523,15.640434509,0
                104.270568634,15.6398785000001,0
                104.27039857,15.639770249,0
                104.268909738,15.638438434,0
                104.268801733,15.6383455120001,0
                104.266455403,15.636326809,0
                104.266245296,15.636204246,0
                104.265480765,15.635758255,0
                104.264388933,15.6352230040001,0
                104.264302243,15.6351805050001,0
                104.264289352,15.6351765850001,0
                104.26379904,15.635027409,0
                104.263428274,15.6350064370001,0
                104.262060411,15.635350612,0
                104.258864044,15.6362500220001,0
                104.258518017,15.636347383,0
                104.257400163,15.6366885250001,0
                104.257015387,15.6368059440001,0
                104.256679994,15.6368194720001,0
                104.256358975,15.636819412,0
                104.254587049,15.636542505,0
                104.254527711,15.6365332300001,0
                104.254007825,15.636346067,0
                104.253920821,15.636314742,0
                104.252183937,15.6350163180001,0
                104.251722485,15.634759095,0
                104.249838564,15.6337089360001,0
                104.249320156,15.6334199510001,0
                104.24887317,15.633170777,0
                104.247975039,15.632670112,0
                104.247086247,15.6324000930001,0
                104.246938733,15.6324195660001,0
                104.245563487,15.63268028,0
                104.24551025,15.632690371,0
                104.24444514,15.6325799480001,0
                104.24170508,15.632024088,0
                104.241595578,15.631980755,0
                104.241550631,15.6319787570001,0
                104.241382172,15.6319253340001,0
                104.239537256,15.6311549060001,0
                104.239013564,15.6308726280001,0
                104.238051175,15.6304859140001,0
                104.235721965,15.630050269,0
                104.233360047,15.629388126,0
                104.230164017,15.628240894,0
                104.22792066,15.6271897300001,0
                104.227654609,15.627065067,0
                104.223458189,15.6248675460001,0
                104.214567828,15.6205431970001,0
                104.209797009,15.618247949,0
                104.209348278,15.6182301380001,0
                104.208764469,15.6181015920001,0
                104.208089276,15.617847027,0
                104.206749269,15.6171667140001,0
                104.204852493,15.616264609,0
                104.203180385,15.6155280680001,0
                104.202275732,15.6152077140001,0
                104.201565638,15.6150251670001,0
                104.200701847,15.614867636,0
                104.198865902,15.6146263480001,0
                104.196948987,15.614379845,0
                104.196106691,15.614200415,0
                104.194836088,15.613938557,0
                104.193827723,15.6135850090001,0
                104.193193566,15.6132083420001,0
                104.192256297,15.6124685190001,0
                104.191321707,15.6115434590001,0
                104.190518267,15.61086455,0
                104.189876404,15.61018181,0
                104.189262487,15.6094414300001,0
                104.188717202,15.6090911250001,0
                104.188153114,15.608869462,0
                104.187646533,15.6088885780001,0
                104.187340762,15.609002646,0
                104.18714015,15.60920681,0
                104.187000796,15.6095092300001,0
                104.187004755,15.609957815,0
                104.187197884,15.610622705,0
                104.187788165,15.6115915510001,0
                104.188477174,15.612978254,0
                104.188680699,15.6134719660001,0
                104.188772616,15.6139113470001,0
                104.188748997,15.614431804,0
                104.188646209,15.6150182370001,0
                104.188382553,15.615636968,0
                104.188120503,15.6160277590001,0
                104.187869188,15.6162616140001,0
                104.187376396,15.6165367950001,0
                104.186187304,15.616885446,0
                104.185407176,15.617131817,0
                104.184738286,15.61741829,0
                104.18402802,15.617812568,0
                104.183501903,15.618223851,0
                104.183029889,15.618740679,0
                104.182611979,15.6193630600001,0
                104.182198725,15.620170504,0
                104.18203161,15.6208296780001,0
                104.182021594,15.6213070860001,0
                104.182178369,15.621987087,0
                104.182353409,15.6225170910001,0
                104.182585055,15.6229602940001,0
                104.18291147,15.623372761,0
                104.183394104,15.6238598740001,0
                104.184576138,15.624686518,0
                104.185544276,15.625482606,0
                104.186852625,15.6263632170001,0
                104.188202354,15.627136004,0
                104.189160455,15.6275334860001,0
                104.190027723,15.6278262870001,0
                104.190621968,15.628075703,0
                104.191010738,15.6283371160001,0
                104.191428014,15.6288542400001,0
                104.191608279,15.629298643,0
                104.191692513,15.629723954,0
                104.19172447,15.630406898,0
                104.191657342,15.630949754,0
                104.191431679,15.631617439,0
                104.190983886,15.6325111790001,0
                104.190614711,15.63302559,0
                104.190159158,15.633321273,0
                104.189700909,15.6335101880001,0
                104.18914627,15.633665783,0
                104.188538242,15.6337442990001,0
                104.188059902,15.6337200300001,0
                104.187417281,15.633592832,0
                104.185719237,15.6329992280001,0
                104.184301042,15.6324274680001,0
                104.1825507,15.631799469,0
                104.180661348,15.631196108,0
                104.179321102,15.6308005110001,0
                104.178753192,15.630721368,0
                104.177226288,15.630793103,0
                104.175209222,15.630954769,0
                104.172935239,15.631129609,0
                104.171910482,15.6312962710001,0
                104.171355822,15.631451822,0
                104.17085473,15.63169157,0
                104.170494447,15.6319778430001,0
                104.170052651,15.632529559,0
                104.169758115,15.633092044,0
                104.169684118,15.6336564370001,0
                104.169711884,15.6341756960001,0
                104.169816867,15.634550683,0
                104.170039737,15.634937134,0
                104.170303813,15.6352086540001,0
                104.170713008,15.6354055240001,0
                104.171337193,15.6356756550001,0
                104.172553851,15.6358320640001,0
                104.173895022,15.635971281,0
                104.17506886,15.636178543,0
                104.175957843,15.636456638,0
                104.177005385,15.6369019040001,0
                104.17766165,15.6372780830001,0
                104.178203621,15.6377851620001,0
                104.178502833,15.638283739,0
                104.178685243,15.6388135710001,0
                104.178729327,15.639104531,0
                104.178739019,15.6394888900001,0
                104.178584969,15.6400836650001,0
                104.178390604,15.6405369500001,0
                104.17805022,15.641029309,0
                104.177470302,15.6416412840001,0
                104.17702135,15.6422003120001,0
                104.176050861,15.643063679,0
                104.175378135,15.643784683,0
                104.174829919,15.644488499,0
                104.174386152,15.645253934,0
                104.173936124,15.646354257,0
                104.173672239,15.647257881,0
                104.173314346,15.649680727,0
                104.173176778,15.650638336,0
                104.173040634,15.651360889,0
                104.172863994,15.651934834,0
                104.172569108,15.652775094,0
                104.171872904,15.654607695,0
                104.171611347,15.655603854,0
                104.171511044,15.6565819530001,0
                104.171536011,15.658155338,0
                104.171637291,15.6592568610001,0
                104.171752521,15.659745555,0
                104.171932076,15.660161509,0
                104.172116288,15.6604705190001,0
                104.172373782,15.6607706720001,0
                104.172652238,15.661027591,0
                104.173003799,15.6612685430001,0
                104.173516624,15.661491427,0
                104.173945046,15.661573866,0
                104.174335121,15.661593112,0
                104.174628976,15.661586152,0
                104.174848469,15.661545345,0
                104.175146432,15.661410088,0
                104.175514989,15.6611592080001,0
                104.176421576,15.6603827920001,0
                104.177750091,15.659140571,0
                104.178783323,15.6581403650001,0
                104.179886973,15.657309417,0
                104.180568342,15.656930045,0
                104.181186464,15.6566661210001,0
                104.181742251,15.65655323,0
                104.182423999,15.6564800900001,0
                104.183321654,15.6565157700001,0
                104.18407581,15.656690176,0
                104.184595249,15.6568843850001,0
                104.185161105,15.6571700800001,0
                104.185624479,15.657472448,0
                104.186136247,15.657944598,0
                104.186644631,15.658573501,0
                104.187126156,15.659302751,0
                104.187283697,15.6597192020001,0
                104.187362595,15.660222983,0
                104.187405664,15.660763226,0
                104.187366158,15.661526209,0
                104.187352472,15.6624381400001,0
                104.187422587,15.6628851580001,0
                104.187581072,15.663629192,0
                104.187631133,15.6641550260001,0
                104.18763729,15.6646890230001,0
                104.187531675,15.665453578,0
                104.18732285,15.66620634,0
                104.187057737,15.666768146,0
                104.186520625,15.667329291,0
                104.187027101,15.6677480440001,0
                104.187597417,15.6680924660001,0
                104.188022535,15.6682470320001,0
                104.188241202,15.6683774640001,0
                104.188289458,15.668397795,0
                104.1883078,15.66840552,0
                104.188375861,15.668421891,0
                104.188474444,15.6684382820001,0
                104.188526603,15.6684401000001,0
                104.188565862,15.668431518,0
                104.188656533,15.6683910090001,0
                104.189410292,15.667915737,0
                104.189998069,15.667530033,0
                104.190220969,15.6673837610001,0
                104.190738403,15.667044216,0
                104.190900551,15.666943706,0
                104.191444256,15.66660669,0
                104.191667029,15.666449136,0
                104.191828011,15.6663352850001,0
                104.193342697,15.665175289,0
                104.194075357,15.66485421,0
                104.194595498,15.6645795900001,0
                104.194677054,15.6645546510001,0
                104.195231636,15.664385027,0
                104.195657711,15.6643334840001,0
                104.195736507,15.664336614,0
                104.196527585,15.6643680010001,0
                104.19755582,15.664467759,0
                104.198134252,15.6645977950001,0
                104.199315749,15.6647709310001,0
                104.199348161,15.664775682,0
                104.199801918,15.6648421690001,0
                104.200512642,15.6650179120001,0
                104.200512849,15.6650179960001,0
                104.201140681,15.665389996,0
                104.202063418,15.6658234980001,0
                104.203995728,15.6667436270001,0
                104.204646563,15.667128389,0
                104.206075486,15.667798712,0
                104.206347654,15.667926385,0
                104.206578537,15.668034694,0
                104.208042593,15.6682867640001,0
                104.209254239,15.6684953650001,0
                104.209376617,15.668520614,0
                104.21213277,15.6690891800001,0
                104.214210599,15.669400384,0
                104.215550571,15.669601061,0
                104.218366893,15.669989237,0
                104.220227565,15.6703312170001,0
                104.221009315,15.670398671,0
                104.221638288,15.6704529410001,0
                104.222983075,15.6705689630001,0
                104.224966991,15.670717003,0
                104.22522393,15.6707361750001,0
                104.226439009,15.6709003180001,0
                104.226705109,15.6709844370001,0
                104.230122264,15.6723438650001,0
                104.230537889,15.672592691,0
                104.231058594,15.672904418,0
                104.232422374,15.673868596,0
                104.233570619,15.6746803720001,0
                104.234426129,15.6752902260001,0
                104.234797322,15.6754647060001,0
                104.235095525,15.6755607010001,0
                104.235748122,15.675636739,0
                104.236340139,15.6756569200001,0
                104.236883399,15.6756209600001,0
                104.237089293,15.6755817000001,0
                104.238602199,15.6752931880001,0
                104.240348147,15.675102281,0
              </coordinates>
                
            </LinearRing>
            
          </outerBoundaryIs>
        
        </Polygon>
        
      <styleUrl>
        #tambonStyle</styleUrl>
    </Placemark>

  </Document>
</kml>