<?xml version="1.0" encoding="UTF-8"?>
<kml xmlns="http://www.opengis.net/kml/2.2">
  <Document id="tambon_doc">
    <name>หนองดินแดง, เมืองนครปฐม, Nakhon Pathom</name>
    <description>ข้อมูลขอบเขตตำบลหนองดินแดง อำเภอเมืองนครปฐม จังหวัดNakhon Pathom</description>
    
    <!-- Schema สำหรับข้อมูลตำบล -->
    <Schema id="tambon.schema">
      <SimpleField name="ADM3_EN" type="string">
        <displayName>Subdistrict Name (English)</displayName>
      </SimpleField>
      <SimpleField name="ADM3_TH" type="string">
        <displayName>ชื่อตำบล</displayName>
      </SimpleField>
      <SimpleField name="ADM2_EN" type="string">
        <displayName>District Name (English)</displayName>
      </SimpleField>
      <SimpleField name="ADM2_TH" type="string">
        <displayName>ชื่ออำเภอ</displayName>
      </SimpleField>
      <SimpleField name="ADM1_EN" type="string">
        <displayName>Province Name (English)</displayName>
      </SimpleField>
      <SimpleField name="ADM1_TH" type="string">
        <displayName>ชื่อจังหวัด</displayName>
      </SimpleField>
      <SimpleField name="ADM0_EN" type="string">
        <displayName>Country Name (English)</displayName>
      </SimpleField>
      <SimpleField name="ADM0_TH" type="string">
        <displayName>ชื่อประเทศ</displayName>
      </SimpleField>
    </Schema>

    <!-- Style สำหรับตำบล -->
    <Style id="tambonStyle">
      <LineStyle>
        <color>ffff0000</color>
        <width>1.5</width>
      </LineStyle>
      <PolyStyle>
        <color>33ff0000</color>
        <fill>1</fill>
        <outline>1</outline>
      </PolyStyle>
    </Style>

    <Placemark id="Nakhon_Pathom.16">
        
        <ExtendedData>
            
          <SchemaData schemaUrl="#tambon.schema">
                
            <SimpleData name="Shape_Leng">
                0.232576158179</SimpleData>
                
            <SimpleData name="Shape_Area">
                0.00144388032177</SimpleData>
                
            <SimpleData name="ADM3_EN">
                Nong Din Daeng</SimpleData>
                
            <SimpleData name="ADM3_TH">
                หนองดินแดง</SimpleData>
                
            <SimpleData name="ADM3_PCODE">
                TH730116</SimpleData>
                
            <SimpleData name="ADM2_EN">
                Mueang Nakhon Pathom</SimpleData>
                
            <SimpleData name="ADM2_TH">
                เมืองนครปฐม</SimpleData>
                
            <SimpleData name="ADM2_PCODE">
                TH7301</SimpleData>
                
            <SimpleData name="ADM1_EN">
                Nakhon Pathom</SimpleData>
                
            <SimpleData name="ADM1_TH">
                นครปฐม</SimpleData>
                
            <SimpleData name="ADM1_PCODE">
                TH73</SimpleData>
                
            <SimpleData name="ADM0_EN">
                Thailand</SimpleData>
                
            <SimpleData name="ADM0_TH">
                ประเทศไทย</SimpleData>
                
            <SimpleData name="ADM0_PCODE">
                TH</SimpleData>
            
          </SchemaData>
        
        </ExtendedData>
        
        <Polygon>
            
          <outerBoundaryIs>
                
            <LinearRing>
                    
              <coordinates>
                    
                99.9812577660001,13.813774285,0
                99.9815961720001,13.8117852930001,0
                99.9818027740001,13.8105924130001,0
                99.9818679700001,13.810190431,0
                99.98193131,13.809849447,0
                99.9819666480001,13.8096578670001,0
                99.981997811,13.809488904,0
                99.982020542,13.8094392960001,0
                99.9820211990001,13.8094316360001,0
                99.982013382,13.8093442540001,0
                99.9820041190001,13.8093086700001,0
                99.9819493080001,13.809244983,0
                99.9818444800001,13.8091772240001,0
                99.9817760020001,13.809148468,0
                99.9817433110001,13.80914463,0
                99.9817298460001,13.8091369470001,0
                99.9816638620001,13.809081715,0
                99.9816608080001,13.8090781830001,0
                99.9815535920001,13.808878625,0
                99.98152523,13.808812861,0
                99.9815360530001,13.8087140060001,0
                99.981586329,13.808647928,0
                99.9816647200001,13.808587228,0
                99.98183305,13.8085426390001,0
                99.9820633320001,13.8085362310001,0
                99.9822263030001,13.808552047,0
                99.9824231360001,13.8086061560001,0
                99.9825300470001,13.808649647,0
                99.9826765080001,13.8087478740001,0
                99.9834147810001,13.8093213280001,0
                99.9835387040001,13.809403176,0
                99.9836174160001,13.809419329,0
                99.9836903940001,13.8094080590001,0
                99.9837520440001,13.8093748740001,0
                99.983819129,13.8092977530001,0
                99.983964186,13.809061118,0
                99.9843599930001,13.808340387,0
                99.9846003120001,13.808048473,0
                99.9848523270001,13.8078663050001,0
                99.9852392450001,13.8077055540001,0
                99.9855198060001,13.8076330640001,0
                99.9857612070001,13.807599155,0
                99.9865135380001,13.8075083030001,0
                99.986682101,13.807518606,0
                99.986710278,13.8075404530001,0
                99.986710579,13.8076118160001,0
                99.9860733120001,13.808349983,0
                99.9860512130001,13.8084379090001,0
                99.986045941,13.808520274,0
                99.9861087950001,13.8087725460001,0
                99.9861771440001,13.808997345,0
                99.9862456600001,13.8092605730001,0
                99.986270023,13.809710624,0
                99.9863007870001,13.810347295,0
                99.986291722,13.810863356,0
                99.9862250130001,13.8112524740001,0
                99.9860844940001,13.811677569,0
                99.9862484160001,13.81171662,0
                99.986324827,13.8117388250001,0
                99.9863816930001,13.8117733400001,0
                99.986467147,13.8118370980001,0
                99.9865723450001,13.8119737270001,0
                99.9866264720001,13.8120579380001,0
                99.9867028660001,13.812210726,0
                99.9867672180001,13.812331784,0
                99.9869206480001,13.81251839,0
                99.9872786620001,13.812868942,0
                99.987396887,13.812976936,0
                99.9875582920001,13.813124369,0
                99.9879179690001,13.8134264390001,0
                99.9882315090001,13.8136889190001,0
                99.9884983810001,13.813900844,0
                99.9886477890001,13.813990458,0
                99.9888006960001,13.8140713110001,0
                99.9890014270001,13.8141277180001,0
                99.9893966430001,13.8141784810001,0
                99.9900937780001,13.81422073,0
                99.9905205840001,13.814232534,0
                99.990777832,13.814248869,0
                99.9908400150001,13.8142572840001,0
                99.9908897750001,13.814276154,0
                99.9909909460001,13.8142843310001,0
                99.9914948690001,13.81430319,0
                99.9920418660001,13.814314488,0
                99.9920493320001,13.814312369,0
                99.9920697270001,13.8142796860001,0
                99.992070153,13.8142789950001,0
                99.9921062430001,13.8141380060001,0
                99.992163298,13.813996936,0
                99.992212813,13.813932713,0
                99.992298915,13.8138453,0
                99.9923506050001,13.813810496,0
                99.9924975000001,13.8137113380001,0
                99.99253222,13.8136599800001,0
                99.9925339540001,13.8136574160001,0
                99.992539031,13.8136189790001,0
                99.9925410880001,13.8136034130001,0
                99.9925441090001,13.8135805490001,0
                99.9925167230001,13.8133015350001,0
                99.9925096680001,13.813104405,0
                99.9923409450001,13.8125903500001,0
                99.9923444780001,13.8125292280001,0
                99.9923499960001,13.8124336970001,0
                99.9924608460001,13.8122339190001,0
                99.9926760170001,13.81184796,0
                99.992911683,13.8114252300001,0
                99.9931741780001,13.81095437,0
                99.993278354,13.8106707590001,0
                99.9935006520001,13.810065557,0
                99.9935324840001,13.8100180270001,0
                99.9936599160001,13.809904767,0
                99.994170662,13.8096817430001,0
                99.9945613950001,13.809615491,0
                99.994799142,13.8095751820001,0
                99.9948353230001,13.8095750360001,0
                99.9953975810001,13.809699019,0
                99.9954930520001,13.8096931380001,0
                99.995549037,13.809648996,0
                99.995571037,13.8095391140001,0
                99.9955700820001,13.8093140440001,0
                99.9954748740001,13.8080573070001,0
                99.9954970420001,13.807985854,0
                99.9955192740001,13.807930867,0
                99.995552864,13.807903283,0
                99.9956201730001,13.8078810540001,0
                99.9966196810001,13.8077946560001,0
                99.9966812870001,13.80775049,0
                99.9967035660001,13.8077064780001,0
                99.99670324,13.807629627,0
                99.9966324740001,13.806839408,0
                99.9966431970001,13.806718597,0
                99.996659627,13.806619718,0
                99.9967321880001,13.8065096290001,0
                99.9969001150001,13.806371706,0
                99.9978747680001,13.8057254660001,0
                99.999056453,13.804891728,0
                99.999863185,13.8043888940001,0
                99.99992833,13.804313866,0
                99.9998764010001,13.8042650790001,0
                99.999836019,13.8042062980001,0
                99.9997897270001,13.804110823,0
                99.999768391,13.804011632,0
                99.9997495170001,13.8037984470001,0
                99.999736398,13.803381589,0
                99.9997353130001,13.8033471310001,0
                99.9997158800001,13.802729722,0
                99.9997179980001,13.8026535660001,0
                99.99969622,13.8023533520001,0
                99.999683459,13.802199628,0
                99.9993251590001,13.801200668,0
                99.9996811380001,13.801055395,0
                100.000821941,13.8006712120001,0
                100.000909519,13.8006306560001,0
                100.000967136,13.800603972,0
                100.001001135,13.800550312,0
                100.001011147,13.8004900600001,0
                100.000999808,13.8002392240001,0
                100.001013517,13.800176734,0
                100.001023311,13.800132084,0
                100.001030805,13.800121,0
                100.001055645,13.800084253,0
                100.001077733,13.8000515790001,0
                100.001142706,13.800017505,0
                100.001187019,13.799994268,0
                100.001305522,13.799907326,0
                100.001333738,13.799886626,0
                100.00150804,13.7998257030001,0
                100.001579102,13.7998205910001,0
                100.001754405,13.799807974,0
                100.001799799,13.7998011290001,0
                100.001891227,13.799787345,0
                100.001980076,13.799753531,0
                100.0020678,13.799693876,0
                100.002079049,13.7996862260001,0
                100.00222219,13.7995418030001,0
                100.002411004,13.799418539,0
                100.00246453,13.7993835950001,0
                100.002672182,13.799255907,0
                100.002727394,13.799221957,0
                100.002893004,13.799112141,0
                100.002925353,13.799090689,0
                100.003008852,13.7990357940001,0
                100.003048227,13.799009905,0
                100.003050993,13.798997032,0
                100.003058296,13.7989630340001,0
                100.003081883,13.798875964,0
                100.003116024,13.798855754,0
                100.003304237,13.798787797,0
                100.003271219,13.7985162030001,0
                100.003268502,13.7984938590001,0
                100.003254157,13.7984628040001,0
                100.003187503,13.7983185090001,0
                100.003182135,13.798306887,0
                100.003085784,13.798186856,0
                100.003041581,13.798144016,0
                100.002944868,13.7980502820001,0
                100.002900273,13.7980270480001,0
                100.002725687,13.7980210690001,0
                100.002513408,13.798005211,0
                100.002505579,13.7979995200001,0
                100.002490266,13.7979883950001,0
                100.002485942,13.797985252,0
                100.002491843,13.797891061,0
                100.002508373,13.7976272330001,0
                100.002508216,13.7975904360001,0
                100.000007176,13.79745308,0
                99.999876971,13.796937551,0
                99.999780285,13.7967815370001,0
                99.9991057110001,13.7962133930001,0
                99.999066929,13.7961971,0
                99.998912927,13.796057466,0
                99.998882059,13.795915641,0
                99.998915207,13.795511661,0
                99.9989459400001,13.795137111,0
                99.998836608,13.794854603,0
                99.998776616,13.794699591,0
                99.998711197,13.794530547,0
                99.9987122140001,13.794470758,0
                99.998739448,13.7934700160001,0
                99.9987360160001,13.792663061,0
                99.9987736310001,13.7922621650001,0
                99.9988115950001,13.791943611,0
                99.99887626,13.7911343170001,0
                99.9988634430001,13.7910931980001,0
                99.998829658,13.791072748,0
                99.998774821,13.791056503,0
                99.9985979830001,13.7910778080001,0
                99.9985473950001,13.7910697770001,0
                99.9985262480001,13.791049276,0
                99.998540297,13.790390464,0
                99.998518183,13.7901435210001,0
                99.9984135120001,13.789304035,0
                99.9984386610001,13.7892751150001,0
                99.9984891610001,13.7892625550001,0
                99.9989482610001,13.789244223,0
                99.9989903520001,13.789235815,0
                99.9990281950001,13.7892191940001,0
                99.9990575580001,13.7891902550001,0
                99.9990899640001,13.788929904,0
                99.999137498,13.788580127,0
                99.9991714400001,13.7884486670001,0
                99.9992896580001,13.78820897,0
                99.9995103860001,13.787697984,0
                99.9995353470001,13.787623775,0
                99.9995349970001,13.787541431,0
                99.99952211,13.787483841,0
                99.9993107350001,13.787307657,0
                99.999268365,13.7872501890001,0
                99.9992596230001,13.7871761170001,0
                99.999273767,13.786887332,0
                99.9992371700001,13.7858587000001,0
                99.999211889,13.7848665510001,0
                99.9992113360001,13.7848052160001,0
                99.9991583490001,13.783482769,0
                99.9991479240001,13.783319976,0
                99.999041837,13.781662689,0
                99.9989324460001,13.7792964920001,0
                99.9980139690001,13.773334832,0
                99.9977667730001,13.7722219390001,0
                99.997664302,13.7719978650001,0
                99.9971217550001,13.7713318460001,0
                99.9966367860001,13.7709164290001,0
                99.9962142730001,13.7706640490001,0
                99.995993486,13.7705503290001,0
                99.9959288330001,13.7705388960001,0
                99.995892278,13.770529831,0
                99.995507821,13.77030072,0
                99.995065706,13.769951361,0
                99.9948796050001,13.7698711200001,0
                99.994710948,13.769794849,0
                99.994686168,13.7697752500001,0
                99.994672209,13.769754236,0
                99.9946705450001,13.7697346190001,0
                99.994681218,13.7696983160001,0
                99.9947210480001,13.769619689,0
                99.9947546600001,13.769541078,0
                99.9948011700001,13.7694287950001,0
                99.994886277,13.76919156,0
                99.9949323880001,13.7690301750001,0
                99.994980174,13.7689343280001,0
                99.995023577,13.7688499760001,0
                99.995072625,13.7687027700001,0
                99.995128702,13.7685170450001,0
                99.995144467,13.768437036,0
                99.9951543280001,13.768359967,0
                99.9951751560001,13.768104481,0
                99.9952077400001,13.7678632330001,0
                99.9952643870001,13.7674799430001,0
                99.9952919070001,13.767278565,0
                99.995350403,13.766981446,0
                99.995374558,13.766808563,0
                99.995399164,13.7667403950001,0
                99.9954482850001,13.766663103,0
                99.9954649480001,13.7665208130001,0
                99.9955282190001,13.7663196770001,0
                99.9957524450001,13.7658856780001,0
                99.9961041190001,13.7652631330001,0
                99.9961837540001,13.7650442510001,0
                99.9963252100001,13.7646688720001,0
                99.996446883,13.764223718,0
                99.9965780420001,13.763366806,0
                99.9967040590001,13.762529575,0
                99.9967705170001,13.7623289320001,0
                99.99686488,13.7620440630001,0
                99.9976365470001,13.7603245600001,0
                99.9980694160001,13.7587933950001,0
                99.9980465770001,13.758705655,0
                99.9980014640001,13.7586619210001,0
                99.997523174,13.7584442720001,0
                99.9960993050001,13.7577363780001,0
                99.9953848700001,13.7574538000001,0
                99.995115022,13.757389017,0
                99.9950419230001,13.7573673520001,0
                99.9949745070001,13.757362137,0
                99.9949409280001,13.75738972,0
                99.9948747180001,13.757669961,0
                99.9948467770001,13.7577030090001,0
                99.9948074690001,13.757703167,0
                99.9934269400001,13.756616298,0
                99.9928038450001,13.756519047,0
                99.9923285390001,13.7566405600001,0
                99.9916886700001,13.7568780500001,0
                99.991677006,13.7568823780001,0
                99.9904152280001,13.7574854490001,0
                99.9903134480001,13.757531167,0
                99.988972382,13.758133527,0
                99.988922614,13.758155882,0
                99.9889216060001,13.758156872,0
                99.9887857360001,13.758290781,0
                99.988695669,13.7585365900001,0
                99.9886518310001,13.758643164,0
                99.988609673,13.7586985880001,0
                99.98856951,13.75873418,0
                99.9885212950001,13.758771817,0
                99.9884829870001,13.758787784,0
                99.9867007730001,13.758953939,0
                99.9858452060001,13.759123744,0
                99.9852242140001,13.759255323,0
                99.984454998,13.759426746,0
                99.9830819850001,13.759786176,0
                99.9829023080001,13.7598161880001,0
                99.9826731100001,13.7598626540001,0
                99.9825331170001,13.759898127,0
                99.9824876910001,13.759916305,0
                99.982403579,13.759949899,0
                99.9823299130001,13.759982296,0
                99.981986981,13.760050603,0
                99.981540281,13.7601395730001,0
                99.9813094930001,13.7601590420001,0
                99.9811539280001,13.760157776,0
                99.9811130450001,13.760156384,0
                99.980902863,13.7601488170001,0
                99.9807800930001,13.760143342,0
                99.9806702110001,13.7601397010001,0
                99.980509914,13.7601386310001,0
                99.9804290200001,13.7601439970001,0
                99.980375602,13.7601543550001,0
                99.9803325680001,13.7601729690001,0
                99.9802942060001,13.7602227400001,0
                99.9802263010001,13.760356991,0
                99.98014027,13.760530755,0
                99.9799309670001,13.7609529010001,0
                99.9794296380001,13.7619115000001,0
                99.9790195370001,13.762669133,0
                99.978978698,13.7627417370001,0
                99.9786416150001,13.763403354,0
                99.9784719880001,13.7637382460001,0
                99.9784303660001,13.7638047670001,0
                99.978398891,13.763844072,0
                99.9783284590001,13.7638970460001,0
                99.9782817210001,13.7639191970001,0
                99.978235559,13.7639343020001,0
                99.9781975500001,13.763939226,0
                99.978076302,13.76393649,0
                99.9780011550001,13.763931155,0
                99.977752653,13.763894189,0
                99.9775651910001,13.763857865,0
                99.9769991740001,13.763737495,0
                99.976870492,13.763705751,0
                99.9766830400001,13.763670571,0
                99.976525065,13.763644281,0
                99.976250667,13.763611181,0
                99.976187112,13.7635928890001,0
                99.9761301120001,13.763611871,0
                99.9760879950001,13.76364012,0
                99.975972685,13.763735421,0
                99.9756630200001,13.764003528,0
                99.975322082,13.764295917,0
                99.975220789,13.764381488,0
                99.9751119330001,13.7644534300001,0
                99.9749892,13.7645209090001,0
                99.9747934910001,13.764613888,0
                99.9747774420001,13.764625987,0
                99.974737373,13.764685177,0
                99.9746304760001,13.7648269150001,0
                99.974506095,13.764990421,0
                99.974390096,13.7651525160001,0
                99.9743555100001,13.765188559,0
                99.974230059,13.7653555050001,0
                99.974205877,13.765411283,0
                99.974206042,13.7654511710001,0
                99.9742350100001,13.7655243300001,0
                99.9742496640001,13.7655495600001,0
                99.9743439600001,13.7657111020001,0
                99.974494409,13.7661029820001,0
                99.974580808,13.7663450110001,0
                99.9746213990001,13.7664305820001,0
                99.9746501970001,13.7664866800001,0
                99.9747251430001,13.7665159380001,0
                99.9748732480001,13.766564196,0
                99.9752691780001,13.766660281,0
                99.9753787080001,13.7666873950001,0
                99.9757125070001,13.766792837,0
                99.975971621,13.766895801,0
                99.9761487390001,13.7669765630001,0
                99.9763401550001,13.767054466,0
                99.9764336260001,13.767109792,0
                99.9765245520001,13.7671549030001,0
                99.9766629150001,13.767247008,0
                99.976838721,13.7673685520001,0
                99.977244183,13.767698013,0
                99.97747302,13.7678519670001,0
                99.977921258,13.768164923,0
                99.9780928210001,13.768294896,0
                99.978533805,13.768619061,0
                99.9789257150001,13.76890402,0
                99.9790258180001,13.76897676,0
                99.979146357,13.769084121,0
                99.9791827940001,13.769148049,0
                99.9791910490001,13.7691625410001,0
                99.979227677,13.769310234,0
                99.9792284270001,13.769314616,0
                99.97925581,13.769474455,0
                99.9792562050001,13.7695695780001,0
                99.979278757,13.769742977,0
                99.9792981790001,13.769922539,0
                99.9793174500001,13.7700655950001,0
                99.97933449,13.770336006,0
                99.979353497,13.7705069090001,0
                99.9793703780001,13.770802211,0
                99.9794028480001,13.771140029,0
                99.9794256920001,13.771383499,0
                99.9794418020001,13.771496084,0
                99.9794545220001,13.771575252,0
                99.9794790660001,13.7716242280001,0
                99.979472506,13.7716422820001,0
                99.979384113,13.771679512,0
                99.979310023,13.7717046510001,0
                99.9791913180001,13.7717383080001,0
                99.9790981900001,13.7717655970001,0
                99.9790283520001,13.771790767,0
                99.978971561,13.771808428,0
                99.9789556740001,13.7718133820001,0
                99.978888542,13.771843131,0
                99.9788187120001,13.7718703240001,0
                99.978772222,13.7718953990001,0
                99.978729855,13.7719204150001,0
                99.978691874,13.771953743,0
                99.9786452810001,13.771982958,0
                99.9786094600001,13.772014217,0
                99.9785081050001,13.7721140510001,0
                99.9784616580001,13.772176442,0
                99.978423644,13.7722200760001,0
                99.978381432,13.772255499,0
                99.978345457,13.772278452,0
                99.9782989320001,13.772305553,0
                99.9782375770001,13.7723389810001,0
                99.9781062760001,13.7723788270001,0
                99.9780068920001,13.772431027,0
                99.9778460370001,13.7725166600001,0
                99.977711647,13.772570069,0
                99.977663013,13.772591527,0
                99.977623758,13.772608748,0
                99.9775497270001,13.7726464130001,0
                99.9770749140001,13.772772318,0
                99.9769291100001,13.7728125940001,0
                99.9767172860001,13.7728610890001,0
                99.9766585990001,13.7728705440001,0
                99.9764396880001,13.7728974460001,0
                99.9762807330001,13.77291045,0
                99.9761260500001,13.772923355,0
                99.975848398,13.772955745,0
                99.975659336,13.773001338,0
                99.975515838,13.773060677,0
                99.9754037530001,13.7731129320001,0
                99.975321287,13.7731608820001,0
                99.975188028,13.773242254,0
                99.9750377500001,13.7733112760001,0
                99.9748852650001,13.773367767,0
                99.974792134,13.773395173,0
                99.9747285780001,13.773416119,0
                99.974652302,13.773424639,0
                99.974595476,13.773417093,0
                99.9745470160001,13.773398028,0
                99.974397804,13.7733963630001,0
                99.9741963930001,13.7733852260001,0
                99.9740983180001,13.773380027,0
                99.9739127750001,13.773378763,0
                99.9737711720001,13.7734008370001,0
                99.973699389,13.7734225240001,0
                99.9736479050001,13.7734614280001,0
                99.9735868810001,13.773509958,0
                99.9735356880001,13.773562339,0
                99.9734806120001,13.773620511,0
                99.973382041,13.7736962920001,0
                99.973309106,13.773733287,0
                99.9732419370001,13.7737528110001,0
                99.973169893,13.7737582410001,0
                99.9730088950001,13.77378076,0
                99.9728844540001,13.773821845,0
                99.9727541820001,13.7738571690001,0
                99.9727485060001,13.7738591670001,0
                99.9721681250001,13.774063503,0
                99.9718990600001,13.7742045840001,0
                99.9717924600001,13.774293471,0
                99.971158899,13.7749687260001,0
                99.970603037,13.7755928990001,0
                99.9699442790001,13.7764586530001,0
                99.969376319,13.777298662,0
                99.969060631,13.777857206,0
                99.9689888170001,13.778096826,0
                99.968947261,13.7785142870001,0
                99.9690869600001,13.779703624,0
                99.9691548330001,13.7802588550001,0
                99.969224023,13.780421233,0
                99.9693662270001,13.780550485,0
                99.96959644,13.780549578,0
                99.9697026600001,13.7805405070001,0
                99.969817838,13.780557361,0
                99.970182476,13.780945371,0
                99.9706981350001,13.7814539410001,0
                99.9708134590001,13.781505408,0
                99.9711057600001,13.781530221,0
                99.971252781,13.781513052,0
                99.971312169,13.781563428,0
                99.9713767040001,13.781618172,0
                99.9713821110001,13.7816535750001,0
                99.971419681,13.7818995480001,0
                99.971419725,13.781901802,0
                99.9714264740001,13.7822493510001,0
                99.971449508,13.782371702,0
                99.9714917380001,13.7824714380001,0
                99.9716825080001,13.782538801,0
                99.9720356120001,13.7825374060001,0
                99.9721982240001,13.7825367630001,0
                99.9723051600001,13.7825545060001,0
                99.9723414840001,13.782602395,0
                99.972363424,13.7826658720001,0
                99.9723493980001,13.782768334,0
                99.9722211690001,13.7832137840001,0
                99.972078288,13.7836098540001,0
                99.9719423240001,13.7839317400001,0
                99.971942557,13.7839882380001,0
                99.971993577,13.7840939760001,0
                99.9720087150001,13.7842598870001,0
                99.9719853820001,13.7847331730001,0
                99.9718536140001,13.785196292,0
                99.9717322180001,13.785546369,0
                99.9717073070001,13.785638283,0
                99.9732974670001,13.786610164,0
                99.974228209,13.7871361740001,0
                99.9750360680001,13.7876520720001,0
                99.9763182070001,13.788399149,0
                99.9769050610001,13.788767604,0
                99.9781509790001,13.7894900970001,0
                99.97857186,13.7897426710001,0
                99.9790440730001,13.7900225060001,0
                99.979063877,13.790107967,0
                99.9790169490001,13.791681163,0
                99.9789356730001,13.792014146,0
                99.9788880010001,13.792242447,0
                99.978801467,13.7924804040001,0
                99.9786999310001,13.7926186240001,0
                99.9785981790001,13.7927045700001,0
                99.9785701270001,13.792715597,0
                99.978566174,13.79271949,0
                99.977153016,13.7932747620001,0
                99.976333115,13.7936547480001,0
                99.976266959,13.7937013260001,0
                99.9762261180001,13.793757074,0
                99.976194793,13.793822044,0
                99.9761952170001,13.793923944,0
                99.9762081860001,13.7940041800001,0
                99.976227414,13.7940689500001,0
                99.976281385,13.794130496,0
                99.9765950840001,13.794348493,0
                99.9766775290001,13.7944191870001,0
                99.9767156090001,13.794459177,0
                99.976725215,13.794490019,0
                99.976725318,13.7945147230001,0
                99.976725511,13.794561039,0
                99.9764387560001,13.79512592,0
                99.9763852670001,13.795161396,0
                99.976365898,13.7951938790001,0
                99.9761905400001,13.7961782200001,0
                99.976193047,13.7963116510001,0
                99.9762607200001,13.7964028820001,0
                99.976263751,13.7964286060001,0
                99.9761100570001,13.7969577000001,0
                99.9757848550001,13.7982253970001,0
                99.9753180850001,13.7986447330001,0
                99.9707748660001,13.8012171180001,0
                99.9707702800001,13.801245363,0
                99.970746219,13.801321396,0
                99.970695398,13.8014121300001,0
                99.9704846280001,13.801729822,0
                99.9702691720001,13.8020928030001,0
                99.9702517860001,13.8021382630001,0
                99.9702354060001,13.802181085,0
                99.9702138250001,13.8022669370001,0
                99.9702068010001,13.8023360550001,0
                99.970214357,13.8023955830001,0
                99.9702292490001,13.8024598530001,0
                99.9702735700001,13.8025668820001,0
                99.9704009810001,13.8027531060001,0
                99.9704481370001,13.8028288680001,0
                99.97045603,13.802847926,0
                99.970497375,13.80302762,0
                99.970547937,13.803261666,0
                99.9705562440001,13.803283428,0
                99.9706195910001,13.8034493640001,0
                99.9706230140001,13.8034644730001,0
                99.9706405810001,13.803541947,0
                99.9706406380001,13.8035557760001,0
                99.9706339150001,13.803597331,0
                99.9706047070001,13.803649573,0
                99.9705548050001,13.803693792,0
                99.9704602310001,13.8037718900001,0
                99.9703343900001,13.8038758110001,0
                99.9702537860001,13.8039302350001,0
                99.970201343,13.8039656440001,0
                99.970060807,13.8040508500001,0
                99.969873066,13.804164682,0
                99.9694376900001,13.8044022600001,0
                99.96917276,13.8045938920001,0
                99.9689250280001,13.8048164370001,0
                99.9687866850001,13.8049646900001,0
                99.9687261500001,13.805062607,0
                99.968689973,13.8051580480001,0
                99.9686756610001,13.805234338,0
                99.9686638490001,13.8053249180001,0
                99.9686743060001,13.8054964140001,0
                99.968691773,13.8055940240001,0
                99.9687215010001,13.8057082610001,0
                99.9687806530001,13.805865265,0
                99.968878841,13.8060292660001,0
                99.9689735540001,13.806162117,0
                99.96904313,13.8062597100001,0
                99.969083164,13.8063474480001,0
                99.9692910910001,13.8068030900001,0
                99.9693568470001,13.806939728,0
                99.969626712,13.8073805930001,0
                99.9696906460001,13.8074850360001,0
                99.969717642,13.807529142,0
                99.9697837450001,13.8076138700001,0
                99.969822847,13.807645332,0
                99.969883145,13.80768887,0
                99.9700811550001,13.807796361,0
                99.9704154560001,13.807977844,0
                99.970505857,13.808042566,0
                99.970567927,13.8081019740001,0
                99.970610009,13.8081498080001,0
                99.970642007,13.8082235360001,0
                99.970656966,13.8083044790001,0
                99.9706547550001,13.808359286,0
                99.9706501540001,13.808426008,0
                99.970623657,13.8085023520001,0
                99.970592186,13.8085548880001,0
                99.9705290380001,13.808612313,0
                99.9704220020001,13.8086675330001,0
                99.9703942500001,13.8086813840001,0
                99.970200617,13.8087780000001,0
                99.9700304140001,13.808885877,0
                99.969889498,13.8090007930001,0
                99.9698069550001,13.8090845020001,0
                99.9697536210001,13.8091561850001,0
                99.9697371400001,13.8091887300001,0
                99.9697076790001,13.8092469000001,0
                99.9696957850001,13.809318417,0
                99.9696864300001,13.8094137480001,0
                99.9696917350001,13.809518554,0
                99.9697139740001,13.809589938,0
                99.969765468,13.8096635910001,0
                99.9698683380001,13.8097799220001,0
                99.9699956580001,13.809912834,0
                99.9700324790001,13.809974633,0
                99.9700524250001,13.8100817600001,0
                99.9700552180001,13.810167515,0
                99.970050685,13.8102572190001,0
                99.9700384660001,13.8103000310001,0
                99.9700033060001,13.8103764410001,0
                99.9699684820001,13.8104156270001,0
                99.9699538890001,13.81043049,0
                99.969923457,13.810455156,0
                99.9698615140001,13.8104875220001,0
                99.9698319450001,13.8105005090001,0
                99.9697530540001,13.8105351510001,0
                99.969541269,13.810609841,0
                99.969261395,13.810725301,0
                99.9690546360001,13.81083571,0
                99.968726556,13.811084769,0
                99.968362062,13.811372098,0
                99.9681288410001,13.8115683730001,0
                99.9680250100001,13.811637505,0
                99.9676644840001,13.8118775340001,0
                99.9668402770001,13.812416828,0
                99.9663031170001,13.812807273,0
                99.9661596030001,13.812884078,0
                99.9659892370001,13.812953835,0
                99.9658479540001,13.812980598,0
                99.9657333820001,13.8129834310001,0
                99.965604177,13.812983939,0
                99.9654553930001,13.8129654630001,0
                99.9653504680001,13.812942053,0
                99.965243054,13.812906743,0
                99.9649670910001,13.8127887050001,0
                99.964955709,13.8127833300001,0
                99.964651996,13.81263985,0
                99.9643760960001,13.8125384890001,0
                99.9642382310001,13.812503405,0
                99.964210155,13.81249626,0
                99.9640052380001,13.8124637070001,0
                99.96376625,13.812445584,0
                99.963527314,13.8124393790001,0
                99.9633567280001,13.812454342,0
                99.9631764550001,13.8124860200001,0
                99.9630498720001,13.812531785,0
                99.9629184950001,13.8125966260001,0
                99.962830969,13.812654143,0
                99.9627532690001,13.812730684,0
                99.962697672,13.812845259,0
                99.9626639590001,13.8129478340001,0
                99.9626351750001,13.813062302,0
                99.9626211440001,13.813207688,0
                99.962623508,13.813290544,0
                99.9626239950001,13.813307739,0
                99.9626390130001,13.813402975,0
                99.9626834210001,13.81353145,0
                99.9628152020001,13.8137799580001,0
                99.9628750580001,13.8138928290001,0
                99.963202439,13.8146586820001,0
                99.9632346480001,13.814782436,0
                99.9632474510001,13.814932479,0
                99.963231464,13.815194607,0
                99.9631198600001,13.8159192960001,0
                99.9630826730001,13.8163625720001,0
                99.963077033,13.81661473,0
                99.963076491,13.8166389580001,0
                99.9630865890001,13.816722301,0
                99.963103947,13.8167937040001,0
                99.9631286010001,13.8168603180001,0
                99.963153247,13.8169245450001,0
                99.9631802760001,13.8169768490001,0
                99.9632220140001,13.817048162,0
                99.9632857610001,13.817136061,0
                99.9633669660001,13.817219198,0
                99.9637656100001,13.817627336,0
                99.963834273,13.817724744,0
                99.963868727,13.817803231,0
                99.9638909780001,13.8178793750001,0
                99.9638960610001,13.8179293900001,0
                99.9638962860001,13.817984181,0
                99.9638917510001,13.8180675830001,0
                99.963875128,13.818174857,0
                99.963841404,13.8182726680001,0
                99.963784714,13.8183898930001,0
                99.9637132780001,13.818537619,0
                99.9634642440001,13.8190412880001,0
                99.9634428190001,13.8191141660001,0
                99.9634305870001,13.8191557750001,0
                99.9634139550001,13.8192630460001,0
                99.9634070660001,13.8193655160001,0
                99.9634077520001,13.819532286,0
                99.9634358500001,13.8198028320001,0
                99.963504211,13.820461047,0
                99.9634978160001,13.82068502,0
                99.963472182,13.820840689,0
                99.9634271930001,13.8210159720001,0
                99.9633876660001,13.8211305080001,0
                99.963303647,13.821373984,0
                99.9652548400001,13.821425404,0
                99.9663552920001,13.821454396,0
                99.966591566,13.82146062,0
                99.9688376860001,13.8215333590001,0
                99.9733998410001,13.8216854820001,0
                99.9768776320001,13.8217979240001,0
                99.9798272990001,13.821895958,0
                99.979911562,13.8218956210001,0
                99.9799283450001,13.821879086,0
                99.9799507260001,13.821857036,0
                99.9799617520001,13.8218075830001,0
                99.9799925510001,13.8215842980001,0
                99.9800005870001,13.8214494700001,0
                99.980014522,13.821337026,0
                99.9800338630001,13.8211613830001,0
                99.980143318,13.8205204760001,0
                99.9802667810001,13.8197770890001,0
                99.98035753,13.8191770350001,0
                99.980578263,13.8179170390001,0
                99.9807763890001,13.816706454,0
                99.9809436350001,13.815660747,0
                99.9811180300001,13.8146279490001,0
                99.981141414,13.8144681690001,0
                99.9811767690001,13.8142691260001,0
                99.9812030990001,13.8141487080001,0
                99.9812161070001,13.814079296,0
                99.9812577660001,13.813774285,0
              </coordinates>
                
            </LinearRing>
            
          </outerBoundaryIs>
        
        </Polygon>
        
      <styleUrl>
        #tambonStyle</styleUrl>
    </Placemark>

  </Document>
</kml>