<?xml version="1.0" encoding="UTF-8"?>
<kml xmlns="http://www.opengis.net/kml/2.2">
  <Document id="tambon_doc">
    <name>แงง, ปัว, Nan</name>
    <description>ข้อมูลขอบเขตตำบลแงง อำเภอปัว จังหวัดNan</description>
    
    <!-- Schema สำหรับข้อมูลตำบล -->
    <Schema id="tambon.schema">
      <SimpleField name="ADM3_EN" type="string">
        <displayName>Subdistrict Name (English)</displayName>
      </SimpleField>
      <SimpleField name="ADM3_TH" type="string">
        <displayName>ชื่อตำบล</displayName>
      </SimpleField>
      <SimpleField name="ADM2_EN" type="string">
        <displayName>District Name (English)</displayName>
      </SimpleField>
      <SimpleField name="ADM2_TH" type="string">
        <displayName>ชื่ออำเภอ</displayName>
      </SimpleField>
      <SimpleField name="ADM1_EN" type="string">
        <displayName>Province Name (English)</displayName>
      </SimpleField>
      <SimpleField name="ADM1_TH" type="string">
        <displayName>ชื่อจังหวัด</displayName>
      </SimpleField>
      <SimpleField name="ADM0_EN" type="string">
        <displayName>Country Name (English)</displayName>
      </SimpleField>
      <SimpleField name="ADM0_TH" type="string">
        <displayName>ชื่อประเทศ</displayName>
      </SimpleField>
    </Schema>

    <!-- Style สำหรับตำบล -->
    <Style id="tambonStyle">
      <LineStyle>
        <color>ffff0000</color>
        <width>1.5</width>
      </LineStyle>
      <PolyStyle>
        <color>33ff0000</color>
        <fill>1</fill>
        <outline>1</outline>
      </PolyStyle>
    </Style>

    <Placemark id="Nan.29">
        
        <ExtendedData>
            
          <SchemaData schemaUrl="#tambon.schema">
                
            <SimpleData name="Shape_Leng">
                0.390833381964</SimpleData>
                
            <SimpleData name="Shape_Area">
                0.00370979949972</SimpleData>
                
            <SimpleData name="ADM3_EN">
                Ngaeng</SimpleData>
                
            <SimpleData name="ADM3_TH">
                แงง</SimpleData>
                
            <SimpleData name="ADM3_PCODE">
                TH550502</SimpleData>
                
            <SimpleData name="ADM2_EN">
                Pua</SimpleData>
                
            <SimpleData name="ADM2_TH">
                ปัว</SimpleData>
                
            <SimpleData name="ADM2_PCODE">
                TH5505</SimpleData>
                
            <SimpleData name="ADM1_EN">
                Nan</SimpleData>
                
            <SimpleData name="ADM1_TH">
                น่าน</SimpleData>
                
            <SimpleData name="ADM1_PCODE">
                TH55</SimpleData>
                
            <SimpleData name="ADM0_EN">
                Thailand</SimpleData>
                
            <SimpleData name="ADM0_TH">
                ประเทศไทย</SimpleData>
                
            <SimpleData name="ADM0_PCODE">
                TH</SimpleData>
            
          </SchemaData>
        
        </ExtendedData>
        
        <Polygon>
            
          <outerBoundaryIs>
                
            <LinearRing>
                    
              <coordinates>
                    
                100.875180265,19.235694844,0
                100.875176958,19.2354346500001,0
                100.875206806,19.2353273730001,0
                100.875205801,19.2352388580001,0
                100.875173984,19.235172791,0
                100.875119163,19.235132778,0
                100.875017875,19.235104307,0
                100.874815712,19.235084246,0
                100.874648707,19.2350822710001,0
                100.874427513,19.2350956020001,0
                100.874264346,19.2350898930001,0
                100.874081351,19.2350475060001,0
                100.873997137,19.2350142390001,0
                100.873917514,19.234982786,0
                100.873780735,19.2349067280001,0
                100.873608301,19.234768327,0
                100.873337536,19.234520279,0
                100.87315633,19.234293442,0
                100.873002684,19.2340995170001,0
                100.872951162,19.2340078330001,0
                100.872914834,19.2338864810001,0
                100.872901554,19.233742761,0
                100.872920962,19.2333995270001,0
                100.872912068,19.233300027,0
                100.872875992,19.233200804,0
                100.872805015,19.233105629,0
                100.872679552,19.2329999410001,0
                100.872432591,19.2327959080001,0
                100.872381404,19.2327337290001,0
                100.872349547,19.2326639720001,0
                100.872344701,19.2325791820001,0
                100.872366494,19.232446173,0
                100.872392208,19.23231681,0
                100.872398723,19.2322060860001,0
                100.872362563,19.2320994840001,0
                100.872295216,19.231982139,0
                100.872149296,19.231784448,0
                100.872074352,19.2316819370001,0
                100.872034439,19.2315864400001,0
                100.872025081,19.231446374,0
                100.872050424,19.231283816,0
                100.872136884,19.231032108,0
                100.87225247,19.2307805670001,0
                100.872441536,19.230501987,0
                100.872630565,19.2302206470001,0
                100.872716704,19.2301118720001,0
                100.872767927,19.230006228,0
                100.872823787,19.229795407,0
                100.87288027,19.229639907,0
                100.872931279,19.2295148970001,0
                100.873011561,19.2294034180001,0
                100.873195705,19.229205119,0
                100.873330939,19.229059879,0
                100.873359434,19.2290042610001,0
                100.873381947,19.2289348690001,0
                100.873386924,19.2288601230001,0
                100.8733614,19.2286639700001,0
                100.873345801,19.2285728360001,0
                100.873350653,19.2284870300001,0
                100.873370037,19.228398306,0
                100.873465878,19.228117915,0
                100.873496121,19.2279599180001,0
                100.873503883,19.227874082,0
                100.873494302,19.227799486,0
                100.873470032,19.227713973,0
                100.873436934,19.2276202530001,0
                100.873359184,19.227441234,0
                100.873329027,19.2273502480001,0
                100.873313496,19.227264646,0
                100.873315496,19.227184402,0
                100.873331558,19.2270597450001,0
                100.873325044,19.226998952,0
                100.873304034,19.22694384,0
                100.873256467,19.226858566,0
                100.873123797,19.2267160710001,0
                100.873003151,19.226606648,0
                100.872929598,19.226541003,0
                100.872823919,19.2264673930001,0
                100.872695131,19.2264106150001,0
                100.872584098,19.226378552,0
                100.872470343,19.2263631160001,0
                100.872306861,19.2263288250001,0
                100.872227895,19.2262992020001,0
                100.872166147,19.226247271,0
                100.872133207,19.22616738,0
                100.872123434,19.2260761910001,0
                100.872107998,19.225998889,0
                100.872095037,19.225978028,0
                100.872051636,19.2259081710001,0
                100.871939757,19.225801426,0
                100.871781195,19.225686856,0
                100.871725617,19.225665292,0
                100.871661487,19.2256604140001,0
                100.87163261,19.2256734380001,0
                100.87162382,19.2256773980001,0
                100.871597989,19.225710861,0
                100.871563952,19.225791433,0
                100.871530265,19.225902435,0
                100.871507218,19.2259248030001,0
                100.871460749,19.225936344,0
                100.871414129,19.2259340520001,0
                100.871367159,19.225901337,0
                100.871334626,19.2258574050001,0
                100.871302094,19.225813477,0
                100.871240566,19.2257809070001,0
                100.871103139,19.225732513,0
                100.870848949,19.2256604200001,0
                100.870568517,19.225585826,0
                100.870425392,19.225548556,0
                100.870288404,19.2255388890001,0
                100.870078834,19.2255493270001,0
                100.869846034,19.22556554,0
                100.869752851,19.2255664910001,0
                100.869633111,19.225537284,0
                100.869557056,19.225507626,0
                100.869506989,19.2254583440001,0
                100.869497781,19.225416941,0
                100.86950896,19.2253753310001,0
                100.869543593,19.2253473120001,0
                100.869601674,19.225332888,0
                100.869802478,19.225319772,0
                100.869907122,19.225302104,0
                100.869973786,19.225273757,0
                100.870031648,19.2252399720001,0
                100.870117786,19.225131199,0
                100.870131691,19.225072961,0
                100.870122358,19.225020494,0
                100.870078146,19.2249739170001,0
                100.869972438,19.2248975370001,0
                100.869916421,19.2248372490001,0
                100.86989535,19.2247766,0
                100.869909157,19.2247100660001,0
                100.869940598,19.224657182,0
                100.870007256,19.224628841,0
                100.87008585,19.2246252690001,0
                100.870220178,19.224657096,0
                100.870413088,19.224718754,0
                100.870480252,19.224734663,0
                100.870532634,19.224731364,0
                100.870575938,19.2246977230001,0
                100.870604495,19.224647637,0
                100.870615517,19.224592194,0
                100.870600145,19.224520425,0
                100.870540744,19.224418675,0
                100.870455043,19.2243088930001,0
                100.870372256,19.2241990810001,0
                100.87035131,19.2241494960001,0
                100.87034486,19.224094236,0
                100.870355569,19.224011134,0
                100.870386504,19.22391399,0
                100.870441493,19.2238011900001,0
                100.870471889,19.2237388360001,0
                100.87050004,19.223652788,0
                100.870504956,19.2235725090001,0
                100.870483071,19.223439947,0
                100.87045106,19.22324839,0
                100.870442456,19.223196913,0
                100.870426739,19.223094718,0
                100.870431781,19.2230255050001,0
                100.870448564,19.222964473,0
                100.870477215,19.2229226850001,0
                100.87052055,19.222891808,0
                100.870562557,19.222885669,0
                100.870581607,19.222882886,0
                100.870616203,19.222852103,0
                100.870638905,19.222799309,0
                100.870641188,19.2227439540001,0
                100.870619599,19.2227000950001,0
                100.870611383,19.2226833990001,0
                100.870584546,19.222628346,0
                100.870551983,19.2225816500001,0
                100.870539928,19.22254581,0
                100.8705512,19.222512496,0
                100.870585832,19.222484477,0
                100.870623499,19.2224674920001,0
                100.870640752,19.222447953,0
                100.870646107,19.222406402,0
                100.870636742,19.2223511710001,0
                100.870612417,19.222260125,0
                100.870594193,19.2221939180001,0
                100.870596476,19.222138563,0
                100.870613291,19.2220802960001,0
                100.870653403,19.222021791,0
                100.870728329,19.2219518680001,0
                100.870830822,19.2218502220001,0
                100.870860807,19.2218204930001,0
                100.870906707,19.22175916,0
                100.87092653,19.2217091640001,0
                100.870928938,19.2216648740001,0
                100.870905047,19.221612556,0
                100.870866193,19.221553213,0
                100.870854667,19.221535612,0
                100.870822073,19.2214861460001,0
                100.870791951,19.221397929,0
                100.870787945,19.2213011470001,0
                100.870809363,19.221134943,0
                100.87083416,19.2210101970001,0
                100.870876429,19.220885277,0
                100.870904454,19.2207881680001,0
                100.870903953,19.220743908,0
                100.870889014,19.220710862,0
                100.870850847,19.2206835900001,0
                100.870780587,19.2206511090001,0
                100.87067823,19.220613427,0
                100.870642977,19.220586122,0
                100.870616265,19.2205421300001,0
                100.870604058,19.220492461,0
                100.87061414,19.2204187020001,0
                100.870655979,19.220255745,0
                100.870687998,19.220189716,0
                100.870734843,19.2201477420001,0
                100.870825528,19.2201191500001,0
                100.870970969,19.2201038330001,0
                100.871080279,19.2201130870001,0
                100.871193314,19.2201292230001,0
                100.871332205,19.2201796300001,0
                100.871456322,19.2202095330001,0
                100.871580235,19.220222097,0
                100.871711151,19.220210384,0
                100.871816551,19.2201954760001,0
                100.871936082,19.2201423830001,0
                100.872036977,19.220051445,0
                100.872216192,19.2198040910001,0
                100.872298653,19.21969259,0
                100.872381549,19.2196191260001,0
                100.872493483,19.2195384450001,0
                100.872667176,19.219446761,0
                100.87286643,19.219361732,0
                100.873025996,19.219308229,0
                100.873207359,19.219251043,0
                100.873403089,19.2191764240001,0
                100.873609465,19.2190774860001,0
                100.873772197,19.218982458,0
                100.873894853,19.2188843760001,0
                100.873966514,19.21878336,0
                100.874015981,19.21865145,0
                100.874050288,19.2185005490001,0
                100.874085329,19.218346433,0
                100.874101294,19.2181491600001,0
                100.874098197,19.2178760090001,0
                100.874088526,19.2176651670001,0
                100.874064647,19.2174855920001,0
                100.87403044,19.2173579940001,0
                100.873981945,19.217254752,0
                100.873918735,19.2171378260001,0
                100.873851536,19.216989814,0
                100.873828441,19.2168793930001,0
                100.873842019,19.2167928060001,0
                100.873881079,19.2167059550001,0
                100.873938451,19.2166292910001,0
                100.874096525,19.2164443990001,0
                100.874355181,19.2161409,0
                100.874451848,19.215998132,0
                100.874505068,19.215876559,0
                100.874568939,19.2157306660001,0
                100.874615317,19.2156472,0
                100.874683727,19.2155807980001,0
                100.874806341,19.215479256,0
                100.874910796,19.2153813640001,0
                100.874982376,19.215273433,0
                100.875021274,19.215172753,0
                100.875034346,19.215041211,0
                100.874998683,19.214785684,0
                100.874939302,19.2143644110001,0
                100.874897228,19.214185022,0
                100.874863649,19.214112748,0
                100.874804587,19.2140407310001,0
                100.874716215,19.213951728,0
                100.874638685,19.2138556990001,0
                100.874553518,19.2137286220001,0
                100.874504911,19.2136150010001,0
                100.874489095,19.2135045050001,0
                100.874506039,19.213393679,0
                100.874548265,19.2132652980001,0
                100.87461241,19.213143609,0
                100.874709349,19.2130250440001,0
                100.874846166,19.21289224,0
                100.874979111,19.2127387260001,0
                100.875036207,19.212637859,0
                100.8750609,19.2125684440001,0
                100.875070644,19.2124646020001,0
                100.875076158,19.2123089360001,0
                100.875089465,19.212198142,0
                100.875132161,19.212111253,0
                100.875168048,19.2120659340001,0
                100.875204278,19.2120411550001,0
                100.875265575,19.2119992300001,0
                100.875355897,19.2119395190001,0
                100.875435029,19.211855717,0
                100.875509857,19.211713172,0
                100.875623582,19.211469946,0
                100.875748693,19.2112681,0
                100.875842068,19.211156487,0
                100.875946602,19.211065504,0
                100.876076531,19.210967351,0
                100.876217379,19.210869082,0
                100.876376087,19.2107768720001,0
                100.876478003,19.2107363150001,0
                100.876535136,19.210696221,0
                100.876575927,19.2106258960001,0
                100.876603752,19.2105405140001,0
                100.876618438,19.2104248680001,0
                100.876619879,19.21026985,0
                100.876608867,19.210145352,0
                100.876575773,19.210048435,0
                100.876529956,19.2099577270001,0
                100.87640254,19.209725006,0
                100.876343551,19.2096010000001,0
                100.876316684,19.20948882,0
                100.876296143,19.209370499,0
                100.876297377,19.2091972440001,0
                100.876283584,19.2091092480001,0
                100.876250905,19.2090487950001,0
                100.876205669,19.2090097500001,0
                100.876150943,19.208979916,0
                100.876077267,19.208971551,0
                100.875997295,19.20897237,0
                100.875917426,19.208982307,0
                100.875732305,19.209020675,0
                100.875668326,19.20902133,0
                100.875623405,19.2090096310001,0
                100.875587975,19.208988719,0
                100.875571534,19.208949374,0
                100.875564481,19.2088917030001,0
                100.875588452,19.2087486090001,0
                100.875639765,19.2084775880001,0
                100.875650805,19.208322471,0
                100.87563687,19.208222318,0
                100.875597487,19.208134579,0
                100.875516619,19.2080563850001,0
                100.875268308,19.2078826480001,0
                100.8752261,19.2078283720001,0
                100.875209487,19.207773839,0
                100.875211928,19.207706946,0
                100.875245911,19.207600223,0
                100.87533998,19.2074321010001,0
                100.875355352,19.2073772360001,0
                100.875354766,19.207325574,0
                100.875334989,19.207274108,0
                100.875286456,19.2072259770001,0
                100.875218692,19.207175002,0
                100.875119951,19.207110491,0
                100.875044647,19.207061288,0
                100.874979911,19.2069950870001,0
                100.874937673,19.2069377720001,0
                100.874914456,19.206865067,0
                100.874919851,19.2067768750001,0
                100.874941243,19.2066885140001,0
                100.874973605,19.2065617530001,0
                100.874990258,19.20649654,0
                100.875001914,19.20639612,0
                100.875000467,19.2062684840001,0
                100.874982752,19.206116701,0
                100.87497821,19.2059982170001,0
                100.874992858,19.2058795360001,0
                100.87504456,19.205736664,0
                100.875161778,19.205540952,0
                100.875363882,19.2053078970001,0
                100.875556656,19.205129646,0
                100.875781919,19.204932828,0
                100.875888561,19.20480746,0
                100.875983521,19.204655202,0
                100.876016291,19.2045359970001,0
                100.876003143,19.204379438,0
                100.875950002,19.204207078,0
                100.875862984,19.2040566810001,0
                100.875725096,19.2039338160001,0
                100.875461239,19.203736602,0
                100.87535747,19.2036133870001,0
                100.875304882,19.2034896540001,0
                100.875274668,19.203333269,0
                100.875283594,19.203117052,0
                100.875325843,19.2028302520001,0
                100.875335254,19.2026572520001,0
                100.875316299,19.202489948,0
                100.875257286,19.202301441,0
                100.875152354,19.2020755790001,0
                100.875024738,19.2018553520001,0
                100.874961309,19.201735695,0
                100.874892339,19.2016389,0
                100.874821053,19.2015609370001,0
                100.874712587,19.2014912270001,0
                100.874458701,19.201379724,0
                100.874167279,19.201244999,0
                100.873817573,19.2010833250001,0
                100.873384473,19.2008713550001,0
                100.873054981,19.2006661930001,0
                100.872458207,19.200263105,0
                100.872240392,19.2000449980001,0
                100.87216434,19.1999119990001,0
                100.872129791,19.19978645,0
                100.872111137,19.199601721,0
                100.872125741,19.199428455,0
                100.872127389,19.1992081060001,0
                100.872100988,19.1990706660001,0
                100.872065678,19.1988782390001,0
                100.871988563,19.1986508270001,0
                100.871927565,19.198383903,0
                100.871896263,19.198179628,0
                100.871898356,19.1979986210001,0
                100.871941503,19.197785717,0
                100.872013678,19.197576456,0
                100.872094672,19.1974143140001,0
                100.872195923,19.1972126200001,0
                100.872223393,19.1970785680001,0
                100.872230116,19.19694079,0
                100.872198151,19.196677504,0
                100.872164708,19.19646686,0
                100.872163574,19.1963665430001,0
                100.872150246,19.196287007,0
                100.872124102,19.196172189,0
                100.872097924,19.196054422,0
                100.872096623,19.195939351,0
                100.872088674,19.195785986,0
                100.872081026,19.195659177,0
                100.872055116,19.195565016,0
                100.872013608,19.1954651080001,0
                100.871947325,19.19537136,0
                100.871856062,19.1952660600001,0
                100.871814955,19.1952015590001,0
                100.871801867,19.1951426750001,0
                100.871816624,19.195074655,0
                100.871853292,19.195021167,0
                100.871923886,19.1949466720001,0
                100.872046338,19.194789026,0
                100.872134731,19.194640581,0
                100.87217714,19.1945457190001,0
                100.87222239,19.194427223,0
                100.872267102,19.1942615180001,0
                100.872293384,19.194113707,0
                100.872301299,19.193989688,0
                100.872293751,19.1938717310001,0
                100.8723022,19.1937949220001,0
                100.872329317,19.193720876,0
                100.872409127,19.193637434,0
                100.872485961,19.1935658300001,0
                100.872544533,19.19352687,0
                100.872649819,19.193499236,0
                100.872770735,19.193480299,0
                100.872860829,19.1934823290001,0
                100.872938598,19.1934933370001,0
                100.873037976,19.1934923220001,0
                100.873140358,19.193482423,0
                100.873329297,19.1934362320001,0
                100.873456421,19.193417228,0
                100.873484205,19.1934021870001,0
                100.873499529,19.1933843250001,0
                100.873505308,19.193345908,0
                100.873489043,19.193281154,0
                100.873488509,19.193233945,0
                100.87350978,19.193192417,0
                100.873546714,19.193162531,0
                100.87359934,19.1931472370001,0
                100.873645724,19.1931290570001,0
                100.873679516,19.1930962530001,0
                100.873703823,19.19304879,0
                100.873752744,19.19298042,0
                100.873820466,19.192926615,0
                100.873922079,19.192848853,0
                100.874004958,19.1927624300001,0
                100.874060058,19.192691048,0
                100.874111748,19.192593141,0
                100.874129581,19.1925221390001,0
                100.874135154,19.192466015,0
                100.874125236,19.1924129980001,0
                100.87411304,19.1923830810001,0
                100.873851187,19.192187969,0
                100.873564476,19.191965156,0
                100.8735197,19.191919139,0
                100.873495881,19.191872904,0
                100.873478926,19.1918155380001,0
                100.873461319,19.191700633,0
                100.873412185,19.1912695730001,0
                100.873368331,19.1908937860001,0
                100.873337255,19.190617456,0
                100.873313362,19.1903587630001,0
                100.873287015,19.190294852,0
                100.873258689,19.1902619430001,0
                100.873202417,19.190229319,0
                100.873134475,19.190194605,0
                100.873106199,19.1901661220001,0
                100.873094177,19.190133046,0
                100.873093651,19.190086577,0
                100.873104872,19.1900488370001,0
                100.873134821,19.1900197640001,0
                100.873190497,19.189999276,0
                100.873768848,19.1898528300001,0
                100.874413245,19.1897105050001,0
                100.874847075,19.1896234490001,0
                100.87503377,19.1896050990001,0
                100.875182125,19.1895905150001,0
                100.875474106,19.189593428,0
                100.875753862,19.1896141770001,0
                100.875987039,19.1896353970001,0
                100.876061435,19.189622833,0
                100.876098334,19.189589998,0
                100.87612264,19.1895425340001,0
                100.876137066,19.1894450080001,0
                100.876119631,19.1892769890001,0
                100.87605725,19.1889795880001,0
                100.875982582,19.188694119,0
                100.875901339,19.188376256,0
                100.875871884,19.188243766,0
                100.875864669,19.1881553150001,0
                100.875885374,19.1880636280001,0
                100.875930315,19.187918575,0
                100.875989983,19.1877025520001,0
                100.876001501,19.187622762,0
                100.875991382,19.1875520460001,0
                100.875965638,19.187472632,0
                100.875845562,19.1872909100001,0
                100.875696182,19.187081285,0
                100.875557469,19.1868997490001,0
                100.875504043,19.1868442320001,0
                100.875453544,19.1868208810001,0
                100.875107594,19.1867874750001,0
                100.874962406,19.18676535,0
                100.874829331,19.186715561,0
                100.874754447,19.186684853,0
                100.874650621,19.1866583710001,0
                100.874559532,19.1866593020001,0
                100.874447738,19.186660444,0
                100.874343956,19.1866379000001,0
                100.874264843,19.186599362,0
                100.874135993,19.186557398,0
                100.87402407,19.1865467390001,0
                100.873920779,19.1865674700001,0
                100.873722298,19.1865931020001,0
                100.873552496,19.186590903,0
                100.873340972,19.186561585,0
                100.873087467,19.186481552,0
                100.87292492,19.186428477,0
                100.872767265,19.186362853,0
                100.872654625,19.1862892450001,0
                100.872611746,19.186191771,0
                100.872586728,19.186091526,0
                100.872498423,19.1860917770001,0
                100.872434402,19.186073284,0
                100.872363417,19.1860325260001,0
                100.872278643,19.1859600060001,0
                100.872160965,19.1858489950001,0
                100.87202511,19.185714239,0
                100.87184434,19.1855671770001,0
                100.871709256,19.1855004870001,0
                100.871538638,19.185459683,0
                100.871341304,19.1854319130001,0
                100.871090344,19.1854132030001,0
                100.870364508,19.185373806,0
                100.869611763,19.1853304260001,0
                100.869069203,19.185263627,0
                100.868808899,19.185210974,0
                100.86858851,19.185123876,0
                100.868385739,19.185011069,0
                100.868222787,19.184855316,0
                100.86810884,19.18467779,0
                100.868044382,19.1845210290001,0
                100.868002073,19.184342773,0
                100.867995532,19.1841598980001,0
                100.868015473,19.1839427190001,0
                100.868058373,19.18377636,0
                100.868132564,19.183605422,0
                100.868260385,19.1834254340001,0
                100.868433029,19.183249244,0
                100.868592524,19.1830987120001,0
                100.868645242,19.1830088310001,0
                100.868657667,19.1829193610001,0
                100.868642938,19.1828046430001,0
                100.868583203,19.1826691090001,0
                100.868446918,19.1824960650001,0
                100.868257007,19.1823320730001,0
                100.868126212,19.182248316,0
                100.868000375,19.1822070530001,0
                100.867870295,19.1821871080001,0
                100.867744889,19.1821841290001,0
                100.867503316,19.1822036040001,0
                100.867359952,19.182196558,0
                100.867211823,19.1821640260001,0
                100.867036545,19.1821062510001,0
                100.866915325,19.1820777,0
                100.866754008,19.1820665820001,0
                100.866584018,19.182081071,0
                100.866374075,19.182125752,0
                100.866177848,19.1821958210001,0
                100.865968524,19.182295804,0
                100.865621563,19.1824992900001,0
                100.865310652,19.1827236830001,0
                100.865142247,19.182878557,0
                100.865023086,19.1830329310001,0
                100.864864594,19.1832727890001,0
                100.864741817,19.183503778,0
                100.864606521,19.1838157280001,0
                100.864441419,19.184264129,0
                100.864340502,19.184448096,0
                100.864194383,19.184594229,0
                100.863980868,19.1847197820001,0
                100.863798113,19.1847939630001,0
                100.863557066,19.1848602310001,0
                100.863306676,19.184892554,0
                100.862939834,19.184921805,0
                100.862676011,19.1849542680001,0
                100.862407954,19.185008044,0
                100.862162424,19.185074351,0
                100.861934948,19.185153239,0
                100.86173419,19.185219095,0
                100.861564339,19.1852463490001,0
                100.861389825,19.185256625,0
                100.861210594,19.1852456830001,0
                100.861017595,19.1852050970001,0
                100.860824118,19.1851219660001,0
                100.860639167,19.185000464,0
                100.860453929,19.184853435,0
                100.860313654,19.1847229700001,0
                100.860227246,19.1846047230001,0
                100.860149415,19.184452349,0
                100.860103544,19.1843549650001,0
                100.860084296,19.1842360320001,0
                100.860096247,19.184104023,0
                100.860173204,19.183779902,0
                100.860280405,19.183357626,0
                100.860296165,19.1831660140001,0
                100.860286015,19.1830597530001,0
                100.860240049,19.182953856,0
                100.860158597,19.1828781030001,0
                100.860068481,19.182827963,0
                100.859947266,19.1827994120001,0
                100.859790516,19.1827967460001,0
                100.859665396,19.1828192890001,0
                100.859571853,19.182862782,0
                100.859487553,19.182931705,0
                100.859399342,19.1830517230001,0
                100.859280706,19.183252887,0
                100.859123489,19.1836076010001,0
                100.858822062,19.184278611,0
                100.858708995,19.1845775680001,0
                100.858596266,19.1849063060001,0
                100.85854464,19.1850940260001,0
                100.858519492,19.185247439,0
                100.858498752,19.18543987,0
                100.858495161,19.185473173,0
                100.858478062,19.1855456750001,0
                100.858429481,19.1856057260001,0
                100.858362612,19.185631933,0
                100.858281875,19.1856199860001,0
                100.858203101,19.1855830280001,0
                100.857980482,19.185415877,0
                100.857909574,19.185362642,0
                100.8577512,19.185215338,0
                100.857541385,19.1849728280001,0
                100.857286083,19.1846669650001,0
                100.857075912,19.184392551,0
                100.856747082,19.184018296,0
                100.856422299,19.1835057280001,0
                100.856256306,19.183177684,0
                100.856158243,19.1829180890001,0
                100.85611633,19.1826738830001,0
                100.856080305,19.1824562040001,0
                100.856044999,19.1823023370001,0
                100.855959264,19.182143663,0
                100.855573046,19.181642348,0
                100.855498863,19.181515464,0
                100.855452722,19.1813936140001,0
                100.855428552,19.1812343170001,0
                100.855436172,19.180915154,0
                100.855456411,19.180723497,0
                100.855493502,19.1805369900001,0
                100.855553036,19.1803555720001,0
                100.85589685,19.179570331,0
                100.856191249,19.178870682,0
                100.856440752,19.17816085,0
                100.856526717,19.177840894,0
                100.856573868,19.177553243,0
                100.856581129,19.177202176,0
                100.856526589,19.1768304600001,0
                100.856391975,19.1763053290001,0
                100.856305652,19.1760934800001,0
                100.856220158,19.1759560740001,0
                100.856089955,19.175824436,0
                100.855909566,19.175709264,0
                100.855650888,19.1756002000001,0
                100.855139849,19.175445821,0
                100.85453909,19.175276399,0
                100.854016795,19.175116814,0
                100.853578208,19.1749351080001,0
                100.853099798,19.1746953090001,0
                100.852457073,19.174276347,0
                100.852068739,19.174083497,0
                100.851748389,19.173964412,0
                100.851450783,19.173877009,0
                100.851075422,19.1738435670001,0
                100.850644514,19.173847913,0
                100.850108056,19.1739224570001,0
                100.849895993,19.1739777770001,0
                100.849717866,19.174064661,0
                100.849540095,19.17418345,0
                100.849423287,19.174248446,0
                100.849283736,19.17428176,0
                100.849031908,19.174284297,0
                100.84855022,19.1742519260001,0
                100.848225582,19.174249875,0
                100.84797411,19.174284314,0
                100.847829142,19.17433364,0
                100.847706734,19.1743986870001,0
                100.847601356,19.174484842,0
                100.847491091,19.1746348560001,0
                100.847364931,19.1748648080001,0
                100.8472218,19.1750789720001,0
                100.847088435,19.175165404,0
                100.846915193,19.1751884220001,0
                100.84675826,19.175168727,0
                100.846634666,19.1751274260001,0
                100.846538525,19.1750379870001,0
                100.846464411,19.174916415,0
                100.846389112,19.174688491,0
                100.846296611,19.174423516,0
                100.846027606,19.1738890940001,0
                100.845638891,19.1731591010001,0
                100.845400063,19.1728211400001,0
                100.845258499,19.1726736590001,0
                100.845140032,19.1725897600001,0
                100.845005133,19.172537934,0
                100.844775394,19.1725136530001,0
                100.844546014,19.1725212740001,0
                100.844283528,19.1725717780001,0
                100.844043896,19.172664592,0
                100.84375467,19.172827044,0
                100.843582613,19.172956406,0
                100.843449958,19.173106643,0
                100.843290212,19.1733369300001,0
                100.842910524,19.173920421,0
                100.842508209,19.174482864,0
                100.84213275,19.1749439930001,0
                100.841939898,19.175217151,0
                100.841824677,19.1754257150001,0
                100.841732144,19.1756606430001,0
                100.841611629,19.1758958510001,0
                100.841457059,19.176088856,0
                100.841213127,19.1762987070001,0
                100.840907399,19.176487912,0
                100.840589827,19.1766187320001,0
                100.840271723,19.1767016950001,0
                100.839981251,19.1767524690001,0
                100.839612304,19.176793397,0
                100.839383272,19.176832921,0
                100.83910416,19.176899533,0
                100.838735808,19.176993635,0
                100.838562498,19.1770113260001,0
                100.838316087,19.1769978410001,0
                100.837996506,19.17694786,0
                100.837800455,19.176933869,0
                100.837626968,19.1769356070001,0
                100.837431452,19.1769694720001,0
                100.837169192,19.1770412340001,0
                100.83695176,19.177117863,0
                100.836857155,19.1771666760001,0
                100.836779629,19.1772419050001,0
                100.836724903,19.1773541330001,0
                100.836698458,19.17749267,0
                100.836694687,19.1776575710001,0
                100.836703764,19.1779712530001,0
                100.836707891,19.178343478,0
                100.836650159,19.178689736,0
                100.836547956,19.1790630300001,0
                100.836449932,19.1793086480001,0
                100.836329053,19.1795119450001,0
                100.836074504,19.179775083,0
                100.835747205,19.1800389480001,0
                100.835591387,19.180120276,0
                100.835435039,19.180153752,0
                100.835323114,19.1801548720001,0
                100.835188383,19.180118991,0
                100.835092598,19.18006145,0
                100.835046884,19.1799768170001,0
                100.835017782,19.17987606,0
                100.834994099,19.1797593000001,0
                100.834948444,19.179679983,0
                100.834858018,19.179601114,0
                100.834610538,19.1794919070001,0
                100.834442177,19.1794510460001,0
                100.834352576,19.179446625,0
                100.834285711,19.179473885,0
                100.834241411,19.1795168730001,0
                100.834175493,19.1796292130001,0
                100.83403929,19.1799656170001,0
                100.834001467,19.180088314,0
                100.833991809,19.1802266820001,0
                100.833993575,19.180386207,0
                100.834026616,19.180843238,0
                100.834088764,19.181401022,0
                100.83417336,19.1819639020001,0
                100.834192799,19.182203024,0
                100.834171706,19.1823202370001,0
                100.834139247,19.1824216050001,0
                100.834083988,19.1824859720001,0
                100.833978067,19.18252426,0
                100.833860776,19.182546707,0
                100.83375462,19.1825637220001,0
                100.833637505,19.1826021160001,0
                100.833459237,19.1826783550001,0
                100.8331866,19.182824668,0
                100.833075138,19.1828683270001,0
                100.832883834,19.182904142,0
                100.832457536,19.1829482860001,0
                100.831873863,19.1830172210001,0
                100.831842652,19.183020906,0
                100.831367536,19.1830788280001,0
                100.830883881,19.183137168,0
                100.830176612,19.183238954,0
                100.829689708,19.183338544,0
                100.829485745,19.183400405,0
                100.829339552,19.183466681,0
                100.829151988,19.18358821,0
                100.828912731,19.1837800530001,0
                100.828616578,19.184047251,0
                100.828346058,19.1842593480001,0
                100.827933815,19.1844678750001,0
                100.827400841,19.184672617,0
                100.827097131,19.184730487,0
                100.826793035,19.184753458,0
                100.826451935,19.184751867,0
                100.826115423,19.184690404,0
                100.825815087,19.184578717,0
                100.825566839,19.1844316190001,0
                100.825323175,19.184224638,0
                100.825147889,19.1840319360001,0
                100.825020977,19.1839434560001,0
                100.824831211,19.18386557,0
                100.824573404,19.183803321,0
                100.824089765,19.1837233700001,0
                100.823133419,19.183603245,0
                100.822476638,19.183525015,0
                100.822271903,19.1835170750001,0
                100.822135759,19.1835433570001,0
                100.822005027,19.183584544,0
                100.821874734,19.1836656080001,0
                100.821697768,19.1837969970001,0
                100.821593435,19.183852878,0
                100.821457076,19.1838592190001,0
                100.821288846,19.1838309730001,0
                100.820873086,19.1837204280001,0
                100.8202991,19.1835366610001,0
                100.819962318,19.18345026,0
                100.819557219,19.183354562,0
                100.8193938,19.1832863820001,0
                100.819229838,19.183168349,0
                100.81906516,19.182985505,0
                100.818862553,19.1826933520001,0
                100.818665299,19.1824111190001,0
                100.818324798,19.181985717,0
                100.817904671,19.181476343,0
                100.817797821,19.1813028980001,0
                100.817738081,19.1811190130001,0
                100.817687853,19.18084529,0
                100.817624667,19.180347339,0
                100.817577499,19.1798741530001,0
                100.817511035,19.1795557200001,0
                100.81740845,19.179292489,0
                100.817157588,19.178906082,0
                100.816971662,19.1786985210001,0
                100.816807482,19.178560541,0
                100.816601715,19.1784578790001,0
                100.816349111,19.178390575,0
                100.816033873,19.17835381,0
                100.815451168,19.1783296610001,0
                100.815141396,19.178312783,0
                100.815062368,19.178283649,0
                100.814998805,19.178229437,0
                100.814929508,19.178130406,0
                100.814847441,19.177943623,0
                100.814619336,19.177478459,0
                100.814439055,19.177187325,0
                100.814199276,19.1768531550001,0
                100.813806539,19.1763272960001,0
                100.813519623,19.1758814070001,0
                100.813171434,19.17523046,0
                100.812828374,19.1744485830001,0
                100.812436073,19.1733618120001,0
                100.812320903,19.1730264030001,0
                100.812278962,19.172789992,0
                100.812262373,19.17247231,0
                100.81227133,19.1720920550001,0
                100.812323267,19.171443384,0
                100.812332501,19.171088055,0
                100.812283252,19.1707831580001,0
                100.812214948,19.1705345400001,0
                100.81210128,19.170336229,0
                100.811862125,19.17005814,0
                100.811629938,19.1698173730001,0
                100.811290985,19.1694093880001,0
                100.811096721,19.169037367,0
                100.810914755,19.168590437,0
                100.810844543,19.1681673370001,0
                100.810820377,19.1677562420001,0
                100.810836646,19.167444468,0
                100.810892401,19.1671447680001,0
                100.810981351,19.166882136,0
                100.811116549,19.166650211,0
                100.811382564,19.1663858270001,0
                100.811759719,19.166089189,0
                100.812430137,19.1656213840001,0
                100.812729275,19.1653878390001,0
                100.81285217,19.1652308170001,0
                100.812967687,19.16499908,0
                100.813056024,19.1646803620001,0
                100.813082645,19.164459327,0
                100.813110138,19.164231107,0
                100.813101058,19.1640006000001,0
                100.813052906,19.1637954130001,0
                100.812971828,19.16357808,0
                100.812811988,19.1633553,0
                100.812652218,19.1631387480001,0
                100.812544364,19.162871825,0
                100.812341095,19.16227553,0
                100.812064805,19.16159894,0
                100.811863923,19.16122075,0
                100.811630728,19.160886509,0
                100.811292136,19.1605096820001,0
                100.81104746,19.1603251230001,0
                100.810895683,19.1602393700001,0
                100.810705101,19.160203853,0
                100.810455709,19.160187616,0
                100.810199962,19.1601901380001,0
                100.809950841,19.160198827,0
                100.809734098,19.1601698000001,0
                100.809425141,19.16010429,0
                100.808859622,19.159966519,0
                100.808277787,19.1598436150001,0
                100.808026253,19.1600294630001,0
                100.807829328,19.1601753890001,0
                100.807639971,19.160328527,0
                100.807341173,19.160664271,0
                100.807081752,19.160961811,0
                100.806830538,19.1612819580001,0
                100.806556604,19.16170822,0
                100.806440998,19.161882318,0
                100.806157219,19.162309679,0
                100.8058512,19.162713567,0
                100.805449587,19.1631108290001,0
                100.805118204,19.1633788140001,0
                100.804857709,19.163578031,0
                100.804731934,19.16372298,0
                100.804630526,19.1639130670001,0
                100.804553408,19.164140737,0
                100.804477195,19.1644516000001,0
                100.804363166,19.1649443590001,0
                100.804239071,19.1654268190001,0
                100.804158776,19.1657282680001,0
                100.80406014,19.1659901840001,0
                100.803948766,19.16617848,0
                100.803783788,19.1663786460001,0
                100.803583798,19.166652904,0
                100.803443007,19.1668811980001,0
                100.803352651,19.167095261,0
                100.8032749,19.1673423450001,0
                100.803206644,19.1675646960001,0
                100.803125015,19.1677782300001,0
                100.802987312,19.167981673,0
                100.802871298,19.168121087,0
                100.802688127,19.16826116,0
                100.802443053,19.1683699320001,0
                100.802114039,19.1684795240001,0
                100.801907734,19.1685506860001,0
                100.801740656,19.1686267850001,0
                100.801584945,19.1687187200001,0
                100.801351178,19.168838018,0
                100.801038719,19.168926175,0
                100.800670182,19.1690042440001,0
                100.800413334,19.1690599470001,0
                100.800290567,19.169093059,0
                100.800201664,19.1691524300001,0
                100.800140796,19.1692168480001,0
                100.800113801,19.169307525,0
                100.800086917,19.169408834,0
                100.800031994,19.169505101,0
                100.79995451,19.1695856310001,0
                100.799782245,19.1696990030001,0
                100.799509531,19.169839951,0
                100.799035756,19.1700200990001,0
                100.798539714,19.1702110960001,0
                100.798355734,19.1702767190001,0
                100.798171634,19.1703317060001,0
                100.797870359,19.170419748,0
                100.797691569,19.170448091,0
                100.79748451,19.1704501190001,0
                100.797278828,19.170452133,0
                100.797271851,19.170452201,0
                100.797171353,19.170474456,0
                100.797099006,19.170512393,0
                100.797054871,19.170571325,0
                100.79702227,19.1706620570001,0
                100.79702043,19.170670323,0
                100.797000925,19.170757994,0
                100.796996422,19.170859084,0
                100.797009806,19.1710610440001,0
                100.79701194,19.1712578020001,0
                100.796986668,19.1715080060001,0
                100.796949049,19.1716519660001,0
                100.796888471,19.1717429670001,0
                100.796794029,19.171807712,0
                100.796593484,19.171894766,0
                100.796415096,19.1719603330001,0
                100.796248127,19.172047059,0
                100.796064836,19.172176489,0
                100.795781497,19.1723707190001,0
                100.795542069,19.1724847450001,0
                100.795408968,19.1725977300001,0
                100.795320518,19.1726996400001,0
                100.795254632,19.172817289,0
                100.795189721,19.1730253310001,0
                100.795140681,19.1731481310001,0
                100.795068965,19.173244562,0
                100.794980346,19.17333052,0
                100.794763183,19.173433694,0
                100.794211506,19.1736571330001,0
                100.793910568,19.1737770780001,0
                100.793665652,19.173901788,0
                100.793543455,19.173988078,0
                100.793471853,19.1740951400001,0
                100.793451248,19.174198555,0
                100.793440003,19.1742550010001,0
                100.793442535,19.17448898,0
                100.79343872,19.1746538790001,0
                100.793412177,19.174787097,0
                100.79335754,19.1749099510001,0
                100.793258128,19.175033243,0
                100.793091442,19.175146555,0
                100.792835219,19.175260742,0
                100.792690575,19.1753419250001,0
                100.792568372,19.1754282100001,0
                100.792502369,19.1755352210001,0
                100.792481074,19.175636475,0
                100.792510149,19.175737241,0
                100.792578459,19.175842936,0
                100.792844828,19.1761487910001,0
                100.793054543,19.1763913840001,0
                100.793213834,19.176629147,0
                100.793373928,19.176941361,0
                100.79349901,19.177120959,0
                100.793590049,19.1772583440001,0
                100.793647684,19.1774120100001,0
                100.793727876,19.177581408,0
                100.793841246,19.177713258,0
                100.794305455,19.178197997,0
                100.794553891,19.178397659,0
                100.79471226,19.178550343,0
                100.794786225,19.1786613030001,0
                100.794849806,19.1788468170001,0
                100.794975809,19.1791114960001,0
                100.795118144,19.1793334700001,0
                100.795203357,19.17944964,0
                100.795283589,19.179524316,0
                100.795333403,19.1795706840001,0
                100.795524896,19.179680493,0
                100.795868537,19.179884541,0
                100.796217884,19.1800991710001,0
                100.796499845,19.180293185,0
                100.796686379,19.1804615410001,0
                100.796828141,19.1806303390001,0
                100.796958358,19.1807673390001,0
                100.79708264,19.180872483,0
                100.797285272,19.180976865,0
                100.797415028,19.181071322,0
                100.797533941,19.1811977940001,0
                100.797613681,19.18132465,0
                100.797665665,19.1814730520001,0
                100.797690073,19.1816589490001,0
                100.797692439,19.181876975,0
                100.797665841,19.182004873,0
                100.79760526,19.182095879,0
                100.79752206,19.1821658310001,0
                100.797265998,19.182295976,0
                100.797138314,19.1823929560001,0
                100.797000189,19.18255917,0
                100.796907236,19.182762176,0
                100.796859003,19.1829594220001,0
                100.79684977,19.183140333,0
                100.796841402,19.183401009,0
                100.79683252,19.1836138250001,0
                100.796812266,19.183810797,0
                100.796758548,19.1840187350001,0
                100.796584763,19.1845097140001,0
                100.796480965,19.1847447330001,0
                100.796333138,19.1850493210001,0
                100.796272791,19.185158496,0
                100.796141004,19.1853968890001,0
                100.79604205,19.185562723,0
                100.795954521,19.1857497170001,0
                100.795911477,19.185909688,0
                100.795924229,19.186053154,0
                100.795975982,19.186180284,0
                100.796078108,19.186306921,0
                100.796275724,19.186464535,0
                100.796484482,19.186616719,0
                100.796535831,19.1866566300001,0
                100.796964302,19.186989613,0
                100.797224007,19.1871944800001,0
                100.797413699,19.1873953800001,0
                100.797506454,19.187560665,0
                100.797536237,19.187726567,0
                100.797517199,19.1879062460001,0
                100.797463611,19.188126148,0
                100.79729268,19.1884934510001,0
                100.797203898,19.188693755,0
                100.797177933,19.188880146,0
                100.797180314,19.1890995000001,0
                100.797225103,19.189358327,0
                100.797306462,19.1897630440001,0
                100.79732983,19.1899821910001,0
                100.79732558,19.1902348510001,0
                100.797286631,19.190514437,0
                100.79719251,19.1908676940001,0
                100.797015661,19.1913347720001,0
                100.796612193,19.19219629,0
                100.796468737,19.1925167900001,0
                100.796326217,19.1929236990001,0
                100.7961767,19.1933306770001,0
                100.796041317,19.193750815,0
                100.795919712,19.194150875,0
                100.795813467,19.1946770930001,0
                100.795694673,19.1953363870001,0
                100.795613528,19.195596444,0
                100.795525318,19.1958499250001,0
                100.795375292,19.196210373,0
                100.795149675,19.196697871,0
                100.794950745,19.1970654470001,0
                100.794683288,19.197566651,0
                100.794442668,19.1979612260001,0
                100.79416735,19.198382732,0
                100.793823072,19.1988979810001,0
                100.793514285,19.199459416,0
                100.793426425,19.1997461290001,0
                100.793401465,19.2000255830001,0
                100.793406148,19.2004576420001,0
                100.793381115,19.2007304470001,0
                100.793335021,19.2009968090001,0
                100.793253659,19.201236925,0
                100.793157648,19.201417356,0
                100.793005523,19.2015850380001,0
                100.792665573,19.201854274,0
                100.792394358,19.202009827,0
                100.791937421,19.202281289,0
                100.791768622,19.202381573,0
                100.791553812,19.2025764580001,0
                100.791429887,19.20276381,0
                100.791362369,19.202990492,0
                100.791343971,19.2032299960001,0
                100.791381831,19.203495537,0
                100.791468816,19.2037738920001,0
                100.791576859,19.2040272830001,0
                100.791799086,19.204548459,0
                100.791901004,19.204913091,0
                100.791904172,19.205205563,0
                100.791843863,19.2054521220001,0
                100.791720442,19.205685999,0
                100.791471294,19.2059410520001,0
                100.791186943,19.2061765020001,0
                100.791114417,19.2062665930001,0
                100.791014327,19.2063909170001,0
                100.790939089,19.2065512020001,0
                100.790926748,19.206704223,0
                100.790956176,19.206836889,0
                100.790985872,19.2068890360001,0
                100.791091708,19.2070748840001,0
                100.791282928,19.2072857480001,0
                100.791509346,19.207516205,0
                100.79166551,19.2077207620001,0
                100.791709217,19.2078798790001,0
                100.791689956,19.2080396170001,0
                100.791607576,19.208186674,0
                100.79145494,19.2083078260001,0
                100.791175856,19.2083836800001,0
                100.79066268,19.2084540020001,0
                100.790078853,19.208534001,0
                100.789757856,19.208616911,0
                100.78939553,19.2087600520001,0
                100.789152432,19.2089286200001,0
                100.788951823,19.209143311,0
                100.788765995,19.209430979,0
                100.788671201,19.2097244080001,0
                100.78861197,19.210070672,0
                100.788588142,19.210455645,0
                100.788602727,19.2109956370001,0
                100.788694595,19.2114019160001,0
                100.788856074,19.21177428,0
                100.788987777,19.211981571,0
                100.789151372,19.212225942,0
                100.789216141,19.212391504,0
                100.789260136,19.2125772110001,0
                100.789241663,19.2128100670001,0
                100.789208766,19.2130031730001,0
                100.789176296,19.2132361610001,0
                100.789171384,19.2134289950001,0
                100.789203174,19.213566841,0
                100.789208098,19.213588186,0
                100.789329205,19.2137864380001,0
                100.789500233,19.2140706210001,0
                100.789544588,19.2142895650001,0
                100.789561032,19.2145154300001,0
                100.789521564,19.2147484870001,0
                100.789440618,19.215028487,0
                100.789282635,19.21530259,0
                100.788882763,19.2158582600001,0
                100.788731342,19.2160924140001,0
                100.78859406,19.216339723,0
                100.788429791,19.2166803640001,0
                100.788334994,19.216973792,0
                100.788233989,19.2173404070001,0
                100.78809244,19.217840371,0
                100.787956014,19.2181674460001,0
                100.787866705,19.218321218,0
                100.787762582,19.2184028,0
                100.787686283,19.218462582,0
                100.787372192,19.218538772,0
                100.786889663,19.218570072,0
                100.786246193,19.21860294,0
                100.785931813,19.2186525390001,0
                100.785624719,19.2187286590001,0
                100.785353044,19.218844318,0
                100.785158766,19.2189991120001,0
                100.784992913,19.219193515,0
                100.784765947,19.2195613550001,0
                100.784444533,19.2202558600001,0
                100.784199587,19.220903085,0
                100.783996981,19.2215831340001,0
                100.783938019,19.2219559860001,0
                100.783955174,19.222248323,0
                100.784049225,19.222533261,0
                100.784198541,19.2227511840001,0
                100.784403837,19.2229685610001,0
                100.784636479,19.223125844,0
                100.784959877,19.2232622940001,0
                100.785444288,19.2234038240001,0
                100.786208966,19.2235758590001,0
                100.78665139,19.223717795,0
                100.78707997,19.2238731580001,0
                100.787431717,19.2240425680001,0
                100.787608046,19.2241663020001,0
                100.787805468,19.224304831,0
                100.787953495,19.224403103,0
                100.788115376,19.2244879460001,0
                100.788269826,19.2245329720001,0
                100.78843106,19.2245579890001,0
                100.788809001,19.224560942,0
                100.789047209,19.224585206,0
                100.789369672,19.2246352390001,0
                100.789825672,19.2247371490001,0
                100.790184062,19.2248732480001,0
                100.79058494,19.225055464,0
                100.790888146,19.225265232,0
                100.791079313,19.225469441,0
                100.791165231,19.225648092,0
                100.791202383,19.225847163,0
                100.791204617,19.22605322,0
                100.791152958,19.226452593,0
                100.79107266,19.226792415,0
                100.791047119,19.2270186910001,0
                100.791063062,19.2271980260001,0
                100.791128994,19.227469937,0
                100.791337333,19.227966484,0
                100.791552528,19.2284496660001,0
                100.791631521,19.228635033,0
                100.791647178,19.228787776,0
                100.791620556,19.2289143450001,0
                100.791558727,19.2290213160001,0
                100.791440848,19.229122186,0
                100.791029996,19.2293123420001,0
                100.79088412,19.2294134860001,0
                100.790829366,19.2295270320001,0
                100.790830736,19.229653328,0
                100.790866947,19.2297659880001,0
                100.791009283,19.2299839730001,0
                100.79113755,19.230195445,0
                100.791181337,19.2303612110001,0
                100.791176145,19.2305274550001,0
                100.791135885,19.230687398,0
                100.791060134,19.23080115,0
                100.790900983,19.2309689000001,0
                100.790634528,19.231219991,0
                100.790409109,19.2314324120001,0
                100.790194478,19.2316472380001,0
                100.790118942,19.2317809350001,0
                100.790120311,19.231907225,0
                100.790163598,19.232026462,0
                100.790304995,19.232158037,0
                100.790609507,19.2324874450001,0
                100.790730493,19.232672403,0
                100.790767209,19.2328315880001,0
                100.790811722,19.233063827,0
                100.790876792,19.2332559760001,0
                100.790955571,19.2334213980001,0
                100.791054988,19.2335533830001,0
                100.791224379,19.2336846790001,0
                100.791400265,19.2337693810001,0
                100.791931626,19.2342428630001,0
                100.792349986,19.233933356,0
                100.792616096,19.233689656,0
                100.792905134,19.233495373,0
                100.793179395,19.2333154130001,0
                100.79346189,19.2332062790001,0
                100.793789403,19.233117979,0
                100.794213337,19.232972005,0
                100.794651739,19.2327833420001,0
                100.794978171,19.232595776,0
                100.795214644,19.2323736390001,0
                100.795376243,19.2321309600001,0
                100.795428515,19.2319035370001,0
                100.795410656,19.2316342560001,0
                100.795332315,19.231294661,0
                100.795161855,19.2307219620001,0
                100.794968928,19.2301423960001,0
                100.794828793,19.22961195,0
                100.794772614,19.2292508620001,0
                100.794754525,19.2289603080001,0
                100.794780919,19.2286409610001,0
                100.794845553,19.228406325,0
                100.794954591,19.2281358000001,0
                100.795204751,19.2278000700001,0
                100.795477156,19.2274499440001,0
                100.795741319,19.2270289860001,0
                100.79590114,19.226623235,0
                100.796045564,19.226175089,0
                100.796190839,19.2258049330001,0
                100.796344967,19.225562328,0
                100.796573193,19.2252693620001,0
                100.796891064,19.224982604,0
                100.797430932,19.224516393,0
                100.797778274,19.22419389,0
                100.797969717,19.223950917,0
                100.798093364,19.223651885,0
                100.798149837,19.2233535130001,0
                100.79814567,19.22297064,0
                100.79806609,19.222517601,0
                100.798040384,19.222212943,0
                100.798060845,19.222035469,0
                100.798104471,19.2219286750001,0
                100.798178265,19.221849951,0
                100.798289449,19.2217779470001,0
                100.798519832,19.2216835030001,0
                100.799465128,19.2214331280001,0
                100.799875101,19.2213794620001,0
                100.800181201,19.221383546,0
                100.800524924,19.2214156210001,0
                100.800869347,19.221511508,0
                100.801169528,19.221657463,0
                100.801831223,19.222097687,0
                100.803402869,19.2231529470001,0
                100.804064658,19.2236002490001,0
                100.80457608,19.223949756,0
                100.80496723,19.224222448,0
                100.805290119,19.2243965380001,0
                100.805545369,19.2245287490001,0
                100.805807461,19.224604163,0
                100.806128728,19.224629361,0
                100.806523854,19.2245829180001,0
                100.807008397,19.224521409,0
                100.807344046,19.224496822,0
                100.807627989,19.224522386,0
                100.807867537,19.2245838370001,0
                100.808212435,19.2247222500001,0
                100.808526776,19.224797145,0
                100.80881834,19.2248368150001,0
                100.809146757,19.22483357,0
                100.80959398,19.224772423,0
                100.810546347,19.2244864630001,0
                100.811431221,19.224172805,0
                100.811906507,19.223948281,0
                100.812217509,19.223718294,0
                100.812407623,19.2235339000001,0
                100.812498185,19.2234460620001,0
                100.812606445,19.223344995,0
                100.81308931,19.222894211,0
                100.813533257,19.222535271,0
                100.81383694,19.222319537,0
                100.814073995,19.2221541010001,0
                100.814311595,19.2220382900001,0
                100.814601597,19.221936144,0
                100.814959321,19.2218829620001,0
                100.815391988,19.221857404,0
                100.816325287,19.2218765120001,0
                100.817482345,19.221879216,0
                100.818183324,19.2218155300001,0
                100.818555892,19.2217551030001,0
                100.818853277,19.221645789,0
                100.819135343,19.2215011690001,0
                100.819402166,19.221328339,0
                100.819638745,19.22112035,0
                100.819822608,19.220870345,0
                100.820028161,19.2205563040001,0
                100.82019725,19.2203206240001,0
                100.820404286,19.220141294,0
                100.820641799,19.220018386,0
                100.820894944,19.2199591450001,0
                100.821252734,19.2199130430001,0
                100.821655467,19.219880672,0
                100.821998406,19.219841807,0
                100.822244241,19.219796816,0
                100.822422667,19.2197312210001,0
                100.822577843,19.2195878590001,0
                100.822746854,19.219345091,0
                100.822917111,19.219215761,0
                100.823147547,19.219128373,0
                100.823385839,19.219076369,0
                100.823669382,19.2190664550001,0
                100.824065508,19.219112147,0
                100.824417004,19.219172461,0
                100.824842988,19.2192178540001,0
                100.82517147,19.219221673,0
                100.825417534,19.2191979460001,0
                100.825692755,19.2191101130001,0
                100.826048975,19.2189221990001,0
                100.826345644,19.218749062,0
                100.826620546,19.218632869,0
                100.826925227,19.2185092830001,0
                100.8271146,19.218421419,0
                100.827297795,19.218281319,0
                100.827458297,19.2181139690001,0
                100.827789928,19.217727752,0
                100.828048257,19.2174628130001,0
                100.828232965,19.21729079,0
                100.828455226,19.217139662,0
                100.828678039,19.2170381650001,0
                100.828930936,19.2169576420001,0
                100.829199158,19.216912419,0
                100.829937267,19.216834141,0
                100.830216309,19.216781102,0
                100.830335101,19.2167231920001,0
                100.830453448,19.216625573,0
                100.830542262,19.216556611,0
                100.830654952,19.2164874150001,0
                100.830821761,19.216451713,0
                100.830982909,19.216444429,0
                100.831311619,19.2164695050001,0
                100.83159822,19.216466639,0
                100.831836803,19.216441565,0
                100.832056911,19.2163656160001,0
                100.832407616,19.2162202910001,0
                100.832678122,19.216111934,0
                100.832938714,19.216052599,0
                100.833199862,19.216042895,0
                100.833491413,19.216082522,0
                100.833731033,19.2161510340001,0
                100.834098475,19.2163033520001,0
                100.834511093,19.2164906740001,0
                100.834923402,19.216649632,0
                100.835417175,19.216751049,0
                100.835866408,19.216874182,0
                100.836346282,19.2170679170001,0
                100.836706501,19.217241576,0
                100.837014637,19.2174299390001,0
                100.837210582,19.217598153,0
                100.837422554,19.2178654780001,0
                100.837552119,19.218105268,0
                100.837703441,19.218288108,0
                100.837884301,19.2184422930001,0
                100.838116698,19.2185321420001,0
                100.838156888,19.218534833,0
                100.838393088,19.2185506430001,0
                100.838698784,19.2185192090001,0
                100.839212748,19.2184218680001,0
                100.839927993,19.218301233,0
                100.84046498,19.2182603810001,0
                100.840927881,19.218269912,0
                100.841339009,19.218322508,0
                100.841945303,19.218472407,0
                100.842334518,19.218567765,0
                100.842633613,19.2186143930001,0
                100.842864905,19.2186049740001,0
                100.843370537,19.218429708,0
                100.843597535,19.2183640150001,0
                100.843802082,19.2183048220001,0
                100.844189082,19.218201654,0
                100.844501918,19.218141776,0
                100.844807769,19.218124518,0
                100.845084158,19.2181430040001,0
                100.845368724,19.2182252260001,0
                100.845848453,19.2184047540001,0
                100.846237827,19.218514285,0
                100.846724066,19.2186086510001,0
                100.847449305,19.2187147920001,0
                100.847994784,19.2187660170001,0
                100.848510485,19.218824628,0
                100.848929001,19.2188700400001,0
                100.849362842,19.218950749,0
                100.849774534,19.2190529550001,0
                100.850373763,19.2192383550001,0
                100.85085334,19.2194036870001,0
                100.851303462,19.2196047690001,0
                100.851813132,19.2197910690001,0
                100.852187743,19.2199149140001,0
                100.852757046,19.2200935170001,0
                100.853296417,19.220265329,0
                100.853745271,19.2203529670001,0
                100.854178795,19.220405306,0
                100.854604307,19.220408089,0
                100.855126365,19.2203673490001,0
                100.855546606,19.220363584,0
                100.855965206,19.2204160700001,0
                100.856429224,19.2205248220001,0
                100.856699114,19.220628445,0
                100.856931681,19.2207324500001,0
                100.857187837,19.220942575,0
                100.857398888,19.221124795,0
                100.857647342,19.2213137270001,0
                100.857902384,19.221424594,0
                100.858216973,19.221520669,0
                100.858740467,19.2216075370001,0
                100.859264121,19.221708585,0
                100.859825572,19.2218517910001,0
                100.860312788,19.222031203,0
                100.860703057,19.222218685,0
                100.860860988,19.2223225130001,0
                100.860989232,19.2224426810001,0
                100.861080713,19.2226119330001,0
                100.86112773,19.222809994,0
                100.861184209,19.2231852310001,0
                100.861240369,19.2235321060001,0
                100.861313161,19.223727727,0
                100.861348137,19.223821733,0
                100.861477176,19.2240118730001,0
                100.86170309,19.2241868450001,0
                100.862101864,19.224466417,0
                100.862327939,19.224655569,0
                100.862426407,19.2247822,0
                100.862495177,19.2249233160001,0
                100.862511544,19.225050782,0
                100.862510293,19.225087043,0
                100.862370247,19.2258509930001,0
                100.862371996,19.2260812490001,0
                100.86240871,19.226286234,0
                100.862524748,19.22665693,0
                100.862730138,19.2270160940001,0
                100.863069855,19.2273845190001,0
                100.863397678,19.227689308,0
                100.86379002,19.227962631,0
                100.864169266,19.228264773,0
                100.864459136,19.2285763250001,0
                100.864623551,19.2288721570001,0
                100.864825962,19.2293631000001,0
                100.864983536,19.229845998,0
                100.865286583,19.2305314180001,0
                100.865579815,19.231140435,0
                100.865916927,19.231672502,0
                100.866215851,19.231992459,0
                100.866603963,19.2322860080001,0
                100.86710753,19.2325018720001,0
                100.868806632,19.2331900410001,0
                100.869589221,19.2335475510001,0
                100.870309854,19.233965192,0
                100.87069788,19.2342502270001,0
                100.870933409,19.234502822,0
                100.871115932,19.2348154580001,0
                100.871318273,19.2352978960001,0
                100.871455766,19.2355854900001,0
                100.871683024,19.2358976690001,0
                100.872036136,19.2362595590001,0
                100.872234338,19.2363765320001,0
                100.872467752,19.2364421450001,0
                100.872682503,19.2364399480001,0
                100.873074089,19.2362489390001,0
                100.87336725,19.236058938,0
                100.873643184,19.2359286130001,0
                100.873875059,19.235858238,0
                100.874152251,19.2358383980001,0
                100.874625534,19.2358734760001,0
                100.874752074,19.235860147,0
                100.874912753,19.235825031,0
                100.875022939,19.235776092,0
                100.875180265,19.235694844,0
              </coordinates>
                
            </LinearRing>
            
          </outerBoundaryIs>
        
        </Polygon>
        
      <styleUrl>
        #tambonStyle</styleUrl>
    </Placemark>

  </Document>
</kml>