<?xml version="1.0" encoding="UTF-8"?>
<kml xmlns="http://www.opengis.net/kml/2.2">
  <Document id="tambon_doc">
    <name>บางชะนี, บางบาล, Phra Nakhon Si Ayutthaya</name>
    <description>ข้อมูลขอบเขตตำบลบางชะนี อำเภอบางบาล จังหวัดPhra Nakhon Si Ayutthaya</description>
    
    <!-- Schema สำหรับข้อมูลตำบล -->
    <Schema id="tambon.schema">
      <SimpleField name="ADM3_EN" type="string">
        <displayName>Subdistrict Name (English)</displayName>
      </SimpleField>
      <SimpleField name="ADM3_TH" type="string">
        <displayName>ชื่อตำบล</displayName>
      </SimpleField>
      <SimpleField name="ADM2_EN" type="string">
        <displayName>District Name (English)</displayName>
      </SimpleField>
      <SimpleField name="ADM2_TH" type="string">
        <displayName>ชื่ออำเภอ</displayName>
      </SimpleField>
      <SimpleField name="ADM1_EN" type="string">
        <displayName>Province Name (English)</displayName>
      </SimpleField>
      <SimpleField name="ADM1_TH" type="string">
        <displayName>ชื่อจังหวัด</displayName>
      </SimpleField>
      <SimpleField name="ADM0_EN" type="string">
        <displayName>Country Name (English)</displayName>
      </SimpleField>
      <SimpleField name="ADM0_TH" type="string">
        <displayName>ชื่อประเทศ</displayName>
      </SimpleField>
    </Schema>

    <!-- Style สำหรับตำบล -->
    <Style id="tambonStyle">
      <LineStyle>
        <color>ffff0000</color>
        <width>1.5</width>
      </LineStyle>
      <PolyStyle>
        <color>33ff0000</color>
        <fill>1</fill>
        <outline>1</outline>
      </PolyStyle>
    </Style>

    <Placemark id="Phra_Nakhon_Si_Ayutthaya.81">
        
        <ExtendedData>
            
          <SchemaData schemaUrl="#tambon.schema">
                
            <SimpleData name="Shape_Leng">
                0.125240224678</SimpleData>
                
            <SimpleData name="Shape_Area">
                0.000527507013716</SimpleData>
                
            <SimpleData name="ADM3_EN">
                Bang Chani</SimpleData>
                
            <SimpleData name="ADM3_TH">
                บางชะนี</SimpleData>
                
            <SimpleData name="ADM3_PCODE">
                TH140515</SimpleData>
                
            <SimpleData name="ADM2_EN">
                Bang Ban</SimpleData>
                
            <SimpleData name="ADM2_TH">
                บางบาล</SimpleData>
                
            <SimpleData name="ADM2_PCODE">
                TH1405</SimpleData>
                
            <SimpleData name="ADM1_EN">
                Phra Nakhon Si Ayutthaya</SimpleData>
                
            <SimpleData name="ADM1_TH">
                พระนครศรีอยุธยา</SimpleData>
                
            <SimpleData name="ADM1_PCODE">
                TH14</SimpleData>
                
            <SimpleData name="ADM0_EN">
                Thailand</SimpleData>
                
            <SimpleData name="ADM0_TH">
                ประเทศไทย</SimpleData>
                
            <SimpleData name="ADM0_PCODE">
                TH</SimpleData>
            
          </SchemaData>
        
        </ExtendedData>
        
        <Polygon>
            
          <outerBoundaryIs>
                
            <LinearRing>
                    
              <coordinates>
                    
                100.45491417,14.442260746,0
                100.455137583,14.4422048440001,0
                100.45540339,14.442216837,0
                100.456145234,14.4423076620001,0
                100.456254722,14.441938986,0
                100.456365006,14.4416929770001,0
                100.456656217,14.44130955,0
                100.456781373,14.441199736,0
                100.456879185,14.4411855010001,0
                100.456991509,14.441252955,0
                100.457365056,14.4416441010001,0
                100.457470289,14.441754286,0
                100.457540483,14.441794744,0
                100.457638291,14.441780511,0
                100.457735564,14.441684504,0
                100.457929763,14.4414379670001,0
                100.458152282,14.4412457770001,0
                100.458499871,14.44093015,0
                100.458749389,14.440587868,0
                100.458969328,14.440000433,0
                100.459118096,14.439480541,0
                100.459133424,14.4394269810001,0
                100.459273198,14.4391528780001,0
                100.459435914,14.439039429,0
                100.45968565,14.439000403,0
                100.4604122,14.439019565,0
                100.460619785,14.439044107,0
                100.461627844,14.439163288,0
                100.462391408,14.43931639,0
                100.462939206,14.4394971350001,0
                100.463053695,14.439557076,0
                100.463162662,14.4396141230001,0
                100.463618775,14.439927638,0
                100.463697049,14.4400251110001,0
                100.464183898,14.440631368,0
                100.464217876,14.4406771020001,0
                100.464280922,14.440790862,0
                100.464303705,14.440906623,0
                100.464298672,14.4410389020001,0
                100.464258838,14.441263398,0
                100.464214395,14.441522698,0
                100.464214913,14.441601785,0
                100.464239014,14.4416338660001,0
                100.46426823,14.4416484000001,0
                100.464350919,14.441663298,0
                100.464703822,14.441760738,0
                100.465284065,14.441882046,0
                100.465900197,14.4420173930001,0
                100.466171706,14.442078978,0
                100.466350376,14.4420953430001,0
                100.46641174,14.4420910690001,0
                100.467372313,14.4422843300001,0
                100.467416945,14.442293309,0
                100.467462309,14.44225884,0
                100.46911538,14.441002408,0
                100.469485294,14.440539729,0
                100.469725534,14.4400839040001,0
                100.46982349,14.4397272480001,0
                100.469875774,14.4394227020001,0
                100.469920886,14.4387197500001,0
                100.469891729,14.4380657130001,0
                100.46984975,14.437887022,0
                100.469655061,14.4374315600001,0
                100.469136646,14.436665078,0
                100.468158128,14.435314282,0
                100.467403861,14.4340347790001,0
                100.466794957,14.43217284,0
                100.466667474,14.4316890280001,0
                100.466588763,14.4310595380001,0
                100.466561055,14.430623558,0
                100.466606813,14.430017524,0
                100.466726989,14.4293867870001,0
                100.466922076,14.428804056,0
                100.467176008,14.4283915780001,0
                100.467314057,14.4281999990001,0
                100.467760688,14.427781168,0
                100.469395477,14.426850243,0
                100.470511998,14.4265040660001,0
                100.471430887,14.426352953,0
                100.472227919,14.4263479800001,0
                100.472506806,14.426381549,0
                100.473143033,14.426548789,0
                100.473759501,14.4267619820001,0
                100.474069962,14.4269180050001,0
                100.47451953,14.4272301840001,0
                100.475887277,14.4286966440001,0
                100.476299165,14.4289484830001,0
                100.477159744,14.429379237,0
                100.47837413,14.4297350790001,0
                100.48009123,14.429978727,0
                100.48055725,14.429957626,0
                100.480985871,14.429918586,0
                100.481432401,14.429770407,0
                100.481748187,14.429586699,0
                100.482045195,14.4293849330001,0
                100.482322593,14.4290379070001,0
                100.482747243,14.428399207,0
                100.483060491,14.4278338890001,0
                100.483466118,14.427140781,0
                100.48392829,14.426538185,0
                100.484224578,14.4262273790001,0
                100.483401412,14.42508732,0
                100.482385185,14.4236762520001,0
                100.481877791,14.4230797390001,0
                100.481702615,14.423212875,0
                100.481165942,14.4237388500001,0
                100.480536694,14.4241219240001,0
                100.479483337,14.423075619,0
                100.479058006,14.42266858,0
                100.478710037,14.422340352,0
                100.47832902,14.4219845120001,0
                100.478286432,14.4219608330001,0
                100.478229914,14.421978515,0
                100.478086494,14.4220975540001,0
                100.477918901,14.4222052210001,0
                100.47770103,14.422346018,0
                100.477335996,14.4225656040001,0
                100.477268697,14.422581216,0
                100.477244244,14.4225813690001,0
                100.47268404,14.422183236,0
                100.471269959,14.421933095,0
                100.464786111,14.420555963,0
                100.462252054,14.4200048980001,0
                100.452476556,14.417906128,0
                100.447547292,14.4168596700001,0
                100.447974895,14.420625408,0
                100.448240363,14.4228130560001,0
                100.448294072,14.42392026,0
                100.44831994,14.427834116,0
                100.448537215,14.429853644,0
                100.448723761,14.4319805320001,0
                100.448534068,14.434778846,0
                100.447908596,14.4381468660001,0
                100.447872107,14.438992125,0
                100.447932365,14.4396596080001,0
                100.448146195,14.440285251,0
                100.448401725,14.4408697490001,0
                100.448501296,14.441128103,0
                100.44857272,14.441359371,0
                100.448602101,14.441577259,0
                100.448564027,14.442177197,0
                100.449208057,14.4422822720001,0
                100.449697544,14.4422792610001,0
                100.450299184,14.4423164470001,0
                100.450593402,14.442396414,0
                100.450943568,14.4424760370001,0
                100.451461296,14.442513736,0
                100.452230575,14.442522626,0
                100.453908821,14.442512279,0
                100.454216146,14.442455867,0
                100.454550993,14.442331134,0
                100.45491417,14.442260746,0
              </coordinates>
                
            </LinearRing>
            
          </outerBoundaryIs>
        
        </Polygon>
        
      <styleUrl>
        #tambonStyle</styleUrl>
    </Placemark>

  </Document>
</kml>