<?xml version="1.0" encoding="UTF-8"?>
<kml xmlns="http://www.opengis.net/kml/2.2">
  <Document id="tambon_doc">
    <name>บางบาล, บางบาล, Phra Nakhon Si Ayutthaya</name>
    <description>ข้อมูลขอบเขตตำบลบางบาล อำเภอบางบาล จังหวัดPhra Nakhon Si Ayutthaya</description>
    
    <!-- Schema สำหรับข้อมูลตำบล -->
    <Schema id="tambon.schema">
      <SimpleField name="ADM3_EN" type="string">
        <displayName>Subdistrict Name (English)</displayName>
      </SimpleField>
      <SimpleField name="ADM3_TH" type="string">
        <displayName>ชื่อตำบล</displayName>
      </SimpleField>
      <SimpleField name="ADM2_EN" type="string">
        <displayName>District Name (English)</displayName>
      </SimpleField>
      <SimpleField name="ADM2_TH" type="string">
        <displayName>ชื่ออำเภอ</displayName>
      </SimpleField>
      <SimpleField name="ADM1_EN" type="string">
        <displayName>Province Name (English)</displayName>
      </SimpleField>
      <SimpleField name="ADM1_TH" type="string">
        <displayName>ชื่อจังหวัด</displayName>
      </SimpleField>
      <SimpleField name="ADM0_EN" type="string">
        <displayName>Country Name (English)</displayName>
      </SimpleField>
      <SimpleField name="ADM0_TH" type="string">
        <displayName>ชื่อประเทศ</displayName>
      </SimpleField>
    </Schema>

    <!-- Style สำหรับตำบล -->
    <Style id="tambonStyle">
      <LineStyle>
        <color>ffff0000</color>
        <width>1.5</width>
      </LineStyle>
      <PolyStyle>
        <color>33ff0000</color>
        <fill>1</fill>
        <outline>1</outline>
      </PolyStyle>
    </Style>

    <Placemark id="Phra_Nakhon_Si_Ayutthaya.67">
        
        <ExtendedData>
            
          <SchemaData schemaUrl="#tambon.schema">
                
            <SimpleData name="Shape_Leng">
                0.120814746748</SimpleData>
                
            <SimpleData name="Shape_Area">
                0.000512056932005</SimpleData>
                
            <SimpleData name="ADM3_EN">
                Bang Ban</SimpleData>
                
            <SimpleData name="ADM3_TH">
                บางบาล</SimpleData>
                
            <SimpleData name="ADM3_PCODE">
                TH140501</SimpleData>
                
            <SimpleData name="ADM2_EN">
                Bang Ban</SimpleData>
                
            <SimpleData name="ADM2_TH">
                บางบาล</SimpleData>
                
            <SimpleData name="ADM2_PCODE">
                TH1405</SimpleData>
                
            <SimpleData name="ADM1_EN">
                Phra Nakhon Si Ayutthaya</SimpleData>
                
            <SimpleData name="ADM1_TH">
                พระนครศรีอยุธยา</SimpleData>
                
            <SimpleData name="ADM1_PCODE">
                TH14</SimpleData>
                
            <SimpleData name="ADM0_EN">
                Thailand</SimpleData>
                
            <SimpleData name="ADM0_TH">
                ประเทศไทย</SimpleData>
                
            <SimpleData name="ADM0_PCODE">
                TH</SimpleData>
            
          </SchemaData>
        
        </ExtendedData>
        
        <Polygon>
            
          <outerBoundaryIs>
                
            <LinearRing>
                    
              <coordinates>
                    
                100.480810573,14.422164251,0
                100.479557998,14.4209590900001,0
                100.478558132,14.419902258,0
                100.477557292,14.4186955060001,0
                100.477500278,14.418532311,0
                100.477485036,14.418341592,0
                100.477469614,14.418123618,0
                100.477453029,14.417728472,0
                100.477450245,14.4173059730001,0
                100.47741985,14.416938171,0
                100.47726298,14.416475749,0
                100.47692441,14.416028098,0
                100.476544702,14.415703364,0
                100.475912841,14.4153120610001,0
                100.475351709,14.415042982,0
                100.474944753,14.414827454,0
                100.472988781,14.412972428,0
                100.472467729,14.4124168700001,0
                100.471421963,14.41074696,0
                100.47089681,14.4095644700001,0
                100.47059843,14.408843962,0
                100.470270922,14.407946456,0
                100.470183631,14.4074290790001,0
                100.470135878,14.4065434620001,0
                100.470125254,14.4049216170001,0
                100.470179575,14.4046759500001,0
                100.470317619,14.4044025000001,0
                100.470594331,14.403951002,0
                100.471093516,14.4033073100001,0
                100.471621735,14.4028269880001,0
                100.472484104,14.4021265120001,0
                100.473511849,14.4010570080001,0
                100.470654702,14.400154005,0
                100.470419073,14.4000283240001,0
                100.470291338,14.3999914620001,0
                100.470116167,14.400019898,0
                100.469958027,14.400098202,0
                100.469773333,14.400159489,0
                100.469608976,14.4001738690001,0
                100.469521938,14.4001523650001,0
                100.469455703,14.4001099180001,0
                100.468864062,14.399941773,0
                100.468520384,14.399952501,0
                100.468507758,14.400717188,0
                100.467810913,14.400635607,0
                100.465941058,14.4004410270001,0
                100.465841632,14.401412441,0
                100.465809142,14.4014100040001,0
                100.465161683,14.4012190610001,0
                100.465159996,14.401267965,0
                100.465150804,14.401534353,0
                100.463940384,14.4012185400001,0
                100.464013038,14.4009433790001,0
                100.463843889,14.4009026210001,0
                100.463554129,14.4008328,0
                100.463570072,14.4007807630001,0
                100.463632463,14.400577116,0
                100.463406691,14.4005288930001,0
                100.463593143,14.4001236730001,0
                100.463324526,14.400090913,0
                100.463316556,14.400089941,0
                100.463390094,14.399880898,0
                100.463416524,14.399805768,0
                100.46289221,14.3997026810001,0
                100.462913196,14.399574952,0
                100.461405435,14.399222749,0
                100.46130111,14.399381235,0
                100.461016549,14.399813529,0
                100.461665279,14.400036362,0
                100.461544092,14.40041282,0
                100.463001277,14.400814957,0
                100.462854764,14.401298705,0
                100.462342438,14.4011705510001,0
                100.461996538,14.401084026,0
                100.461696646,14.4010515160001,0
                100.46054087,14.400878248,0
                100.459762798,14.400758087,0
                100.459190762,14.4007272750001,0
                100.458281104,14.400529987,0
                100.456297467,14.400087222,0
                100.45444694,14.3997420000001,0
                100.45334258,14.3996750100001,0
                100.453373204,14.3995334040001,0
                100.453365941,14.399385882,0
                100.453307618,14.399146445,0
                100.453268258,14.398913039,0
                100.453264955,14.398402725,0
                100.453238887,14.3982737650001,0
                100.452932769,14.397759163,0
                100.452862189,14.397575138,0
                100.452713847,14.3970718640001,0
                100.452525352,14.396212216,0
                100.452415933,14.395874715,0
                100.452276715,14.395646067,0
                100.448928426,14.4039529940001,0
                100.447674248,14.4076138400001,0
                100.446653053,14.40969504,0
                100.446449067,14.411649432,0
                100.446713103,14.413114082,0
                100.447256449,14.415553779,0
                100.447547292,14.4168596700001,0
                100.452476556,14.417906128,0
                100.462252054,14.4200048980001,0
                100.464786111,14.420555963,0
                100.471269959,14.421933095,0
                100.47268404,14.422183236,0
                100.477244244,14.4225813690001,0
                100.477268697,14.422581216,0
                100.477335996,14.4225656040001,0
                100.47770103,14.422346018,0
                100.477918901,14.4222052210001,0
                100.478086494,14.4220975540001,0
                100.478229914,14.421978515,0
                100.478286432,14.4219608330001,0
                100.47832902,14.4219845120001,0
                100.478710037,14.422340352,0
                100.479058006,14.42266858,0
                100.479483337,14.423075619,0
                100.480536694,14.4241219240001,0
                100.481165942,14.4237388500001,0
                100.481702615,14.423212875,0
                100.481877791,14.4230797390001,0
                100.480810573,14.422164251,0
              </coordinates>
                
            </LinearRing>
            
          </outerBoundaryIs>
        
        </Polygon>
        
      <styleUrl>
        #tambonStyle</styleUrl>
    </Placemark>

  </Document>
</kml>