<?xml version="1.0" encoding="UTF-8"?>
<kml xmlns="http://www.opengis.net/kml/2.2">
  <Document id="tambon_doc">
    <name>หลุมรัง, บ่อพลอย, Kanchanaburi</name>
    <description>ข้อมูลขอบเขตตำบลหลุมรัง อำเภอบ่อพลอย จังหวัดKanchanaburi</description>
    
    <!-- Schema สำหรับข้อมูลตำบล -->
    <Schema id="tambon.schema">
      <SimpleField name="ADM3_EN" type="string">
        <displayName>Subdistrict Name (English)</displayName>
      </SimpleField>
      <SimpleField name="ADM3_TH" type="string">
        <displayName>ชื่อตำบล</displayName>
      </SimpleField>
      <SimpleField name="ADM2_EN" type="string">
        <displayName>District Name (English)</displayName>
      </SimpleField>
      <SimpleField name="ADM2_TH" type="string">
        <displayName>ชื่ออำเภอ</displayName>
      </SimpleField>
      <SimpleField name="ADM1_EN" type="string">
        <displayName>Province Name (English)</displayName>
      </SimpleField>
      <SimpleField name="ADM1_TH" type="string">
        <displayName>ชื่อจังหวัด</displayName>
      </SimpleField>
      <SimpleField name="ADM0_EN" type="string">
        <displayName>Country Name (English)</displayName>
      </SimpleField>
      <SimpleField name="ADM0_TH" type="string">
        <displayName>ชื่อประเทศ</displayName>
      </SimpleField>
    </Schema>

    <!-- Style สำหรับตำบล -->
    <Style id="tambonStyle">
      <LineStyle>
        <color>ffff0000</color>
        <width>1.5</width>
      </LineStyle>
      <PolyStyle>
        <color>33ff0000</color>
        <fill>1</fill>
        <outline>1</outline>
      </PolyStyle>
    </Style>

    <Placemark id="Kanchanaburi.24">
        
        <ExtendedData>
            
          <SchemaData schemaUrl="#tambon.schema">
                
            <SimpleData name="Shape_Leng">
                0.504342806126</SimpleData>
                
            <SimpleData name="Shape_Area">
                0.00931771125701</SimpleData>
                
            <SimpleData name="ADM3_EN">
                Lum Rang</SimpleData>
                
            <SimpleData name="ADM3_TH">
                หลุมรัง</SimpleData>
                
            <SimpleData name="ADM3_PCODE">
                TH710305</SimpleData>
                
            <SimpleData name="ADM2_EN">
                Bo Phloi</SimpleData>
                
            <SimpleData name="ADM2_TH">
                บ่อพลอย</SimpleData>
                
            <SimpleData name="ADM2_PCODE">
                TH7103</SimpleData>
                
            <SimpleData name="ADM1_EN">
                Kanchanaburi</SimpleData>
                
            <SimpleData name="ADM1_TH">
                กาญจนบุรี</SimpleData>
                
            <SimpleData name="ADM1_PCODE">
                TH71</SimpleData>
                
            <SimpleData name="ADM0_EN">
                Thailand</SimpleData>
                
            <SimpleData name="ADM0_TH">
                ประเทศไทย</SimpleData>
                
            <SimpleData name="ADM0_PCODE">
                TH</SimpleData>
            
          </SchemaData>
        
        </ExtendedData>
        
        <Polygon>
            
          <outerBoundaryIs>
                
            <LinearRing>
                    
              <coordinates>
                    
                99.495080553,14.506039258,0
                99.499021627,14.504023895,0
                99.5027354270001,14.5035198410001,0
                99.5027398330001,14.503519585,0
                99.5032573170001,14.5034270840001,0
                99.503708525,14.503418787,0
                99.5040958070001,14.503410634,0
                99.5044154700001,14.5034282610001,0
                99.5054897950001,14.5035571490001,0
                99.5059938480001,14.5035560630001,0
                99.5075406060001,14.503474636,0
                99.5080090120001,14.5034894360001,0
                99.5082057960001,14.503438408,0
                99.5084411830001,14.503395218,0
                99.508529046,14.503379092,0
                99.508713259,14.503364043,0
                99.5098106330001,14.5030978950001,0
                99.5123327960001,14.5029509400001,0
                99.5124993330001,14.502941236,0
                99.514206497,14.5028417500001,0
                99.51657506,14.5027036970001,0
                99.527997569,14.502037606,0
                99.530339794,14.5019009490001,0
                99.5315823620001,14.501828447,0
                99.531821042,14.501848894,0
                99.5327367790001,14.501927344,0
                99.5332178360001,14.501988727,0
                99.5341568600001,14.5020922530001,0
                99.5349009880001,14.502182802,0
                99.5362013380001,14.502457802,0
                99.5363298350001,14.502332025,0
                99.5364677490001,14.5021801450001,0
                99.5366143890001,14.5020619370001,0
                99.5367581940001,14.5019633740001,0
                99.536971184,14.501884298,0
                99.537000273,14.501866491,0
                99.537038173,14.501834407,0
                99.5370913150001,14.501527579,0
                99.537085361,14.5014461970001,0
                99.537070832,14.5013957100001,0
                99.5370649880001,14.5013620460001,0
                99.537085097,14.5013367400001,0
                99.5371196300001,14.5013226300001,0
                99.537246005,14.5013653400001,0
                99.537275272,14.501356303,0
                99.5373226840001,14.501305673,0
                99.5373978680001,14.5011223700001,0
                99.5374079690001,14.5010909580001,0
                99.537419173,14.5009981270001,0
                99.5374449240001,14.500924389,0
                99.537787316,14.5004499820001,0
                99.5378125880001,14.500401847,0
                99.5379200710001,14.500060939,0
                99.5379548550001,14.499985684,0
                99.538388996,14.4990887820001,0
                99.538692364,14.4987607580001,0
                99.5387957140001,14.4986117710001,0
                99.538899079,14.4984683920001,0
                99.53906592,14.4983697820001,0
                99.5391752370001,14.4983049740001,0
                99.539418449,14.4982570060001,0
                99.5395756,14.4982787930001,0
                99.5397284220001,14.498337384,0
                99.5397975590001,14.4983372250001,0
                99.5398839040001,14.4983033460001,0
                99.5400018380001,14.4982301050001,0
                99.540240371,14.4979937960001,0
                99.5404703400001,14.4977911830001,0
                99.5409624100001,14.4975683280001,0
                99.5421598400001,14.497172634,0
                99.5422145030001,14.4971416380001,0
                99.5422345690001,14.4970994920001,0
                99.5425800030001,14.4969948450001,0
                99.5426461440001,14.4969469800001,0
                99.5427065630001,14.496915971,0
                99.542810193,14.4968848560001,0
                99.5430027690001,14.496704784,0
                99.5431149030001,14.4966175210001,0
                99.543183995,14.496597711,0
                99.54329921,14.496591833,0
                99.543365382,14.4965580000001,0
                99.5434688170001,14.496445495,0
                99.5435896170001,14.496366632,0
                99.5442830980001,14.49604787,0
                99.5446197460001,14.4958843090001,0
                99.5453565560001,14.495613157,0
                99.5457160880001,14.4954716510001,0
                99.5458113270001,14.495457736,0
                99.545880444,14.495449153,0
                99.5462604530001,14.4953472340001,0
                99.5466518300001,14.4951835370001,0
                99.5468561160001,14.4950820190001,0
                99.5469768040001,14.4949610570001,0
                99.5469769760001,14.4949609500001,0
                99.5471062400001,14.49487936,0
                99.547650145,14.4946563680001,0
                99.5478200060001,14.494613868,0
                99.5479237010001,14.4946080170001,0
                99.547924815,14.494608138,0
                99.5480245470001,14.4946190060001,0
                99.5480678170001,14.494641358,0
                99.5481168730001,14.494674925,0
                99.5482004120001,14.49467473,0
                99.5487646650001,14.494524664,0
                99.548917309,14.494510271,0
                99.549049821,14.4945099620001,0
                99.54910355,14.4944915930001,0
                99.549199463,14.4944464640001,0
                99.5494482270001,14.494082888,0
                99.5497968770001,14.4937265620001,0
                99.550298893,14.4932613560001,0
                99.5506670400001,14.4930247340001,0
                99.5509124660001,14.492866986,0
                99.5510334620001,14.492771083,0
                99.553343365,14.4916673020001,0
                99.553937718,14.4914940190001,0
                99.553941169,14.4914933210001,0
                99.5540904650001,14.4914629680001,0
                99.5542296730001,14.491459622,0
                99.5543227310001,14.491462648,0
                99.5544840190001,14.491516145,0
                99.555247943,14.4919264970001,0
                99.55558503,14.492107569,0
                99.5561987140001,14.4923286690001,0
                99.5568046880001,14.492523878,0
                99.5569189230001,14.492531749,0
                99.557088547,14.4925167800001,0
                99.557204073,14.4924768180001,0
                99.557467015,14.4923139530001,0
                99.5580068250001,14.491838283,0
                99.5580460730001,14.4917873750001,0
                99.5623916530001,14.4861502100001,0
                99.56243965,14.486033493,0
                99.562506526,14.485936495,0
                99.5627196060001,14.485757656,0
                99.5627413280001,14.4857445230001,0
                99.5628334680001,14.485710306,0
                99.5632877480001,14.4856679700001,0
                99.5639031420001,14.485666494,0
                99.5652529800001,14.4858417990001,0
                99.5666871610001,14.4861712040001,0
                99.567194133,14.4864029670001,0
                99.5682343060001,14.486835953,0
                99.5690683050001,14.487213739,0
                99.569193683,14.4872329740001,0
                99.5693673360001,14.4872359350001,0
                99.5700584130001,14.48709703,0
                99.5700623450001,14.48709624,0
                99.5703341030001,14.4870096380001,0
                99.5704426660001,14.486945812,0
                99.570522898,14.486883494,0
                99.5707876530001,14.486642338,0
                99.5708991280001,14.486509515,0
                99.571029002,14.4862401,0
                99.5713323630001,14.485372623,0
                99.5714903350001,14.485147548,0
                99.57153859,14.485098577,0
                99.5718892130001,14.484892442,0
                99.5722013820001,14.4848186400001,0
                99.572871214,14.4847835360001,0
                99.573017436,14.484761903,0
                99.5731091170001,14.484727616,0
                99.5731437330001,14.484710093,0
                99.573210369,14.484676359,0
                99.573325583,14.4846121480001,0
                99.5746344550001,14.483530424,0
                99.574915919,14.483220337,0
                99.5750140420001,14.4831430410001,0
                99.5753501620001,14.4829846600001,0
                99.5756656250001,14.482878644,0
                99.5767229370001,14.482673157,0
                99.5769292880001,14.482608902,0
                99.5772947830001,14.482437959,0
                99.577358039,14.4823877320001,0
                99.578135375,14.4816455710001,0
                99.578216937,14.48074237,0
                99.5781752440001,14.4800183350001,0
                99.578000208,14.4790489370001,0
                99.5779727300001,14.4786869380001,0
                99.5776124980001,14.477950752,0
                99.5771595040001,14.4772665150001,0
                99.5769191200001,14.4766852130001,0
                99.5767580010001,14.4759614660001,0
                99.5767323420001,14.4758747980001,0
                99.576688086,14.475372613,0
                99.5766538650001,14.474984315,0
                99.5759165150001,14.4738686970001,0
                99.5757581880001,14.4736533240001,0
                99.5751574020001,14.472836074,0
                99.5750769150001,14.4725000650001,0
                99.575108324,14.472114838,0
                99.5751412390001,14.4717111140001,0
                99.5752975280001,14.470559865,0
                99.575297031,14.4703670260001,0
                99.575264336,14.470127448,0
                99.575262073,14.4701109010001,0
                99.57525121,14.470093611,0
                99.5751795510001,14.4699795510001,0
                99.575134575,14.469907952,0
                99.5741081510001,14.4693006840001,0
                99.5739448350001,14.4692745680001,0
                99.5736292560001,14.4693408000001,0
                99.573518795,14.46936398,0
                99.573383457,14.469383367,0
                99.573253105,14.469402039,0
                99.5727028320001,14.469480855,0
                99.5724305670001,14.4694108190001,0
                99.5721944430001,14.469287669,0
                99.5719038350001,14.4691381380001,0
                99.571643318,14.4687964830001,0
                99.571589837,14.468753656,0
                99.5715480420001,14.468684244,0
                99.5714299740001,14.468319287,0
                99.571373156,14.46750733,0
                99.5703510870001,14.465664829,0
                99.5698513330001,14.4649382970001,0
                99.5697153010001,14.464494986,0
                99.5696874210001,14.4642299290001,0
                99.5698218800001,14.4636109900001,0
                99.570010875,14.463036099,0
                99.5699828770001,14.4627268560001,0
                99.5697908750001,14.462218024,0
                99.5697100530001,14.4617178870001,0
                99.569687,14.461406046,0
                99.5695623180001,14.4609594090001,0
                99.5695479760001,14.4608347650001,0
                99.5696487960001,14.459749469,0
                99.5695852540001,14.4591395680001,0
                99.5695861680001,14.45897876,0
                99.5695852640001,14.4586240780001,0
                99.5695840530001,14.458148656,0
                99.569496519,14.457228204,0
                99.5693623710001,14.4562474900001,0
                99.5692450770001,14.455802536,0
                99.569019358,14.455357841,0
                99.5686544980001,14.455011588,0
                99.567979381,14.454469875,0
                99.5675369880001,14.4540860710001,0
                99.5670830450001,14.4535277630001,0
                99.5670708680001,14.453506116,0
                99.5668766360001,14.453257551,0
                99.5666825360001,14.453061813,0
                99.5663877650001,14.4528663140001,0
                99.5662889610001,14.452808286,0
                99.5660852270001,14.4526632870001,0
                99.5659609610001,14.452520205,0
                99.5658054680001,14.4522790880001,0
                99.565747752,14.452021399,0
                99.565719314,14.451894429,0
                99.5656490280001,14.451660658,0
                99.565540018,14.451426983,0
                99.5653071440001,14.451208692,0
                99.5650590650001,14.451103634,0
                99.564764606,14.4510288810001,0
                99.5644098930001,14.450956106,0
                99.563713125,14.450669653,0
                99.563547708,14.450601647,0
                99.5628887070001,14.4502316320001,0
                99.5626472340001,14.4500513830001,0
                99.5624216140001,14.449782138,0
                99.562170574,14.4493685690001,0
                99.5620182760001,14.449065822,0
                99.5615202380001,14.4481010650001,0
                99.5612371330001,14.4473337960001,0
                99.5609276700001,14.446495084,0
                99.5608049150001,14.446170151,0
                99.560631437,14.4457109590001,0
                99.5605690530001,14.445537534,0
                99.560557154,14.445402357,0
                99.5605451420001,14.4452659200001,0
                99.5605592680001,14.444722542,0
                99.5606192110001,14.4439224770001,0
                99.560616242,14.4438044250001,0
                99.560593409,14.4428962210001,0
                99.5605387360001,14.4427076920001,0
                99.5604065190001,14.442481613,0
                99.5601271040001,14.442225695,0
                99.5599717640001,14.4420374010001,0
                99.5598625760001,14.441728257,0
                99.5597128630001,14.4406947480001,0
                99.5596267930001,14.4403402680001,0
                99.5594402850001,14.4400765880001,0
                99.559091069,14.439775556,0
                99.5587573600001,14.4394820360001,0
                99.558750548,14.4394758660001,0
                99.55805109,14.438842258,0
                99.557919052,14.4386840980001,0
                99.5578722530001,14.438548371,0
                99.5578641000001,14.4383823700001,0
                99.557925518,14.4381709200001,0
                99.5580736410001,14.4379809330001,0
                99.5582497120001,14.4377551000001,0
                99.5590606370001,14.4368928810001,0
                99.5595863220001,14.436311893,0
                99.559031626,14.435511417,0
                99.5589545910001,14.435394289,0
                99.5581348750001,14.434147872,0
                99.5579018550001,14.433687526,0
                99.5575992550001,14.432911743,0
                99.5573513580001,14.4321030840001,0
                99.5570937530001,14.4314281860001,0
                99.5570228620001,14.4312886330001,0
                99.5569921090001,14.431218378,0
                99.5567582470001,14.430605384,0
                99.55671907,14.430261821,0
                99.556708298,14.4299682660001,0
                99.5567476850001,14.4296550240001,0
                99.5568874580001,14.4293317570001,0
                99.5570775360001,14.429047515,0
                99.5571362750001,14.4289917360001,0
                99.557408116,14.428733585,0
                99.557894037,14.4284464780001,0
                99.5582505250001,14.428310793,0
                99.5590262040001,14.4279214920001,0
                99.5595958110001,14.4276051430001,0
                99.559783214,14.4274401960001,0
                99.5598850260001,14.4272826770001,0
                99.5599529710001,14.426870771,0
                99.5599347850001,14.42649268,0
                99.5597785160001,14.426064502,0
                99.55940687,14.4257040570001,0
                99.559164911,14.4254861520001,0
                99.55879122,14.4251640050001,0
                99.5586336440001,14.424904369,0
                99.5583812500001,14.4243569500001,0
                99.5582098,14.424053993,0
                99.5580586740001,14.423848842,0
                99.5577468180001,14.4236147180001,0
                99.5576268740001,14.423538883,0
                99.5574666200001,14.423337514,0
                99.557384105,14.423116491,0
                99.5572928390001,14.422754625,0
                99.5572920600001,14.4224414760001,0
                99.557301319,14.4221283000001,0
                99.5573709770001,14.4218737,0
                99.5574218580001,14.4217739170001,0
                99.55749088,14.4216385550001,0
                99.558232466,14.4210594300001,0
                99.5587232720001,14.4205787540001,0
                99.5589334200001,14.4202944640001,0
                99.5590731120001,14.4199418380001,0
                99.5590925860001,14.4196971440001,0
                99.5590413310001,14.4192764650001,0
                99.5587683150001,14.418467707,0
                99.5582594270001,14.417495891,0
                99.5551531290001,14.417900301,0
                99.5549394970001,14.4179008030001,0
                99.5545981980001,14.4178784000001,0
                99.554288603,14.417840454,0
                99.553947168,14.4177639110001,0
                99.5536771380001,14.4176794630001,0
                99.5535180900001,14.417635945,0
                99.5531893460001,14.417467077,0
                99.5522652050001,14.416837963,0
                99.5521658920001,14.416808996,0
                99.552056066,14.4168092530001,0
                99.5519831570001,14.4168133700001,0
                99.551866262,14.416866871,0
                99.5518103420001,14.416925846,0
                99.551660246,14.4172046420001,0
                99.5515262110001,14.4175607440001,0
                99.5513438200001,14.4179689850001,0
                99.5512979170001,14.4181693620001,0
                99.551297445,14.418171402,0
                99.5512442150001,14.418308575,0
                99.5511909270001,14.418422907,0
                99.551120843,14.418511171,0
                99.551064061,14.4185667720001,0
                99.5509503280001,14.4186061950001,0
                99.5508331460001,14.4186064680001,0
                99.550685828,14.418603551,0
                99.5505184470001,14.4186104680001,0
                99.550417967,14.4185943860001,0
                99.550173606,14.418611272,0
                99.5499593540001,14.418618295,0
                99.549745075,14.4186155350001,0
                99.5496647590001,14.418628773,0
                99.549607961,14.4186778490001,0
                99.5495411470001,14.4187367370001,0
                99.5494642880001,14.418795651,0
                99.5493573530001,14.4188774790001,0
                99.5491433000001,14.418966079,0
                99.548795108,14.4189668880001,0
                99.5486277360001,14.4189770630001,0
                99.5484402710001,14.418987287,0
                99.5482829420001,14.4189974450001,0
                99.5481625230001,14.4190434060001,0
                99.5480355430001,14.4191415880001,0
                99.547898532,14.419246328,0
                99.5478251160001,14.419344385,0
                99.547721789,14.419533883,0
                99.5476319040001,14.419742924,0
                99.5475921270001,14.419906166,0
                99.5474687920001,14.4201283420001,0
                99.5474022000001,14.4202785960001,0
                99.5473422220001,14.4203962030001,0
                99.547265602,14.420553005,0
                99.5472322160001,14.4205922400001,0
                99.5471183930001,14.420595765,0
                99.5469610230001,14.4205896030001,0
                99.546646906,14.420546732,0
                99.5460633960001,14.4201468900001,0
                99.5446802540001,14.4185785380001,0
                99.544566628,14.418525072,0
                99.5445080580001,14.4184430340001,0
                99.544504654,14.418376672,0
                99.54453691,14.418307065,0
                99.5445172890001,14.418237586,0
                99.544279767,14.4179094400001,0
                99.544166127,14.4178496550001,0
                99.5440590570001,14.417824615,0
                99.543942266,14.417802759,0
                99.5438611420001,14.4177808270001,0
                99.543669622,14.4176990990001,0
                99.543192424,14.4174852830001,0
                99.542965182,14.417381511,0
                99.542809536,14.4173850290001,0
                99.542709077,14.417413702,0
                99.542605532,14.4175024350001,0
                99.5424989080001,14.417663862,0
                99.5424407080001,14.417733528,0
                99.5423564990001,14.417774805,0
                99.5421717890001,14.417828957,0
                99.5418055370001,14.4179024900001,0
                99.5415980610001,14.417928252,0
                99.541366995,14.417898763,0
                99.5413061260001,14.417890991,0
                99.540874537,14.417765563,0
                99.5406246950001,14.417702924,0
                99.540491666,14.4176716270001,0
                99.540014705,14.417555781,0
                99.539699908,14.4174522070001,0
                99.5396284930001,14.4174207630001,0
                99.5393399930001,14.4174656660001,0
                99.5392264530001,14.417446968,0
                99.5391485280001,14.4174060550001,0
                99.5390281520001,14.4172419870001,0
                99.538972943,14.4172073500001,0
                99.5389178250001,14.417210637,0
                99.538700572,14.417214288,0
                99.538587078,14.4172145470001,0
                99.5384669620001,14.4171579330001,0
                99.5383077850001,14.4170413640001,0
                99.5382720420001,14.417009836,0
                99.538233125,14.4170099250001,0
                99.5379706510001,14.417086372,0
                99.5379155210001,14.4170864970001,0
                99.5378570840001,14.417058189,0
                99.537704465,14.4169700470001,0
                99.537652548,14.416957516,0
                99.53758122,14.4169608460001,0
                99.5375034930001,14.417002106,0
                99.5374516850001,14.417033826,0
                99.5373836040001,14.417040302,0
                99.5373446870001,14.4170403910001,0
                99.5372927590001,14.4170215500001,0
                99.537167008,14.4168675,0
                99.537080325,14.4167792000001,0
                99.5370586130001,14.416741326,0
                99.5370281350001,14.416652905,0
                99.5370191100001,14.416497008,0
                99.5370283140001,14.416300833,0
                99.537005014,14.416025072,0
                99.5369656710001,14.415843965,0
                99.536887279,14.415608159,0
                99.5367788040001,14.4154482750001,0
                99.536640058,14.415284247,0
                99.5365145200001,14.415221316,0
                99.536332911,14.4152133040001,0
                99.536155631,14.4152094940001,0
                99.5360431770001,14.415192893,0
                99.5359565260001,14.4151172370001,0
                99.535666049,14.4147849930001,0
                99.535505587,14.4145788710001,0
                99.5352803380001,14.4144023970001,0
                99.535059571,14.414293333,0
                99.534960068,14.4142682780001,0
                99.5349253700001,14.414222001,0
                99.534890482,14.41409566,0
                99.5348815390001,14.413973475,0
                99.534876996,14.413880776,0
                99.5348076400001,14.413805086,0
                99.5346819530001,14.4136789510001,0
                99.534461042,14.4135066760001,0
                99.5342186390001,14.413389232,0
                99.5337901990001,14.4132179550001,0
                99.5335305730001,14.4131300510001,0
                99.5333974520001,14.4130576590001,0
                99.5331308450001,14.412761177,0
                99.5330756530001,14.412732856,0
                99.5329556840001,14.412736286,0
                99.5326835580001,14.4128443560001,0
                99.5324148350001,14.4130219530001,0
                99.5322528190001,14.4130728860001,0
                99.532045382,14.4131112760001,0
                99.5317278080001,14.413200482,0
                99.5312515960001,14.41339435,0
                99.5310733410001,14.413435835,0
                99.5308820450001,14.413445741,0
                99.5306453620001,14.4134589170001,0
                99.5304476480001,14.4134972890001,0
                99.5303440630001,14.413573371,0
                99.5302923830001,14.4136588210001,0
                99.530263301,14.413703132,0
                99.5301304170001,14.413731878,0
                99.5300397970001,14.413804773,0
                99.530014108,14.413912286,0
                99.5300108760001,14.414017576,0
                99.5300080900001,14.414108249,0
                99.5299855750001,14.4141873140001,0
                99.5299208640001,14.4142475030001,0
                99.5298171220001,14.4142572170001,0
                99.5294668940001,14.414251682,0
                99.5290551040001,14.414265249,0
                99.528422951,14.414339354,0
                99.5282090600001,14.4143935610001,0
                99.5276093640001,14.4144802380001,0
                99.527168477,14.414531788,0
                99.526964207,14.414541727,0
                99.5267631150001,14.4145232110001,0
                99.5264776290001,14.414466959,0
                99.5262408010001,14.4144200800001,0
                99.526062439,14.4144141570001,0
                99.5259294960001,14.4144176130001,0
                99.525867856,14.414405109,0
                99.525828887,14.414383075,0
                99.5258093180001,14.4143325470001,0
                99.525805823,14.4142250990001,0
                99.5258024030001,14.4141524140001,0
                99.52576336,14.414095613,0
                99.5257146100001,14.4140483150001,0
                99.5255912480001,14.41398854,0
                99.5254438380001,14.4139392750001,0
                99.5253065310001,14.4139402180001,0
                99.5252312150001,14.4139482590001,0
                99.52504322,14.413983439,0
                99.5248227600001,14.4140028940001,0
                99.5245405900001,14.4139782350001,0
                99.5242844310001,14.4139851250001,0
                99.5241254690001,14.4139538750001,0
                99.524021567,14.413897218,0
                99.523972771,14.41383095,0
                99.523959506,14.4137045590001,0
                99.5239787690001,14.4136223470001,0
                99.524030408,14.413517939,0
                99.5240464030001,14.413423086,0
                99.5240331640001,14.413309339,0
                99.5238828710001,14.412826119,0
                99.5238244080001,14.412785162,0
                99.5236947510001,14.412807571,0
                99.523581392,14.4128647100001,0
                99.5234324470001,14.4129566980001,0
                99.5233222290001,14.412972745,0
                99.5231891540001,14.412919307,0
                99.5231436020001,14.412853043,0
                99.5231303070001,14.412714011,0
                99.523105005,14.41259817,0
                99.5231040880001,14.4125939690001,0
                99.5230990480001,14.4125887870001,0
                99.523042886,14.412530991,0
                99.5229741750001,14.412505761,0
                99.5228509400001,14.412499718,0
                99.5225882380001,14.4124813340001,0
                99.522545187,14.412477014,0
                99.522510378,14.4124560240001,0
                99.522481091,14.412421523,0
                99.5224776790001,14.4123488380001,0
                99.5224969760001,14.4122792630001,0
                99.5225811270001,14.412212707,0
                99.5226198820001,14.41214625,0
                99.5226392000001,14.4120861590001,0
                99.5226390450001,14.4120197890001,0
                99.5226061800001,14.4118302370001,0
                99.5225669540001,14.411697583,0
                99.5224824080001,14.4115966300001,0
                99.522454124,14.4115812060001,0
                99.522430467,14.4115683040001,0
                99.522349288,14.411521072,0
                99.5222971740001,14.411470513,0
                99.522245034,14.411458098,0
                99.52221295,14.4114581690001,0
                99.5221563040001,14.411485181,0
                99.522093103,14.4115153220001,0
                99.5219635380001,14.4115756570001,0
                99.521866291,14.4115916760001,0
                99.521769008,14.4115887300001,0
                99.5216910940001,14.411550973,0
                99.521580698,14.411488008,0
                99.521528603,14.4113964650001,0
                99.5214505800001,14.4113113070001,0
                99.5213595000001,14.41125319,0
                99.521327177,14.411232566,0
                99.5210869200001,14.4111035220001,0
                99.5208661300001,14.410977589,0
                99.5207037810001,14.4108862890001,0
                99.5206097550001,14.4108896590001,0
                99.5205189800001,14.4108993400001,0
                99.5204380660001,14.410965888,0
                99.5204051270001,14.410989703,0
                99.5203021010001,14.4110641620001,0
                99.520243969,14.4111654290001,0
                99.520192292,14.411254033,0
                99.5201535,14.4113046860001,0
                99.5200822190001,14.411330128,0
                99.5199070740001,14.4113115500001,0
                99.5198162200001,14.4112864640001,0
                99.5197447260001,14.411220256,0
                99.5197023470001,14.41112237,0
                99.5196826110001,14.4110023170001,0
                99.519659813,14.41095812,0
                99.5195591550001,14.4108982930001,0
                99.519474771,14.410866877,0
                99.519325585,14.4108577170001,0
                99.5191375400001,14.410870774,0
                99.51901438,14.4108963300001,0
                99.5189106240001,14.410899719,0
                99.5188457720001,14.4108998610001,0
                99.518800319,14.4108778350001,0
                99.518371486,14.410527964,0
                99.5181425710001,14.410365014,0
                99.5179200090001,14.410206584,0
                99.5177902070001,14.410162622,0
                99.5176345580001,14.4101629630001,0
                99.5175405250001,14.410163169,0
                99.517491857,14.410150634,0
                99.5173717790001,14.410109811,0
                99.5172194890001,14.410110145,0
                99.5172128940001,14.4101101590001,0
                99.5170636720001,14.4100852,0
                99.5168884400001,14.4100286950001,0
                99.516871935,14.4100141800001,0
                99.516784466,14.409937272,0
                99.516696768,14.409874254,0
                99.5165119090001,14.409862015,0
                99.516349899,14.40987004,0
                99.5157254480001,14.409784487,0
                99.5153166170001,14.409671603,0
                99.5150668190001,14.4096215760001,0
                99.514956436,14.4095649280001,0
                99.5148946040001,14.409468212,0
                99.5148555550001,14.409407125,0
                99.5146798580001,14.409148348,0
                99.5145499230001,14.4090474970001,0
                99.5143098030001,14.4089753260001,0
                99.514166989,14.4089155890001,0
                99.5140273580001,14.408827402,0
                99.513787102,14.4086983440001,0
                99.5135729120001,14.408619795,0
                99.513284303,14.4086141020001,0
                99.5130768880001,14.40866512,0
                99.512846767,14.4087098640001,0
                99.512577584,14.408691488,0
                99.512230462,14.40861955,0
                99.5121071180001,14.4086007540001,0
                99.5102865140001,14.4075401170001,0
                99.5100325610001,14.4074058200001,0
                99.509701905,14.407339112,0
                99.509371334,14.407309857,0
                99.5085872100001,14.4072516140001,0
                99.508176119,14.40717621,0
                99.506557908,14.406644602,0
                99.504536321,14.405728916,0
                99.5036272670001,14.405564112,0
                99.5034762080001,14.4055695110001,0
                99.5029709040001,14.4055604320001,0
                99.502632249,14.405535768,0
                99.502230958,14.405450306,0
                99.5020746060001,14.405415098,0
                99.5018819540001,14.4054561240001,0
                99.5013977,14.405543467,0
                99.500757218,14.4056514480001,0
                99.5002259990001,14.405703347,0
                99.500033343,14.405739292,0
                99.4999553950001,14.4058257720001,0
                99.499893221,14.405978223,0
                99.499768852,14.406267891,0
                99.499680792,14.4064914780001,0
                99.499655176,14.4066844660001,0
                99.499577216,14.406765869,0
                99.4994472240001,14.4068727690001,0
                99.499443156,14.4068886110001,0
                99.4994164020001,14.40699268,0
                99.49941664,14.4070998070001,0
                99.499389411,14.407210822,0
                99.499323012,14.4073601810001,0
                99.4992763070001,14.407540103,0
                99.4992489950001,14.4076166840001,0
                99.4991705850001,14.407662762,0
                99.4990489030001,14.407663019,0
                99.498946592,14.407552277,0
                99.4988030440001,14.407343708,0
                99.4984310400001,14.406960326,0
                99.4983367090001,14.4069069620001,0
                99.4982424520001,14.4068842040001,0
                99.4981247160001,14.406899755,0
                99.4980620300001,14.4069534540001,0
                99.4980229450001,14.4070300550001,0
                99.4980073980001,14.4070989570001,0
                99.4979368680001,14.4071564970001,0
                99.4977760530001,14.4072142270001,0
                99.497615049,14.4071877860001,0
                99.497300598,14.4070009660001,0
                99.4971945330001,14.40696676,0
                99.497072889,14.406986144,0
                99.4969867070001,14.407066672,0
                99.4969280030001,14.407147143,0
                99.4967289050001,14.4076449520001,0
                99.4965567880001,14.407916963,0
                99.496349115,14.408089567,0
                99.496314124,14.408242688,0
                99.4963222910001,14.408384234,0
                99.496503675,14.408751153,0
                99.4965944630001,14.4089767020001,0
                99.496618126,14.4090263890001,0
                99.496563252,14.409064765,0
                99.4964926270001,14.4090802150001,0
                99.4964495580001,14.4091300420001,0
                99.49644605,14.409317527,0
                99.49647767,14.4094169410001,0
                99.496532818,14.409504827,0
                99.4966822270001,14.4096116420001,0
                99.496807942,14.40965729,0
                99.497000373,14.40969132,0
                99.497126096,14.409740792,0
                99.4972402010001,14.4098591600001,0
                99.4972993170001,14.409966163,0
                99.497338874,14.4101038200001,0
                99.4973746620001,14.4103103520001,0
                99.4973790660001,14.4105246,0
                99.49736003,14.4107924640001,0
                99.4973139420001,14.4112516860001,0
                99.4972758660001,14.4117835910001,0
                99.4972763660001,14.412009325,0
                99.497276587,14.412108801,0
                99.4973003280001,14.412192928,0
                99.4973908740001,14.4123113430001,0
                99.4974616850001,14.4123762350001,0
                99.4975637530001,14.4123798430001,0
                99.4976383220001,14.412372039,0
                99.4977089050001,14.4123374550001,0
                99.4978067640001,14.412210987,0
                99.4978851930001,14.412176388,0
                99.498022522,14.412145487,0
                99.4981677660001,14.41214518,0
                99.4983718020001,14.412102668,0
                99.498583636,14.4120371810001,0
                99.4986700140001,14.4120446480001,0
                99.4987367940001,14.4120636370001,0
                99.4987879600001,14.4121247460001,0
                99.498933579,14.4122927870001,0
                99.4989769320001,14.4123692150001,0
                99.4989849840001,14.412461023,0
                99.4989811360001,14.4124954650001,0
                99.498941986,14.412541461,0
                99.4988674260001,14.4125530970001,0
                99.4987456270001,14.412507442,0
                99.498639569,14.412477054,0
                99.498557163,14.412488707,0
                99.4984984150001,14.4125500480001,0
                99.4984043470001,14.4126152920001,0
                99.4982709980001,14.4126691330001,0
                99.4981611790001,14.4127152780001,0
                99.4980866980001,14.4127613540001,0
                99.498079036,14.412845541,0
                99.498079299,14.4129641480001,0
                99.498122767,14.413094141,0
                99.4982093630001,14.4131972640001,0
                99.498347197,14.4133959210001,0
                99.4983983290001,14.4134417270001,0
                99.4984493850001,14.4134531030001,0
                99.4985082750001,14.4134529790001,0
                99.4985592290001,14.41341843,0
                99.498845132,14.413119398,0
                99.4989664920001,14.412969924,0
                99.4990724640001,14.4129620520001,0
                99.499194167,14.4129694430001,0
                99.499308146,14.4130304230001,0
                99.4994025070001,14.413095264,0
                99.4995321100001,14.413121771,0
                99.499716677,14.4131519910001,0
                99.4998307260001,14.413243575,0
                99.499859713,14.4132829530001,0
                99.4998897870001,14.413323797,0
                99.4999215060001,14.413465294,0
                99.4999217100001,14.4135571190001,0
                99.4999128310001,14.41358151,0
                99.4998826930001,14.4136643310001,0
                99.499831859,14.4137524400001,0
                99.499596604,14.4138791940001,0
                99.4994045080001,14.4139943810001,0
                99.499290891,14.414094102,0
                99.4992558160001,14.4142089530001,0
                99.499263876,14.4143045920001,0
                99.4992954190001,14.4143657400001,0
                99.4993780340001,14.4144459080001,0
                99.4994175290001,14.414552959,0
                99.499417699,14.4146294770001,0
                99.4994061610001,14.4147366290001,0
                99.4993435050001,14.414805637,0
                99.4992611530001,14.4148440700001,0
                99.499080619,14.414863579,0
                99.4989472450001,14.41490595,0
                99.4988924030001,14.414959627,0
                99.4988729560001,14.415040021,0
                99.4988613410001,14.4151127390001,0
                99.498896888,14.4152121390001,0
                99.499026696,14.415330473,0
                99.499179917,14.415383713,0
                99.4993722620001,14.415379483,0
                99.499470263,14.4153180610001,0
                99.4996348050001,14.41516849,0
                99.49974445,14.415045826,0
                99.499838604,14.4150188470001,0
                99.4999877060001,14.41498792,0
                99.5001210180001,14.4149149450001,0
                99.5001500650001,14.414914884,0
                99.5001956020001,14.414914788,0
                99.500250593,14.414929973,0
                99.5002663770001,14.414964374,0
                99.5002665220001,14.4150294190001,0
                99.5002274400001,14.415109849,0
                99.5001938140001,14.415160751,0
                99.5001413690001,14.4152401170001,0
                99.500118162,14.415393206,0
                99.5000677730001,14.415684089,0
                99.499977942,14.415890888,0
                99.4998800770001,14.416013532,0
                99.499719385,14.416128654,0
                99.4994724270001,14.416289867,0
                99.4991665730001,14.416443556,0
                99.4990451360001,14.416558594,0
                99.49898261,14.4166888130001,0
                99.4989987690001,14.4168915610001,0
                99.4990541490001,14.4170827450001,0
                99.4992234870001,14.4173234310001,0
                99.499309941,14.4173615060001,0
                99.499364895,14.4173613900001,0
                99.4994237050001,14.4173268320001,0
                99.4994706680001,14.4172616870001,0
                99.4994705060001,14.4171889940001,0
                99.4994270070001,14.4170475220001,0
                99.499414932,14.4169136370001,0
                99.499438281,14.416821763,0
                99.4995636560001,14.4167105400001,0
                99.499653874,14.416679743,0
                99.4997834540001,14.416694772,0
                99.4999052420001,14.4167365970001,0
                99.499980023,14.41682444,0
                99.5000038330001,14.4169391730001,0
                99.5000002,14.4170692650001,0
                99.5000160270001,14.4171266220001,0
                99.5000632890001,14.417195394,0
                99.5003150150001,14.4174129460001,0
                99.5003466270001,14.4175047000001,0
                99.5003467640001,14.4175659200001,0
                99.500268556,14.41770382,0
                99.500170896,14.4179182880001,0
                99.500147998,14.4182129440001,0
                99.500145063,14.41865677,0
                99.5001381760001,14.419089129,0
                99.5001188910001,14.4192422130001,0
                99.5000681260001,14.419364756,0
                99.5000014880001,14.419406979,0
                99.4999308920001,14.419437739,0
                99.499726793,14.419453474,0
                99.4996130710001,14.419507276,0
                99.4995543730001,14.419591579,0
                99.4995309990001,14.419671975,0
                99.4995155300001,14.419779137,0
                99.4995080510001,14.4199474980001,0
                99.499535902,14.4201119570001,0
                99.4996545930001,14.4205249180001,0
                99.4996626800001,14.420632035,0
                99.4996235350001,14.4206818540001,0
                99.499498056,14.420747165,0
                99.4994354680001,14.4208467720001,0
                99.499412212,14.420980736,0
                99.4994281390001,14.4210801780001,0
                99.4994793690001,14.4211680710001,0
                99.4995383310001,14.4212023800001,0
                99.499612917,14.421202222,0
                99.4997109910001,14.4211714040001,0
                99.5000207630001,14.421010054,0
                99.5002640690001,14.420971278,0
                99.5003622930001,14.421005504,0
                99.500456538,14.421020608,0
                99.500566377,14.4209821150001,0
                99.500656442,14.4208824450001,0
                99.500742679,14.420824871,0
                99.5008956610001,14.420770986,0
                99.5010527320001,14.4207897790001,0
                99.501147153,14.4208814030001,0
                99.5012287580001,14.4209774600001,0
                99.5013872540001,14.421164026,0
                99.501493495,14.421274753,0
                99.5015408610001,14.421389435,0
                99.5015960570001,14.421496447,0
                99.501662943,14.4215613430001,0
                99.5017179220001,14.4215688800001,0
                99.5018317650001,14.4215686380001,0
                99.502055414,14.421518426,0
                99.502271324,14.421514141,0
                99.50238133,14.4215521680001,0
                99.5024481730001,14.421601762,0
                99.502566195,14.4217124680001,0
                99.5026725230001,14.4218614530001,0
                99.5027120010001,14.4219608490001,0
                99.5027318640001,14.422064112,0
                99.502724173,14.422136821,0
                99.5026732440001,14.422182843,0
                99.5025006440001,14.4222406010001,0
                99.5021748650001,14.4222680770001,0
                99.5020650070001,14.422295091,0
                99.502021869,14.422314316,0
                99.501998443,14.422371755,0
                99.501986898,14.422475084,0
                99.502002958,14.422635746,0
                99.5020502840001,14.4227312950001,0
                99.5021131870001,14.422773245,0
                99.502266359,14.4228035300001,0
                99.5023842100001,14.422837714,0
                99.5025060510001,14.422902492,0
                99.502604289,14.4229443730001,0
                99.5029348500001,14.423299489,0
                99.5030764890001,14.423440756,0
                99.5031472210001,14.4234712090001,0
                99.5032650800001,14.4235092230001,0
                99.5033476660001,14.4235740870001,0
                99.503383129,14.4236314020001,0
                99.503383344,14.4237270510001,0
                99.5033091320001,14.423895553,0
                99.5031523650001,14.4240145000001,0
                99.502956328,14.4241258710001,0
                99.5028032500001,14.424137676,0
                99.5027325400001,14.4241148690001,0
                99.5027049350001,14.424061366,0
                99.502696917,14.4239848600001,0
                99.5027359650001,14.4238929520001,0
                99.50281814,14.423774168,0
                99.502817968,14.423697652,0
                99.502809971,14.423632624,0
                99.5027705680001,14.423567663,0
                99.502660512,14.423506683,0
                99.5025426780001,14.423480151,0
                99.5024445620001,14.4234918390001,0
                99.5024054030001,14.4235378340001,0
                99.5023742340001,14.4236412060001,0
                99.5023549360001,14.423790459,0
                99.5023236820001,14.423859394,0
                99.502221719,14.4239055240001,0
                99.5021040830001,14.423966996,0
                99.501939463,14.4240821230001,0
                99.501857068,14.424105255,0
                99.5017814980001,14.4240838860001,0
                99.5016500890001,14.424006311,0
                99.50151013,14.4240171050001,0
                99.50140795,14.424069796,0
                99.501375749,14.424117086,0
                99.5013759130001,14.4241905540001,0
                99.501419141,14.424258676,0
                99.501430084,14.4243373630001,0
                99.501430225,14.42440033,0
                99.5014143050001,14.4245053120001,0
                99.5013608290001,14.424668092,0
                99.5011731850001,14.425025314,0
                99.501157279,14.4251355390001,0
                99.5011789320001,14.4251879610001,0
                99.5012328780001,14.425235075,0
                99.5013244200001,14.4252401320001,0
                99.5015075370001,14.425265978,0
                99.5016638170001,14.425328614,0
                99.5018417410001,14.4254384290001,0
                99.5018902400001,14.4254593150001,0
                99.501954804,14.425438189,0
                99.5020093250001,14.425364277,0
                99.5020943710001,14.425248986,0
                99.5021750870001,14.425227826,0
                99.5022289350001,14.425232958,0
                99.502293593,14.425253813,0
                99.502379928,14.425337584,0
                99.5024177330001,14.4253899760001,0
                99.502417875,14.4254529450001,0
                99.5023646110001,14.425710182,0
                99.502348962,14.425935845,0
                99.5023169510001,14.4260671010001,0
                99.502279404,14.4261301500001,0
                99.5021547860001,14.426181742,0
                99.502037338,14.4262303620001,0
                99.5018976140001,14.426346102,0
                99.5018172850001,14.426540425,0
                99.501726454,14.4268502080001,0
                99.5015461120001,14.4280679770001,0
                99.5015357820001,14.42826215,0
                99.5015628770001,14.4283408000001,0
                99.501719183,14.428413935,0
                99.501956158,14.4284449100001,0
                99.5020208170001,14.428465761,0
                99.5020909470001,14.4285285820001,0
                99.5021504580001,14.4286543910001,0
                99.5021993720001,14.428858936,0
                99.502221288,14.4290268,0
                99.502221637,14.429027768,0
                99.5022610170001,14.4291360400001,0
                99.5016033260001,14.4293885760001,0
                99.500864059,14.429621142,0
                99.5004547220001,14.429650011,0
                99.5001242070001,14.429594712,0
                99.4999085580001,14.4295181700001,0
                99.499319336,14.4294004220001,0
                99.4976162070001,14.428998031,0
                99.4975745950001,14.428985273,0
                99.4963357870001,14.4286054630001,0
                99.495910139,14.428529973,0
                99.4956012220001,14.4286120730001,0
                99.495283042,14.428728012,0
                99.4947017950001,14.428989256,0
                99.494040231,14.4292694530001,0
                99.493372154,14.4295120730001,0
                99.492951271,14.4296100670001,0
                99.4916273790001,14.4298289920001,0
                99.4894219130001,14.430224417,0
                99.4876812510001,14.430825358,0
                99.4874934110001,14.430962595,0
                99.4868103890001,14.431931505,0
                99.4863350320001,14.43290968,0
                99.485986573,14.433685944,0
                99.485984919,14.433687446,0
                99.485335294,14.434276706,0
                99.4848567340001,14.43442064,0
                99.4835697650001,14.4348077080001,0
                99.4819160800001,14.4355401080001,0
                99.4790065990001,14.4370195860001,0
                99.4761936350001,14.438995178,0
                99.472960115,14.441869669,0
                99.4701303690001,14.4436151960001,0
                99.4693460380001,14.4440990000001,0
                99.468406567,14.4451474580001,0
                99.468157626,14.4451934580001,0
                99.4678076580001,14.445307912,0
                99.467418922,14.445490702,0
                99.4670146970001,14.445711438,0
                99.4666727640001,14.4459472190001,0
                99.466416703,14.4463117560001,0
                99.4659586760001,14.4468587120001,0
                99.465624587,14.447124807,0
                99.4654846750001,14.447208512,0
                99.4652746470001,14.4472544330001,0
                99.4650566770001,14.447224524,0
                99.464503934,14.4471346080001,0
                99.4638966540001,14.447014456,0
                99.4637100630001,14.4469970920001,0
                99.4635775100001,14.4469847460001,0
                99.4632818530001,14.447023255,0
                99.4624885060001,14.4472447420001,0
                99.4607616760001,14.447672832,0
                99.4594082790001,14.4480395040001,0
                99.4587935850001,14.4481013760001,0
                99.4582811660001,14.4480771500001,0
                99.4575646530001,14.4479563940001,0
                99.4568671590001,14.447771523,0
                99.456818711,14.4478310050001,0
                99.4565567770001,14.4481855920001,0
                99.4563210380001,14.4485059960001,0
                99.4557063600001,14.449299942,0
                99.4556226390001,14.449374404,0
                99.455119476,14.4496345420001,0
                99.4548091280001,14.4498655030001,0
                99.454538132,14.450070797,0
                99.454293449,14.450301633,0
                99.4540445840001,14.4506305950001,0
                99.4539840950001,14.4508086060001,0
                99.4539504970001,14.4508771650001,0
                99.4539340220001,14.450900812,0
                99.4538818970001,14.4509511370001,0
                99.4537476560001,14.4510023130001,0
                99.4535595780001,14.4510837240001,0
                99.4532710930001,14.451301847,0
                99.453087757,14.451562429,0
                99.4529913640001,14.451670699,0
                99.4529636030001,14.4516898210001,0
                99.452932274,14.4516949690001,0
                99.4529023890001,14.4516998830001,0
                99.4528600840001,14.4516999640001,0
                99.4526678590001,14.451742407,0
                99.4525428430001,14.4517900600001,0
                99.4525260650001,14.4518014820001,0
                99.452497167,14.4518297490001,0
                99.4524840910001,14.4518568,0
                99.4524560280001,14.4518821930001,0
                99.452434355,14.4518992330001,0
                99.4523821430001,14.4519214760001,0
                99.4523456900001,14.451924445,0
                99.4522654620001,14.4519180840001,0
                99.451892936,14.4519310360001,0
                99.451867511,14.451934855,0
                99.4517315180001,14.451987365,0
                99.4512592950001,14.4522698270001,0
                99.4509226470001,14.4524880380001,0
                99.450638627,14.4527530710001,0
                99.4504418590001,14.4528686300001,0
                99.450253719,14.4529201820001,0
                99.449964777,14.4529122020001,0
                99.449785218,14.4528784140001,0
                99.4496276560001,14.4528957810001,0
                99.4494614810001,14.4529856880001,0
                99.4491948090001,14.453169632,0
                99.4489151640001,14.453434659,0
                99.4485749730001,14.454070938,0
                99.4484089760001,14.4542504300001,0
                99.448207847,14.4543745240001,0
                99.4480824350001,14.454437673,0
                99.448032713,14.45445284,0
                99.4479882130001,14.454455334,0
                99.4478705290001,14.454450675,0
                99.44770005,14.4543882900001,0
                99.4474548050001,14.4543418280001,0
                99.4468946270001,14.454432476,0
                99.446868114,14.454440279,0
                99.446788623,14.454481909,0
                99.4467752560001,14.454499012,0
                99.4467451890001,14.4545874780001,0
                99.4467417860001,14.4546247380001,0
                99.4467420330001,14.454748454,0
                99.446707174,14.454829569,0
                99.4466433740001,14.4548788500001,0
                99.4465665450001,14.4548956400001,0
                99.446488425,14.4548982430001,0
                99.4463352000001,14.4548985330001,0
                99.446182493,14.4548931,0
                99.4460445770001,14.454869366,0
                99.445866601,14.454809835,0
                99.44570894,14.454780273,0
                99.445665379,14.454755177,0
                99.445561791,14.4546575860001,0
                99.4452826780001,14.4542390280001,0
                99.4451695160001,14.4540195380001,0
                99.4449493210001,14.453833209,0
                99.4448147730001,14.453781996,0
                99.4447654360001,14.453772476,0
                99.4445771890001,14.4537680060001,0
                99.4443066860001,14.4537904790001,0
                99.4438615870001,14.453879205,0
                99.4437553000001,14.453923649,0
                99.4437060710001,14.4539331290001,0
                99.4433683830001,14.454079516,0
                99.4429516760001,14.4541999890001,0
                99.4422671720001,14.454390873,0
                99.442070803,14.45445016,0
                99.4418842300001,14.4544826040001,0
                99.4415124290001,14.454483301,0
                99.441177671,14.4544308390001,0
                99.440852298,14.454349289,0
                99.440371628,14.4542626690001,0
                99.4399087030001,14.4542360300001,0
                99.4394964560001,14.454358137,0
                99.439146587,14.454540809,0
                99.4384405370001,14.455090834,0
                99.4382065770001,14.4554071360001,0
                99.437981354,14.455650244,0
                99.4376859500001,14.455825227,0
                99.43655017,14.4560851910001,0
                99.4339514000001,14.456438857,0
                99.4338492680001,14.4559460840001,0
                99.433048215,14.456243332,0
                99.4329546600001,14.456160084,0
                99.432415952,14.45519576,0
                99.432298636,14.454985762,0
                99.4320965360001,14.4551150670001,0
                99.4320439050001,14.4552000460001,0
                99.431941362,14.4553656200001,0
                99.4317316120001,14.4555631910001,0
                99.4315683340001,14.4556469140001,0
                99.4308909530001,14.455504057,0
                99.42997102,14.4552285840001,0
                99.4296590200001,14.4550889510001,0
                99.4294837530001,14.4550082150001,0
                99.429334721,14.454910367,0
                99.4292251140001,14.4548295180001,0
                99.429172415,14.4547400230001,0
                99.4290671000001,14.454612237,0
                99.4290057140001,14.4545611560001,0
                99.4288524780001,14.454557171,0
                99.428668697,14.4546001620001,0
                99.4285550550001,14.454694225,0
                99.428489389,14.4546943450001,0
                99.4282311330001,14.454711875,0
                99.4280647680001,14.454707913,0
                99.427512956,14.4545979970001,0
                99.4274780010001,14.4546321930001,0
                99.4275048630001,14.454943562,0
                99.4265474050001,14.4551976920001,0
                99.426546595,14.455192724,0
                99.425977383,14.455269845,0
                99.4235720090001,14.4553486840001,0
                99.4237309480001,14.4554522820001,0
                99.4239365430001,14.4555594,0
                99.4240800310001,14.4556651840001,0
                99.4242896000001,14.4558395770001,0
                99.4243217370001,14.455881178,0
                99.4243779240001,14.4560304030001,0
                99.424373614,14.4561358880001,0
                99.424296074,14.4564789130001,0
                99.4242967440001,14.456832059,0
                99.424296917,14.456922949,0
                99.4242975440001,14.45725386,0
                99.4243284940001,14.457615108,0
                99.4243447760001,14.4576624150001,0
                99.4244103560001,14.45777988,0
                99.4244889710001,14.4578608790001,0
                99.4246411570001,14.457965146,0
                99.4247882290001,14.458037507,0
                99.4248753520001,14.45806644,0
                99.425034462,14.458090756,0
                99.4252489350001,14.458087833,0
                99.4256006670001,14.458104775,0
                99.425929904,14.4581481170001,0
                99.4261554770001,14.458213614,0
                99.4262412470001,14.4582661860001,0
                99.426431768,14.458481406,0
                99.4264347340001,14.4584836970001,0
                99.426513195,14.4585508340001,0
                99.4265750430001,14.458586843,0
                99.4266467360001,14.4586019880001,0
                99.4267652080001,14.458601774,0
                99.426880661,14.458590115,0
                99.426947167,14.458569332,0
                99.4270212360001,14.4585296330001,0
                99.4271428000001,14.458435493,0
                99.427211168,14.458376059,0
                99.427227837,14.458367466,0
                99.4272557720001,14.458362526,0
                99.4272999560001,14.4583882530001,0
                99.4273316110001,14.4584337200001,0
                99.4273914620001,14.458501669,0
                99.4274342150001,14.4585354880001,0
                99.4274860850001,14.4585858450001,0
                99.4275173030001,14.4586060450001,0
                99.4275372820001,14.4586159950001,0
                99.4275820220001,14.4586281690001,0
                99.4276290600001,14.458629397,0
                99.4277125670001,14.458620266,0
                99.4277148940001,14.458619255,0
                99.427772647,14.4586122100001,0
                99.427812224,14.4586036970001,0
                99.427892091,14.458574707,0
                99.4279152460001,14.4585588510001,0
                99.427922913,14.4585494720001,0
                99.4279307070001,14.4585309240001,0
                99.427932448,14.458513871,0
                99.4279163620001,14.4583903020001,0
                99.4279162480001,14.4583304650001,0
                99.4279213040001,14.458316128,0
                99.4279314070001,14.458301299,0
                99.4279571540001,14.4582845050001,0
                99.4279634680001,14.4582825580001,0
                99.427983886,14.4582816490001,0
                99.4279958420001,14.458282943,0
                99.428012913,14.45828813,0
                99.4280246110001,14.458297422,0
                99.428104616,14.4583565940001,0
                99.4283116340001,14.458513586,0
                99.4284441120001,14.458568626,0
                99.42874636,14.4586471640001,0
                99.4289178370001,14.458717151,0
                99.428999106,14.458774121,0
                99.4290173250001,14.458870747,0
                99.4290996890001,14.459494513,0
                99.4291722740001,14.4597272520001,0
                99.429304372,14.460047318,0
                99.429279718,14.4602501160001,0
                99.4292546300001,14.4603466180001,0
                99.4291294960001,14.4609312170001,0
                99.4290264900001,14.461296084,0
                99.4290267430001,14.461427897,0
                99.429058776,14.461673884,0
                99.4292674750001,14.462341359,0
                99.4294127030001,14.462828799,0
                99.4294221680001,14.4630616530001,0
                99.429355393,14.4635099340001,0
                99.4293200820001,14.4638964390001,0
                99.4293068140001,14.4640416670001,0
                99.4292582940001,14.4646041570001,0
                99.4292722260001,14.464815033,0
                99.429335687,14.464990669,0
                99.4294625360001,14.465297998,0
                99.4296433910001,14.4655525040001,0
                99.4298692240001,14.465749811,0
                99.4301491000001,14.465911869,0
                99.4304967,14.466117739,0
                99.4307112060001,14.466243987,0
                99.430825369,14.466337751,0
                99.430966379,14.466491064,0
                99.4310340980001,14.4666327520001,0
                99.4310660190001,14.46676352,0
                99.4311390410001,14.467062646,0
                99.43114224,14.4674906930001,0
                99.4311160660001,14.4679476960001,0
                99.4311247700001,14.4681149900001,0
                99.4311312940001,14.4681390380001,0
                99.4314183210001,14.4691967470001,0
                99.4314575970001,14.4696782020001,0
                99.4314139240001,14.469894675,0
                99.431337001,14.470275976,0
                99.431207794,14.47108466,0
                99.431208897,14.471655846,0
                99.4312323170001,14.4721083540001,0
                99.431255508,14.4724422410001,0
                99.4312560170001,14.472705864,0
                99.4312555650001,14.47270674,0
                99.4311751560001,14.472864186,0
                99.4309532140001,14.473063892,0
                99.4307504050001,14.4733084060001,0
                99.43072075,14.473395645,0
                99.4307097660001,14.4735382170001,0
                99.430739202,14.4736123660001,0
                99.4308535580001,14.4736766020001,0
                99.431062608,14.4736801380001,0
                99.4310924310001,14.4736806390001,0
                99.4312630350001,14.4736704740001,0
                99.4315181540001,14.473655272,0
                99.431666422,14.4736651710001,0
                99.431791516,14.473692455,0
                99.4319144870001,14.4737595600001,0
                99.432232502,14.4742503030001,0
                99.432240833,14.474275833,0
                99.4323326000001,14.47439245,0
                99.4332077030001,14.475161002,0
                99.433307911,14.4753137880001,0
                99.4333561460001,14.475453913,0
                99.433375115,14.4755482030001,0
                99.4333994230001,14.4757233170001,0
                99.4333370720001,14.476639929,0
                99.433347698,14.477488351,0
                99.4333966330001,14.477698219,0
                99.43345743,14.477816132,0
                99.433593139,14.478035569,0
                99.4337011200001,14.478192752,0
                99.4339149,14.4783429840001,0
                99.4339873500001,14.478477668,0
                99.4340162330001,14.4785726810001,0
                99.4340605510001,14.479037905,0
                99.4340612500001,14.479397218,0
                99.4340457740001,14.4796862540001,0
                99.4340223820001,14.4800221740001,0
                99.4340151230001,14.4804127410001,0
                99.4340152230001,14.480463838,0
                99.434045004,14.4806094150001,0
                99.4341221710001,14.4808372700001,0
                99.434206912,14.4811300310001,0
                99.4343397520001,14.481416843,0
                99.434532856,14.4817797040001,0
                99.4346485890001,14.482050756,0
                99.4347130930001,14.482154254,0
                99.4348599470001,14.4825016670001,0
                99.4351360410001,14.483291417,0
                99.435137072,14.4832958920001,0
                99.4353066360001,14.483793683,0
                99.435327714,14.483878055,0
                99.4354395020001,14.4840775530001,0
                99.4354693530001,14.4841095830001,0
                99.435571806,14.484232417,0
                99.435810271,14.484408747,0
                99.4358513390001,14.484429881,0
                99.4360473400001,14.484506874,0
                99.4364142520001,14.4845764940001,0
                99.4365524630001,14.484614697,0
                99.4366328570001,14.484663444,0
                99.436776847,14.484832609,0
                99.437045174,14.485394512,0
                99.4370876180001,14.4855752350001,0
                99.4372823160001,14.4864043060001,0
                99.4375529370001,14.488132652,0
                99.4377474890001,14.4892258410001,0
                99.438086264,14.4903086050001,0
                99.43812316,14.4905743190001,0
                99.4382940390001,14.4918049980001,0
                99.4383112820001,14.491929156,0
                99.4398352170001,14.4932125940001,0
                99.441731663,14.495079473,0
                99.443790226,14.496866998,0
                99.4448464000001,14.497681673,0
                99.4459486250001,14.4980716580001,0
                99.4469987560001,14.4983919640001,0
                99.447763029,14.498379399,0
                99.4483563110001,14.498368633,0
                99.4504743110001,14.5021974090001,0
                99.4515741370001,14.501668938,0
                99.4521504890001,14.501306148,0
                99.4527715510001,14.5010203690001,0
                99.4531633870001,14.5007694660001,0
                99.4537888250001,14.500368979,0
                99.4544886670001,14.5012329150001,0
                99.4544933190001,14.5012289320001,0
                99.454555686,14.5012008150001,0
                99.454582443,14.5011931940001,0
                99.4547016260001,14.5011707140001,0
                99.454851175,14.501111109,0
                99.4549677200001,14.5010392130001,0
                99.455086711,14.5009228230001,0
                99.4552132540001,14.5007792320001,0
                99.4553042890001,14.5006381810001,0
                99.4553800670001,14.500479861,0
                99.4554002180001,14.5004081480001,0
                99.455415078,14.5002326480001,0
                99.455422436,14.5001090590001,0
                99.4554425590001,14.5000249890001,0
                99.4554703470001,14.4999656200001,0
                99.4555209640001,14.4999086770001,0
                99.4555817460001,14.4998591310001,0
                99.4556653720001,14.4998169520001,0
                99.45571606,14.4997946120001,0
                99.4557718220001,14.49977226,0
                99.4558148830001,14.49974252,0
                99.4558325730001,14.499707883,0
                99.4558499290001,14.4995126100001,0
                99.4558624090001,14.4994112520001,0
                99.455887669,14.499359301,0
                99.455920522,14.4992974520001,0
                99.4559914450001,14.4992478840001,0
                99.4561054480001,14.4991735150001,0
                99.4561755990001,14.4990931790001,0
                99.4562092140001,14.4990546880001,0
                99.456287569,14.4989161280001,0
                99.456373408,14.498715776,0
                99.4564087950001,14.498656394,0
                99.4564568870001,14.498601926,0
                99.456525264,14.4985449500001,0
                99.456606316,14.498485477,0
                99.4567051560001,14.4984383280001,0
                99.4569358950001,14.498390918,0
                99.4570347800001,14.498366011,0
                99.4571615990001,14.4983583490001,0
                99.4572022580001,14.4983928720001,0
                99.457286137,14.4984742660001,0
                99.4573420830001,14.498540889,0
                99.4574106060001,14.498555588,0
                99.4574765680001,14.4985603980001,0
                99.457555201,14.4985553070001,0
                99.457651528,14.498520517,0
                99.4577478020001,14.498463486,0
                99.4578085520001,14.498399106,0
                99.4578768380001,14.498300112,0
                99.4579274490001,14.4982382320001,0
                99.457957805,14.4981961550001,0
                99.4579932680001,14.498173842,0
                99.45805411,14.4981539550001,0
                99.458107381,14.498153851,0
                99.4581835110001,14.4981660560001,0
                99.4582520660001,14.498198051,0
                99.4582952640001,14.498232569,0
                99.458356349,14.4983313070001,0
                99.458397296,14.49836686,0
                99.4584529130001,14.498415149,0
                99.45851644,14.4984669290001,0
                99.458597732,14.4985211370001,0
                99.4587043230001,14.4985456480001,0
                99.4588108610001,14.4985429700001,0
                99.4590162680001,14.498510439,0
                99.4592394330001,14.498477871,0
                99.4593053840001,14.498477742,0
                99.459358685,14.498489998,0
                99.4594348460001,14.498519501,0
                99.4597752160001,14.4987363290001,0
                99.459919901,14.498780531,0
                99.4599706500001,14.4987878470001,0
                99.4600162680001,14.498765516,0
                99.460028879,14.4987284170001,0
                99.4600313180001,14.4986839220001,0
                99.4600159930001,14.4986320580001,0
                99.4599497570001,14.498496253,0
                99.459931854,14.4984246180001,0
                99.459936713,14.498323279,0
                99.4599744820001,14.4981848040001,0
                99.4600250810001,14.498117974,0
                99.4600883580001,14.498048645,0
                99.4601795080001,14.4979669090001,0
                99.4601920760001,14.497944766,0
                99.460217421,14.4979001080001,0
                99.4602477460001,14.497843205,0
                99.4602628110001,14.4977690330001,0
                99.4602626430001,14.4976874700001,0
                99.460247349,14.4976504320001,0
                99.4602078720001,14.4976421310001,0
                99.4601086650001,14.497646721,0
                99.4599328150001,14.4976602470001,0
                99.4598650930001,14.497625224,0
                99.4598378920001,14.497554984,0
                99.459842182,14.497449525,0
                99.4598645490001,14.49736161,0
                99.4599139840001,14.4972780250001,0
                99.4599948850001,14.497146059,0
                99.4600758930001,14.497062418,0
                99.4601794970001,14.4970050960001,0
                99.4602606060001,14.4969741840001,0
                99.4603688130001,14.4969607900001,0
                99.4604906120001,14.4969781250001,0
                99.4605853890001,14.4970130880001,0
                99.4607117960001,14.497078749,0
                99.4607931140001,14.4971488910001,0
                99.4609196430001,14.497271663,0
                99.4610190440001,14.4973637360001,0
                99.4611855400001,14.497482034,0
                99.4613017880001,14.4975616400001,0
                99.461403719,14.497620951,0
                99.4615381670001,14.497652429,0
                99.4617417910001,14.4976559950001,0
                99.4619575120001,14.4976039900001,0
                99.4621406240001,14.497536188,0
                99.46227078,14.4974605460001,0
                99.462421206,14.497341222,0
                99.4625145400001,14.4971823430001,0
                99.462583506,14.4970552410001,0
                99.4628583300001,14.4961402070001,0
                99.4630353960001,14.496145518,0
                99.463194709,14.496133726,0
                99.4633127770001,14.4961334930001,0
                99.4634603440001,14.496156275,0
                99.463572582,14.496207757,0
                99.463749803,14.4962878800001,0
                99.463962365,14.496362225,0
                99.4648894760001,14.4965904110001,0
                99.465609822,14.4967901530001,0
                99.465738097,14.4968306120001,0
                99.4661354070001,14.4969559420001,0
                99.466460247,14.4970645110001,0
                99.466572435,14.497087247,0
                99.466643182,14.497075626,0
                99.466749344,14.497017901,0
                99.4668142560001,14.496994807,0
                99.466873159,14.4969889160001,0
                99.4670680460001,14.497028745,0
                99.4671145170001,14.4969172690001,0
                99.4673838160001,14.4962711970001,0
                99.4688192840001,14.497006351,0
                99.4693754180001,14.4972911580001,0
                99.4697948150001,14.49748019,0
                99.4698955110001,14.4975156200001,0
                99.470105737,14.4974929410001,0
                99.4702748020001,14.4974346450001,0
                99.4704117270001,14.4973274920001,0
                99.4706900750001,14.4970908810001,0
                99.4707766000001,14.497036027,0
                99.4710142550001,14.4968853670001,0
                99.471279124,14.4967645890001,0
                99.4715442930001,14.4967284300001,0
                99.471745405,14.496728026,0
                99.4720656630001,14.496820852,0
                99.4726222630001,14.4969940600001,0
                99.472719768,14.497024405,0
                99.4730948490001,14.497108274,0
                99.4733371870001,14.497116744,0
                99.4735795010001,14.497111852,0
                99.4736910070001,14.497073557,0
                99.4737622710001,14.497049078,0
                99.47392203,14.496937363,0
                99.4741042730001,14.496678683,0
                99.4741761930001,14.4965927380001,0
                99.4742423180001,14.4965313050001,0
                99.474341613,14.4964794800001,0
                99.4744513480001,14.4964641560001,0
                99.474570101,14.496449921,0
                99.474732444,14.496462514,0
                99.4748948540001,14.496516695,0
                99.4750865510001,14.4966783310001,0
                99.4752502330001,14.4968746490001,0
                99.4753805720001,14.4970368480001,0
                99.4755882110001,14.4973503580001,0
                99.4756694230001,14.497414931,0
                99.475760951,14.497463738,0
                99.476926732,14.49786226,0
                99.477212503,14.49800544,0
                99.4776141900001,14.498248378,0
                99.4790072520001,14.4990358740001,0
                99.4791808480001,14.499073219,0
                99.4793684150001,14.499148426,0
                99.4795140200001,14.4992488180001,0
                99.48121423,14.500320941,0
                99.48158707,14.50055604,0
                99.4816452910001,14.5004815930001,0
                99.4817064310001,14.5003526190001,0
                99.481795961,14.5001637610001,0
                99.481838403,14.50013827,0
                99.4818875820001,14.5001340900001,0
                99.4821289370001,14.5002118150001,0
                99.482264097,14.5002242780001,0
                99.4825482890001,14.500251721,0
                99.48300205,14.5003094580001,0
                99.483367673,14.500339114,0
                99.483708618,14.500419946,0
                99.4840288870001,14.5005020950001,0
                99.484401011,14.500597542,0
                99.48476299,14.5007003050001,0
                99.4848520620001,14.500739191,0
                99.484929734,14.5008174340001,0
                99.4849815920001,14.5009096050001,0
                99.4850191890001,14.501032593,0
                99.4850682300001,14.5011416310001,0
                99.4851316610001,14.501239302,0
                99.4852322440001,14.5013314230001,0
                99.485387517,14.5014150970001,0
                99.485533547,14.501479083,0
                99.4856257660001,14.5015143250001,0
                99.4857083350001,14.501535415,0
                99.485778683,14.501544675,0
                99.4858299850001,14.501540048,0
                99.486002145,14.5015088490001,0
                99.4861373570001,14.501456494,0
                99.486251667,14.5014077060001,0
                99.4864036800001,14.501326186,0
                99.4865672510001,14.50125596,0
                99.4866992270001,14.5012193630001,0
                99.487492886,14.501082664,0
                99.4877025010001,14.50104322,0
                99.4881967300001,14.501078921,0
                99.4882244220001,14.501081169,0
                99.4883255610001,14.50109618,0
                99.4883151710001,14.5012802090001,0
                99.488327402,14.501416324,0
                99.4883515080001,14.5015308270001,0
                99.4883658510001,14.5015999230001,0
                99.488375621,14.501646997,0
                99.488385893,14.5016685620001,0
                99.4884696570001,14.5017879220001,0
                99.4885158100001,14.5018525730001,0
                99.488544856,14.5018890380001,0
                99.4885705300001,14.501938793,0
                99.4886800800001,14.502161033,0
                99.4888015240001,14.502368313,0
                99.4888819290001,14.5025092670001,0
                99.4889417540001,14.5025921490001,0
                99.4889981190001,14.5026518060001,0
                99.4890339450001,14.5026699900001,0
                99.4890646800001,14.5026964940001,0
                99.489080088,14.502729667,0
                99.4891006220001,14.5027694670001,0
                99.489128065,14.502849102,0
                99.4891572350001,14.5029386950001,0
                99.4892701480001,14.5031410070001,0
                99.4895609610001,14.503646776,0
                99.489614003,14.503744619,0
                99.4896276790001,14.503764511,0
                99.489646468,14.5037827310001,0
                99.4896720500001,14.5037942980001,0
                99.48971808,14.503802502,0
                99.4898323090001,14.50382717,0
                99.489883466,14.5038420110001,0
                99.4899193040001,14.503865176,0
                99.489977379,14.503926483,0
                99.48998937,14.5039546830001,0
                99.4900168670001,14.5040592190001,0
                99.4900323150001,14.504110655,0
                99.4900545610001,14.504153774,0
                99.490081236,14.5041687450001,0
                99.490094302,14.504172349,0
                99.4901176610001,14.504173569,0
                99.490141512,14.5041718530001,0
                99.490180664,14.50415185,0
                99.490255453,14.5040653620001,0
                99.490284386,14.50404704,0
                99.490304838,14.504046998,0
                99.4903338110001,14.5040502580001,0
                99.490350897,14.504068482,0
                99.4903611660001,14.504090048,0
                99.4903752910001,14.504314145,0
                99.4903923830001,14.5043373570001,0
                99.4904179550001,14.504340622,0
                99.490540609,14.5043221,0
                99.490581504,14.5043203550001,0
                99.4906275380001,14.504330225,0
                99.4906855360001,14.504356665,0
                99.490719627,14.504359913,0
                99.4907792490001,14.504349829,0
                99.4909052020001,14.5042798370001,0
                99.4910090710001,14.504243092,0
                99.4910483900001,14.504233116,0
                99.491066205,14.5042309570001,0
                99.4910913320001,14.504238243,0
                99.4910979360001,14.50424435,0
                99.491109679,14.5042727650001,0
                99.491109738,14.504299331,0
                99.491101299,14.504335875,0
                99.49103109,14.504455777,0
                99.491027618,14.5044636150001,0
                99.4910206490001,14.5044951780001,0
                99.4910202670001,14.5045037240001,0
                99.4910210770001,14.5045137330001,0
                99.491023463,14.5045223810001,0
                99.4910393430001,14.5045399840001,0
                99.4910443810001,14.504543804,0
                99.4910510700001,14.5045472420001,0
                99.4910898380001,14.504550067,0
                99.491223984,14.504552975,0
                99.4912362480001,14.5045511640001,0
                99.4913045200001,14.5045313570001,0
                99.4913844980001,14.504479722,0
                99.4914168560001,14.5044696890001,0
                99.491439025,14.504477949,0
                99.4914510090001,14.504501164,0
                99.4914409250001,14.504564277,0
                99.4914359160001,14.5046107700001,0
                99.491436004,14.504650616,0
                99.491442867,14.504672187,0
                99.4914650570001,14.5046904010001,0
                99.4915042790001,14.5047019410001,0
                99.4915946,14.504705077,0
                99.49189283,14.5047061110001,0
                99.4919285940001,14.5046977370001,0
                99.4919643250001,14.504671095,0
                99.491983061,14.5046486210001,0
                99.4920170140001,14.5046078980001,0
                99.4920473760001,14.504573491,0
                99.4920534240001,14.504569405,0
                99.492072582,14.504560574,0
                99.4920907680001,14.5045589970001,0
                99.492112767,14.5045608130001,0
                99.4921221990001,14.504564175,0
                99.4921464650001,14.504579399,0
                99.4921635540001,14.504600946,0
                99.492185797,14.5046407450001,0
                99.4922384880001,14.504776226,0
                99.4922445240001,14.5047872000001,0
                99.492271412,14.5048248520001,0
                99.492305565,14.504857987,0
                99.4923413990001,14.504879494,0
                99.492368635,14.504889077,0
                99.4923928800001,14.5048924010001,0
                99.4924231300001,14.504892338,0
                99.4924401150001,14.5048887080001,0
                99.4925253810001,14.504849226,0
                99.4926139470001,14.5048207720001,0
                99.4926244010001,14.5048188050001,0
                99.492669027,14.504815993,0
                99.4927012650001,14.5048210890001,0
                99.4927219150001,14.504826961,0
                99.4927268050001,14.5048296190001,0
                99.4927529510001,14.504845226,0
                99.4927619220001,14.5048520710001,0
                99.4927795620001,14.504871193,0
                99.492783859,14.5048789190001,0
                99.492785778,14.50488596,0
                99.492787922,14.504897643,0
                99.492787934,14.504903456,0
                99.4927851840001,14.5049183730001,0
                99.492783439,14.504923268,0
                99.4927733380001,14.504937109,0
                99.4927699730001,14.504941134,0
                99.492760531,14.504949981,0
                99.492694413,14.5049966330001,0
                99.4926365040001,14.505030936,0
                99.492627278,14.50503873,0
                99.4926219050001,14.5050469990001,0
                99.4926173040001,14.5050567220001,0
                99.4926144900001,14.505074829,0
                99.4926145310001,14.5050933840001,0
                99.4926170720001,14.505102976,0
                99.492623097,14.505114657,0
                99.4926999690001,14.505197502,0
                99.4928086630001,14.5053425610001,0
                99.4928506580001,14.5053703290001,0
                99.492904873,14.505383024,0
                99.4929900710001,14.5053778610001,0
                99.4930258640001,14.50538277,0
                99.4930651080001,14.5054042680001,0
                99.4930839520001,14.505447396,0
                99.4930891340001,14.5054789320001,0
                99.493089189,14.505503833,0
                99.493077316,14.505528757,0
                99.4930654130001,14.505542067,0
                99.4930610090001,14.5055461060001,0
                99.4930382040001,14.5055670260001,0
                99.4930311420001,14.505589211,0
                99.4930230020001,14.505626825,0
                99.4930162380001,14.5056500860001,0
                99.493018035,14.5056949090001,0
                99.4930300570001,14.50573473,0
                99.493060804,14.5057695260001,0
                99.493100074,14.505802649,0
                99.493122235,14.505807584,0
                99.493171676,14.50581412,0
                99.493250082,14.5058222550001,0
                99.4932810340001,14.5058282210001,0
                99.4932881930001,14.505831169,0
                99.493313663,14.505845978,0
                99.4933205300001,14.5058516570001,0
                99.4933279570001,14.5058615940001,0
                99.493365467,14.505911763,0
                99.493371046,14.5059177100001,0
                99.4934063600001,14.505948016,0
                99.4934566540001,14.505991168,0
                99.4934845020001,14.506015001,0
                99.4934860010001,14.506016559,0
                99.493499011,14.5060389760001,0
                99.4935013030001,14.506046161,0
                99.4935081420001,14.5061554270001,0
                99.4935192190001,14.5061981750001,0
                99.4935231060001,14.5062058570001,0
                99.4935361880001,14.506223622,0
                99.4935401180001,14.5062262160001,0
                99.4935833210001,14.5062432560001,0
                99.4937248990001,14.506306051,0
                99.4937887020001,14.50633586,0
                99.4938265740001,14.5063673500001,0
                99.4938298630001,14.506371114,0
                99.4938455340001,14.506399206,0
                99.4938670780001,14.5064378320001,0
                99.4939043580001,14.506525502,0
                99.4939116680001,14.506536679,0
                99.4939413220001,14.506565444,0
                99.4939496630001,14.5065693330001,0
                99.4939804780001,14.50657784,0
                99.4939866330001,14.506578717,0
                99.4939888090001,14.5065787120001,0
                99.494044353,14.5065785960001,0
                99.494052679,14.5065770370001,0
                99.494106485,14.506557248,0
                99.4941117450001,14.506554137,0
                99.4941455640001,14.506524525,0
                99.4941670600001,14.506498643,0
                99.4941711320001,14.506487571,0
                99.494171534,14.506484146,0
                99.4941781150001,14.506428527,0
                99.494181504,14.5063998860001,0
                99.4941830700001,14.506386644,0
                99.4941894150001,14.5063667050001,0
                99.4942059830001,14.5063455060001,0
                99.494243005,14.506325507,0
                99.4944320450001,14.5062715670001,0
                99.494484432,14.506265225,0
                99.4947543660001,14.5061799740001,0
                99.494826177,14.5061623230001,0
                99.4948685620001,14.5061539750001,0
                99.4948970250001,14.506153097,0
                99.4949274300001,14.5061521640001,0
                99.494943591,14.506151663,0
                99.4949749890001,14.5061427590001,0
                99.4949807840001,14.5061400820001,0
                99.495005086,14.5061288790001,0
                99.4950268140001,14.5061112270001,0
                99.495080553,14.506039258,0
              </coordinates>
                
            </LinearRing>
            
          </outerBoundaryIs>
        
        </Polygon>
        
      <styleUrl>
        #tambonStyle</styleUrl>
    </Placemark>

  </Document>
</kml>