<?xml version="1.0" encoding="UTF-8"?>
<kml xmlns="http://www.opengis.net/kml/2.2">
  <Document id="amphoe_doc">
    <name>อุทัย, Phra Nakhon Si Ayutthaya</name>
    <description>ข้อมูลขอบเขตอำเภออุทัย จังหวัดPhra Nakhon Si Ayutthaya</description>
    
    <!-- Schema สำหรับข้อมูลอำเภอ -->
    <Schema id="amphoe.schema">
      <SimpleField name="ADM2_EN" type="string">
        <displayName>District Name (English)</displayName>
      </SimpleField>
      <SimpleField name="ADM2_TH" type="string">
        <displayName>ชื่ออำเภอ</displayName>
      </SimpleField>
      <SimpleField name="ADM1_EN" type="string">
        <displayName>Province Name (English)</displayName>
      </SimpleField>
      <SimpleField name="ADM1_TH" type="string">
        <displayName>ชื่อจังหวัด</displayName>
      </SimpleField>
      <SimpleField name="ADM0_EN" type="string">
        <displayName>Country Name (English)</displayName>
      </SimpleField>
      <SimpleField name="ADM0_TH" type="string">
        <displayName>ชื่อประเทศ</displayName>
      </SimpleField>
      <SimpleField name="AREA_KM2" type="double">
        <displayName>พื้นที่ (ตร.กม.)</displayName>
      </SimpleField>
      <SimpleField name="Shape_Area" type="double">
        <displayName>Shape Area</displayName>
      </SimpleField>
      <SimpleField name="Shape_Leng" type="double">
        <displayName>Shape Length</displayName>
      </SimpleField>
    </Schema>

    <!-- Style สำหรับอำเภอ -->
    <Style id="amphoeStyle">
      <LineStyle>
        <color>ff0000ff</color>
        <width>2</width>
      </LineStyle>
      <PolyStyle>
        <color>330000ff</color>
        <fill>1</fill>
        <outline>1</outline>
      </PolyStyle>
    </Style>

    <Placemark id="Phra_Nakhon_Si_Ayutthaya.14">
        
        <ExtendedData>
            
          <SchemaData schemaUrl="#amphoe.schema">
                
            <SimpleData name="Shape_Leng">
                0.627683234413</SimpleData>
                
            <SimpleData name="Shape_Area">
                0.0143267383916</SimpleData>
                
            <SimpleData name="ADM2_EN">
                Uthai</SimpleData>
                
            <SimpleData name="ADM2_TH">
                อุทัย</SimpleData>
                
            <SimpleData name="ADM2_PCODE">
                TH1414</SimpleData>
                
            <SimpleData name="ADM1_EN">
                Phra Nakhon Si Ayutthaya</SimpleData>
                
            <SimpleData name="ADM1_TH">
                พระนครศรีอยุธยา</SimpleData>
                
            <SimpleData name="ADM1_PCODE">
                TH14</SimpleData>
                
            <SimpleData name="ADM0_EN">
                Thailand</SimpleData>
                
            <SimpleData name="ADM0_TH">
                ประเทศไทย</SimpleData>
                
            <SimpleData name="ADM0_PCODE">
                TH</SimpleData>
            
          </SchemaData>
        
        </ExtendedData>
        
        <Polygon>
            
          <outerBoundaryIs>
                
            <LinearRing>
                    
              <coordinates>
                    
                100.661886747,14.4124954330001,0
                100.664136656,14.4076936720001,0
                100.665889351,14.4085277450001,0
                100.667523256,14.4093028820001,0
                100.672959311,14.4118931090001,0
                100.673080851,14.411936554,0
                100.673308004,14.411920176,0
                100.673651521,14.411887973,0
                100.673893949,14.4118239540001,0
                100.673949407,14.411831867,0
                100.67400079,14.411864732,0
                100.674030775,14.411885285,0
                100.67408191,14.4118849220001,0
                100.674843584,14.411734154,0
                100.675311436,14.411636593,0
                100.6754251,14.4116038770001,0
                100.675532442,14.4115601830001,0
                100.675544294,14.411554138,0
                100.675570816,14.4115355070001,0
                100.675580339,14.4115230840001,0
                100.6755853,14.411505673,0
                100.675590357,14.41146008,0
                100.675588274,14.4113686630001,0
                100.675577148,14.411242993,0
                100.675576711,14.4111844510001,0
                100.675585191,14.4111607730001,0
                100.675605332,14.411132164,0
                100.675654933,14.4111034370001,0
                100.675670904,14.4110962280001,0
                100.676192632,14.4109188100001,0
                100.676233417,14.410905315,0
                100.676241245,14.41089929,0
                100.676250816,14.410877661,0
                100.676252812,14.41085436,0
                100.676234418,14.410798422,0
                100.676231187,14.410777476,0
                100.676231903,14.4107572020001,0
                100.676241203,14.410744053,0
                100.676285947,14.410717452,0
                100.676560401,14.410566467,0
                100.67663712,14.410541863,0
                100.676761767,14.4105114180001,0
                100.676892321,14.4104569620001,0
                100.678011387,14.409911977,0
                100.680423782,14.4087847440001,0
                100.682435861,14.4080537030001,0
                100.685376307,14.406818591,0
                100.688537253,14.405596421,0
                100.689062901,14.405365885,0
                100.689169189,14.4053192690001,0
                100.689467262,14.405280786,0
                100.68950816,14.4052868840001,0
                100.689811208,14.4053320670001,0
                100.690223284,14.405393507,0
                100.691208777,14.405582737,0
                100.691646117,14.405647613,0
                100.691995313,14.405690452,0
                100.692438669,14.4057483830001,0
                100.692783802,14.4058125490001,0
                100.692894428,14.4058308630001,0
                100.692942343,14.4058274010001,0
                100.692990235,14.405820831,0
                100.693016306,14.405808474,0
                100.69304116,14.405778691,0
                100.69305723,14.4057467710001,0
                100.693290691,14.4050727040001,0
                100.693310736,14.4050377770001,0
                100.693319882,14.4050265400001,0
                100.693333613,14.4050096760001,0
                100.693340119,14.405005553,0
                100.693355373,14.405000021,0
                100.693395138,14.404999736,0
                100.693400104,14.4049997000001,0
                100.693448861,14.405008316,0
                100.694062991,14.405234437,0
                100.694110926,14.405252084,0
                100.694167975,14.405288569,0
                100.694679359,14.4056155860001,0
                100.695190667,14.406032446,0
                100.695848098,14.406512831,0
                100.696170384,14.406407707,0
                100.696577315,14.4063580760001,0
                100.697319009,14.406220422,0
                100.6973418,14.406217859,0
                100.699263807,14.405708245,0
                100.700721505,14.4053173830001,0
                100.701507219,14.4049773570001,0
                100.702182038,14.404590392,0
                100.703308111,14.4036401110001,0
                100.703623227,14.4034266150001,0
                100.703814293,14.403297159,0
                100.705067821,14.4026356100001,0
                100.705748735,14.402382744,0
                100.705920422,14.4023451850001,0
                100.706433377,14.4022771300001,0
                100.706647723,14.40223009,0
                100.70670427,14.4022105810001,0
                100.706804126,14.402176125,0
                100.706882521,14.4021596970001,0
                100.706891584,14.4021594660001,0
                100.706920284,14.4021621360001,0
                100.707063298,14.4022079420001,0
                100.707667282,14.4024915900001,0
                100.707942657,14.402620916,0
                100.70799012,14.4026275030001,0
                100.708037066,14.4026217790001,0
                100.708046817,14.4026169420001,0
                100.708120182,14.4025369140001,0
                100.708756767,14.4018425940001,0
                100.708756928,14.4018424180001,0
                100.708863368,14.401708345,0
                100.708949586,14.4016230510001,0
                100.708998443,14.4015862970001,0
                100.70911741,14.4015612430001,0
                100.709205719,14.4015433660001,0
                100.709263589,14.4015109260001,0
                100.709316754,14.401468052,0
                100.709400383,14.4013459170001,0
                100.709461712,14.401256344,0
                100.709474609,14.401237496,0
                100.709824026,14.4007271630001,0
                100.709857883,14.400710352,0
                100.709876001,14.400708755,0
                100.709896809,14.4007132740001,0
                100.70993649,14.40072665,0
                100.710467175,14.401025287,0
                100.711256845,14.401408551,0
                100.711269698,14.401412361,0
                100.711299518,14.401414909,0
                100.711331583,14.401416166,0
                100.71134559,14.4014122890001,0
                100.711591427,14.4012200010001,0
                100.711689628,14.401174274,0
                100.71182588,14.401148661,0
                100.712098653,14.401131902,0
                100.712323513,14.40112781,0
                100.712384162,14.40112737,0
                100.712398799,14.4011253580001,0
                100.71242797,14.4011175910001,0
                100.712433418,14.4011134030001,0
                100.712444251,14.401092485,0
                100.712446765,14.401069668,0
                100.712447011,14.401067417,0
                100.712456808,14.400978208,0
                100.712466558,14.4009518170001,0
                100.712480681,14.400940629,0
                100.712509081,14.400936266,0
                100.712731409,14.4009481690001,0
                100.713151076,14.40096419,0
                100.713808101,14.4009692760001,0
                100.714013758,14.400937485,0
                100.714209404,14.4009072480001,0
                100.71492348,14.4007739960001,0
                100.716481164,14.4006935840001,0
                100.716535344,14.4006842060001,0
                100.716713605,14.400624851,0
                100.716937539,14.400553206,0
                100.716937829,14.4005531770001,0
                100.718056792,14.400628222,0
                100.718197758,14.400613164,0
                100.718295162,14.4005913250001,0
                100.718324321,14.4005759510001,0
                100.71853185,14.400450447,0
                100.718549585,14.400442818,0
                100.718849891,14.4003641260001,0
                100.719378559,14.4001807550001,0
                100.719589044,14.4000960340001,0
                100.719685185,14.400086808,0
                100.719723162,14.400092446,0
                100.719761782,14.400123074,0
                100.719791786,14.4001733700001,0
                100.720093618,14.400871739,0
                100.720116451,14.400919738,0
                100.720125256,14.400936577,0
                100.720134929,14.400949843,0
                100.720167867,14.4009619230001,0
                100.720193697,14.4009628750001,0
                100.720251467,14.4009458530001,0
                100.721409105,14.4004017720001,0
                100.721438158,14.4003952580001,0
                100.721506662,14.4003904530001,0
                100.721624592,14.4004025950001,0
                100.721855784,14.400479401,0
                100.721904498,14.400501422,0
                100.722570275,14.4006235530001,0
                100.722568808,14.400625797,0
                100.72366801,14.4007889660001,0
                100.724140569,14.400847761,0
                100.726363518,14.4008684830001,0
                100.72644593,14.4008706980001,0
                100.726494158,14.4008788200001,0
                100.726594594,14.400909885,0
                100.726617462,14.400925429,0
                100.726932944,14.401074371,0
                100.726958178,14.4010836200001,0
                100.727546558,14.4012661350001,0
                100.727978683,14.4013797380001,0
                100.728513026,14.401545135,0
                100.728716795,14.401561155,0
                100.729046336,14.4015762560001,0
                100.729393759,14.4015795560001,0
                100.729945349,14.401651407,0
                100.73068302,14.401774442,0
                100.731168683,14.401840947,0
                100.731732395,14.401930223,0
                100.731954272,14.4019636200001,0
                100.73220586,14.4019676180001,0
                100.732409539,14.401971959,0
                100.732600834,14.4019238560001,0
                100.732750068,14.4018585430001,0
                100.732972427,14.401720707,0
                100.735162442,14.400315861,0
                100.735385913,14.4002919550001,0
                100.736552791,14.4002251650001,0
                100.737288915,14.4001496990001,0
                100.737809525,14.4000874870001,0
                100.737989243,14.400092006,0
                100.738128706,14.4000958350001,0
                100.738215577,14.4001280300001,0
                100.738307344,14.400177233,0
                100.739685513,14.4010252850001,0
                100.74100344,14.401827059,0
                100.74152686,14.402126776,0
                100.741888066,14.4023634710001,0
                100.742062752,14.4024906220001,0
                100.742310302,14.4027456650001,0
                100.742841933,14.4033313840001,0
                100.744331771,14.404984289,0
                100.745903358,14.403911758,0
                100.745789541,14.4035729240001,0
                100.74579493,14.4035554770001,0
                100.745796913,14.403541509,0
                100.74578793,14.403393852,0
                100.745782382,14.403100786,0
                100.74578123,14.402952638,0
                100.745776542,14.402870385,0
                100.745770597,14.402820811,0
                100.745768944,14.4027782000001,0
                100.745769002,14.4027206550001,0
                100.745771411,14.40269963,0
                100.745805261,14.4025915240001,0
                100.745856618,14.402480446,0
                100.745955952,14.402303021,0
                100.746037234,14.4021518540001,0
                100.746240856,14.401819819,0
                100.746372596,14.4015607850001,0
                100.746461021,14.4013662850001,0
                100.746479947,14.401347555,0
                100.746496261,14.4013427840001,0
                100.746503263,14.401340738,0
                100.746503709,14.40134091,0
                100.746521455,14.4013477610001,0
                100.746825818,14.401516042,0
                100.746954788,14.401595883,0
                100.746999157,14.401615502,0
                100.747006949,14.4016169270001,0
                100.747037721,14.401617512,0
                100.747062235,14.401607144,0
                100.747087923,14.401591862,0
                100.747163606,14.401531178,0
                100.747331728,14.4013789370001,0
                100.747369201,14.401348059,0
                100.747787632,14.401003216,0
                100.748094725,14.40076434,0
                100.748297405,14.400599964,0
                100.749442677,14.3996711500001,0
                100.750660846,14.3987031660001,0
                100.750960642,14.3984291800001,0
                100.75100461,14.3983799480001,0
                100.75116585,14.3981263270001,0
                100.751246848,14.397969591,0
                100.751283187,14.397877812,0
                100.751286947,14.397866541,0
                100.751299421,14.3977940820001,0
                100.751322117,14.3974984750001,0
                100.751333013,14.397245711,0
                100.751339485,14.397132759,0
                100.751338898,14.3970574950001,0
                100.751313549,14.3968713090001,0
                100.751303672,14.39663832,0
                100.751257497,14.3963730300001,0
                100.7511619,14.394173327,0
                100.751023804,14.3926706030001,0
                100.750892974,14.391900935,0
                100.750839701,14.3914915660001,0
                100.750804471,14.391374741,0
                100.75072226,14.391205702,0
                100.750616612,14.391009846,0
                100.750378522,14.390451741,0
                100.750338032,14.390322145,0
                100.750314669,14.3902310020001,0
                100.750124257,14.389117775,0
                100.750118124,14.389023213,0
                100.750133309,14.388948828,0
                100.750530075,14.3882662520001,0
                100.752294264,14.3851797250001,0
                100.752852766,14.384169679,0
                100.752970192,14.3838277240001,0
                100.753079773,14.383407087,0
                100.753116706,14.3832225140001,0
                100.753172557,14.382874509,0
                100.753195728,14.3826134650001,0
                100.753199766,14.382466019,0
                100.753197075,14.3823113890001,0
                100.753182981,14.382052894,0
                100.753161756,14.381869398,0
                100.753131084,14.3816434450001,0
                100.753049272,14.381214475,0
                100.753051882,14.3811869350001,0
                100.753058484,14.381175129,0
                100.753102893,14.38115766,0
                100.753738358,14.3810588380001,0
                100.754451234,14.380942475,0
                100.75502753,14.3808465490001,0
                100.755222635,14.3808210500001,0
                100.755736325,14.380733922,0
                100.755801181,14.38073036,0
                100.755916732,14.3807325830001,0
                100.756427398,14.380663998,0
                100.757043871,14.380565317,0
                100.757107032,14.3805463300001,0
                100.757143517,14.3805240290001,0
                100.757184931,14.38046246,0
                100.757195015,14.3804402490001,0
                100.757131081,14.379139002,0
                100.757080001,14.3784862370001,0
                100.757076855,14.3784460850001,0
                100.757044347,14.377854975,0
                100.757036857,14.377566152,0
                100.757041853,14.377381569,0
                100.757048913,14.3773639880001,0
                100.757600711,14.3767597670001,0
                100.75922906,14.375007103,0
                100.759821745,14.3744473720001,0
                100.760382504,14.3739177840001,0
                100.760954,14.373378051,0
                100.761335296,14.373053548,0
                100.761856683,14.372609835,0
                100.762303478,14.3720567830001,0
                100.762355961,14.371991829,0
                100.763025843,14.371264636,0
                100.763476535,14.3708051900001,0
                100.763672533,14.3706053970001,0
                100.764078833,14.370191205,0
                100.764085477,14.370184432,0
                100.764259117,14.3699655730001,0
                100.764371189,14.3696483300001,0
                100.764408819,14.3694625970001,0
                100.764419388,14.3693763850001,0
                100.764449875,14.369305266,0
                100.764466666,14.369284098,0
                100.764538856,14.36923124,0
                100.764563418,14.369216113,0
                100.765519473,14.368842624,0
                100.765574416,14.3688085700001,0
                100.765607736,14.368780933,0
                100.765639017,14.3687499760001,0
                100.765649945,14.3687360910001,0
                100.766587387,14.3672204700001,0
                100.767241514,14.3661748600001,0
                100.767511605,14.3656121290001,0
                100.767779015,14.3652618040001,0
                100.768655564,14.363830251,0
                100.769512173,14.3629020020001,0
                100.770035635,14.362571738,0
                100.771339438,14.36214239,0
                100.772325527,14.361855281,0
                100.774159018,14.3614455090001,0
                100.775523998,14.36221104,0
                100.776319202,14.3626590650001,0
                100.783795774,14.3668082310001,0
                100.783923821,14.366883726,0
                100.784108489,14.366989862,0
                100.784258694,14.367077141,0
                100.784448363,14.3671951810001,0
                100.784620934,14.3673205160001,0
                100.784798432,14.3674505970001,0
                100.784936597,14.36756425,0
                100.785077188,14.367675483,0
                100.785247685,14.3678486360001,0
                100.785420683,14.368028918,0
                100.78555435,14.3681927800001,0
                100.785734984,14.368408856,0
                100.785863971,14.3686014200001,0
                100.785970649,14.368763093,0
                100.786117153,14.369000935,0
                100.786306363,14.3693698640001,0
                100.78665748,14.3700222030001,0
                100.786776996,14.3702442530001,0
                100.786763901,14.369469941,0
                100.786761636,14.369184831,0
                100.786748077,14.3689511330001,0
                100.786668161,14.3684005710001,0
                100.786650098,14.3682761200001,0
                100.786600826,14.3679647550001,0
                100.786590676,14.367668295,0
                100.786590327,14.3676242990001,0
                100.786584493,14.367503922,0
                100.78658935,14.3673784320001,0
                100.786605675,14.3672243390001,0
                100.78665093,14.3670301080001,0
                100.786746791,14.3667014910001,0
                100.786827435,14.3664111150001,0
                100.786928772,14.366046225,0
                100.787181131,14.3654132410001,0
                100.787319747,14.36518046,0
                100.787353539,14.365129215,0
                100.787437524,14.3650282140001,0
                100.787636863,14.364854758,0
                100.787801836,14.3647393570001,0
                100.787970257,14.3646716700001,0
                100.788267097,14.364581426,0
                100.789226689,14.3643487730001,0
                100.789278571,14.3643495600001,0
                100.789338539,14.364370582,0
                100.789383526,14.3644106020001,0
                100.789480304,14.364590875,0
                100.789751278,14.365077065,0
                100.789785264,14.3651191120001,0
                100.789811236,14.3651412720001,0
                100.789835689,14.3651470350001,0
                100.789852384,14.365146909,0
                100.789939578,14.365111889,0
                100.789964023,14.3651004450001,0
                100.790033804,14.3650485950001,0
                100.790293522,14.364607538,0
                100.790409332,14.364458401,0
                100.790440083,14.3644177740001,0
                100.790440659,14.3644173270001,0
                100.790490343,14.364378754,0
                100.790788029,14.36426735,0
                100.791143834,14.3641392060001,0
                100.791261817,14.3641239200001,0
                100.791361391,14.364129979,0
                100.791371464,14.3641305900001,0
                100.791446661,14.364154393,0
                100.791559657,14.364210014,0
                100.791622453,14.3642612400001,0
                100.791685744,14.3643303590001,0
                100.791780959,14.364434348,0
                100.791893804,14.364557587,0
                100.792095145,14.3647396870001,0
                100.792222744,14.3648382260001,0
                100.792257083,14.364863128,0
                100.792353902,14.364891372,0
                100.792496148,14.364894038,0
                100.792638131,14.3648629840001,0
                100.792760536,14.364787114,0
                100.79283585,14.36471041,0
                100.792909133,14.3646152170001,0
                100.792943037,14.364534658,0
                100.792976347,14.3643732630001,0
                100.792951644,14.3641673450001,0
                100.792901331,14.364049865,0
                100.792385775,14.3638458070001,0
                100.792169494,14.363717534,0
                100.791870172,14.363459979,0
                100.791075192,14.3627464960001,0
                100.790961689,14.3626524220001,0
                100.790878893,14.362553114,0
                100.790821805,14.3624636060001,0
                100.790560943,14.361885984,0
                100.790103388,14.3610650150001,0
                100.789806343,14.360447693,0
                100.789576319,14.3598798260001,0
                100.789459833,14.359411031,0
                100.789373585,14.3588770550001,0
                100.789232713,14.3585633390001,0
                100.78906594,14.358214843,0
                100.788867935,14.357806623,0
                100.788675497,14.3574533230001,0
                100.788509599,14.357214745,0
                100.788282036,14.3569566420001,0
                100.788091267,14.3568131800001,0
                100.787813573,14.356695363,0
                100.787325479,14.3565441490001,0
                100.787078615,14.35643609,0
                100.786877915,14.3563326730001,0
                100.786512226,14.3561055920001,0
                100.786270801,14.356037459,0
                100.785412453,14.355729153,0
                100.783989426,14.3553051710001,0
                100.783445215,14.3551172860001,0
                100.78341361,14.355101255,0
                100.783376963,14.3550728810001,0
                100.783300664,14.355001702,0
                100.783293278,14.3549929760001,0
                100.783277141,14.354960416,0
                100.78327171,14.3549494590001,0
                100.783261896,14.3549012510001,0
                100.783261514,14.35485297,0
                100.783275135,14.3547861930001,0
                100.783324044,14.354643287,0
                100.78334821,14.354585495,0
                100.783403512,14.354450174,0
                100.783411785,14.3544244880001,0
                100.783415979,14.354405775,0
                100.783428903,14.3543401690001,0
                100.783431567,14.3542896910001,0
                100.783431283,14.354253914,0
                100.78342602,14.354184984,0
                100.783418203,14.354090775,0
                100.783375465,14.3534588320001,0
                100.783371581,14.3532657380001,0
                100.783372862,14.353130075,0
                100.783376988,14.353055284,0
                100.783381111,14.3529805690001,0
                100.78339384,14.3528842850001,0
                100.783401747,14.3527991870001,0
                100.783413994,14.352692486,0
                100.783512123,14.351536659,0
                100.783512127,14.3515366010001,0
                100.7835512,14.351076388,0
                100.78357513,14.350943998,0
                100.78358062,14.3509262800001,0
                100.783679039,14.350410895,0
                100.783705351,14.3502122240001,0
                100.783714629,14.3500767200001,0
                100.783716499,14.350049406,0
                100.783719148,14.3496510750001,0
                100.783720585,14.349445948,0
                100.783718559,14.3494041970001,0
                100.783708453,14.3493477690001,0
                100.783689251,14.3492948160001,0
                100.783676728,14.34926942,0
                100.78364614,14.349221781,0
                100.783605637,14.349169207,0
                100.783558104,14.3491235810001,0
                100.783542411,14.3491132840001,0
                100.783513065,14.349094033,0
                100.783449179,14.349066925,0
                100.782770776,14.348867399,0
                100.782652582,14.3488315060001,0
                100.782593391,14.34880206,0
                100.782534114,14.3487611210001,0
                100.782474743,14.348708688,0
                100.782415266,14.348642457,0
                100.782340062,14.3485515900001,0
                100.782269775,14.3484828370001,0
                100.781643481,14.347703091,0
                100.781429976,14.3472749910001,0
                100.781304496,14.3469611510001,0
                100.781136081,14.346402803,0
                100.780907829,14.3454052070001,0
                100.780737879,14.344652006,0
                100.780624456,14.3439183620001,0
                100.780581137,14.3436238960001,0
                100.780569737,14.3434790760001,0
                100.780573091,14.343254206,0
                100.780612155,14.343009087,0
                100.7806565,14.342783909,0
                100.780736595,14.3425434690001,0
                100.780852251,14.342262797,0
                100.781023999,14.341946724,0
                100.781089971,14.3418221970001,0
                100.781165292,14.341666628,0
                100.781204854,14.3415720090001,0
                100.781217984,14.3415330990001,0
                100.781236621,14.3414699950001,0
                100.781246613,14.34141119,0
                100.781251533,14.3413647470001,0
                100.781254193,14.3413396990001,0
                100.781257892,14.3413047880001,0
                100.781252993,14.341204729,0
                100.781246571,14.341171151,0
                100.781219386,14.341091115,0
                100.781207883,14.341064956,0
                100.781176119,14.34100921,0
                100.781133472,14.3409536790001,0
                100.781069617,14.3408982550001,0
                100.780692223,14.340651113,0
                100.780356684,14.340437491,0
                100.779892714,14.340142105,0
                100.779355514,14.339802793,0
                100.778802491,14.339487322,0
                100.778080471,14.339045422,0
                100.777832722,14.338879225,0
                100.777677745,14.338763896,0
                100.777567001,14.3386758300001,0
                100.777462503,14.338581576,0
                100.777357857,14.338468935,0
                100.776909013,14.3379144530001,0
                100.776770189,14.33775869,0
                100.776708391,14.337697072,0
                100.776670426,14.33766747,0
                100.776630161,14.3376447790001,0
                100.776559186,14.337615424,0
                100.776524984,14.3376025210001,0
                100.775711134,14.337377674,0
                100.774236265,14.336947278,0
                100.774138657,14.336929609,0
                100.77412017,14.3369281120001,0
                100.774026438,14.3369265270001,0
                100.77399025,14.336925916,0
                100.774017712,14.33674352,0
                100.774038608,14.336602344,0
                100.774056339,14.3364581330001,0
                100.774071168,14.336344597,0
                100.774079539,14.3362096540001,0
                100.774084527,14.3360440760001,0
                100.774086489,14.3358938490001,0
                100.774106734,14.3356699130001,0
                100.774231888,14.334792237,0
                100.774293944,14.334156267,0
                100.774297499,14.334136329,0
                100.774306014,14.3341105000001,0
                100.77514441,14.332476623,0
                100.777562033,14.327765003,0
                100.776284513,14.3271626850001,0
                100.774519081,14.3263480850001,0
                100.773455983,14.3258575450001,0
                100.773196524,14.325730842,0
                100.772199697,14.3252440410001,0
                100.773169993,14.323241647,0
                100.77450021,14.3205045330001,0
                100.775151855,14.319248256,0
                100.775232522,14.319092746,0
                100.775504532,14.318618553,0
                100.775330697,14.318527283,0
                100.775154049,14.3184333090001,0
                100.775016732,14.3183689970001,0
                100.774848649,14.3182994650001,0
                100.774618935,14.3182031690001,0
                100.774296803,14.3180721700001,0
                100.774005554,14.31796272,0
                100.772876562,14.3174865280001,0
                100.77268323,14.317400849,0
                100.772523483,14.317325808,0
                100.771060175,14.316588011,0
                100.769022447,14.3155903900001,0
                100.767548162,14.314874434,0
                100.765864039,14.314102851,0
                100.76539038,14.3138749510001,0
                100.76506261,14.313735814,0
                100.764874868,14.3136500800001,0
                100.763613435,14.3130141930001,0
                100.761811245,14.3121372740001,0
                100.761435676,14.3119549210001,0
                100.760953594,14.3117189020001,0
                100.760847046,14.3116625210001,0
                100.760760181,14.3116223270001,0
                100.760670583,14.311590317,0
                100.760550296,14.3115612610001,0
                100.760418818,14.311529562,0
                100.760265027,14.3115007540001,0
                100.760144696,14.3114662520001,0
                100.760039619,14.3114215050001,0
                100.759912177,14.311367239,0
                100.759784047,14.311299117,0
                100.759225262,14.3110020510001,0
                100.759132764,14.310956451,0
                100.759051567,14.3109271060001,0
                100.758900352,14.310871047,0
                100.758794554,14.310825272,0
                100.758751874,14.3108068060001,0
                100.75863137,14.310750522,0
                100.758577765,14.3107214570001,0
                100.758482766,14.3106699460001,0
                100.758401415,14.310621537,0
                100.758294727,14.310546093,0
                100.758120629,14.3104194200001,0
                100.757147945,14.3099283760001,0
                100.756989838,14.309846544,0
                100.75674295,14.30973376,0
                100.756572585,14.309677976,0
                100.756444903,14.3096422560001,0
                100.756310569,14.3096024110001,0
                100.756226514,14.309564912,0
                100.756145251,14.309527399,0
                100.755998538,14.3094151990001,0
                100.755933823,14.3093745840001,0
                100.755579162,14.3091722620001,0
                100.755290839,14.3090377500001,0
                100.755152565,14.3089765940001,0
                100.753902835,14.308403184,0
                100.753639548,14.308296226,0
                100.75249067,14.307765622,0
                100.752258031,14.307650261,0
                100.752064735,14.307567287,0
                100.751899546,14.3075086100001,0
                100.751791808,14.3074716130001,0
                100.75172877,14.3074499680001,0
                100.751622364,14.307409912,0
                100.751510286,14.307359009,0
                100.750804062,14.3070211620001,0
                100.74874993,14.3060479760001,0
                100.748522921,14.305938015,0
                100.748365986,14.3058629380001,0
                100.748175398,14.305769049,0
                100.747699109,14.305557465,0
                100.747262034,14.305361927,0
                100.746962207,14.305222552,0
                100.746746447,14.305123402,0
                100.745025696,14.3042920250001,0
                100.743234705,14.303373122,0
                100.742598171,14.3030465300001,0
                100.740218461,14.301844225,0
                100.737847865,14.300734393,0
                100.735617407,14.299691577,0
                100.733647505,14.2987639140001,0
                100.733318531,14.298623105,0
                100.732384165,14.298223148,0
                100.732255399,14.2981694480001,0
                100.731336726,14.2992687820001,0
                100.731076426,14.2995878570001,0
                100.730763914,14.2999709260001,0
                100.730590492,14.300236598,0
                100.730461195,14.300429491,0
                100.730439107,14.300462451,0
                100.730403224,14.3005159860001,0
                100.730190391,14.3008422190001,0
                100.730027004,14.3011155940001,0
                100.729643562,14.301814409,0
                100.729445145,14.30220081,0
                100.72938425,14.3023198450001,0
                100.729331415,14.3024504960001,0
                100.729265075,14.302639567,0
                100.729171669,14.302939655,0
                100.729086303,14.303210295,0
                100.728908467,14.303160554,0
                100.728830577,14.3031179010001,0
                100.728778158,14.3030543130001,0
                100.728733834,14.3029113050001,0
                100.728722924,14.302816998,0
                100.728706379,14.3027859050001,0
                100.728554566,14.3025288590001,0
                100.72825735,14.3021998090001,0
                100.727990771,14.3019582090001,0
                100.727483745,14.3016258110001,0
                100.727121898,14.301336195,0
                100.72696554,14.30113763,0
                100.726883691,14.3008849450001,0
                100.726811349,14.3005688710001,0
                100.726764798,14.300359768,0
                100.72669372,14.300209291,0
                100.726672033,14.300177809,0
                100.726496737,14.2999233460001,0
                100.726365427,14.29973434,0
                100.726220137,14.299676946,0
                100.726050172,14.299658697,0
                100.725825638,14.299689551,0
                100.725443088,14.2997482370001,0
                100.725380944,14.299748687,0
                100.725104351,14.299759126,0
                100.723706089,14.300072786,0
                100.720339324,14.300754796,0
                100.718846264,14.3011112720001,0
                100.718691477,14.301221996,0
                100.718367364,14.301806089,0
                100.718170949,14.302127893,0
                100.717912391,14.3024322740001,0
                100.716882019,14.303017079,0
                100.716796903,14.303050995,0
                100.716758062,14.3030691340001,0
                100.716703116,14.3031031800001,0
                100.716455077,14.303245325,0
                100.716451709,14.3032472560001,0
                100.716239434,14.303371898,0
                100.715923792,14.303554741,0
                100.715570961,14.303766707,0
                100.715356848,14.3038953330001,0
                100.714965792,14.304122491,0
                100.714736784,14.304260931,0
                100.714630591,14.304316414,0
                100.714518812,14.3043746720001,0
                100.714418128,14.3044164360001,0
                100.714264183,14.304464056,0
                100.714115825,14.3045088980001,0
                100.71372811,14.304601212,0
                100.713663527,14.304635725,0
                100.713656057,14.305602865,0
                100.713648427,14.306591021,0
                100.713628737,14.30662619,0
                100.713623822,14.3066349700001,0
                100.713591155,14.306644325,0
                100.713588982,14.3066449460001,0
                100.71286591,14.30666475,0
                100.712476849,14.3066626900001,0
                100.711912967,14.3066278430001,0
                100.71138404,14.306597604,0
                100.710805121,14.306553137,0
                100.709348187,14.306485799,0
                100.70932946,14.3064852150001,0
                100.708460159,14.3064581360001,0
                100.707152922,14.3063994390001,0
                100.705762805,14.306356409,0
                100.705750925,14.306454984,0
                100.705746278,14.30647853,0
                100.705742819,14.30649608,0
                100.705715603,14.3065147450001,0
                100.705688267,14.3065169920001,0
                100.705647007,14.3065133430001,0
                100.705473495,14.3064980120001,0
                100.705444036,14.3064982240001,0
                100.705412554,14.306508708,0
                100.70541059,14.306527192,0
                100.705395519,14.3065770010001,0
                100.705390057,14.3065950490001,0
                100.705367363,14.306654715,0
                100.705334191,14.3067206150001,0
                100.705315472,14.306749473,0
                100.705292402,14.3067598970001,0
                100.705262963,14.3067621600001,0
                100.705195504,14.30674623,0
                100.704953195,14.306702827,0
                100.704815275,14.3066753320001,0
                100.704814106,14.3066751010001,0
                100.704693988,14.3066513380001,0
                100.704611802,14.306635514,0
                100.704066501,14.306594282,0
                100.70307536,14.3065870240001,0
                100.702982748,14.3065835840001,0
                100.702875377,14.306576142,0
                100.70276796,14.306562549,0
                100.702639457,14.3065429530001,0
                100.702462555,14.306523699,0
                100.702254141,14.30651083,0
                100.702136188,14.3064952610001,0
                100.702022459,14.306481709,0
                100.701872975,14.306470469,0
                100.701771947,14.306467089,0
                100.701622555,14.306468158,0
                100.701456347,14.3064714000001,0
                100.701296451,14.306474596,0
                100.701149162,14.30647565,0
                100.700963911,14.3064646660001,0
                100.700806011,14.3064534850001,0
                100.700700744,14.3064460320001,0
                100.700589212,14.3064447740001,0
                100.700397736,14.3064461430001,0
                100.70001691,14.3064509230001,0
                100.699617526,14.306451768,0
                100.699608697,14.306451786,0
                100.699240464,14.3064523670001,0
                100.698859668,14.3064612480001,0
                100.698716588,14.306462271,0
                100.698628137,14.30645264,0
                100.698567041,14.3064428180001,0
                100.69849538,14.3064269170001,0
                100.698438477,14.306415013,0
                100.698356322,14.306403286,0
                100.698274234,14.3063997690001,0
                100.698139554,14.306398679,0
                100.698028021,14.3063974240001,0
                100.697785909,14.306380688,0
                100.697653275,14.3063713770001,0
                100.697567082,14.3063822510001,0
                100.697472566,14.306405495,0
                100.697374746,14.306436842,0
                100.697284839,14.306469647,0
                100.697068428,14.3065441480001,0
                100.696897056,14.3066114690001,0
                100.696362178,14.30683953,0
                100.696341251,14.3068484560001,0
                100.695908787,14.30704487,0
                100.69564031,14.307159868,0
                100.69535326,14.3072932320001,0
                100.695320587,14.3073092820001,0
                100.695014094,14.3074598040001,0
                100.694977672,14.30747645,0
                100.6946926,14.3076160140001,0
                100.694572129,14.307674998,0
                100.694449493,14.307719622,0
                100.694328054,14.3077638120001,0
                100.693947466,14.3078941950001,0
                100.693568321,14.3080107110001,0
                100.693424945,14.308054773,0
                100.693215988,14.308125567,0
                100.693100381,14.308173815,0
                100.692962471,14.308240456,0
                100.692709059,14.3083699310001,0
                100.692489205,14.308484579,0
                100.692424889,14.3085181760001,0
                100.692249816,14.3085998940001,0
                100.691805152,14.3088074520001,0
                100.691692183,14.3088900340001,0
                100.69158858,14.3089580270001,0
                100.691468756,14.308690627,0
                100.691213181,14.3083749890001,0
                100.691059889,14.30819266,0
                100.690776538,14.3080324200001,0
                100.690377598,14.3078941650001,0
                100.69006568,14.30778351,0
                100.689709302,14.3075320780001,0
                100.68925946,14.3073589100001,0
                100.68900584,14.307304276,0
                100.688635997,14.307186975,0
                100.68800372,14.3068034620001,0
                100.687735315,14.3067066030001,0
                100.687575846,14.3066654080001,0
                100.687221263,14.3066538160001,0
                100.687011312,14.3066341420001,0
                100.686670671,14.3065519040001,0
                100.686402952,14.3065467490001,0
                100.686149806,14.306555599,0
                100.685968845,14.306542774,0
                100.685613736,14.3064606360001,0
                100.685273989,14.306498318,0
                100.685115099,14.306534718,0
                100.684906411,14.3066843440001,0
                100.684691171,14.3069257270001,0
                100.684562216,14.3070959510001,0
                100.684432683,14.3071885800001,0
                100.684173038,14.307296239,0
                100.683711201,14.307454713,0
                100.683229131,14.307810858,0
                100.682778571,14.3080960660001,0
                100.682780421,14.3080905730001,0
                100.682886685,14.3077774430001,0
                100.682998257,14.30744839,0
                100.683056401,14.3072361970001,0
                100.683134148,14.3069018210001,0
                100.68313532,14.306896787,0
                100.683163665,14.3067231680001,0
                100.683207163,14.306235735,0
                100.683204405,14.305865392,0
                100.68319261,14.3057446240001,0
                100.683163541,14.305608062,0
                100.683158233,14.305593516,0
                100.683076572,14.3053698260001,0
                100.683032412,14.3052212960001,0
                100.683014384,14.3050924290001,0
                100.683017078,14.3050309670001,0
                100.683049532,14.3048939650001,0
                100.683060338,14.304848335,0
                100.683145752,14.304651834,0
                100.683263735,14.3044550980001,0
                100.683408712,14.304236998,0
                100.683570091,14.304034662,0
                100.683720967,14.303880051,0
                100.684001831,14.3036821650001,0
                100.684158413,14.3035645750001,0
                100.684266444,14.303489686,0
                100.684346978,14.3033673420001,0
                100.68440032,14.303239895,0
                100.684442336,14.3030489970001,0
                100.684452089,14.302900681,0
                100.68442923,14.3027473010001,0
                100.68441227,14.3026574130001,0
                100.684360274,14.302554306,0
                100.684335117,14.302504421,0
                100.684309939,14.302475826,0
                100.684214652,14.302367616,0
                100.684083403,14.3022414760001,0
                100.684017581,14.3021519340001,0
                100.683962381,14.3020305520001,0
                100.683879521,14.3018405340001,0
                100.683807051,14.301586908,0
                100.683794776,14.30154235,0
                100.683740086,14.3013438350001,0
                100.683706409,14.3011958270001,0
                100.683632634,14.3007674900001,0
                100.683610082,14.3006154490001,0
                100.68359262,14.300497754,0
                100.683536001,14.300185777,0
                100.683485917,14.3000220000001,0
                100.683479161,14.3000052360001,0
                100.683424458,14.299888351,0
                100.683357497,14.299779502,0
                100.683267496,14.2996453370001,0
                100.683052049,14.2993579610001,0
                100.68295944,14.2992488780001,0
                100.682898941,14.2991724980001,0
                100.682860823,14.2991126540001,0
                100.682838193,14.2990627240001,0
                100.68277099,14.3008314890001,0
                100.682735099,14.300981876,0
                100.6826491,14.301118247,0
                100.682498198,14.3011814660001,0
                100.682044625,14.301254595,0
                100.681392293,14.301383511,0
                100.68089854,14.3014103090001,0
                100.680277553,14.3014690810001,0
                100.680061143,14.3014592060001,0
                100.679392918,14.301428717,0
                100.678674832,14.3012861760001,0
                100.678611503,14.301341006,0
                100.678595274,14.302374389,0
                100.678593735,14.3027879310001,0
                100.678592613,14.3030891500001,0
                100.678546602,14.3033303120001,0
                100.678469416,14.3036649220001,0
                100.67836065,14.304038598,0
                100.678286809,14.304823782,0
                100.677688721,14.3058224270001,0
                100.677673652,14.3059390670001,0
                100.677852669,14.3064427850001,0
                100.676729242,14.3064351740001,0
                100.676708165,14.3068160010001,0
                100.67618259,14.3068507830001,0
                100.676249492,14.307277603,0
                100.676351432,14.3081314670001,0
                100.676401999,14.30850402,0
                100.676348017,14.308745238,0
                100.675384261,14.308783109,0
                100.675345636,14.3089465300001,0
                100.675342277,14.309568068,0
                100.675384415,14.3098785290001,0
                100.67541657,14.309917147,0
                100.675727509,14.30994603,0
                100.675724843,14.310660792,0
                100.675031549,14.3106423730001,0
                100.672809299,14.310727946,0
                100.672602217,14.3107371720001,0
                100.672575901,14.3104110620001,0
                100.671699311,14.3103861540001,0
                100.671705209,14.3101064300001,0
                100.671307972,14.31014298,0
                100.669053894,14.310350365,0
                100.669032289,14.310661275,0
                100.669034929,14.311018629,0
                100.668973373,14.3113142820001,0
                100.668997676,14.311368494,0
                100.669429499,14.3115829920001,0
                100.669726608,14.3117731310001,0
                100.669813749,14.311828899,0
                100.669315103,14.312275233,0
                100.669126739,14.312391497,0
                100.668831297,14.3125738520001,0
                100.668506772,14.312863582,0
                100.668277967,14.3131681790001,0
                100.667624327,14.313126153,0
                100.666948907,14.31337173,0
                100.667055058,14.3137205890001,0
                100.667121259,14.31405419,0
                100.667131291,14.3143338030001,0
                100.667149427,14.3146383710001,0
                100.667158574,14.314791981,0
                100.667282209,14.315350478,0
                100.667358271,14.3159403870001,0
                100.666745662,14.3160612200001,0
                100.666348395,14.316211617,0
                100.665911291,14.3163622930001,0
                100.66558682,14.316537736,0
                100.664195827,14.317900857,0
                100.662739256,14.319368706,0
                100.661122108,14.320931752,0
                100.661070261,14.3209698270001,0
                100.660872046,14.3211579380001,0
                100.660366155,14.321638052,0
                100.659481179,14.3224663620001,0
                100.659322322,14.322652099,0
                100.659315186,14.322660447,0
                100.659107917,14.3229659290001,0
                100.657521933,14.3227929330001,0
                100.657293535,14.32280845,0
                100.656936062,14.3228109450001,0
                100.656707686,14.322777117,0
                100.656139266,14.3226404260001,0
                100.655615159,14.3225143880001,0
                100.654943591,14.3223290500001,0
                100.654909629,14.322325549,0
                100.654891415,14.322325676,0
                100.654870354,14.3223395800001,0
                100.654827174,14.322420973,0
                100.654818411,14.3224374980001,0
                100.654793992,14.3224542310001,0
                100.65475599,14.322469359,0
                100.654722165,14.322468095,0
                100.654536299,14.322404394,0
                100.654109869,14.3222582450001,0
                100.654071796,14.3222553640001,0
                100.653989573,14.322255937,0
                100.653946745,14.322261333,0
                100.653916224,14.3222764820001,0
                100.653891645,14.3223042650001,0
                100.653864574,14.3223689160001,0
                100.653820375,14.3224566700001,0
                100.653793741,14.3225095450001,0
                100.653773982,14.3225145050001,0
                100.653735454,14.3225078630001,0
                100.653628214,14.3224756610001,0
                100.653493452,14.3224270910001,0
                100.653303988,14.322358805,0
                100.653109256,14.3222620670001,0
                100.652842976,14.3222078640001,0
                100.652416651,14.322119005,0
                100.65213801,14.322060928,0
                100.652078618,14.3220665210001,0
                100.645034613,14.322729769,0
                100.644422034,14.3227671510001,0
                100.629704026,14.3233690600001,0
                100.625891917,14.3270837910001,0
                100.624294246,14.3287110000001,0
                100.623255861,14.3297851570001,0
                100.622014453,14.330975768,0
                100.62108225,14.3318975030001,0
                100.620001033,14.332987632,0
                100.61911582,14.3337311970001,0
                100.618507229,14.334148573,0
                100.618181831,14.3344070950001,0
                100.617782078,14.3347707350001,0
                100.617585091,14.3349813070001,0
                100.617197266,14.3355122450001,0
                100.617031568,14.3357503770001,0
                100.616975525,14.335926848,0
                100.616971361,14.335959771,0
                100.616958105,14.336938139,0
                100.616984568,14.3369897470001,0
                100.617007951,14.33701223,0
                100.617181955,14.3371113630001,0
                100.617315998,14.3371306080001,0
                100.618137081,14.337143037,0
                100.618271424,14.337173503,0
                100.618427331,14.3372195170001,0
                100.618653211,14.337296435,0
                100.618889854,14.337378513,0
                100.619147582,14.337408136,0
                100.619673125,14.3373783960001,0
                100.620885075,14.3373073500001,0
                100.620997465,14.3372699670001,0
                100.621104197,14.337190779,0
                100.621225475,14.3368970340001,0
                100.62129198,14.3364467440001,0
                100.621291002,14.336310752,0
                100.621252171,14.336133175,0
                100.621213533,14.33598175,0
                100.621164236,14.335840859,0
                100.621131106,14.335710321,0
                100.621140896,14.3355794890001,0
                100.62118235,14.3353752100001,0
                100.621265962,14.335066026,0
                100.621403336,14.3347721710001,0
                100.621504211,14.334625026,0
                100.621573534,14.334567012,0
                100.621643849,14.3345300840001,0
                100.622483489,14.3346302630001,0
                100.623157462,14.334772765,0
                100.624099744,14.3348781240001,0
                100.62424771,14.334891821,0
                100.62437774,14.3349291820001,0
                100.624547187,14.3349927510001,0
                100.624822781,14.3351291500001,0
                100.624907441,14.3351521060001,0
                100.624998055,14.3351632540001,0
                100.625155009,14.335168063,0
                100.625218399,14.335170571,0
                100.625297025,14.335193573,0
                100.62538791,14.33524297,0
                100.625554981,14.33539482,0
                100.6257678,14.3356140290001,0
                100.625834908,14.335713608,0
                100.625883907,14.335813306,0
                100.625918226,14.3359690080001,0
                100.62594281,14.3360306270001,0
                100.625973264,14.336068669,0
                100.626045983,14.336109359,0
                100.626064341,14.336144543,0
                100.626095236,14.336244365,0
                100.626104585,14.336285494,0
                100.626122758,14.3362941950001,0
                100.626168061,14.336299769,0
                100.626255573,14.336299169,0
                100.626303915,14.3363076640001,0
                100.626349477,14.336348545,0
                100.626395506,14.336454152,0
                100.625923062,14.3366398050001,0
                100.625850916,14.336678551,0
                100.625758865,14.3367549700001,0
                100.625666938,14.3369020600001,0
                100.625618525,14.33713254,0
                100.625586079,14.337593058,0
                100.625537918,14.3378584070001,0
                100.625497717,14.338235291,0
                100.625448805,14.338396033,0
                100.625392637,14.3385428730001,0
                100.625272294,14.3387180550001,0
                100.62511599,14.338865582,0
                100.624945022,14.338964392,0
                100.624596193,14.339196929,0
                100.624461093,14.339309444,0
                100.624397471,14.3394144920001,0
                100.624341201,14.339547387,0
                100.624349659,14.339728655,0
                100.624393836,14.33990271,0
                100.624871352,14.3406526520001,0
                100.624900919,14.3407849590001,0
                100.624902175,14.340959304,0
                100.6247855,14.341643574,0
                100.624748464,14.3424598130001,0
                100.624699496,14.3426135770001,0
                100.624550995,14.3428517200001,0
                100.62435902,14.343013437,0
                100.624201854,14.3430424110001,0
                100.623164423,14.3430146430001,0
                100.622985801,14.343043763,0
                100.622814783,14.343135599,0
                100.62267993,14.3432829770001,0
                100.622581044,14.343458012,0
                100.622294445,14.344387539,0
                100.622252628,14.344541259,0
                100.622203212,14.3446322620001,0
                100.622125383,14.344751353,0
                100.621130228,14.345629935,0
                100.619614842,14.3467840590001,0
                100.619215671,14.346982064,0
                100.61905155,14.347038979,0
                100.618988703,14.3468964140001,0
                100.618856396,14.3464030220001,0
                100.618810782,14.3462150290001,0
                100.618737089,14.3460389950001,0
                100.618647641,14.345910147,0
                100.618538077,14.345781435,0
                100.618428959,14.345715489,0
                100.618267678,14.345669517,0
                100.618058085,14.345619948,0
                100.617848604,14.345586068,0
                100.617595087,14.345583875,0
                100.617393991,14.3455970150001,0
                100.617132821,14.345649796,0
                100.616968305,14.3457136860001,0
                100.616828126,14.3458048740001,0
                100.616395716,14.3461059680001,0
                100.616259335,14.346165743,0
                100.616074528,14.3462062300001,0
                100.615905646,14.3462230760001,0
                100.615756688,14.3462123190001,0
                100.615486571,14.3461396230001,0
                100.614667897,14.3458823570001,0
                100.613539118,14.345587972,0
                100.6133941,14.345565422,0
                100.613265288,14.3455584490001,0
                100.613144611,14.345563197,0
                100.613008004,14.3455915860001,0
                100.612883608,14.345639509,0
                100.612406566,14.3458899,0
                100.612270043,14.3459300600001,0
                100.612105128,14.345939027,0
                100.611972212,14.345920317,0
                100.611855273,14.3458858020001,0
                100.611705839,14.345808359,0
                100.611592446,14.3457071340001,0
                100.611519096,14.345578173,0
                100.611143513,14.3448235810001,0
                100.611062285,14.3447182140001,0
                100.610530958,14.344129448,0
                100.610441824,14.344043749,0
                100.610373171,14.3440089050001,0
                100.610264336,14.3439821850001,0
                100.610179813,14.3439788360001,0
                100.610091268,14.3439755150001,0
                100.609998974,14.344011446,0
                100.60987469,14.344075058,0
                100.609642612,14.3442570940001,0
                100.609542668,14.344348,0
                100.609490444,14.3443601220001,0
                100.60944216,14.3443604500001,0
                100.609397847,14.3443529050001,0
                100.609357441,14.344329643,0
                100.609300662,14.34426726,0
                100.608745649,14.343741419,0
                100.608539494,14.343609434,0
                100.608398025,14.3435201660001,0
                100.608220402,14.3434389880001,0
                100.608058784,14.3433459290001,0
                100.607893091,14.343245057,0
                100.607824215,14.343178832,0
                100.607787692,14.3431359250001,0
                100.607759054,14.343069428,0
                100.60775827,14.3429595870001,0
                100.60778537,14.3428103300001,0
                100.607839575,14.3425118160001,0
                100.607866064,14.342276253,0
                100.607856306,14.342037018,0
                100.607813528,14.3416803100001,0
                100.607804222,14.3415038410001,0
                100.607803131,14.3413508520001,0
                100.607821849,14.341154574,0
                100.607837131,14.3410407010001,0
                100.607939199,14.3406830160001,0
                100.607954537,14.3405769890001,0
                100.60794987,14.340486793,0
                100.607949171,14.34038872,0
                100.60792436,14.3402947380001,0
                100.607891582,14.340212577,0
                100.607858976,14.340153953,0
                100.607806333,14.340107232,0
                100.607709547,14.3400765060001,0
                100.607617003,14.340077133,0
                100.607512561,14.3401013770001,0
                100.60738026,14.340168965,0
                100.606767063,14.3405104990001,0
                100.606694752,14.34052668,0
                100.60651777,14.3405357240001,0
                100.606179513,14.3404987870001,0
                100.605861069,14.340418561,0
                100.605671878,14.340408069,0
                100.60545064,14.340417412,0
                100.605137165,14.3404705340001,0
                100.604385405,14.3405658520001,0
                100.604184455,14.340598593,0
                100.603967738,14.3406785190001,0
                100.603835156,14.340706879,0
                100.603726523,14.3407076130001,0
                100.603174767,14.3406368060001,0
                100.603102371,14.340641218,0
                100.603042073,14.3406494710001,0
                100.602949952,14.3407089400001,0
                100.602797694,14.340800197,0
                100.60267727,14.3408402380001,0
                100.602536641,14.340868652,0
                100.602339626,14.3408895970001,0
                100.602162755,14.3409143330001,0
                100.601970097,14.340982325,0
                100.601825696,14.3410460650001,0
                100.601677633,14.341160834,0
                100.601449741,14.3413663700001,0
                100.601277561,14.3414852240001,0
                100.601161271,14.341540932,0
                100.601021952,14.3415620970001,0
                100.600954218,14.341845011,0
                100.600710223,14.3422389610001,0
                100.600673486,14.3423542840001,0
                100.600647554,14.3424799970001,0
                100.600643189,14.342621255,0
                100.600655034,14.342778094,0
                100.600700439,14.343128247,0
                100.600912103,14.344225264,0
                100.60093505,14.344434339,0
                100.600925657,14.3446227090001,0
                100.600838244,14.345156826,0
                100.600817897,14.345313887,0
                100.600834924,14.345444539,0
                100.600862454,14.3455437370001,0
                100.600927613,14.345653139,0
                100.601068136,14.345798652,0
                100.601311266,14.346037623,0
                100.601538708,14.346334235,0
                100.601760378,14.34657335,0
                100.602175441,14.346847773,0
                100.602234866,14.3469049120001,0
                100.602278602,14.3470196910001,0
                100.602375447,14.347389471,0
                100.602416266,14.347471577,0
                100.602853918,14.3479040720001,0
                100.603193498,14.3481253910001,0
                100.603286632,14.3482071440001,0
                100.603347686,14.3483048050001,0
                100.603380654,14.3484144280001,0
                100.603397809,14.348563386,0
                100.603382469,14.348669413,0
                100.603362798,14.3487323140001,0
                100.603331137,14.3488070650001,0
                100.603140064,14.34909866,0
                100.603108295,14.3491577200001,0
                100.603092648,14.3492205950001,0
                100.603093178,14.3492951280001,0
                100.60310969,14.349353862,0
                100.603146297,14.349408538,0
                100.603239538,14.349505981,0
                100.603349264,14.349658235,0
                100.603541283,14.350064934,0
                100.603598844,14.3502371550001,0
                100.603628432,14.350437029,0
                100.603625553,14.3505978910001,0
                100.60361907,14.350817627,0
                100.603632983,14.3510764530001,0
                100.603654334,14.3512489190001,0
                100.60387653,14.351937865,0
                100.604053152,14.3524427410001,0
                100.604130412,14.3525559870001,0
                100.604227544,14.35263379,0
                100.604841699,14.352986625,0
                100.604926728,14.353060586,0
                100.604995803,14.3531542690001,0
                100.605069488,14.353330307,0
                100.60516385,14.353584665,0
                100.605188723,14.3536864930001,0
                100.605218788,14.353953054,0
                100.605236252,14.354145164,0
                100.605260957,14.354223457,0
                100.605309966,14.3543251250001,0
                100.605370743,14.354383559,0
                100.605592805,14.3544879740001,0
                100.606097768,14.3547630850001,0
                100.606210963,14.35483686,0
                100.606300077,14.3549186380001,0
                100.606397793,14.355078817,0
                100.606647052,14.3556106570001,0
                100.606663846,14.3557086210001,0
                100.606669185,14.355892963,0
                100.606777083,14.356916137,0
                100.606781862,14.3570220280001,0
                100.606770855,14.3571711760001,0
                100.606710821,14.357369067,0
                100.608226651,14.3576694390001,0
                100.609286366,14.357801728,0
                100.609763731,14.3578635810001,0
                100.610050271,14.357917424,0
                100.610461798,14.358109906,0
                100.610729996,14.3582661680001,0
                100.611353891,14.358810562,0
                100.611641098,14.358957393,0
                100.61231049,14.3591946110001,0
                100.612702147,14.359275638,0
                100.612931193,14.3592926750001,0
                100.613121957,14.359291376,0
                100.613397894,14.3591965090001,0
                100.614006459,14.358931994,0
                100.614805918,14.358684775,0
                100.615149154,14.359993586,0
                100.615219721,14.3605231440001,0
                100.615221789,14.360811396,0
                100.615316574,14.362056809,0
                100.615415824,14.3625954720001,0
                100.615475123,14.3628833380001,0
                100.615922955,14.364144939,0
                100.615981655,14.3643491130001,0
                100.616011806,14.364562786,0
                100.616013141,14.3647487540001,0
                100.616037157,14.3654367130001,0
                100.616056967,14.3655388670001,0
                100.61620365,14.366040007,0
                100.616332924,14.3667737420001,0
                100.616345398,14.367182809,0
                100.616328526,14.3674897920001,0
                100.616209202,14.3681415300001,0
                100.616144906,14.36848603,0
                100.616118761,14.36883027,0
                100.616204954,14.370205927,0
                100.616196817,14.3704012600001,0
                100.616150327,14.370568958,0
                100.616056613,14.370802069,0
                100.615972033,14.370979327,0
                100.61569822,14.371371751,0
                100.61535824,14.371848319,0
                100.615179009,14.3721285080001,0
                100.614972234,14.372557672,0
                100.614671604,14.3732013470001,0
                100.614559273,14.3734996800001,0
                100.614475898,14.37384431,0
                100.614143247,14.375343711,0
                100.614068605,14.375576691,0
                100.613947138,14.375930882,0
                100.613741092,14.376462325,0
                100.613677204,14.376695797,0
                100.61352516,14.379062398,0
                100.61344665,14.38045952,0
                100.613460608,14.3807222660001,0
                100.613520974,14.381282841,0
                100.613584352,14.3817021680001,0
                100.613650599,14.3819606340001,0
                100.613732435,14.38214838,0
                100.614300569,14.383364554,0
                100.614847687,14.3844553320001,0
                100.615010518,14.3847131380001,0
                100.615469666,14.385321989,0
                100.616128261,14.3862433150001,0
                100.616245984,14.3863837380001,0
                100.616359486,14.38649673,0
                100.616476583,14.3865508530001,0
                100.61660981,14.386608783,0
                100.616706538,14.3866277400001,0
                100.616815165,14.386623075,0
                100.616859575,14.3866423850001,0
                100.616875784,14.386657965,0
                100.616876095,14.386701117,0
                100.616868611,14.3867796270001,0
                100.616826007,14.3870113720001,0
                100.616786895,14.3871685620001,0
                100.616711534,14.3873220730001,0
                100.61660783,14.3874522400001,0
                100.61647213,14.3876100860001,0
                100.61628808,14.387760416,0
                100.615907546,14.3880101660001,0
                100.615799478,14.3880932870001,0
                100.615723636,14.388180114,0
                100.615664088,14.388294284,0
                100.615340438,14.3891791670001,0
                100.615053986,14.390201104,0
                100.614792886,14.3908305630001,0
                100.614745893,14.3910113430001,0
                100.614730699,14.3911369790001,0
                100.614727431,14.391242924,0
                100.614897991,14.392014585,0
                100.614894249,14.3920538420001,0
                100.614882628,14.39211669,0
                100.614638454,14.393230106,0
                100.632133598,14.4024897800001,0
                100.638221922,14.405634392,0
                100.639111745,14.4061032700001,0
                100.642800069,14.40801645,0
                100.646466273,14.4098751500001,0
                100.653872282,14.4132414330001,0
                100.658010021,14.4151040530001,0
                100.660186619,14.4160294440001,0
                100.661886747,14.4124954330001,0
              </coordinates>
                
            </LinearRing>
            
          </outerBoundaryIs>
        
        </Polygon>
        
      <styleUrl>
        #amphoeStyle</styleUrl>
    </Placemark>

  </Document>
</kml>