<?xml version="1.0" encoding="UTF-8"?>
<kml xmlns="http://www.opengis.net/kml/2.2">
  <Document id="tambon_doc">
    <name>บ่อตรุ, ระโนด, Songkhla</name>
    <description>ข้อมูลขอบเขตตำบลบ่อตรุ อำเภอระโนด จังหวัดSongkhla</description>
    
    <!-- Schema สำหรับข้อมูลตำบล -->
    <Schema id="tambon.schema">
      <SimpleField name="ADM3_EN" type="string">
        <displayName>Subdistrict Name (English)</displayName>
      </SimpleField>
      <SimpleField name="ADM3_TH" type="string">
        <displayName>ชื่อตำบล</displayName>
      </SimpleField>
      <SimpleField name="ADM2_EN" type="string">
        <displayName>District Name (English)</displayName>
      </SimpleField>
      <SimpleField name="ADM2_TH" type="string">
        <displayName>ชื่ออำเภอ</displayName>
      </SimpleField>
      <SimpleField name="ADM1_EN" type="string">
        <displayName>Province Name (English)</displayName>
      </SimpleField>
      <SimpleField name="ADM1_TH" type="string">
        <displayName>ชื่อจังหวัด</displayName>
      </SimpleField>
      <SimpleField name="ADM0_EN" type="string">
        <displayName>Country Name (English)</displayName>
      </SimpleField>
      <SimpleField name="ADM0_TH" type="string">
        <displayName>ชื่อประเทศ</displayName>
      </SimpleField>
    </Schema>

    <!-- Style สำหรับตำบล -->
    <Style id="tambonStyle">
      <LineStyle>
        <color>ffff0000</color>
        <width>1.5</width>
      </LineStyle>
      <PolyStyle>
        <color>33ff0000</color>
        <fill>1</fill>
        <outline>1</outline>
      </PolyStyle>
    </Style>

    <Placemark id="Songkhla.63">
        
        <ExtendedData>
            
          <SchemaData schemaUrl="#tambon.schema">
                
            <SimpleData name="Shape_Leng">
                0.187496706001</SimpleData>
                
            <SimpleData name="Shape_Area">
                0.00134254409288</SimpleData>
                
            <SimpleData name="ADM3_EN">
                Bo Tru</SimpleData>
                
            <SimpleData name="ADM3_TH">
                บ่อตรุ</SimpleData>
                
            <SimpleData name="ADM3_PCODE">
                TH900706</SimpleData>
                
            <SimpleData name="ADM2_EN">
                Ranot</SimpleData>
                
            <SimpleData name="ADM2_TH">
                ระโนด</SimpleData>
                
            <SimpleData name="ADM2_PCODE">
                TH9007</SimpleData>
                
            <SimpleData name="ADM1_EN">
                Songkhla</SimpleData>
                
            <SimpleData name="ADM1_TH">
                สงขลา</SimpleData>
                
            <SimpleData name="ADM1_PCODE">
                TH90</SimpleData>
                
            <SimpleData name="ADM0_EN">
                Thailand</SimpleData>
                
            <SimpleData name="ADM0_TH">
                ประเทศไทย</SimpleData>
                
            <SimpleData name="ADM0_PCODE">
                TH</SimpleData>
            
          </SchemaData>
        
        </ExtendedData>
        
        <Polygon>
            
          <outerBoundaryIs>
                
            <LinearRing>
                    
              <coordinates>
                    
                100.396466347,7.66702581800007,0
                100.396674613,7.66697862100006,0
                100.396706056,7.66698379500002,0
                100.396739565,7.66699800600003,0
                100.396759467,7.66701641700007,0
                100.396777169,7.66703253800006,0
                100.396810673,7.66704674400006,0
                100.396862424,7.66705011200003,0
                100.396914592,7.66703325900005,0
                100.397015064,7.66696799900006,0
                100.397105843,7.66693624600003,0
                100.39717783,7.66691848000005,0
                100.397273753,7.66689791100004,0
                100.397364155,7.66688288100005,0
                100.397432208,7.66687281800006,0
                100.397579786,7.66686734800004,0
                100.398254564,7.66380018000007,0
                100.398574019,7.66267859300007,0
                100.398657326,7.66238611000006,0
                100.398759304,7.66197345700004,0
                100.399097684,7.66060420700006,0
                100.399137546,7.66006424200003,0
                100.39913755,7.66006419700005,0
                100.399137555,7.66006413000002,0
                100.399153418,7.65984926300007,0
                100.399267191,7.65917396400005,0
                100.399267598,7.65917153800007,0
                100.399306881,7.65901258400004,0
                100.39938236,7.65870715000005,0
                100.399382472,7.65870669500003,0
                100.399517379,7.65843531600007,0
                100.399642123,7.65818438000002,0
                100.399642148,7.65818433000004,0
                100.399652285,7.65816393700004,0
                100.399671645,7.65809408100006,0
                100.399786495,7.65767967700003,0
                100.400475235,7.65473579600007,0
                100.400627389,7.65380635900004,0
                100.400703719,7.65341905200006,0
                100.400741188,7.65301251900007,0
                100.400746558,7.65298250800004,0
                100.400747953,7.65297470700006,0
                100.400767691,7.65290983100004,0
                100.400803497,7.65279214100002,0
                100.400837257,7.65272835900004,0
                100.400889682,7.65265102100005,0
                100.400891393,7.65264763300007,0
                100.400966813,7.65247429800007,0
                100.400972072,7.65243118100005,0
                100.400997587,7.65211321900006,0
                100.401016434,7.65203308300005,0
                100.401016453,7.65203300900004,0
                100.401018141,7.65202582900002,0
                100.401021726,7.65201425200007,0
                100.401076484,7.65183741300007,0
                100.401100771,7.65179068000003,0
                100.40115136,7.65166045200004,0
                100.401157498,7.65162973100007,0
                100.401163804,7.65159816500005,0
                100.401163349,7.65145880000006,0
                100.401164294,7.65143201700005,0
                100.401169825,7.65127529600005,0
                100.401295395,7.65073855600002,0
                100.401330072,7.65052673500003,0
                100.401365256,7.65047016300002,0
                100.401421567,7.65038529600002,0
                100.40147721,7.65009577900003,0
                100.401490342,7.64978522700005,0
                100.401595524,7.64950260500007,0
                100.401630544,7.64939663800004,0
                100.401665382,7.64923421300006,0
                100.401646653,7.64907676400003,0
                100.401643826,7.64905301500005,0
                100.401643564,7.64905080300002,0
                100.401684966,7.64873310300004,0
                100.401810769,7.64826693200007,0
                100.401970299,7.64793956500006,0
                100.401993342,7.64785703300004,0
                100.402125941,7.64730615700006,0
                100.40214717,7.64695325400004,0
                100.402198963,7.64664514300006,0
                100.402284976,7.64632456800007,0
                100.402305986,7.64624625500005,0
                100.402399139,7.64580219100003,0
                100.402435398,7.64562933900004,0
                100.402724668,7.64436849800006,0
                100.402871296,7.64378229200003,0
                100.402905718,7.64349284400004,0
                100.402905027,7.64328113500005,0
                100.40290485,7.64322681600004,0
                100.402930834,7.64302507000002,0
                100.402941621,7.64294132000003,0
                100.402951778,7.64292037200005,0
                100.402951789,7.64292034900006,0
                100.402956124,7.64291140900002,0
                100.402974447,7.64287866100005,0
                100.403041755,7.64277721800005,0
                100.403098603,7.64265063800002,0
                100.403346085,7.64188241700003,0
                100.403590381,7.64087952800003,0
                100.40368102,7.64047698600007,0
                100.403703132,7.64038501400006,0
                100.403726432,7.64008963300006,0
                100.403740182,7.63984269400004,0
                100.403739724,7.63970230300004,0
                100.403768395,7.63956666100006,0
                100.403845065,7.63927110800006,0
                100.403936719,7.63910621400004,0
                100.403950632,7.63905880200002,0
                100.403950648,7.63905874400007,0
                100.403975111,7.63897538000003,0
                100.403974562,7.63880714000004,0
                100.403974558,7.63880594500006,0
                100.404012665,7.63858797400007,0
                100.404113897,7.63838432000006,0
                100.404159242,7.63812610700006,0
                100.404159249,7.63812606900007,0
                100.404161534,7.63811306400004,0
                100.404291911,7.63791899900002,0
                100.404327215,7.63781544100004,0
                100.404344558,7.63776456500005,0
                100.404344781,7.63776391200003,0
                100.404344559,7.63769583500005,0
                100.404344338,7.63762836600006,0
                100.404393224,7.63750526900003,0
                100.404402089,7.63748294400006,0
                100.404464726,7.63734719100006,0
                100.404464299,7.63721648400002,0
                100.404550152,7.63676114500004,0
                100.404731944,7.63596662000003,0
                100.404975706,7.63483302000003,0
                100.405061337,7.63430990700004,0
                100.405114299,7.63418386800004,0
                100.405159224,7.63410396300003,0
                100.405177015,7.63407231800005,0
                100.405184815,7.63400836700004,0
                100.405191192,7.63395608900004,0
                100.405213139,7.63380679400007,0
                100.405213144,7.63380676000003,0
                100.405233912,7.63366548400006,0
                100.405245369,7.63359458200006,0
                100.40529574,7.63328284100004,0
                100.40543416,7.63258043800005,0
                100.405530303,7.63230418400008,0
                100.405641033,7.63203756500008,0
                100.405751242,7.63161119500006,0
                100.405837599,7.63131076700006,0
                100.405884904,7.63093785300003,0
                100.405922708,7.63062790100003,0
                100.405999757,7.63044853000002,0
                100.406133891,7.62997918200006,0
                100.406134081,7.62997851100005,0
                100.406135259,7.62997396700007,0
                100.40613529,7.62997384700003,0
                100.406292212,7.62936802300004,0
                100.40646859,7.62840407900006,0
                100.406578325,7.62783247900006,0
                100.406676429,7.62753562000006,0
                100.406679222,7.62752716500006,0
                100.406683613,7.62750939500006,0
                100.406731899,7.62731398500006,0
                100.40677988,7.62714923500005,0
                100.406837916,7.62709095300005,0
                100.406891038,7.62701332200004,0
                100.406890912,7.62697459500004,0
                100.40685903,7.62694036000005,0
                100.40683248,7.62691185000006,0
                100.40681891,7.62686724800005,0
                100.406803051,7.62681512400007,0
                100.406814678,7.62668274000004,0
                100.406817086,7.62665532600005,0
                100.406819075,7.62662290800006,0
                100.406826298,7.62650522100006,0
                100.406879009,7.62630172700005,0
                100.406980143,7.62606902600004,0
                100.407032852,7.62586553000006,0
                100.40705689,7.62579767700004,0
                100.407080963,7.62573950700005,0
                100.407080725,7.62566673800006,0
                100.40708063,7.62563784500003,0
                100.407080319,7.62554239400004,0
                100.407080314,7.62554102500008,0
                100.407133353,7.62543919100005,0
                100.407181667,7.62537610000004,0
                100.407210433,7.62526950100005,0
                100.407335163,7.62483340100005,0
                100.407431068,7.62448453400003,0
                100.407498189,7.62423742100003,0
                100.40750247,7.62406312800005,0
                100.407493359,7.62379974400005,0
                100.407491776,7.62375396900006,0
                100.407491754,7.62375333600005,0
                100.407506025,7.62366615200006,0
                100.407546465,7.62358960200004,0
                100.407588004,7.62351097100003,0
                100.407611326,7.62345372400006,0
                100.40766502,7.62332191900003,0
                100.407707105,7.62319028600007,0
                100.407707131,7.62319020500007,0
                100.407713052,7.62317169100004,0
                100.407728088,7.62314143900005,0
                100.407775717,7.62304561800005,0
                100.4077656,7.62291978400003,0
                100.407779001,7.62256634300007,0
                100.407792988,7.62239201900007,0
                100.407937253,7.62199458400005,0
                100.407756152,7.62201127700007,0
                100.407016684,7.62203650600003,0
                100.406399157,7.62204611800007,0
                100.405895929,7.62203634100007,0
                100.405788182,7.62202564400008,0
                100.405725348,7.62201447700005,0
                100.405564018,7.62195754500004,0
                100.405361684,7.62186692200004,0
                100.405170755,7.62176865100002,0
                100.404851331,7.62170263900003,0
                100.404467043,7.62159815300004,0
                100.404293267,7.62155090100003,0
                100.40415437,7.62151169300006,0
                100.403850725,7.62143026400003,0
                100.403311604,7.62123792100004,0
                100.403019064,7.62114580200006,0
                100.403047403,7.62101527300007,0
                100.403037378,7.62100299800005,0
                100.402491759,7.62085262900007,0
                100.40116013,7.62048040000008,0
                100.399231946,7.61997380700006,0
                100.399229891,7.62007349500004,0
                100.399222222,7.62011767800004,0
                100.399215273,7.62012937000003,0
                100.399190141,7.62015919900006,0
                100.399167497,7.62018518900004,0
                100.39913197,7.62023742400004,0
                100.399101938,7.62029070400007,0
                100.399048097,7.62043921200006,0
                100.398974622,7.62070474200004,0
                100.398892478,7.62094176800002,0
                100.398875594,7.62102455100006,0
                100.3988759,7.62111868300008,0
                100.398864934,7.62126419900005,0
                100.398834144,7.62146683200007,0
                100.398800371,7.62163239500006,0
                100.39876372,7.62179225300002,0
                100.398695744,7.62198930600005,0
                100.398604866,7.62217786900004,0
                100.39857088,7.62227781700005,0
                100.398482146,7.62254868300005,0
                100.398468284,7.62255180300002,0
                100.398425921,7.62254072200005,0
                100.398062467,7.62243350100005,0
                100.397744799,7.62233753900006,0
                100.397584542,7.62229241300003,0
                100.397464398,7.62227283200002,0
                100.397284231,7.62225915200003,0
                100.396809518,7.62222645300005,0
                100.396551861,7.62220621600005,0
                100.39646062,7.62219905300003,0
                100.396271819,7.62216828600003,0
                100.396151657,7.62214300000005,0
                100.396077247,7.62212042000004,0
                100.396068571,7.62211653100007,0
                100.395487994,7.62185629400005,0
                100.395320422,7.62177986800003,0
                100.395167106,7.62171461800006,0
                100.39507973,7.62168352600003,0
                100.394962392,7.62166538400004,0
                100.394843625,7.62165435900005,0
                100.394739121,7.62162902300003,0
                100.394660389,7.62161072200007,0
                100.394585953,7.62160092500005,0
                100.394482977,7.62160269400005,0
                100.394390035,7.62160581600006,0
                100.394288433,7.62161047500007,0
                100.394143893,7.62159519600004,0
                100.394010884,7.62157710400004,0
                100.393879146,7.62153612000003,0
                100.393714936,7.62149316900008,0
                100.393625669,7.62146981800004,0
                100.393516873,7.62142883600006,0
                100.393449464,7.62140871100007,0
                100.393342142,7.62137660500002,0
                100.393117506,7.62133310700005,0
                100.392912706,7.62129235300006,0
                100.39279534,7.62126557900007,0
                100.392920526,7.62087543600006,0
                100.393016706,7.62068736400005,0
                100.393052928,7.62047674600007,0
                100.393094747,7.62038012100004,0
                100.393192931,7.62027101700005,0
                100.39329155,7.62012857500002,0
                100.393182955,7.62008402900005,0
                100.392908765,7.61999301500003,0
                100.392654011,7.61991644700004,0
                100.392484175,7.61986620800008,0
                100.392243967,7.61978959300006,0
                100.392032906,7.61973223000007,0
                100.391756411,7.61967749800004,0
                100.391261682,7.61959685900007,0
                100.390805665,7.61949433600006,0
                100.390216222,7.61935838100004,0
                100.389702006,7.61924636800006,0
                100.389340589,7.61916530200006,0
                100.388872459,7.61906523200003,0
                100.388210282,7.61892225500003,0
                100.387550574,7.61879136100004,0
                100.387167357,7.61871519800007,0
                100.386446924,7.61854580000005,0
                100.385692622,7.61839585800004,0
                100.385142036,7.61828153800008,0
                100.3848631,7.61822197100003,0
                100.384564741,7.61815279000007,0
                100.38431498,7.61811973200003,0
                100.384108837,7.61808411500004,0
                100.383827531,7.61804148300007,0
                100.383645626,7.61800578900005,0
                100.383495239,7.61797241200003,0
                100.383359391,7.61793656800006,0
                100.383121628,7.61786719800006,0
                100.382937291,7.61782909100003,0
                100.382612295,7.61776725200002,0
                100.382314001,7.61771741800004,0
                100.382010845,7.61766276100008,0
                100.381671238,7.61757920400004,0
                100.381460205,7.61753150700002,0
                100.381127961,7.61747694600007,0
                100.380914551,7.61744134900005,0
                100.380604071,7.61737220500004,0
                100.380223269,7.61729119400007,0
                100.379941947,7.61724372300006,0
                100.379984778,7.61699449200006,0
                100.380034782,7.61671380400003,0
                100.380063766,7.61656361400003,0
                100.380043985,7.61656043000005,0
                100.379926559,7.61655277900007,0
                100.379707775,7.61653261700008,0
                100.37956456,7.61650579500002,0
                100.379363417,7.61646952900003,0
                100.379215376,7.61644432900005,0
                100.379046452,7.61642560800004,0
                100.377886789,7.61621562200003,0
                100.376515812,7.61597608000005,0
                100.374943137,7.61569225100004,0
                100.374616837,7.61562554600005,0
                100.374402392,7.61558749600005,0
                100.374207523,7.61554900300007,0
                100.374050616,7.61551669500005,0
                100.373797532,7.61546324200003,0
                100.373658235,7.61542959200005,0
                100.373622536,7.61541210300004,0
                100.373608439,7.61539695900007,0
                100.373586491,7.61536694200004,0
                100.373582035,7.61533793700005,0
                100.373599024,7.61519132800004,0
                100.37361322,7.61508390900002,0
                100.373610254,7.61506505000006,0
                100.373595662,7.61504914000005,0
                100.373573809,7.61503759800007,0
                100.373525773,7.61502495400003,0
                100.373118116,7.61494922400004,0
                100.37275776,7.61491399500005,0
                100.372564687,7.61488679600006,0
                100.372433837,7.61487223300003,0
                100.372294383,7.61484914100004,0
                100.372142036,7.61481753300006,0
                100.371929611,7.61477327900008,0
                100.371637808,7.61471643400006,0
                100.37148976,7.61468909100006,0
                100.371187256,7.61463870100005,0
                100.370558644,7.61453371800008,0
                100.370213175,7.61445992900008,0
                100.369621002,7.61435054700007,0
                100.369425772,7.61431907400004,0
                100.36916402,7.61427283100005,0
                100.368771409,7.61420774900006,0
                100.368157887,7.61412838900003,0
                100.367968006,7.61410694100005,0
                100.367892829,7.61489600500005,0
                100.367878637,7.61501303900008,0
                100.367816649,7.61552417200005,0
                100.367805288,7.61568035200003,0
                100.367805445,7.61573003300003,0
                100.367822156,7.61576546700007,0
                100.36785545,7.61579611800005,0
                100.367900614,7.61583146200007,0
                100.367924437,7.61586687500005,0
                100.367931687,7.61590943500005,0
                100.367936646,7.61597802900008,0
                100.367929796,7.61606085400007,0
                100.367836571,7.61657216000003,0
                100.36777837,7.61682282800007,0
                100.367749871,7.61694556800006,0
                100.367714887,7.61708311000007,0
                100.367729371,7.61710463800006,0
                100.367831913,7.61712389300004,0
                100.367918068,7.61714007100005,0
                100.36848302,7.61723498600003,0
                100.368483608,7.61723509300003,0
                100.368485052,7.61723542400006,0
                100.368486355,7.61723580900002,0
                100.368549652,7.61725663800007,0
                100.368549769,7.61725667800005,0
                100.368551159,7.61725719400005,0
                100.368552511,7.61725780100005,0
                100.368553822,7.61725849400005,0
                100.368555083,7.61725927200007,0
                100.368556291,7.61726013000003,0
                100.368557441,7.61726106400005,0
                100.368558526,7.61726207200007,0
                100.368559543,7.61726314800006,0
                100.368560486,7.61726428900005,0
                100.368561354,7.61726548900003,0
                100.368562142,7.61726674400006,0
                100.368562844,7.61726804600005,0
                100.368563461,7.61726939100004,0
                100.368563987,7.61727077500007,0
                100.368564422,7.61727218800007,0
                100.368564658,7.61727313500006,0
                100.36857321,7.61731096200003,0
                100.368573315,7.61731145400006,0
                100.368573711,7.61731438500004,0
                100.368573764,7.61731586300004,0
                100.36857372,7.61731734300002,0
                100.368573579,7.61731881400004,0
                100.36857339,7.61732003100008,0
                100.368560746,7.61738837700005,0
                100.368494219,7.61767453900006,0
                100.368469592,7.61778257000003,0
                100.368441119,7.61806307100005,0
                100.368440982,7.61806416200005,0
                100.368424468,7.61817356500006,0
                100.368424299,7.61817453800006,0
                100.368423968,7.61817598100004,0
                100.368423637,7.61817710500003,0
                100.36837371,7.61833237600007,0
                100.368215519,7.61891698200003,0
                100.368098807,7.61932524700006,0
                100.367499628,7.62174087800003,0
                100.367499457,7.62174127500003,0
                100.367499031,7.62174269200005,0
                100.367498513,7.62174407800006,0
                100.367497988,7.62174525700004,0
                100.36743936,7.62186741300007,0
                100.367439277,7.62186758300004,0
                100.367438581,7.62186889100008,0
                100.367437803,7.62187014800003,0
                100.367436943,7.62187135500005,0
                100.367436478,7.62187194300003,0
                100.367425863,7.62188491900002,0
                100.367385343,7.62193445400004,0
                100.367339896,7.62199001100004,0
                100.367339425,7.62199056900005,0
                100.367338415,7.62199165300007,0
                100.367337364,7.62199264300006,0
                100.367232813,7.62208502500005,0
                100.367184991,7.62213304200003,0
                100.367141749,7.62220811200007,0
                100.367057065,7.62250641100007,0
                100.36696325,7.62283687500008,0
                100.366962927,7.62283791300007,0
                100.366962409,7.62283929800003,0
                100.366962106,7.62284000400007,0
                100.366941174,7.62288633400004,0
                100.36694087,7.62288697900004,0
                100.366940177,7.62288828600003,0
                100.366939397,7.62288954300004,0
                100.366938537,7.62289075000007,0
                100.3669376,7.62289189600006,0
                100.36693659,7.62289297900003,0
                100.366935511,7.62289399300005,0
                100.366934369,7.62289493600002,0
                100.366933165,7.62289580100003,0
                100.36693191,7.62289658600002,0
                100.366930603,7.62289728900004,0
                100.366929708,7.62289770800004,0
                100.36682447,7.62294430500003,0
                100.366824016,7.62294450100006,0
                100.366822512,7.62294506600006,0
                100.366745574,7.62297092300003,0
                100.366720357,7.62306434000004,0
                100.366711742,7.62309625300003,0
                100.366661846,7.62330752900004,0
                100.366661591,7.62330871500006,0
                100.36655575,7.62380033000005,0
                100.366516431,7.62406282600006,0
                100.366492304,7.62422389500006,0
                100.366492004,7.62422549900003,0
                100.366444233,7.62443814000005,0
                100.366444028,7.62443897800006,0
                100.36644387,7.62443954400004,0
                100.366426151,7.62449996700008,0
                100.366369719,7.62469239800004,0
                100.366369451,7.62469324800003,0
                100.366369351,7.62469354000007,0
                100.366238901,7.62506421500007,0
                100.366238851,7.62506435700004,0
                100.366093332,7.62546926500005,0
                100.366079381,7.62550808300006,0
                100.366079014,7.62550903900006,0
                100.366078407,7.62551038800007,0
                100.366077712,7.62551169600005,0
                100.36607752,7.62551202300006,0
                100.366061154,7.62553943400007,0
                100.366060566,7.62554036600005,0
                100.366059707,7.62554157000005,0
                100.366058769,7.62554271600004,0
                100.36605776,7.62554380000006,0
                100.366057513,7.62554404600007,0
                100.366027441,7.62557332300003,0
                100.366026609,7.62557409400006,0
                100.366025467,7.62557503500005,0
                100.366024263,7.62557590100005,0
                100.366023007,7.62557668700003,0
                100.366022731,7.62557684300003,0
                100.365991708,7.62559426800004,0
                100.365990678,7.62559481300002,0
                100.36598933,7.62559542900004,0
                100.365987943,7.62559595400006,0
                100.365986525,7.62559638800008,0
                100.365985082,7.62559672700007,0
                100.365984789,7.62559678500003,0
                100.365940348,7.62560514100005,0
                100.365867587,7.62561882200004,0
                100.365866419,7.62561901100003,0
                100.365864943,7.62561916100003,0
                100.365863462,7.62561921400004,0
                100.36586198,7.62561917000005,0
                100.365860503,7.62561902900006,0
                100.365859407,7.62561886300006,0
                100.36583556,7.62561461500007,0
                100.365835193,7.62561454400003,0
                100.365833747,7.62561421400005,0
                100.365832327,7.62561378900006,0
                100.365830937,7.62561327300006,0
                100.365829586,7.62561266600005,0
                100.365828276,7.62561197300005,0
                100.365827014,7.62561119500003,0
                100.365830018,7.62563599500004,0
                100.365841507,7.62566192600002,0
                100.365836042,7.62573058100003,0
                100.365807885,7.62589071700006,0
                100.365698811,7.62633581600005,0
                100.365609905,7.62667738800008,0
                100.365564585,7.62685766700002,0
                100.365533563,7.62701493200007,0
                100.365496588,7.62710939200002,0
                100.365453847,7.62717527200004,0
                100.365393912,7.62725258000006,0
                100.365319753,7.62736430800004,0
                100.365265881,7.62752746000007,0
                100.365146768,7.62792228300003,0
                100.365098801,7.62814535000007,0
                100.365048013,7.62839131300007,0
                100.364977438,7.62871746400003,0
                100.364870052,7.62918081000004,0
                100.364799395,7.62948407200003,0
                100.364785359,7.62956693800004,0
                100.364782671,7.62963269100004,0
                100.364791508,7.62970130100007,0
                100.364811844,7.62980417600005,0
                100.364846672,7.62995841600002,0
                100.364858636,7.63010124300007,0
                100.364856062,7.63020130100006,0
                100.364830854,7.63036721100002,0
                100.364780038,7.63060457900002,0
                100.36475431,7.63063892500003,0
                100.364722948,7.63066480100002,0
                100.364688551,7.63068202300008,0
                100.364648507,7.63068793000002,0
                100.364608335,7.63068805700004,0
                100.364399105,7.63064294300005,0
                100.363817121,7.63050471800005,0
                100.36357913,7.63045402800003,0
                100.363026008,7.63039001700002,0
                100.362381071,7.63029200500006,0
                100.361816343,7.63019658200005,0
                100.361716064,7.63018541800005,0
                100.361664522,7.63019417000004,0
                100.361618826,7.63022009700006,0
                100.361587361,7.63024875600007,0
                100.361567538,7.63030886900003,0
                100.361547693,7.63039467500005,0
                100.361550796,7.63046041900003,0
                100.361559561,7.63050894400004,0
                100.361582564,7.63056321200003,0
                100.361625808,7.63061741600006,0
                100.361677611,7.63069151600007,0
                100.361694954,7.63076577000004,0
                100.361698109,7.63083721500004,0
                100.361675602,7.63097167200004,0
                100.36161081,7.63132346400005,0
                100.361568838,7.63163515000002,0
                100.361529865,7.63201253800003,0
                100.361499317,7.63229562400005,0
                100.361500384,7.63263292000005,0
                100.361487456,7.63310168000004,0
                100.361479546,7.63329901800006,0
                100.361462664,7.63340767700004,0
                100.361423193,7.63361641900002,0
                100.361298758,7.63411419800002,0
                100.361182853,7.63460906100005,0
                100.361083783,7.63497804700006,0
                100.360984423,7.63529280100005,0
                100.360930769,7.63551310200006,0
                100.360916687,7.63559315600003,0
                100.360891699,7.63586192800005,0
                100.36080159,7.63634237500003,0
                100.360725414,7.63673139600007,0
                100.360674654,7.63696306800006,0
                100.360663517,7.63708311600004,0
                100.360550438,7.63755514900004,0
                100.36043428,7.63796708000007,0
                100.360315352,7.63842343400006,0
                100.360210803,7.63886966300004,0
                100.360125693,7.63913292000007,0
                100.359981321,7.63967932900005,0
                100.359953151,7.63985943100005,0
                100.359888377,7.64021404900006,0
                100.359859161,7.64033240100002,0
                100.359858769,7.64033398900006,0
                100.359814915,7.64051164000006,0
                100.359758507,7.64078907500004,0
                100.359755819,7.64085482700006,0
                100.359762244,7.64108920400002,0
                100.3597777,7.64144645600004,0
                100.359782566,7.64152071000007,0
                100.361626511,7.64195396600007,0
                100.362241181,7.64207147900004,0
                100.364177179,7.64242411000004,0
                100.365783674,7.64281194200004,0
                100.367663906,7.64312630000006,0
                100.368599583,7.64330991800006,0
                100.3686658,7.64331095900008,0
                100.368708741,7.64330061400005,0
                100.368741414,7.64327805600004,0
                100.368778122,7.64323914600004,0
                100.368810782,7.64321249900007,0
                100.368839391,7.64320016000005,0
                100.368874176,7.64319801000005,0
                100.369123856,7.64320334000007,0
                100.369195499,7.64320924100002,0
                100.369261015,7.64321924200004,0
                100.369314275,7.64323540500004,0
                100.369408529,7.64327185800005,0
                100.369639962,7.64336879800004,0
                100.369781796,7.64342427700007,0
                100.370495117,7.64360698700006,0
                100.371131336,7.64377553000003,0
                100.371304806,7.64380621000004,0
                100.371692594,7.64384341600004,0
                100.372005702,7.64386884500004,0
                100.3727936,7.64402969700006,0
                100.374150139,7.64430885200005,0
                100.37587765,7.64463726800005,0
                100.377195525,7.64487329300005,0
                100.377891976,7.64505124100003,0
                100.378904171,7.64532427100005,0
                100.37942705,7.64543791100004,0
                100.380754636,7.64569792000003,0
                100.381320843,7.64580661100007,0
                100.381988105,7.64589095800005,0
                100.382758979,7.64599899300003,0
                100.383517267,7.64610728300005,0
                100.38353227,7.64610942600007,0
                100.384057403,7.64617500500003,0
                100.38519934,7.64635871900003,0
                100.385548672,7.64641765300007,0
                100.386213634,7.64653563300004,0
                100.386500489,7.64663320500006,0
                100.387423877,7.64699298300008,0
                100.387607192,7.64709088300003,0
                100.387838696,7.64719824500003,0
                100.387942303,7.64724672100004,0
                100.388089358,7.64727191000003,0
                100.388356807,7.64732630200007,0
                100.388530317,7.64736898300004,0
                100.388595407,7.64739279700007,0
                100.388732384,7.64742561300005,0
                100.388649086,7.64780883900005,0
                100.388571601,7.64820195700003,0
                100.388465539,7.64868945200004,0
                100.388377622,7.64910355700005,0
                100.388315734,7.64944947900005,0
                100.388277176,7.64970365700003,0
                100.388228515,7.65008096600008,0
                100.388184394,7.65040038100005,0
                100.388149917,7.65077974200005,0
                100.388096249,7.65106906500006,0
                100.387955341,7.65165829300003,0
                100.387785218,7.65230628700004,0
                100.387667105,7.65280115800005,0
                100.387494923,7.65346173000006,0
                100.387353996,7.65404677300006,0
                100.387190196,7.65470103200005,0
                100.387061695,7.65523155400007,0
                100.386904006,7.65582712700007,0
                100.386738116,7.65648558200007,0
                100.386597099,7.65704338400008,0
                100.386439455,7.65765362300004,0
                100.386352329,7.65798915100004,0
                100.386271462,7.65831208800006,0
                100.386136573,7.65881539200007,0
                100.386012299,7.65935428300003,0
                100.385871325,7.65992465600004,0
                100.38575932,7.66036083700004,0
                100.385661879,7.66075297100002,0
                100.385531334,7.66130236000004,0
                100.385586466,7.66131236500007,0
                100.385883422,7.66136865300007,0
                100.385981828,7.66139266200003,0
                100.386061086,7.66142829400007,0
                100.386106762,7.66146164300005,0
                100.386157255,7.66150215700003,0
                100.386212489,7.66152590300004,0
                100.386274899,7.66154245000007,0
                100.386519675,7.66159190500002,0
                100.38669245,7.66162245200007,0
                100.386730821,7.66162232800002,0
                100.386764372,7.66161504200005,0
                100.386800282,7.66159578600002,0
                100.386840852,7.66153345300006,0
                100.386919634,7.66142314000007,0
                100.386984092,7.66133201200006,0
                100.387029544,7.66129597800006,0
                100.38708224,7.66127666800003,0
                100.387139792,7.66127409100005,0
                100.387190179,7.66128110400007,0
                100.387233413,7.66130250100002,0
                100.38725988,7.66132873200007,0
                100.387295969,7.66136450400006,0
                100.387329622,7.66138832300004,0
                100.387375218,7.66139774300007,0
                100.388030339,7.66152244100005,0
                100.388279915,7.66157187900006,0
                100.388647128,7.66165921900006,0
                100.388779131,7.66168989500005,0
                100.388851127,7.66170401900007,0
                100.388913484,7.66170621100002,0
                100.388966232,7.66170125800005,0
                100.38902378,7.66169868000003,0
                100.389100548,7.66170560800003,0
                100.389532497,7.66178795400003,0
                100.389724466,7.66182322700007,0
                100.389795005,7.66183232700007,0
                100.389833357,7.66182646000004,0
                100.389863985,7.66180531000003,0
                100.389886904,7.66177269300005,0
                100.389896374,7.66173438400006,0
                100.389892368,7.66168272000004,0
                100.389856913,7.66139955300002,0
                100.389866378,7.66135932800006,0
                100.389887394,7.66133246500004,0
                100.38991804,7.66131705200007,0
                100.389971748,7.66131305200003,0
                100.390167491,7.66132772900005,0
                100.390415149,7.66137669500006,0
                100.390802979,7.66146157900005,0
                100.391102467,7.66151994200004,0
                100.391403875,7.66157830700007,0
                100.391544017,7.66160465300004,0
                100.391603515,7.66161211500003,0
                100.39164955,7.66160813700003,0
                100.391699364,7.66158692300007,0
                100.391739629,7.66157913800004,0
                100.391795285,7.66158470100004,0
                100.391971918,7.66162240900007,0
                100.392183154,7.66168106300006,0
                100.392405917,7.66174541700008,0
                100.392897548,7.66189121100007,0
                100.393155907,7.66197921600002,0
                100.393140513,7.66201993100003,0
                100.39307994,7.66233285800007,0
                100.393048904,7.66253005200002,0
                100.393038258,7.66260356100003,0
                100.393003699,7.66274872900004,0
                100.392946624,7.66300117500003,0
                100.392838961,7.66330417900002,0
                100.392799473,7.66346947300002,0
                100.392802417,7.66354363000005,0
                100.392814613,7.66360676200003,0
                100.392858361,7.66366833600006,0
                100.392920496,7.66371233700005,0
                100.393133294,7.66376633300007,0
                100.393251891,7.66380257700007,0
                100.393426435,7.66385574700007,0
                100.393638029,7.66396810600003,0
                100.393784866,7.66405436300005,0
                100.393885182,7.66410368400005,0
                100.394047783,7.66419028800004,0
                100.394260756,7.66434535700006,0
                100.39438241,7.66448080500004,0
                100.394426738,7.66492165000005,0
                100.394405537,7.66518400100006,0
                100.394370852,7.66533599700006,0
                100.394352506,7.66546138900003,0
                100.394350504,7.66555794400006,0
                100.394360032,7.66564127200007,0
                100.394375995,7.66574046500006,0
                100.394394541,7.66582398900005,0
                100.394443948,7.66593963900004,0
                100.394573587,7.66609746200004,0
                100.394659169,7.66616606900004,0
                100.394809169,7.66628442400003,0
                100.394928361,7.66640384400006,0
                100.394938696,7.66644901200004,0
                100.39495022,7.66654589100006,0
                100.394953749,7.66659316100004,0
                100.394930621,7.66673198900003,0
                100.394866099,7.66691038300007,0
                100.3947921,7.66711105800005,0
                100.394726242,7.66735462600008,0
                100.394738816,7.66739985100003,0
                100.394756555,7.66741372000007,0
                100.394790059,7.66742793000003,0
                100.394834921,7.66743789500003,0
                100.39489108,7.66744585200007,0
                100.394954416,7.66743373200006,0
                100.395194587,7.66736924500003,0
                100.395461377,7.66731588900006,0
                100.395629597,7.66727747100003,0
                100.396110716,7.66711029900006,0
                100.396330657,7.66704875300007,0
                100.396466347,7.66702581800007,0
              </coordinates>
                
            </LinearRing>
            
          </outerBoundaryIs>
        
        </Polygon>
        
      <styleUrl>
        #tambonStyle</styleUrl>
    </Placemark>

  </Document>
</kml>