<?xml version="1.0" encoding="UTF-8"?>
<kml xmlns="http://www.opengis.net/kml/2.2">
  <Document id="tambon_doc">
    <name>หนองเป็ด, ศรีสวัสดิ์, Kanchanaburi</name>
    <description>ข้อมูลขอบเขตตำบลหนองเป็ด อำเภอศรีสวัสดิ์ จังหวัดKanchanaburi</description>
    
    <!-- Schema สำหรับข้อมูลตำบล -->
    <Schema id="tambon.schema">
      <SimpleField name="ADM3_EN" type="string">
        <displayName>Subdistrict Name (English)</displayName>
      </SimpleField>
      <SimpleField name="ADM3_TH" type="string">
        <displayName>ชื่อตำบล</displayName>
      </SimpleField>
      <SimpleField name="ADM2_EN" type="string">
        <displayName>District Name (English)</displayName>
      </SimpleField>
      <SimpleField name="ADM2_TH" type="string">
        <displayName>ชื่ออำเภอ</displayName>
      </SimpleField>
      <SimpleField name="ADM1_EN" type="string">
        <displayName>Province Name (English)</displayName>
      </SimpleField>
      <SimpleField name="ADM1_TH" type="string">
        <displayName>ชื่อจังหวัด</displayName>
      </SimpleField>
      <SimpleField name="ADM0_EN" type="string">
        <displayName>Country Name (English)</displayName>
      </SimpleField>
      <SimpleField name="ADM0_TH" type="string">
        <displayName>ชื่อประเทศ</displayName>
      </SimpleField>
    </Schema>

    <!-- Style สำหรับตำบล -->
    <Style id="tambonStyle">
      <LineStyle>
        <color>ffff0000</color>
        <width>1.5</width>
      </LineStyle>
      <PolyStyle>
        <color>33ff0000</color>
        <fill>1</fill>
        <outline>1</outline>
      </PolyStyle>
    </Style>

    <Placemark id="Kanchanaburi.29">
        
        <ExtendedData>
            
          <SchemaData schemaUrl="#tambon.schema">
                
            <SimpleData name="Shape_Leng">
                0.607349751899</SimpleData>
                
            <SimpleData name="Shape_Area">
                0.0154613241186</SimpleData>
                
            <SimpleData name="ADM3_EN">
                Nong Pet</SimpleData>
                
            <SimpleData name="ADM3_TH">
                หนองเป็ด</SimpleData>
                
            <SimpleData name="ADM3_PCODE">
                TH710403</SimpleData>
                
            <SimpleData name="ADM2_EN">
                Si Sawat</SimpleData>
                
            <SimpleData name="ADM2_TH">
                ศรีสวัสดิ์</SimpleData>
                
            <SimpleData name="ADM2_PCODE">
                TH7104</SimpleData>
                
            <SimpleData name="ADM1_EN">
                Kanchanaburi</SimpleData>
                
            <SimpleData name="ADM1_TH">
                กาญจนบุรี</SimpleData>
                
            <SimpleData name="ADM1_PCODE">
                TH71</SimpleData>
                
            <SimpleData name="ADM0_EN">
                Thailand</SimpleData>
                
            <SimpleData name="ADM0_TH">
                ประเทศไทย</SimpleData>
                
            <SimpleData name="ADM0_PCODE">
                TH</SimpleData>
            
          </SchemaData>
        
        </ExtendedData>
        
        <Polygon>
            
          <outerBoundaryIs>
                
            <LinearRing>
                    
              <coordinates>
                    
                99.3074890390001,14.518934985,0
                99.3084032370001,14.518222554,0
                99.3086579930001,14.517923922,0
                99.3088178420001,14.5175330880001,0
                99.3088829230001,14.517149476,0
                99.308875012,14.516702041,0
                99.3087398000001,14.515499773,0
                99.3087363480001,14.515339399,0
                99.3086627320001,14.5133713170001,0
                99.3085615260001,14.5128736840001,0
                99.3081952210001,14.5119702420001,0
                99.3076804500001,14.5107006330001,0
                99.3076803900001,14.5107003800001,0
                99.3072831590001,14.509802962,0
                99.3072069090001,14.5094096980001,0
                99.3071211290001,14.508394626,0
                99.307098378,14.5077554490001,0
                99.307134358,14.5074144880001,0
                99.3072650230001,14.5070094880001,0
                99.30751123,14.5065020100001,0
                99.307637232,14.5062423000001,0
                99.3076386650001,14.506238641,0
                99.307695718,14.5059193010001,0
                99.3077006,14.505664338,0
                99.3076415880001,14.5053876060001,0
                99.307366007,14.504816851,0
                99.3073391980001,14.504690839,0
                99.3073388700001,14.504452546,0
                99.307550996,14.50401649,0
                99.3090684300001,14.500897142,0
                99.3092805480001,14.498961068,0
                99.3091185040001,14.498281134,0
                99.3084709840001,14.496032273,0
                99.3077088030001,14.4931466580001,0
                99.3065946820001,14.491149168,0
                99.30604529,14.4904608530001,0
                99.3055044640001,14.4896134850001,0
                99.305348473,14.489369083,0
                99.3052752570001,14.489242416,0
                99.3049872380001,14.48874411,0
                99.3047641570001,14.488202835,0
                99.304702723,14.48790983,0
                99.3046998060001,14.485773495,0
                99.3047386650001,14.4846723860001,0
                99.3047902690001,14.484155366,0
                99.3048138780001,14.4839188190001,0
                99.305125962,14.482471866,0
                99.3054294840001,14.481254483,0
                99.305881432,14.480079642,0
                99.306540629,14.4788414020001,0
                99.3077687430001,14.476693309,0
                99.310664305,14.471550564,0
                99.310715734,14.471260091,0
                99.310689466,14.471007596,0
                99.310663198,14.470755105,0
                99.3103180680001,14.4699650470001,0
                99.3102072440001,14.469651723,0
                99.3102542720001,14.4694488370001,0
                99.310491529,14.468140423,0
                99.3103889450001,14.4668641260001,0
                99.3102531540001,14.466531613,0
                99.309890437,14.465643394,0
                99.3097086960001,14.4645820580001,0
                99.3096566580001,14.4636694340001,0
                99.309674956,14.463208025,0
                99.310057192,14.460808817,0
                99.3100948740001,14.460572273,0
                99.3103471630001,14.459914892,0
                99.3106661300001,14.459435967,0
                99.3109494120001,14.459039153,0
                99.311100562,14.458873005,0
                99.311346347,14.4587251680001,0
                99.3116672850001,14.458591589,0
                99.311789026,14.4585554240001,0
                99.3124441800001,14.4584329200001,0
                99.313227897,14.458239371,0
                99.3152970570001,14.4577283450001,0
                99.317057418,14.456592395,0
                99.319192693,14.454708177,0
                99.3198783440001,14.453949666,0
                99.3200554270001,14.453751384,0
                99.320678511,14.4523800800001,0
                99.3208529180001,14.4518535440001,0
                99.321327614,14.4497494120001,0
                99.321466904,14.448180232,0
                99.321527572,14.4473072930001,0
                99.321447177,14.446764291,0
                99.321313794,14.446286018,0
                99.3211276850001,14.4460535060001,0
                99.3207558990001,14.445885907,0
                99.3204903560001,14.44578282,0
                99.320061104,14.445732843,0
                99.3199658070001,14.4457123440001,0
                99.3196943760001,14.4455658730001,0
                99.3194895270001,14.445280773,0
                99.3193389470001,14.444759479,0
                99.319337783,14.443943699,0
                99.319777382,14.442775904,0
                99.3197783410001,14.4427686510001,0
                99.319848473,14.4423202720001,0
                99.3197592930001,14.4418203820001,0
                99.319720262,14.4417493870001,0
                99.3187827080001,14.440044201,0
                99.317949995,14.438529669,0
                99.3179133030001,14.438469077,0
                99.3177369530001,14.438012708,0
                99.3177541810001,14.437685092,0
                99.317741061,14.437177612,0
                99.318010105,14.435350649,0
                99.3181542490001,14.4315920330001,0
                99.3181525940001,14.4304266290001,0
                99.318090613,14.4288825560001,0
                99.31817856,14.4276587630001,0
                99.3185657430001,14.4266385120001,0
                99.3189224910001,14.4252395460001,0
                99.31930979,14.4243066980001,0
                99.319547862,14.423548865,0
                99.319546824,14.4228204880001,0
                99.3194856260001,14.4218299780001,0
                99.3192075910001,14.4191673720001,0
                99.31893862,14.4196706810001,0
                99.3186630170001,14.420022047,0
                99.318327358,14.420350093,0
                99.3172119070001,14.421030177,0
                99.3164320820001,14.421358818,0
                99.315532176,14.4216642160001,0
                99.314848312,14.4219459240001,0
                99.3137696260001,14.4231758330001,0
                99.3117432910001,14.424933475,0
                99.310100192,14.4260471150001,0
                99.308660913,14.4269849840001,0
                99.3076530580001,14.4273840880001,0
                99.306692846,14.427514036,0
                99.305756504,14.42753865,0
                99.305132256,14.4275394580001,0
                99.3046760390001,14.4275166480001,0
                99.304315719,14.427388416,0
                99.3040754200001,14.4272366280001,0
                99.3036906630001,14.426792537,0
                99.3029932760001,14.425974448,0
                99.3028125610001,14.4254949940001,0
                99.3026797030001,14.4248984750001,0
                99.3026680980001,14.424126584,0
                99.3024299410001,14.4226563240001,0
                99.3019725,14.4216585720001,0
                99.3011844580001,14.419939696,0
                99.3008239470001,14.41965936,0
                99.300595753,14.4195777520001,0
                99.3003800020001,14.419823723,0
                99.3000440540001,14.419952848,0
                99.2996598650001,14.4199182360001,0
                99.2993953610001,14.4196143770001,0
                99.2993469990001,14.4193570480001,0
                99.2993466400001,14.419087953,0
                99.2995260650001,14.418608034,0
                99.2995495270001,14.4181985160001,0
                99.2993570830001,14.4179179650001,0
                99.2991767520001,14.4177192970001,0
                99.2987085250001,14.4176730900001,0
                99.298156528,14.4178258850001,0
                99.2974967590001,14.418177712,0
                99.296812974,14.4185295620001,0
                99.296272967,14.418670637,0
                99.2955531200001,14.418987434,0
                99.2941013270001,14.4195508380001,0
                99.2937533250001,14.4196448650001,0
                99.293369183,14.419645342,0
                99.2931528730001,14.419470119,0
                99.2929484160001,14.419177878,0
                99.2926838450001,14.418815512,0
                99.2925994220001,14.4185114220001,0
                99.2925148260001,14.4180786380001,0
                99.2923222840001,14.417716183,0
                99.2920097750001,14.417412375,0
                99.29182939,14.4171669020001,0
                99.291312191,14.416383658,0
                99.291011902,14.416243631,0
                99.290591722,14.416220749,0
                99.2900752660001,14.4160107870001,0
                99.2893307350001,14.415801109,0
                99.289102503,14.41568439,0
                99.2888860350001,14.4153804600001,0
                99.2885252660001,14.4148778100001,0
                99.2882969300001,14.4146791920001,0
                99.2880207140001,14.414585935,0
                99.287792589,14.4145511130001,0
                99.2874685560001,14.414610007,0
                99.2870123970001,14.4146105620001,0
                99.2868323340001,14.414610781,0
                99.2867002280001,14.4145641420001,0
                99.2865559240001,14.41436542,0
                99.286399735,14.4142603120001,0
                99.2861475330001,14.414167019,0
                99.286003453,14.414143794,0
                99.2858354690001,14.414202496,0
                99.2854994570001,14.4142848010001,0
                99.285199263,14.414214965,0
                99.284766732,14.413911292,0
                99.2843945440001,14.413864941,0
                99.283746438,14.4139593190001,0
                99.2824261810001,14.414113,0
                99.2811301610001,14.4144538410001,0
                99.2791500580001,14.414924178,0
                99.278604375,14.41508451,0
                99.2781878370001,14.4151453850001,0
                99.2779571250001,14.4151706440001,0
                99.277833204,14.415166626,0
                99.2777584130001,14.4151542230001,0
                99.2775383090001,14.415119079,0
                99.2773096370001,14.4150652110001,0
                99.276942014,14.4149448650001,0
                99.276604267,14.414797418,0
                99.2762472420001,14.414608346,0
                99.2760590870001,14.414489873,0
                99.2759307910001,14.414404652,0
                99.275815305,14.4143110800001,0
                99.2757318700001,14.414217475,0
                99.2756676640001,14.414125927,0
                99.2756291150001,14.4140510080001,0
                99.2756098120001,14.4139927260001,0
                99.2756076220001,14.4139469190001,0
                99.275624636,14.4138865150001,0
                99.2756758030001,14.4137969120001,0
                99.2757269960001,14.413728136,0
                99.2758230420001,14.4136509800001,0
                99.2760899500001,14.4135278110001,0
                99.2762799960001,14.4134463820001,0
                99.2767135140001,14.4132959470001,0
                99.2768181530001,14.413256258,0
                99.276918483,14.4131895080001,0
                99.2770252020001,14.4131060920001,0
                99.277236439,14.412885116,0
                99.277594794,14.412422426,0
                99.2781367850001,14.411878303,0
                99.2783138200001,14.411644875,0
                99.2784204160001,14.4114635920001,0
                99.2784629970001,14.411344849,0
                99.2784757090001,14.4112573740001,0
                99.278492607,14.4111011840001,0
                99.278479567,14.4109242010001,0
                99.278443107,14.4108097180001,0
                99.2784152580001,14.410749362,0
                99.2783682140001,14.4107140200001,0
                99.278297685,14.41069328,0
                99.2782464110001,14.410695425,0
                99.2781844890001,14.410724648,0
                99.2780457640001,14.410839341,0
                99.277849352,14.410954098,0
                99.2776892210001,14.4110354970001,0
                99.2775888240001,14.41105019,0
                99.277449931,14.4110295310001,0
                99.2773238180001,14.4109797020001,0
                99.277189138,14.4109111440001,0
                99.2770715070001,14.410811331,0
                99.276923917,14.410669908,0
                99.2768426550001,14.4106075350001,0
                99.2767485910001,14.4105555840001,0
                99.2765327070001,14.4104746300001,0
                99.276252727,14.410387498,0
                99.2758552380001,14.4102984240001,0
                99.2753573270001,14.410199054,0
                99.2751308200001,14.4101660000001,0
                99.2749278360001,14.4101454140001,0
                99.274806057,14.410145555,0
                99.2746330130001,14.4101520040001,0
                99.274513396,14.4101708860001,0
                99.2743339570001,14.4101898340001,0
                99.2741652220001,14.4102254270001,0
                99.27402426,14.4102609930001,0
                99.2738939910001,14.4103048700001,0
                99.2736313410001,14.4104113720001,0
                99.2733643480001,14.410463738,0
                99.2732660840001,14.410474268,0
                99.273167807,14.410474381,0
                99.2730994280001,14.410466129,0
                99.2730502740001,14.410449526,0
                99.273007513,14.4104266730001,0
                99.272973301,14.4103996420001,0
                99.2729069660001,14.410314344,0
                99.272789216,14.410114579,0
                99.2727163850001,14.4099543240001,0
                99.2726627800001,14.409794047,0
                99.272587576,14.409444305,0
                99.2724907050001,14.4088405470001,0
                99.2724863070001,14.4087364380001,0
                99.2724840800001,14.40866356,0
                99.2725031460001,14.4085281860001,0
                99.2725839880001,14.4082469800001,0
                99.2726691710001,14.4080219950001,0
                99.272788555,14.4078115450001,0
                99.272890933,14.40767191,0
                99.2731276800001,14.407344715,0
                99.2732022610001,14.407186369,0
                99.2732810140001,14.4069468160001,0
                99.273280974,14.4069134970001,0
                99.2732702260001,14.4068593690001,0
                99.2732359500001,14.4067802810001,0
                99.2731974060001,14.406707446,0
                99.273150329,14.406647111,0
                99.273073336,14.406580568,0
                99.2729749850001,14.406518213,0
                99.2728916250001,14.4064829070001,0
                99.2728043580001,14.4064569820001,0
                99.272710348,14.406451539,0
                99.2725878780001,14.406465559,0
                99.272485368,14.4064962200001,0
                99.272371519,14.406574091,0
                99.2722605430001,14.406668617,0
                99.2721751980001,14.40676311,0
                99.2719846850001,14.407040974,0
                99.2719391750001,14.407099332,0
                99.271825381,14.4072188480001,0
                99.271683082,14.407324513,0
                99.2715606620001,14.407380183,0
                99.2714467550001,14.4074108570001,0
                99.2713157300001,14.4074193340001,0
                99.2711362110001,14.407369568,0
                99.2708398380001,14.4072644010001,0
                99.270586161,14.407136979,0
                99.270455015,14.407045506,0
                99.2702896470001,14.406917978,0
                99.2701242420001,14.406759912,0
                99.2700272700001,14.4066600730001,0
                99.2699274080001,14.406524142,0
                99.2698760690001,14.406471448,0
                99.269816199,14.4064298710001,0
                99.26972785,14.406391102,0
                99.2696252730001,14.406366232,0
                99.2695512060001,14.4063635410001,0
                99.269431571,14.406366453,0
                99.269297726,14.4063943680001,0
                99.2691639060001,14.4064472740001,0
                99.269019197,14.406524717,0
                99.2688598300001,14.406650762,0
                99.2686017890001,14.4068398530001,0
                99.2684386350001,14.406977006,0
                99.268218576,14.407169756,0
                99.2679757160001,14.4073514240001,0
                99.267774579,14.407484921,0
                99.2673608680001,14.407718608,0
                99.2670193060001,14.4079411060001,0
                99.2668143340001,14.4080486930001,0
                99.2666435020001,14.408115518,0
                99.266518202,14.408145275,0
                99.2663245240001,14.408167704,0
                99.2662143530001,14.408145618,0
                99.266134509,14.408075373,0
                99.2661002600001,14.4080198830001,0
                99.2660926010001,14.407964362,0
                99.2661569590001,14.407790302,0
                99.2662631170001,14.407631001,0
                99.2665172260001,14.4073234580001,0
                99.2668431960001,14.406767804,0
                99.2671427510001,14.406352859,0
                99.2674271980001,14.406011962,0
                99.2677800170001,14.4056746910001,0
                99.2679127760001,14.405530164,0
                99.2680341170001,14.4053671460001,0
                99.2681819330001,14.405107846,0
                99.2683031320001,14.4048263650001,0
                99.2683258050001,14.4047300870001,0
                99.2683295150001,14.4046560460001,0
                99.2683256450001,14.4045968230001,0
                99.2682951720001,14.4045228160001,0
                99.2682533340001,14.4044710370001,0
                99.2681925240001,14.4044377920001,0
                99.2680671640001,14.404415724,0
                99.2678848770001,14.4044307360001,0
                99.2677140310001,14.4044864590001,0
                99.2675204450001,14.404579223,0
                99.2673230820001,14.404694207,0
                99.2671522970001,14.404801756,0
                99.267027064,14.404887038,0
                99.2668828960001,14.4050167670001,0
                99.2665452900001,14.405372533,0
                99.2663783680001,14.405531899,0
                99.2662493490001,14.405628296,0
                99.2661316960001,14.405702466,0
                99.2660026460001,14.4057729460001,0
                99.2658469930001,14.40582865,0
                99.265531804,14.4058697240001,0
                99.2652431700001,14.405884858,0
                99.2650228640001,14.4058702950001,0
                99.2647569490001,14.405826172,0
                99.2644909890001,14.405745027,0
                99.264226288,14.405621648,0
                99.2640314640001,14.4054988770001,0
                99.2640025910001,14.4054719700001,0
                99.263980937,14.4054497380001,0
                99.2639604560001,14.405407596,0
                99.2639363380001,14.4053373470001,0
                99.2639121780001,14.405230782,0
                99.2638975850001,14.405084388,0
                99.263895071,14.404989517,0
                99.263897339,14.404874727,0
                99.2639056960001,14.4048266930001,0
                99.263977497,14.404571269,0
                99.2640050160001,14.4044693340001,0
                99.2640181500001,14.404396697,0
                99.2640276760001,14.404321727,0
                99.2640300320001,14.404281896,0
                99.2640275370001,14.4042034230001,0
                99.264016542,14.4040511650001,0
                99.2639875240001,14.4039001030001,0
                99.263965812,14.403828676,0
                99.2639453150001,14.4037724780001,0
                99.2639115810001,14.4037010650001,0
                99.2638935130001,14.403663603,0
                99.2638561950001,14.403609766,0
                99.2638212950001,14.403564122,0
                99.263761134,14.403502114,0
                99.2636769100001,14.403412018,0
                99.2635265330001,14.403275142,0
                99.2634038580001,14.4031886010001,0
                99.2632968240001,14.4031184450001,0
                99.2631741710001,14.4030541600001,0
                99.2630803860001,14.4030097520001,0
                99.2629060630001,14.4029455250001,0
                99.2628159060001,14.402921028,0
                99.2627209440001,14.402897706,0
                99.262632007,14.4028896090001,0
                99.262574327,14.4028896730001,0
                99.262503436,14.402896777,0
                99.2623808870001,14.402921511,0
                99.2622835750001,14.4029427040001,0
                99.2622090930001,14.4029650430001,0
                99.2621250180001,14.4030014420001,0
                99.262044556,14.4030460440001,0
                99.261960485,14.403090644,0
                99.2619184550001,14.403115288,0
                99.2617935760001,14.403198591,0
                99.261601446,14.403324135,0
                99.2615582220001,14.403354634,0
                99.2615221990001,14.4033804430001,0
                99.261465775,14.403427359,0
                99.261382934,14.4034965560001,0
                99.261062424,14.4037944200001,0
                99.2609951960001,14.4038530610001,0
                99.2609111560001,14.4039199170001,0
                99.260837908,14.403970364,0
                99.260773058,14.404007918,0
                99.260674577,14.4040572220001,0
                99.2606085140001,14.404084234,0
                99.2603802450001,14.404136023,0
                99.260310561,14.4041489840001,0
                99.2602709080001,14.404151369,0
                99.2602300400001,14.404143214,0
                99.2601218610001,14.404121081,0
                99.2599415440001,14.404070914,0
                99.259758806,14.404005522,0
                99.2596818580001,14.403972808,0
                99.2595880760001,14.4039307460001,0
                99.2594954880001,14.4038828230001,0
                99.2594401710001,14.403848914,0
                99.259304252,14.4037436470001,0
                99.258945795,14.4034430180001,0
                99.258781013,14.4033131800001,0
                99.258659557,14.403240695,0
                99.2584214540001,14.40310157,0
                99.258336086,14.4030594980001,0
                99.2582904000001,14.403039634,0
                99.258209853,14.403015124,0
                99.2581569610001,14.402999956,0
                99.2581004680001,14.4029883040001,0
                99.2580235440001,14.402976675,0
                99.257952635,14.4029673810001,0
                99.2578865360001,14.4029639400001,0
                99.257801214,14.4029652040001,0
                99.257736327,14.402969963,0
                99.257693083,14.4029840650001,0
                99.2576630550001,14.402995811,0
                99.2576234240001,14.403018106,0
                99.257449298,14.403123717,0
                99.2573544250001,14.403181212,0
                99.2573087850001,14.403201175,0
                99.2572595230001,14.4032094250001,0
                99.2572198660001,14.4032094680001,0
                99.2571765910001,14.4031966310001,0
                99.2571284950001,14.4031744320001,0
                99.257082799,14.403145196,0
                99.257007027,14.403090229,0
                99.256883127,14.4029802590001,0
                99.2567953070001,14.4028983650001,0
                99.256714693,14.402811775,0
                99.2566669500001,14.402744377,0
                99.2564808390001,14.402737174,0
                99.2563251010001,14.402718835,0
                99.256203542,14.4026967560001,0
                99.2559072210001,14.4026304400001,0
                99.2556042190001,14.402561324,0
                99.2553791620001,14.402570342,0
                99.254857126,14.402676204,0
                99.254425106,14.402773193,0
                99.254110116,14.4028612810001,0
                99.25379523,14.403045892,0
                99.253597379,14.4032303770001,0
                99.253471539,14.403406005,0
                99.2533907230001,14.4035903650001,0
                99.2533279210001,14.4037834800001,0
                99.253319344,14.4041608090001,0
                99.253271613,14.4047410970001,0
                99.2532725930001,14.405609805,0
                99.2531854310001,14.4061561340001,0
                99.253111485,14.406445784,0
                99.2529564920001,14.4067157740001,0
                99.2528283830001,14.406880442,0
                99.2525113300001,14.4071440270001,0
                99.2519715390001,14.4074802420001,0
                99.2513505690001,14.407684918,0
                99.2511481240001,14.4077904320001,0
                99.250317968,14.408113787,0
                99.2480779620001,14.409662718,0
                99.2479498020001,14.409781316,0
                99.2478352460001,14.409992033,0
                99.2476598280001,14.4101172580001,0
                99.2474641420001,14.410235922,0
                99.2473967160001,14.4103215490001,0
                99.247268686,14.4105586050001,0
                99.2471137110001,14.4108549160001,0
                99.2469585650001,14.410999862,0
                99.246742635,14.411125133,0
                99.2465198660001,14.4111780150001,0
                99.2461755520001,14.4112244410001,0
                99.2458852560001,14.4112708100001,0
                99.2457368090001,14.411363099,0
                99.2450485030001,14.411752101,0
                99.244414406,14.412318736,0
                99.244029831,14.4126021230001,0
                99.2435371940001,14.412859296,0
                99.2429229470001,14.413057366,0
                99.2420724680001,14.4133478100001,0
                99.2417079570001,14.4134534780001,0
                99.2413501500001,14.413513075,0
                99.2410463360001,14.4135528750001,0
                99.2407425820001,14.4136453190001,0
                99.2402498220001,14.4137971860001,0
                99.23991234,14.4139225700001,0
                99.239399259,14.414015229,0
                99.2390752060001,14.4140682070001,0
                99.2383189830001,14.4141084560001,0
                99.2378328450001,14.4141352710001,0
                99.2372995000001,14.4142213640001,0
                99.236988963,14.414287485,0
                99.2365637450001,14.4144590240001,0
                99.2361453300001,14.4146832000001,0
                99.2359968840001,14.4147820650001,0
                99.235794571,14.415025771,0
                99.235552189,14.41569729,0
                99.235457969,14.4159935330001,0
                99.2353568450001,14.4161515820001,0
                99.2351813870001,14.416250473,0
                99.234958604,14.4162967620001,0
                99.234675032,14.4163233680001,0
                99.234161858,14.41633046,0
                99.2337364630001,14.416337464,0
                99.2334934090001,14.416370611,0
                99.233203158,14.416469615,0
                99.2327982780001,14.416726678,0
                99.2323530210001,14.4171154050001,0
                99.231718986,14.417787305,0
                99.2306262100001,14.418880841,0
                99.2304237720001,14.4190126620001,0
                99.229742108,14.4193423830001,0
                99.229532835,14.4193952360001,0
                99.2292762700001,14.419428392,0
                99.2290871970001,14.4194219930001,0
                99.2288575680001,14.419382731,0
                99.2285332590001,14.4191987730001,0
                99.228222438,14.4189950580001,0
                99.2278846940001,14.4188769260001,0
                99.2275468560001,14.418666654,0
                99.226756031,14.41789084,0
                99.226587065,14.417739636,0
                99.2263236000001,14.417621426,0
                99.2259791850001,14.4175822710001,0
                99.225641576,14.417595754,0
                99.22545254,14.4176288410001,0
                99.22505427,14.4177542620001,0
                99.224143101,14.418169742,0
                99.223947288,14.41817651,0
                99.2237311760001,14.418143808,0
                99.223406971,14.418058563,0
                99.223015204,14.4179338880001,0
                99.2227652500001,14.4178222470001,0
                99.2225152670001,14.4176776950001,0
                99.2217584080001,14.4170861040001,0
                99.22157601,14.4170073010001,0
                99.221359884,14.416954854,0
                99.2212383250001,14.416941808,0
                99.2211302920001,14.4169484920001,0
                99.2210290190001,14.4169617470001,0
                99.2208197780001,14.417047499,0
                99.2195711300001,14.417614642,0
                99.2187273360001,14.41788525,0
                99.2178092130001,14.418103278,0
                99.2174176220001,14.418156288,0
                99.217026,14.4181829730001,0
                99.216762616,14.418143726,0
                99.216465466,14.418097932,0
                99.2161210200001,14.4180258550001,0
                99.2158981100001,14.417947085,0
                99.215736038,14.417934073,0
                99.2153916240001,14.417894899,0
                99.215074201,14.417835956,0
                99.2148242550001,14.4177243070001,0
                99.2141216200001,14.4173300750001,0
                99.2137568190001,14.417152715,0
                99.213236695,14.416955752,0
                99.212635574,14.4167983460001,0
                99.2120951640001,14.4165684920001,0
                99.211656055,14.4163582890001,0
                99.2112169390001,14.4161349240001,0
                99.2105683570001,14.415760375,0
                99.2102981610001,14.4156553170001,0
                99.2100887140001,14.41552388,0
                99.2099266000001,14.415464797,0
                99.209697045,14.4154913260001,0
                99.209460768,14.415557345,0
                99.2089612140001,14.4156894110001,0
                99.208387438,14.4158807740001,0
                99.207995854,14.4159403460001,0
                99.2070843860001,14.416059611,0
                99.2062540470001,14.416284095,0
                99.205720822,14.4165214830001,0
                99.2047557990001,14.4171541100001,0
                99.2041012320001,14.417615357,0
                99.2034128620001,14.4180371460001,0
                99.202528736,14.418531494,0
                99.2022520720001,14.4187423280001,0
                99.2015236330001,14.4194583660001,0
                99.1992814880001,14.4216914090001,0
                99.1985260070001,14.4223619360001,0
                99.198331232,14.422451467,0
                99.1982900290001,14.422500015,0
                99.1979320770001,14.422652355,0
                99.19775839,14.422694829,0
                99.1974612970001,14.422721402,0
                99.1972384570001,14.422715006,0
                99.1969142720001,14.422649463,0
                99.1966778730001,14.42258385,0
                99.1964887070001,14.4224787090001,0
                99.196231948,14.42229465,0
                99.1958669860001,14.4219264070001,0
                99.1954478800001,14.4214200070001,0
                99.1953194610001,14.421281907,0
                99.1951843510001,14.4212162100001,0
                99.1950155060001,14.4211768640001,0
                99.1947521440001,14.4211639170001,0
                99.1945697790001,14.4211114180001,0
                99.1944008950001,14.4210325830001,0
                99.193813096,14.420657943,0
                99.1935428900001,14.4205397010001,0
                99.1932727010001,14.4204346230001,0
                99.1930768180001,14.420368974,0
                99.1928607420001,14.4203757330001,0
                99.1926176430001,14.4203693490001,0
                99.1924691570001,14.420448444,0
                99.1921991830001,14.4206000300001,0
                99.1917200490001,14.420949219,0
                99.1914837940001,14.4210481320001,0
                99.1912542190001,14.4210614780001,0
                99.1910043220001,14.4210024490001,0
                99.1907408590001,14.420871043,0
                99.1902882420001,14.4206410630001,0
                99.189247939,14.4201548950001,0
                99.1889237610001,14.4200893450001,0
                99.1886806240001,14.4200368900001,0
                99.188525316,14.4200370140001,0
                99.188424034,14.420043677,0
                99.188241771,14.420109632,0
                99.1879178020001,14.4202941630001,0
                99.1874115580001,14.4205314880001,0
                99.1854270900001,14.421480741,0
                99.185271791,14.4214940270001,0
                99.1850692150001,14.4214941860001,0
                99.184859831,14.4214285360001,0
                99.1845895590001,14.421224732,0
                99.183515303,14.4204950600001,0
                99.183082928,14.420238731,0
                99.1820494510001,14.419824916,0
                99.1818603360001,14.419772413,0
                99.1816645100001,14.4197659860001,0
                99.1815024430001,14.419759528,0
                99.1812931520001,14.4198057560001,0
                99.181023172,14.4199573290001,0
                99.1808273890001,14.420010129,0
                99.1805302810001,14.4200169380001,0
                99.1801858640001,14.419971134,0
                99.179652322,14.419853077,0
                99.1793078740001,14.4197677870001,0
                99.179058028,14.419767977,0
                99.1787744750001,14.419834001,0
                99.1783559180001,14.4199593590001,0
                99.177950873,14.4200978710001,0
                99.177505227,14.4201245310001,0
                99.1768131540001,14.4202073160001,0
                99.176453065,14.42026901,0
                99.1761290520001,14.4204096510001,0
                99.1758861150001,14.420602875,0
                99.175688231,14.42084872,0
                99.174482885,14.422279921,0
                99.1736910990001,14.422956168,0
                99.173232167,14.4232724030001,0
                99.1727820630001,14.423369257,0
                99.1723228740001,14.4233608170001,0
                99.1719897070001,14.4233084110001,0
                99.1716294970001,14.4232209240001,0
                99.171305342,14.42318606,0
                99.1710622800001,14.4232301110001,0
                99.1705853020001,14.423502478,0
                99.170027227,14.4236959290001,0
                99.1696041630001,14.423827857,0
                99.1693161810001,14.4240035620001,0
                99.1691902570001,14.4241703760001,0
                99.1691093630001,14.4243547030001,0
                99.1689210150001,14.425320078,0
                99.1687145980001,14.4262064870001,0
                99.1684358910001,14.4267419510001,0
                99.1681299430001,14.4269790920001,0
                99.1677699460001,14.4271811720001,0
                99.167229853,14.427357053,0
                99.166698749,14.4275066020001,0
                99.1663476750001,14.4276033740001,0
                99.1661766760001,14.427700019,0
                99.165996679,14.4278054440001,0
                99.165645699,14.428025059,0
                99.164889739,14.428508209,0
                99.163773731,14.429132005,0
                99.1631887120001,14.429439528,0
                99.1626487510001,14.429808447,0
                99.1621628300001,14.430203653,0
                99.1617218490001,14.430484748,0
                99.1611457660001,14.43071329,0
                99.1599124730001,14.4310388010001,0
                99.158814303,14.431460739,0
                99.158274185,14.4316190500001,0
                99.1579411710001,14.4318035420001,0
                99.1572662660001,14.432356812,0
                99.1566993850001,14.4328749090001,0
                99.1564564430001,14.4331119890001,0
                99.1561144880001,14.4333930130001,0
                99.155790467,14.433568725,0
                99.1546654040001,14.43419248,0
                99.1542333620001,14.434403361,0
                99.1538552710001,14.434517681,0
                99.1529460550001,14.434790295,0
                99.1526670320001,14.4349396490001,0
                99.1521091270001,14.43544895,0
                99.151227238,14.4361953850001,0
                99.1497963670001,14.4373545820001,0
                99.148797437,14.4381449520001,0
                99.148329458,14.4385050180001,0
                99.1480775260001,14.4387771990001,0
                99.1479696440001,14.439031739,0
                99.147879828,14.439374012,0
                99.1477721240001,14.439900574,0
                99.1477002760001,14.440181416,0
                99.1473864380001,14.4421735080001,0
                99.1470630490001,14.443340768,0
                99.1468742100001,14.443726982,0
                99.1465052360001,14.444034334,0
                99.1460012580001,14.4444470620001,0
                99.145398205,14.444815981,0
                99.1449571470001,14.44506195,0
                99.144453045,14.4452904070001,0
                99.144264041,14.445422142,0
                99.1441650990001,14.445588926,0
                99.144093216,14.4458258930001,0
                99.1440213380001,14.4460716340001,0
                99.1439945000001,14.4463436720001,0
                99.1439406870001,14.4466771470001,0
                99.1439138710001,14.446984285,0
                99.1438547910001,14.447827666,0
                99.143716876,14.4487042820001,0
                99.1436992280001,14.4492658830001,0
                99.1437175300001,14.4497221660001,0
                99.143789821,14.4501169930001,0
                99.1438349570001,14.450292459,0
                99.143889098,14.4504679240001,0
                99.1438891940001,14.4506170970001,0
                99.1438713310001,14.450845256,0
                99.143808462,14.451099766,0
                99.1437726120001,14.451363035,0
                99.143781893,14.4517929950001,0
                99.1438046910001,14.4522419620001,0
                99.1438289450001,14.452616343,0
                99.1439012390001,14.453014094,0
                99.1440997240001,14.453604812,0
                99.1440999050001,14.4538856080001,0
                99.1438287780001,14.455308244,0
                99.143669102,14.456101039,0
                99.1434453470001,14.4566783660001,0
                99.143045531,14.4573025990001,0
                99.1418138100001,14.458800922,0
                99.140900387,14.4597176400001,0
                99.1410039630001,14.459927637,0
                99.1411334590001,14.4602971630001,0
                99.1412026390001,14.4605491080001,0
                99.1412156310001,14.4607213470001,0
                99.141215801,14.460990141,0
                99.1411945350001,14.4613891610001,0
                99.1412250540001,14.461918371,0
                99.1412552640001,14.4620401170001,0
                99.141321185,14.4622453220001,0
                99.1413848670001,14.4625774140001,0
                99.1413893390001,14.462737249,0
                99.1413765510001,14.4630648310001,0
                99.141346609,14.4632580950001,0
                99.141262522,14.463665561,0
                99.1410753810001,14.463726406,0
                99.1408644570001,14.4637938970001,0
                99.1407465980001,14.463804451,0
                99.1405429280001,14.4638149800001,0
                99.140382215,14.4637837830001,0
                99.1400768,14.4637265640001,0
                99.1398495390001,14.4636936970001,0
                99.1397446500001,14.4637685330001,0
                99.1396805860001,14.4640399960001,0
                99.139603444,14.464289582,0
                99.1394789170001,14.4645662660001,0
                99.1394290630001,14.4646513590001,0
                99.1394197210001,14.4647212470001,0
                99.1394043290001,14.4650374600001,0
                99.1393888360001,14.465183311,0
                99.1394079070001,14.4658276960001,0
                99.139389329,14.4659736300001,0
                99.1393394710001,14.4661043150001,0
                99.1391431340001,14.466414446,0
                99.139002937,14.4666759580001,0
                99.1388286000001,14.4671653620001,0
                99.1386510240001,14.467521101,0
                99.1385108360001,14.467873793,0
                99.1383457040001,14.4681869020001,0
                99.1379465420001,14.4699414450001,0
                99.1374376530001,14.47148121,0
                99.1365788320001,14.473700337,0
                99.1331578160001,14.483211301,0
                99.1326126070001,14.484701435,0
                99.1320618670001,14.486006752,0
                99.1378239080001,14.486628889,0
                99.1419711930001,14.487135224,0
                99.1454119540001,14.4876119910001,0
                99.1472860110001,14.4879699790001,0
                99.148791551,14.488477829,0
                99.1494675960001,14.488836555,0
                99.1500208100001,14.489255217,0
                99.1508814970001,14.4900926920001,0
                99.1525418200001,14.4923064000001,0
                99.153280189,14.493922109,0
                99.153860696,14.4952584980001,0
                99.1541702580001,14.496058896,0
                99.1543164190001,14.4965843750001,0
                99.1544259710001,14.496875501,0
                99.1544771310001,14.497067235,0
                99.1544846030001,14.497330015,0
                99.1544847260001,14.4975075780001,0
                99.1544921780001,14.497741949,0
                99.15451419,14.497947907,0
                99.1545653410001,14.4981183300001,0
                99.1547918250001,14.498835522,0
                99.1549450520001,14.499034287,0
                99.1550788420001,14.499186007,0
                99.155251369,14.4992258520001,0
                99.1554773710001,14.499247009,0
                99.1559512440001,14.499282206,0
                99.1561845250001,14.499282051,0
                99.156366813,14.499338751,0
                99.15660015,14.4994167200001,0
                99.1566876520001,14.4994521720001,0
                99.1568116020001,14.499480503,0
                99.1569428230001,14.4994804150001,0
                99.1570667430001,14.499466123,0
                99.1572853910001,14.4993949550001,0
                99.1579922440001,14.499003848,0
                99.1585679350001,14.4986980580001,0
                99.1588376190001,14.498633956,0
                99.1590125770001,14.498633838,0
                99.15919482,14.49861951,0
                99.1594645750001,14.49866194,0
                99.159639558,14.49869023,0
                99.1597927180001,14.498789561,0
                99.1599240500001,14.4989457230001,0
                99.159982486,14.499109038,0
                99.1600336110001,14.4992439490001,0
                99.1600846840001,14.4993007310001,0
                99.1601867670001,14.499336177,0
                99.1603909090001,14.4993644470001,0
                99.1606023020001,14.4993429960001,0
                99.1611489650001,14.4992218800001,0
                99.1613093180001,14.4991862590001,0
                99.161455118,14.499186159,0
                99.1617686330001,14.499249863,0
                99.161834286,14.499306635,0
                99.1620239280001,14.499448552,0
                99.1622864620001,14.4995762140001,0
                99.162476041,14.4996329050001,0
                99.1626364260001,14.4996398960001,0
                99.1628040800001,14.4996184730001,0
                99.1629134,14.49957578,0
                99.1630736860001,14.4994478250001,0
                99.163285004,14.4993198350001,0
                99.1634380570001,14.4992700130001,0
                99.16361299,14.4992343810001,0
                99.1637369200001,14.4992342940001,0
                99.163897336,14.499283898,0
                99.1641525810001,14.499411563,0
                99.164269264,14.4994754050001,0
                99.1644661180001,14.4995036760001,0
                99.1646921000001,14.4994964160001,0
                99.1650128370001,14.4994677820001,0
                99.1652607090001,14.4994818120001,0
                99.165822039,14.499481416,0
                99.1660845110001,14.4995238440001,0
                99.1662886820001,14.4995947210001,0
                99.166522027,14.4996797860001,0
                99.1668648310001,14.4999139240001,0
                99.1671638970001,14.5001480870001,0
                99.1673025460001,14.500332654,0
                99.1673588960001,14.500417912,0
                99.1677963820001,14.5008813420001,0
                99.1682539820001,14.5013660820001,0
                99.16872255,14.5019738240001,0
                99.169347293,14.5027588080001,0
                99.1704141490001,14.503543469,0
                99.1712466390001,14.5039229130001,0
                99.173613769,14.504630595,0
                99.17501853,14.5051616220001,0
                99.1759289760001,14.505439644,0
                99.1765791620001,14.5054644900001,0
                99.17694313,14.5053122,0
                99.177410943,14.504931798,0
                99.1776948010001,14.5045247670001,0
                99.177708738,14.5045154160001,0
                99.1780801850001,14.504074787,0
                99.178648207,14.5033144020001,0
                99.1789468220001,14.5029661560001,0
                99.1791435280001,14.5028097540001,0
                99.1794349890001,14.5026319730001,0
                99.1797119500001,14.502553633,0
                99.1798431720001,14.502553532,0
                99.1800181500001,14.502574704,0
                99.1804118730001,14.5026454280001,0
                99.1807399900001,14.502723304,0
                99.181403581,14.5029571690001,0
                99.182322416,14.503304476,0
                99.1828037540001,14.5035384780001,0
                99.18303711,14.5036235260001,0
                99.1832558350001,14.503651764,0
                99.183430795,14.5036445260001,0
                99.1836056640001,14.50353075,0
                99.1841229600001,14.503168126,0
                99.1845673390001,14.502784247,0
                99.184822393,14.5026633050001,0
                99.1851576650001,14.5025778150001,0
                99.1852961820001,14.5025848080001,0
                99.1855003310001,14.502613056,0
                99.18565347,14.502669752,0
                99.185806621,14.5027406570001,0
                99.185937961,14.5028826010001,0
                99.1860329310001,14.503124003,0
                99.186076948,14.5034506810001,0
                99.1860772380001,14.503798696,0
                99.1860773810001,14.503969152,0
                99.1861140970001,14.5042887330001,0
                99.186158026,14.504515972,0
                99.186260286,14.504750271,0
                99.1865229580001,14.505019953,0
                99.186953298,14.5052824000001,0
                99.1875804850001,14.5055588930001,0
                99.1879669020001,14.505601197,0
                99.188477182,14.5055652770001,0
                99.1888634730001,14.50545843,0
                99.1893881940001,14.505259138,0
                99.1896797350001,14.5051807790001,0
                99.1898765480001,14.5051522110001,0
                99.190102541,14.5051520280001,0
                99.1904452420001,14.505222772,0
                99.1908608740001,14.505328971,0
                99.191385971,14.505570026,0
                99.191801738,14.5058324710001,0
                99.1920935470001,14.506066613,0
                99.1923999250001,14.5062865370001,0
                99.192779214,14.5065135,0
                99.1929907570001,14.506662476,0
                99.1931075430001,14.5068257340001,0
                99.1932828160001,14.507180711,0
                99.193465335,14.507485962,0
                99.1936115600001,14.5079688010001,0
                99.193750476,14.508430344,0
                99.193823561,14.508636251,0
                99.1938746960001,14.5087569500001,0
                99.193991484,14.5089202070001,0
                99.1941227710001,14.508991125,0
                99.194254034,14.509033629,0
                99.1944508830001,14.50904767,0
                99.194611244,14.509019129,0
                99.195267061,14.5086634630001,0
                99.1969139660001,14.5078737260001,0
                99.1970009510001,14.507838947,0
                99.1985724350001,14.507373565,0
                99.1993792260001,14.5072327820001,0
                99.200783572,14.506987716,0
                99.201065558,14.5069217650001,0
                99.20139649,14.506783259,0
                99.202045194,14.5066477560001,0
                99.2024606850001,14.5065905810001,0
                99.20292729,14.506625689,0
                99.203233621,14.5067816760001,0
                99.2034962060001,14.5069305980001,0
                99.203955781,14.507249809,0
                99.2042694950001,14.5075052180001,0
                99.2047195650001,14.5077890750001,0
                99.2054268670001,14.508476913,0
                99.2056024450001,14.5089247240001,0
                99.2056904070001,14.5093299480001,0
                99.2056250520001,14.509692644,0
                99.2055292000001,14.5098041840001,0
                99.2055109730001,14.509819511,0
                99.204986454,14.5102390100001,0
                99.2049283100001,14.510430823,0
                99.2049138150001,14.5105231690001,0
                99.204921229,14.510658103,0
                99.2049797000001,14.5108214100001,0
                99.2050819230001,14.5109917770001,0
                99.2052790100001,14.511261495,0
                99.206030566,14.5119639710001,0
                99.2061400680001,14.5121201270001,0
                99.206235055,14.512347317,0
                99.2062935930001,14.5125816450001,0
                99.2063012120001,14.5129367590001,0
                99.2062868820001,14.5132066580001,0
                99.2062434430001,14.5135334080001,0
                99.2062073870001,14.513959582,0
                99.2062513390001,14.5141868160001,0
                99.2063754810001,14.514406883,0
                99.2066089910001,14.5146410570001,0
                99.2069374220001,14.5150242920001,0
                99.20720012,14.5152868490001,0
                99.2074335560001,14.5154357920001,0
                99.2076158770001,14.515499554,0
                99.2078638420001,14.5155916630001,0
                99.2080899220001,14.5156695900001,0
                99.2081482840001,14.5157121510001,0
                99.208286817,14.5157262330001,0
                99.2083961760001,14.5157261360001,0
                99.208687776,14.51570457,0
                99.2089575410001,14.5157256360001,0
                99.209154454,14.515796487,0
                99.2094024460001,14.515917007,0
                99.209614016,14.5160730690001,0
                99.2097891080001,14.516200756,0
                99.2099204250001,14.516292966,0
                99.2100589780001,14.5163283530001,0
                99.210219383,14.516342418,0
                99.210445371,14.516320905,0
                99.210809774,14.5161927350001,0
                99.2110430180001,14.516135708,0
                99.211283569,14.516099981,0
                99.2114658280001,14.516092714,0
                99.2117210060001,14.516106688,0
                99.211917934,14.5161917360001,0
                99.2121368300001,14.516383305,0
                99.2122610000001,14.5166246700001,0
                99.2124728620001,14.5170790330001,0
                99.2126335250001,14.5173629820001,0
                99.212859801,14.5176468720001,0
                99.2131807750001,14.517845445,0
                99.213800716,14.5180934640001,0
                99.2143549880001,14.518291823,0
                99.2147341690001,14.5183625020001,0
                99.215076825,14.518362188,0
                99.2153465360001,14.5183193240001,0
                99.2155214060001,14.518212631,0
                99.215732588,14.517956751,0
                99.215907374,14.5177648280001,0
                99.2178300750001,14.515710465,0
                99.2185585820001,14.515155803,0
                99.219010402,14.5149636200001,0
                99.2194986850001,14.5147785030001,0
                99.2206137650001,14.5144152350001,0
                99.221488337,14.514130317,0
                99.2226035780001,14.513930397,0
                99.222975293,14.5138306100001,0
                99.22341986,14.5136810380001,0
                99.2236239330001,14.513624022,0
                99.2239592770001,14.5136094980001,0
                99.2243967100001,14.513616182,0
                99.2246956020001,14.5136016920001,0
                99.2248632580001,14.5135731230001,0
                99.225067337,14.5135232120001,0
                99.2253296360001,14.513366709,0
                99.2256939090001,14.5131248770001,0
                99.226160437,14.5130676110001,0
                99.2265614610001,14.513116939,0
                99.227181268,14.5132370810001,0
                99.2275605170001,14.5133787610001,0
                99.2278668660001,14.5135276130001,0
                99.2280418940001,14.5135842600001,0
                99.2281804120001,14.513584125,0
                99.228326199,14.513562677,0
                99.2285010590001,14.5134559700001,0
                99.2286540330001,14.51333508,0
                99.2292652260001,14.5121625960001,0
                99.2294687620001,14.511587106,0
                99.2297522440001,14.5107700560001,0
                99.2302324940001,14.509888894,0
                99.2307638780001,14.5091071140001,0
                99.231295495,14.508552606,0
                99.2320168090001,14.5081470590001,0
                99.2331537200001,14.507797919,0
                99.2337733410001,14.5077475840001,0
                99.234363886,14.5077825060001,0
                99.2344805710001,14.5078250060001,0
                99.2347504300001,14.507938375,0
                99.235472449,14.508207538,0
                99.2358736770001,14.508455719,0
                99.2361727050001,14.508576159,0
                99.2366393560001,14.5086467150001,0
                99.2371788290001,14.508639064,0
                99.237550614,14.5086244840001,0
                99.2378349200001,14.5086099910001,0
                99.2382286330001,14.5086451070001,0
                99.238469266,14.5086945780001,0
                99.238928689,14.508821954,0
                99.2393881350001,14.508970635,0
                99.239738188,14.5090839160001,0
                99.2400881240001,14.509083559,0
                99.2405327610001,14.5090191800001,0
                99.2409189470001,14.508834124,0
                99.24124657,14.508428952,0
                99.2419750930001,14.507966551,0
                99.2423175860001,14.5078312520001,0
                99.2426893510001,14.5077953580001,0
                99.2429226120001,14.5077738050001,0
                99.243257826,14.5076456200001,0
                99.2439427620001,14.507332402,0
                99.244875451,14.5069123920001,0
                99.245822908,14.506669925,0
                99.2467120350001,14.5064204080001,0
                99.247397188,14.506306049,0
                99.2481115860001,14.506269784,0
                99.248775116,14.506382721,0
                99.249263736,14.5065384540001,0
                99.2496941750001,14.5068220910001,0
                99.2501028890001,14.507233593,0
                99.2503949920001,14.507673627,0
                99.2505411560001,14.507993076,0
                99.2505643040001,14.5091294270001,0
                99.2505944150001,14.5099745750001,0
                99.2507119630001,14.5107770170001,0
                99.2508072140001,14.5112030560001,0
                99.2509241010001,14.5114160000001,0
                99.251011787,14.511593464,0
                99.2512014860001,14.511728206,0
                99.2514714630001,14.5119338870001,0
                99.2520258920001,14.5122528970001,0
                99.252602106,14.5124937590001,0
                99.2532073840001,14.512649358,0
                99.253688636,14.5127269610001,0
                99.2540678110001,14.512790475,0
                99.2545781760001,14.5128254320001,0
                99.2548552680001,14.512874847,0
                99.2550375920001,14.5129314700001,0
                99.255285572,14.5130235280001,0
                99.2557233220001,14.5133071450001,0
                99.256460282,14.513853222,0
                99.2567155790001,14.513966582,0
                99.2570437370001,14.5140443500001,0
                99.2574447270001,14.5140581150001,0
                99.257758149,14.51400095,0
                99.2585234360001,14.51382255,0
                99.2589024900001,14.5137795200001,0
                99.2593180200001,14.513757755,0
                99.259573297,14.513856902,0
                99.2599671630001,14.5140127170001,0
                99.2604485040001,14.5141613370001,0
                99.2608642500001,14.5143242280001,0
                99.2611486100001,14.514352321,0
                99.261753615,14.514266417,0
                99.2623877010001,14.5141094570001,0
                99.2629197740001,14.514002326,0
                99.2633279620001,14.513937949,0
                99.2637143480001,14.513930413,0
                99.264129944,14.5139654560001,0
                99.26445813,14.514064521,0
                99.2648520500001,14.51426294,0
                99.2654795000001,14.514659963,0
                99.2656764500001,14.514752072,0
                99.265917087,14.5147944120001,0
                99.26626701,14.514779811,0
                99.2666606700001,14.514758058,0
                99.2671636910001,14.514743282,0
                99.267849019,14.5147638070001,0
                99.2684979310001,14.5148127800001,0
                99.2692708110001,14.514890022,0
                99.2697740470001,14.5150527970001,0
                99.270503455,14.515350255,0
                99.271247401,14.5156121840001,0
                99.272881113,14.516135864,0
                99.2736395320001,14.516305436,0
                99.2746676400001,14.5164249750001,0
                99.2752071240001,14.5164172410001,0
                99.275542542,14.51645946,0
                99.2760675430001,14.5165298640001,0
                99.276599865,14.5166215690001,0
                99.277154033,14.516691936,0
                99.277606087,14.516726916,0
                99.2778175270001,14.51674087,0
                99.2781529110001,14.5167546770001,0
                99.279261047,14.5167391570001,0
                99.2806317170001,14.516780134,0
                99.281193059,14.516758156,0
                99.2817106100001,14.516700718,0
                99.2820750290001,14.51661505,0
                99.2831536140001,14.5162941470001,0
                99.2837293000001,14.516087482,0
                99.2844070070001,14.515845185,0
                99.2852156910001,14.515410962,0
                99.2858204340001,14.515126133,0
                99.2867169100001,14.5149332730001,0
                99.2876572320001,14.514818484,0
                99.288284235,14.5148390250001,0
                99.2885029780001,14.5148600630001,0
                99.2890716050001,14.5148380570001,0
                99.2894725930001,14.514851767,0
                99.2899028400001,14.514936461,0
                99.2902383700001,14.515063888,0
                99.2907707540001,14.5152052760001,0
                99.2915000400001,14.5153890300001,0
                99.292951278,14.5157210350001,0
                99.2937899440001,14.51591885,0
                99.294708729,14.5160597440001,0
                99.295000395,14.5160948880001,0
                99.2952847700001,14.5161300460001,0
                99.2954160560001,14.5161724930001,0
                99.295634899,14.5162716510001,0
                99.2958318680001,14.51636373,0
                99.296006914,14.5164203310001,0
                99.2961892120001,14.516448509,0
                99.296429715,14.516384282,0
                99.297231115,14.5159713370001,0
                99.2977338370001,14.51572922,0
                99.2980326590001,14.515664917,0
                99.298222229,14.5156788850001,0
                99.2984920330001,14.5157211540001,0
                99.2987327910001,14.51584869,0
                99.298959127,14.51609698,0
                99.299346573,14.5168777440001,0
                99.2994927270001,14.5171332420001,0
                99.2997267420001,14.5176656140001,0
                99.2999531760001,14.517984932,0
                99.3001064870001,14.518140987,0
                99.3004274900001,14.518303928,0
                99.3008432240001,14.5184312380001,0
                99.3011859980001,14.5185160230001,0
                99.3014704780001,14.518629296,0
                99.301696738,14.5188136680001,0
                99.3019667390001,14.5189979800001,0
                99.3022221800001,14.519196514,0
                99.3024848100001,14.5193240180001,0
                99.3027401160001,14.519423122,0
                99.302951604,14.519465462,0
                99.3033598910001,14.5194791390001,0
                99.304569857,14.5192787080001,0
                99.305218424,14.519064793,0
                99.305604659,14.518943555,0
                99.3059253160001,14.5188508050001,0
                99.3062314110001,14.518772278,0
                99.3065084420001,14.5187648140001,0
                99.306712566,14.5187574450001,0
                99.3070844640001,14.5188137800001,0
                99.3074890390001,14.518934985,0
              </coordinates>
                
            </LinearRing>
            
          </outerBoundaryIs>
        
        </Polygon>
        
      <styleUrl>
        #tambonStyle</styleUrl>
    </Placemark>

  </Document>
</kml>