<?xml version="1.0" encoding="UTF-8"?>
<kml xmlns="http://www.opengis.net/kml/2.2">
  <Document id="tambon_doc">
    <name>กะดุนง, สายบุรี, Pattani</name>
    <description>ข้อมูลขอบเขตตำบลกะดุนง อำเภอสายบุรี จังหวัดPattani</description>
    
    <!-- Schema สำหรับข้อมูลตำบล -->
    <Schema id="tambon.schema">
      <SimpleField name="ADM3_EN" type="string">
        <displayName>Subdistrict Name (English)</displayName>
      </SimpleField>
      <SimpleField name="ADM3_TH" type="string">
        <displayName>ชื่อตำบล</displayName>
      </SimpleField>
      <SimpleField name="ADM2_EN" type="string">
        <displayName>District Name (English)</displayName>
      </SimpleField>
      <SimpleField name="ADM2_TH" type="string">
        <displayName>ชื่ออำเภอ</displayName>
      </SimpleField>
      <SimpleField name="ADM1_EN" type="string">
        <displayName>Province Name (English)</displayName>
      </SimpleField>
      <SimpleField name="ADM1_TH" type="string">
        <displayName>ชื่อจังหวัด</displayName>
      </SimpleField>
      <SimpleField name="ADM0_EN" type="string">
        <displayName>Country Name (English)</displayName>
      </SimpleField>
      <SimpleField name="ADM0_TH" type="string">
        <displayName>ชื่อประเทศ</displayName>
      </SimpleField>
    </Schema>

    <!-- Style สำหรับตำบล -->
    <Style id="tambonStyle">
      <LineStyle>
        <color>ffff0000</color>
        <width>1.5</width>
      </LineStyle>
      <PolyStyle>
        <color>33ff0000</color>
        <fill>1</fill>
        <outline>1</outline>
      </PolyStyle>
    </Style>

    <Placemark id="Pattani.71">
        
        <ExtendedData>
            
          <SchemaData schemaUrl="#tambon.schema">
                
            <SimpleData name="Shape_Leng">
                0.155923052005</SimpleData>
                
            <SimpleData name="Shape_Area">
                0.00104190339736</SimpleData>
                
            <SimpleData name="ADM3_EN">
                Kadunong</SimpleData>
                
            <SimpleData name="ADM3_TH">
                กะดุนง</SimpleData>
                
            <SimpleData name="ADM3_PCODE">
                TH940707</SimpleData>
                
            <SimpleData name="ADM2_EN">
                Sai Buri</SimpleData>
                
            <SimpleData name="ADM2_TH">
                สายบุรี</SimpleData>
                
            <SimpleData name="ADM2_PCODE">
                TH9407</SimpleData>
                
            <SimpleData name="ADM1_EN">
                Pattani</SimpleData>
                
            <SimpleData name="ADM1_TH">
                ปัตตานี</SimpleData>
                
            <SimpleData name="ADM1_PCODE">
                TH94</SimpleData>
                
            <SimpleData name="ADM0_EN">
                Thailand</SimpleData>
                
            <SimpleData name="ADM0_TH">
                ประเทศไทย</SimpleData>
                
            <SimpleData name="ADM0_PCODE">
                TH</SimpleData>
            
          </SchemaData>
        
        </ExtendedData>
        
        <Polygon>
            
          <outerBoundaryIs>
                
            <LinearRing>
                    
              <coordinates>
                    
                101.562418029,6.66542264200007,0
                101.563493307,6.66525099600005,0
                101.56501631,6.66524590100005,0
                101.565202186,6.66384022500006,0
                101.565347199,6.66272108100003,0
                101.565484475,6.66195842300004,0
                101.565720852,6.66091620300006,0
                101.565934569,6.66030114000006,0
                101.566186579,6.65966099500002,0
                101.566445786,6.65910102100003,0
                101.566704926,6.65841453800005,0
                101.567071453,6.65774785200006,0
                101.567796345,6.65667937500007,0
                101.568398913,6.65577533500004,0
                101.56888676,6.65530061600003,0
                101.569413121,6.65495051500005,0
                101.570412367,6.65460809700005,0
                101.571716942,6.65432568400007,0
                101.572624829,6.65422775400003,0
                101.573593568,6.65421989900005,0
                101.574478765,6.65432992900003,0
                101.575607514,6.65455847500004,0
                101.576462196,6.65477260100005,0
                101.577354642,6.65497353700005,0
                101.577942072,6.65517380400007,0
                101.578521687,6.65539613400006,0
                101.579162268,6.65550240100004,0
                101.579803081,6.65553970000008,0
                101.581095388,6.65561260800007,0
                101.581170946,6.65521407800003,0
                101.581299408,6.65466574900006,0
                101.581346452,6.65449884600002,0
                101.581507225,6.65410464100006,0
                101.582206095,6.65254375900003,0
                101.582403154,6.65205957800003,0
                101.58255117,6.65165037500003,0
                101.582675219,6.65114549500004,0
                101.582687918,6.65101285400004,0
                101.58271043,6.65047231200003,0
                101.582669994,6.65014552300005,0
                101.582659121,6.65005765300003,0
                101.582610747,6.64978257600006,0
                101.582576203,6.64970032400004,0
                101.582528454,6.64958662900005,0
                101.582264103,6.64909824900008,0
                101.582094102,6.64888803400004,0
                101.581692727,6.64847765800005,0
                101.581381069,6.64819089200006,0
                101.580807487,6.64777828200005,0
                101.580622624,6.64767011100002,0
                101.580506875,6.64762776700007,0
                101.580271611,6.64758870300005,0
                101.580036788,6.64757478400003,0
                101.579805576,6.64756107900007,0
                101.57974785,6.64755765800004,0
                101.579435476,6.64757617500004,0
                101.57907252,6.64761184400004,0
                101.578968367,6.64764096000005,0
                101.578559507,6.64775525800007,0
                101.578456921,6.64778393600005,0
                101.576393145,6.64879954700007,0
                101.575911072,6.64901486800005,0
                101.575685395,6.64911566700005,0
                101.575356438,6.64919337800006,0
                101.575044149,6.64922878100003,0
                101.57463857,6.64918867200004,0
                101.574300463,6.64913132300006,0
                101.573902801,6.64898984200005,0
                101.573657193,6.64885601300006,0
                101.573292696,6.64859613900006,0
                101.572173215,6.64768998900007,0
                101.572045749,6.64753865600005,0
                101.571968603,6.64731950800007,0
                101.571933155,6.64699881200005,0
                101.571948771,6.64675384900005,0
                101.572048662,6.64647467200007,0
                101.572191304,6.64629660200006,0
                101.572473851,6.64610612900003,0
                101.572669736,6.64603758900006,0
                101.57393025,6.64564408700005,0
                101.575523145,6.64532130100002,0
                101.57600062,6.64512909700005,0
                101.576257941,6.64495020800007,0
                101.576683351,6.64452528400005,0
                101.576900058,6.64426568900006,0
                101.57696841,6.64412692400003,0
                101.577059633,6.64380557000004,0
                101.577111331,6.64351112300005,0
                101.577109609,6.64318060900007,0
                101.577074751,6.64293168100005,0
                101.576951611,6.64252261900003,0
                101.576828705,6.64221895900005,0
                101.576765529,6.64211247200006,0
                101.576704029,6.64200881300007,0
                101.576550834,6.64178161700005,0
                101.576311579,6.64147116300006,0
                101.576015055,6.64115303500006,0
                101.576014632,6.64115258000004,0
                101.575290203,6.64080570000004,0
                101.574773989,6.64061109500005,0
                101.574604191,6.64056353900003,0
                101.574305773,6.64051031000002,0
                101.57413475,6.64049356000004,0
                101.573942579,6.64048069700004,0
                101.573724566,6.64048484400007,0
                101.5734117,6.64052712600005,0
                101.573256813,6.64055755700002,0
                101.573136429,6.64059682200002,0
                101.572899317,6.64069363700003,0
                101.57258755,6.64084854500004,0
                101.572441427,6.64093706700004,0
                101.572247462,6.64107712700007,0
                101.571941901,6.64132228200003,0
                101.571746957,6.64147868900005,0
                101.570779549,6.64222066900004,0
                101.570212505,6.64261482100005,0
                101.569946769,6.64279258700003,0
                101.569778422,6.64288032100006,0
                101.569458177,6.64301611600007,0
                101.569455148,6.64301727000003,0
                101.569259955,6.64307562200003,0
                101.569064256,6.64311407300005,0
                101.569028003,6.64311563700005,0
                101.568916754,6.64312043900003,0
                101.568894639,6.64312139500004,0
                101.568619934,6.64311909200006,0
                101.568414799,6.64310753700005,0
                101.568413469,6.64310734000003,0
                101.568058085,6.64304227200006,0
                101.567673407,6.64294107300003,0
                101.567447639,6.64286980200006,0
                101.567228184,6.64278438800005,0
                101.566795655,6.64256791400004,0
                101.566667703,6.64249493400007,0
                101.566085187,6.64216268700005,0
                101.565147469,6.64159069000004,0
                101.564427629,6.64111054300002,0
                101.56422413,6.64097480400005,0
                101.563665805,6.64058589900003,0
                101.563474291,6.64042008400003,0
                101.563347587,6.64026123400004,0
                101.563262696,6.64012424900005,0
                101.563163021,6.63990524200005,0
                101.562998429,6.63950119600003,0
                101.562898361,6.63918337700005,0
                101.562860102,6.63903514100002,0
                101.56276928,6.63855352600007,0
                101.562644206,6.63766395900007,0
                101.562643131,6.63745612500003,0
                101.562670301,6.63706167700008,0
                101.562704893,6.63680406200007,0
                101.562749176,6.63665608900004,0
                101.562871107,6.63635234500003,0
                101.563070332,6.63591479600007,0
                101.563149354,6.63571621500006,0
                101.563321266,6.63522871400005,0
                101.563483092,6.63466241900005,0
                101.563579859,6.63424049900004,0
                101.563688613,6.63365193600004,0
                101.563716896,6.63327383100005,0
                101.563685269,6.63280666700007,0
                101.563666473,6.63264023900007,0
                101.563612051,6.63231931700005,0
                101.563575767,6.63219545100003,0
                101.563402415,6.63177124600003,0
                101.563249595,6.63147862000005,0
                101.563115349,6.63125871700004,0
                101.562454628,6.63028559300005,0
                101.562393467,6.63019904900005,0
                101.561846632,6.62942526200004,0
                101.561373649,6.62874253000007,0
                101.55965165,6.62633529200002,0
                101.55567049,6.62569268400006,0
                101.551692742,6.62571314800005,0
                101.549045802,6.62661072400005,0
                101.546406231,6.62905478600004,0
                101.542670226,6.63305154000005,0
                101.538934744,6.63726913200003,0
                101.536743001,6.64081571300005,0
                101.536535723,6.64346871800007,0
                101.536775838,6.64722368900004,0
                101.544780708,6.65668431000006,0
                101.549674183,6.66284632000003,0
                101.55034539,6.66438995100003,0
                101.549790766,6.66474414700002,0
                101.550959997,6.66460310500003,0
                101.552019995,6.66475294100007,0
                101.55282888,6.66484196900007,0
                101.553835918,6.66501695700003,0
                101.55485818,6.66519242300006,0
                101.555666591,6.66530403100006,0
                101.556536306,6.66535656500002,0
                101.55738287,6.66542221500004,0
                101.558145767,6.66546627400004,0
                101.558878075,6.66550089900005,0
                101.559518843,6.66552637700005,0
                101.560396563,6.66560200500004,0
                101.561219992,6.66566777100007,0
                101.561822669,6.66554492500006,0
                101.562418029,6.66542264200007,0
              </coordinates>
                
            </LinearRing>
            
          </outerBoundaryIs>
        
        </Polygon>
        
      <styleUrl>
        #tambonStyle</styleUrl>
    </Placemark>

  </Document>
</kml>