<?xml version="1.0" encoding="UTF-8"?>
<kml xmlns="http://www.opengis.net/kml/2.2">
  <Document id="tambon_doc">
    <name>นาปะขอ, บางแก้ว, Phatthalung</name>
    <description>ข้อมูลขอบเขตตำบลนาปะขอ อำเภอบางแก้ว จังหวัดPhatthalung</description>
    
    <!-- Schema สำหรับข้อมูลตำบล -->
    <Schema id="tambon.schema">
      <SimpleField name="ADM3_EN" type="string">
        <displayName>Subdistrict Name (English)</displayName>
      </SimpleField>
      <SimpleField name="ADM3_TH" type="string">
        <displayName>ชื่อตำบล</displayName>
      </SimpleField>
      <SimpleField name="ADM2_EN" type="string">
        <displayName>District Name (English)</displayName>
      </SimpleField>
      <SimpleField name="ADM2_TH" type="string">
        <displayName>ชื่ออำเภอ</displayName>
      </SimpleField>
      <SimpleField name="ADM1_EN" type="string">
        <displayName>Province Name (English)</displayName>
      </SimpleField>
      <SimpleField name="ADM1_TH" type="string">
        <displayName>ชื่อจังหวัด</displayName>
      </SimpleField>
      <SimpleField name="ADM0_EN" type="string">
        <displayName>Country Name (English)</displayName>
      </SimpleField>
      <SimpleField name="ADM0_TH" type="string">
        <displayName>ชื่อประเทศ</displayName>
      </SimpleField>
    </Schema>

    <!-- Style สำหรับตำบล -->
    <Style id="tambonStyle">
      <LineStyle>
        <color>ffff0000</color>
        <width>1.5</width>
      </LineStyle>
      <PolyStyle>
        <color>33ff0000</color>
        <fill>1</fill>
        <outline>1</outline>
      </PolyStyle>
    </Style>

    <Placemark id="Phatthalung.56">
        
        <ExtendedData>
            
          <SchemaData schemaUrl="#tambon.schema">
                
            <SimpleData name="Shape_Leng">
                0.347775407549</SimpleData>
                
            <SimpleData name="Shape_Area">
                0.00689201699579</SimpleData>
                
            <SimpleData name="ADM3_EN">
                Na Pakho</SimpleData>
                
            <SimpleData name="ADM3_TH">
                นาปะขอ</SimpleData>
                
            <SimpleData name="ADM3_PCODE">
                TH930902</SimpleData>
                
            <SimpleData name="ADM2_EN">
                Bang Kaeo</SimpleData>
                
            <SimpleData name="ADM2_TH">
                บางแก้ว</SimpleData>
                
            <SimpleData name="ADM2_PCODE">
                TH9309</SimpleData>
                
            <SimpleData name="ADM1_EN">
                Phatthalung</SimpleData>
                
            <SimpleData name="ADM1_TH">
                พัทลุง</SimpleData>
                
            <SimpleData name="ADM1_PCODE">
                TH93</SimpleData>
                
            <SimpleData name="ADM0_EN">
                Thailand</SimpleData>
                
            <SimpleData name="ADM0_TH">
                ประเทศไทย</SimpleData>
                
            <SimpleData name="ADM0_PCODE">
                TH</SimpleData>
            
          </SchemaData>
        
        </ExtendedData>
        
        <Polygon>
            
          <outerBoundaryIs>
                
            <LinearRing>
                    
              <coordinates>
                    
                100.189822937,7.47897556800007,0
                100.191382688,7.47853818300007,0
                100.191685664,7.47854408400002,0
                100.192532915,7.47864008700003,0
                100.193705333,7.47879419300006,0
                100.194473635,7.47883143000007,0
                100.195409042,7.47875025900004,0
                100.195920828,7.47862108200007,0
                100.196304363,7.47841362100007,0
                100.196520391,7.47817712600005,0
                100.197414702,7.47725798500005,0
                100.19765291,7.47701316400003,0
                100.197925496,7.47667119100004,0
                100.198295039,7.47636480800003,0
                100.19890461,7.47608064300005,0
                100.199587143,7.47599491600005,0
                100.201203663,7.47579187800005,0
                100.20407772,7.47551919000006,0
                100.206626045,7.47548857300006,0
                100.208162042,7.47550759400002,0
                100.208942223,7.47557768900003,0
                100.209722731,7.47576816100008,0
                100.21036921,7.47609571300006,0
                100.210554195,7.47630392800005,0
                100.210724756,7.47657326300003,0
                100.210725188,7.47657394100003,0
                100.210773234,7.47661003400003,0
                100.211840891,7.47663201400007,0
                100.212504454,7.47669165200006,0
                100.212957942,7.47670157900006,0
                100.214086132,7.47675155800005,0
                100.214861725,7.47683602500007,0
                100.215726961,7.47694539100007,0
                100.21595658,7.47697828300005,0
                100.216158178,7.47700007500003,0
                100.216639587,7.47698477900008,0
                100.217734039,7.47698175900007,0
                100.218923785,7.47702317200003,0
                100.219464157,7.47707196600004,0
                100.219510201,7.47707829200004,0
                100.219529527,7.47708730500005,0
                100.21953865,7.47710314200003,0
                100.21953871,7.47712467000002,0
                100.219512775,7.47718820300003,0
                100.219395501,7.47747748600005,0
                100.219386133,7.47751271800007,0
                100.21938314,7.47752397700003,0
                100.219380966,7.47755911400003,0
                100.219388997,7.47758968600004,0
                100.21941066,7.47762248700008,0
                100.219465277,7.47766539700007,0
                100.219502787,7.47768002700008,0
                100.219541406,7.47768671700004,0
                100.219548438,7.47768700300003,0
                100.219699241,7.47769308100004,0
                100.220212474,7.47770979400002,0
                100.220429357,7.47771939100005,0
                100.220638298,7.47773127500005,0
                100.220833634,7.47775113200004,0
                100.220841181,7.47775206200004,0
                100.220866688,7.47775519200007,0
                100.22099605,7.47777108100007,0
                100.221266386,7.47781339500006,0
                100.22149471,7.47785468900003,0
                100.221677804,7.47789572000005,0
                100.221784407,7.47791960800004,0
                100.222197937,7.47801138100004,0
                100.222571674,7.47808287300006,0
                100.222642867,7.47809464000005,0
                100.222982868,7.47815085500002,0
                100.223248695,7.47820451000007,0
                100.223393418,7.47823290000002,0
                100.233732288,7.47773763300006,0
                100.259484604,7.47763812800002,0
                100.276183056,7.47839652100004,0
                100.281634444,7.43732532900003,0
                100.258595036,7.41723397000004,0
                100.250394454,7.41399326100003,0
                100.247492114,7.41337636900005,0
                100.246932736,7.41325038900004,0
                100.241895867,7.41329013300003,0
                100.234238145,7.41407322200007,0
                100.232174655,7.41428797300006,0
                100.230649035,7.41429219700007,0
                100.230050339,7.41414454400007,0
                100.228912029,7.41358033600005,0
                100.227861891,7.41244852100004,0
                100.225388547,7.40897128600005,0
                100.224618552,7.40788874200007,0
                100.221310498,7.40271678000005,0
                100.221097937,7.40251049900007,0
                100.220796198,7.40237061900007,0
                100.220701725,7.40232681900005,0
                100.219711864,7.40211291500003,0
                100.218939252,7.40194488700007,0
                100.218757124,7.40190527700003,0
                100.218243068,7.40180474600004,0
                100.217770509,7.40171047200005,0
                100.216678692,7.40155417600005,0
                100.215957232,7.40146376300004,0
                100.215309149,7.40136359500002,0
                100.214421514,7.40118762000003,0
                100.213916908,7.40104246200002,0
                100.213659957,7.40095379200005,0
                100.213019336,7.40073271900008,0
                100.212316842,7.40057535100004,0
                100.211936795,7.40046807600004,0
                100.211263001,7.40030107000007,0
                100.2105349,7.40011509900006,0
                100.209969674,7.39997328400005,0
                100.209244876,7.39982871500007,0
                100.208574384,7.39970310900003,0
                100.208002862,7.39959316400007,0
                100.207616409,7.39947634300006,0
                100.207281025,7.39936257000005,0
                100.206728521,7.39914323800002,0
                100.206507924,7.39905566400006,0
                100.206332216,7.39898605800005,0
                100.205169803,7.39868338500003,0
                100.20373602,7.39833684200005,0
                100.203090983,7.39818249100006,0
                100.202701407,7.39809116000004,0
                100.202120162,7.39792389200005,0
                100.201120626,7.39766855100004,0
                100.200002972,7.39739441600005,0
                100.199236515,7.39718304400003,0
                100.198600926,7.39698087300008,0
                100.198198406,7.39682267500007,0
                100.197966655,7.39672257400002,0
                100.1975754,7.39655357500004,0
                100.197370927,7.39646492800006,0
                100.197029088,7.39632249200002,0
                100.196767147,7.39622444500003,0
                100.196476551,7.39615195100004,0
                100.196103062,7.39605360200005,0
                100.195949636,7.39601319800005,0
                100.195706951,7.39595651100007,0
                100.195374781,7.39584909200005,0
                100.195224648,7.39579534000006,0
                100.194588772,7.39551689500007,0
                100.194537738,7.39549454500008,0
                100.194205453,7.39534571400003,0
                100.193882847,7.39523508000002,0
                100.193687524,7.39520056700007,0
                100.193598701,7.39518487400005,0
                100.193205913,7.39508398100003,0
                100.192982328,7.39500812700004,0
                100.192221985,7.39469478600006,0
                100.192036621,7.39462111300003,0
                100.191704464,7.39448910500005,0
                100.191608101,7.39447070500006,0
                100.191382591,7.39439155500003,0
                100.191148988,7.39544781100005,0
                100.19053105,7.39822955800003,0
                100.190358666,7.39883280900006,0
                100.190234494,7.39900108000006,0
                100.189630333,7.39963234100003,0
                100.189315692,7.39990658200003,0
                100.189067,7.40001494600006,0
                100.188632673,7.40000694600008,0
                100.188009474,7.39995885100006,0
                100.187414585,7.39990028400007,0
                100.187223855,7.39996033800003,0
                100.187053219,7.40012895000007,0
                100.18696591,7.40025417000004,0
                100.186914005,7.40038471200006,0
                100.186790187,7.40068359500003,0
                100.186659359,7.40110103100005,0
                100.186642047,7.40120644900003,0
                100.186642579,7.40140548000005,0
                100.186687511,7.40207290200004,0
                100.186694488,7.40217659400003,0
                100.186548942,7.40366973000005,0
                100.186129111,7.40511383400008,0
                100.185290502,7.40840010900007,0
                100.184450759,7.41126344200006,0
                100.183087009,7.41390426100003,0
                100.182506156,7.41547275200003,0
                100.181160504,7.41715144500006,0
                100.180499123,7.41799457100007,0
                100.180244523,7.41834549700008,0
                100.180191311,7.41841417000006,0
                100.179750642,7.41956140900004,0
                100.179381565,7.42049286100007,0
                100.177280469,7.42362151100002,0
                100.177169924,7.42383146100002,0
                100.177152492,7.42387367500004,0
                100.170416068,7.43062819600004,0
                100.170387809,7.43067806400006,0
                100.170371225,7.43082381200003,0
                100.170755691,7.43241711200005,0
                100.171103283,7.43300624900007,0
                100.173790376,7.43501397500006,0
                100.173818139,7.43510319700005,0
                100.173799962,7.43514706900004,0
                100.17371427,7.43550948600006,0
                100.173419663,7.43673739900004,0
                100.17307631,7.43796544000003,0
                100.17277273,7.43843184800005,0
                100.172720314,7.43851237400003,0
                100.172674812,7.43857350600007,0
                100.172369536,7.43898361300006,0
                100.171743336,7.43975290200007,0
                100.171538193,7.44000211700006,0
                100.171166376,7.44048973700006,0
                100.170928711,7.44094975200005,0
                100.170801688,7.44137494200004,0
                100.1707784,7.44145289800002,0
                100.170767877,7.44156772100007,0
                100.170742407,7.44184574900004,0
                100.170736289,7.44191250900008,0
                100.170776323,7.44271247300003,0
                100.170869282,7.44304739100005,0
                100.170978619,7.44343091900004,0
                100.172316214,7.44647634900002,0
                100.172630104,7.44744382200003,0
                100.17278977,7.44797968600005,0
                100.172833065,7.44812498800007,0
                100.172814702,7.44825577600005,0
                100.172758963,7.44840533500007,0
                100.172726531,7.44846378200003,0
                100.172663998,7.44857645800005,0
                100.172651382,7.44864031500003,0
                100.172651889,7.44883126700006,0
                100.172662384,7.44899204500007,0
                100.172647711,7.44915289000005,0
                100.172688589,7.44937891200004,0
                100.172684076,7.44957490200005,0
                100.172654682,7.44988151500007,0
                100.172530555,7.45053511000003,0
                100.172466361,7.45100764600005,0
                100.172401555,7.45124902400005,0
                100.172352344,7.45167629000002,0
                100.172332594,7.45182207200003,0
                100.172257717,7.45206347700002,0
                100.172233228,7.45231982100006,0
                100.17216345,7.45258634000004,0
                100.172139389,7.45300348700005,0
                100.17207972,7.45328505300006,0
                100.172075422,7.45356144800007,0
                100.172091648,7.45398351600005,0
                100.172153144,7.45439039100006,0
                100.172194609,7.45483751800003,0
                100.172255977,7.45519413800002,0
                100.172408805,7.45586710500004,0
                100.172419419,7.45607310600008,0
                100.172329533,7.45634972600004,0
                100.172254602,7.45657103200006,0
                100.171964456,7.45727029200003,0
                100.17190953,7.45744129200006,0
                100.171829253,7.45754703400007,0
                100.171582946,7.45769341600004,0
                100.171326648,7.45786997600004,0
                100.171166145,7.45809653200007,0
                100.171061321,7.45838280600003,0
                100.171051666,7.45852714200004,0
                100.17105996,7.45862532700005,0
                100.171066102,7.45866940500002,0
                100.17110904,7.45895791100003,0
                100.171113486,7.45912025000007,0
                100.171070231,7.45946710600003,0
                100.17107434,7.45950116800003,0
                100.17109649,7.45952516200003,0
                100.171162801,7.45954102200005,0
                100.171208984,7.45954090000004,0
                100.171267204,7.45953473000003,0
                100.171321324,7.45949650700004,0
                100.171371389,7.45944626700003,0
                100.171413536,7.45943813700006,0
                100.171441659,7.45944006600007,0
                100.171511989,7.45945791900004,0
                100.171650715,7.45952169000003,0
                100.171713034,7.45954557700003,0
                100.171765356,7.45958752800004,0
                100.171839763,7.45962942300002,0
                100.171928225,7.45966726800003,0
                100.171986487,7.45967913800007,0
                100.172125064,7.45968478400005,0
                100.172290442,7.45967056600006,0
                100.172367259,7.45967337000008,0
                100.172442554,7.45966866200007,0
                100.172529866,7.45965490200007,0
                100.172635203,7.45962154700004,0
                100.172794764,7.45958955800006,0
                100.172901638,7.45956822800002,0
                100.17303115,7.45956487800004,0
                100.173177224,7.45955847900007,0
                100.173254042,7.45956278500006,0
                100.173370085,7.45959103700005,0
                100.173528391,7.45965375200007,0
                100.173621863,7.45968808000003,0
                100.173701859,7.45969664000006,0
                100.173738092,7.45970288800004,0
                100.173783212,7.45970657100003,0
                100.173855652,7.45970828300005,0
                100.173917947,7.45971889800006,0
                100.174008838,7.45973197300003,0
                100.174043162,7.45973695600003,0
                100.174126459,7.45976083300008,0
                100.174204012,7.45977331000006,0
                100.174244669,7.45977193500005,0
                100.174296709,7.45974896800004,0
                100.174396931,7.45968528100008,0
                100.174473735,7.45965192600005,0
                100.174504182,7.45963870400004,0
                100.174547351,7.45962463500007,0
                100.174576571,7.45962201900005,0
                100.174621688,7.45962443800005,0
                100.174655377,7.45962942000006,0
                100.174690356,7.45964074600005,0
                100.174807807,7.45971647600004,0
                100.174816127,7.45972184300007,0
                100.174913399,7.45980057400004,0
                100.174990199,7.45986251900007,0
                100.175054164,7.45990218300005,0
                100.175111689,7.45992115500007,0
                100.175145269,7.45994178000007,0
                100.175169257,7.45995605700006,0
                100.175174117,7.45998313400003,0
                100.175179136,7.46006917000005,0
                100.175188128,7.46010465600006,0
                100.17518882,7.46010738600006,0
                100.175236925,7.46018692900003,0
                100.175262531,7.46021076500006,0
                100.175295477,7.46021631300005,0
                100.175318436,7.46022017600006,0
                100.175366383,7.46023917200006,0
                100.175419171,7.46027887100007,0
                100.175476929,7.46038547900002,0
                100.175525166,7.46051282600007,0
                100.175566837,7.46057326900007,0
                100.175661201,7.46063676000006,0
                100.175710807,7.46067965100002,0
                100.175728474,7.46071944000005,0
                100.175731774,7.46075926600003,0
                100.175735246,7.46086442900003,0
                100.17575002,7.46101577200005,0
                100.175769443,7.46111451100006,0
                100.175800218,7.46128015400006,0
                100.175803322,7.46139725700004,0
                100.175803765,7.46141399600003,0
                100.175804119,7.46154625400004,0
                100.175772757,7.46175827100006,0
                100.175747802,7.46197823600005,0
                100.175741885,7.46215512900005,0
                100.175748415,7.46220769800004,0
                100.175798019,7.46225058800007,0
                100.175800309,7.46225134100007,0
                100.175836368,7.46226323200005,0
                100.175852382,7.46228071900003,0
                100.175855643,7.46230620400007,0
                100.175826351,7.46269668600007,0
                100.175799163,7.46278177500005,0
                100.175782022,7.46283543700002,0
                100.175749015,7.46303152100006,0
                100.175696797,7.46320535000007,0
                100.175687368,7.46326274000006,0
                100.175687543,7.46332807200002,0
                100.175706783,7.46335829700007,0
                100.175764267,7.46336133100004,0
                100.175919117,7.46335773200008,0
                100.176070833,7.46337486000004,0
                100.176294526,7.46344278100003,0
                100.176580559,7.46353922200007,0
                100.176631976,7.46356291600006,0
                100.176762786,7.46362319300005,0
                100.176837851,7.46366574900003,0
                100.176999946,7.46378429600003,0
                100.17708544,7.46391438200004,0
                100.177256727,7.46428502900005,0
                100.177265692,7.46445214100004,0
                100.177265101,7.46446823100007,0
                100.177233951,7.46531907600007,0
                100.177240224,7.46554285600007,0
                100.177274964,7.46579772100006,0
                100.177363354,7.46594762300003,0
                100.177525434,7.46606050800006,0
                100.177973789,7.46622689100008,0
                100.178045394,7.46626875000004,0
                100.178315517,7.46644933400006,0
                100.178425125,7.46657897900008,0
                100.178458829,7.46664354500007,0
                100.178518156,7.46686805400003,0
                100.178575284,7.46700387700002,0
                100.178677887,7.46716224300008,0
                100.178723092,7.46728706400006,0
                100.178731872,7.46733575200005,0
                100.178729817,7.46747655200005,0
                100.178748549,7.46756065100004,0
                100.178775337,7.46761082800003,0
                100.178829437,7.46766867200006,0
                100.178838191,7.46767172900007,0
                100.178913676,7.46771619100002,0
                100.178961686,7.46772962400007,0
                100.179061102,7.46774280800003,0
                100.179129494,7.46776379200003,0
                100.179164888,7.46778133800007,0
                100.179241632,7.46780802000006,0
                100.179296193,7.46784278900003,0
                100.179432048,7.46797196600005,0
                100.179448298,7.46791853300005,0
                100.179459749,7.46789702700005,0
                100.1794989,7.46788295400006,0
                100.179563275,7.46788278200006,0
                100.17966126,7.46788810500004,0
                100.179750784,7.46787110300005,0
                100.179831772,7.46780104500004,0
                100.179904341,7.46772262600007,0
                100.180018966,7.46767203100006,0
                100.180100118,7.46766343000007,0
                100.180192585,7.46769950200007,0
                100.180262701,7.46774960500005,0
                100.180332831,7.46780808500006,0
                100.180388846,7.46781910900006,0
                100.180455947,7.46779099400004,0
                100.180483806,7.46774063100003,0
                100.180575605,7.46752806200004,0
                100.180617404,7.46745810300007,0
                100.180684515,7.46743278100007,0
                100.180765708,7.46744094400003,0
                100.180827442,7.46749665700003,0
                100.180936906,7.46760811500008,0
                100.181049117,7.46770000800007,0
                100.181175275,7.46777510100003,0
                100.18125102,7.46783636100002,0
                100.181326805,7.46791438300005,0
                100.181335725,7.46810992500002,0
                100.181336505,7.46840047200004,0
                100.181359703,7.46869934300003,0
                100.181438596,7.46889190300004,0
                100.181553843,7.46907318700005,0
                100.181685823,7.46922928500004,0
                100.18172807,7.46932695400005,0
                100.181717071,7.46939961900006,0
                100.181675288,7.46947516200004,0
                100.181639042,7.46952834300004,0
                100.181555217,7.46958444000006,0
                100.181348236,7.46964086700007,0
                100.181146885,7.46971125300007,0
                100.181110703,7.46978677900006,0
                100.181113734,7.46987337700006,0
                100.181164415,7.46998499200004,0
                100.181167426,7.47006320900005,0
                100.181148085,7.47015824900006,0
                100.181075774,7.47033165600004,0
                100.180959032,7.47063649000006,0
                100.180914464,7.47071762400003,0
                100.180920174,7.47075951900007,0
                100.180934362,7.47083211800003,0
                100.18094859,7.47091868400003,0
                100.180943183,7.47098854300003,0
                100.180915372,7.47105567100004,0
                100.18088471,7.47110324600004,0
                100.180806458,7.47115094800006,0
                100.180689025,7.47119875800007,0
                100.180521275,7.47127184200002,0
                100.180406734,7.47135596400005,0
                100.180401299,7.47141744100003,0
                100.180398728,7.47150125700006,0
                100.18043561,7.47168554600006,0
                100.180494761,7.47182228600008,0
                100.180615355,7.47190856800006,0
                100.18072735,7.47191944100007,0
                100.180850451,7.47189676300007,0
                100.180866367,7.47188648800005,0
                100.180972749,7.47188061500003,0
                100.181096891,7.47189309700008,0
                100.181165615,7.47198688500004,0
                100.181234561,7.47216183100005,0
                100.181239244,7.47231131900003,0
                100.181162657,7.47247810900006,0
                100.18112454,7.47262770900005,0
                100.181146294,7.47276006800007,0
                100.181202297,7.47289660300004,0
                100.18133968,7.47305854700005,0
                100.181532678,7.47321180500006,0
                100.181734199,7.47335222200007,0
                100.181828615,7.47345020900002,0
                100.181923065,7.47356101500003,0
                100.182008868,7.47363767200005,0
                100.182120262,7.47368435700002,0
                100.182496965,7.47371752000004,0
                100.182634015,7.47375559400007,0
                100.182749691,7.47380227200006,0
                100.182788413,7.47387905300008,0
                100.182788678,7.47397729300008,0
                100.182686819,7.47429365500005,0
                100.182678524,7.47439191700005,0
                100.182691664,7.47450294100003,0
                100.182739059,7.47462241300008,0
                100.182957772,7.47478841200007,0
                100.183330677,7.47500098400008,0
                100.183609119,7.47509848000004,0
                100.184162311,7.47517740600006,0
                100.185068448,7.47535684100006,0
                100.18563732,7.47564054200006,0
                100.186214723,7.47619662300002,0
                100.186395836,7.47644108200006,0
                100.187001194,7.47778160200005,0
                100.18722586,7.47821852300007,0
                100.187742864,7.47868897300003,0
                100.187861676,7.47879052600007,0
                100.188162668,7.47904780200003,0
                100.188302777,7.47913356700008,0
                100.188517947,7.47923593400003,0
                100.188775833,7.47924381700005,0
                100.189145231,7.47916560900006,0
                100.189822937,7.47897556800007,0
              </coordinates>
                
            </LinearRing>
            
          </outerBoundaryIs>
        
        </Polygon>
        
      <styleUrl>
        #tambonStyle</styleUrl>
    </Placemark>

  </Document>
</kml>