<?xml version="1.0" encoding="UTF-8"?>
<kml xmlns="http://www.opengis.net/kml/2.2">
  <Document id="tambon_doc">
    <name>หอกลอง, พรหมพิราม, Phitsanulok</name>
    <description>ข้อมูลขอบเขตตำบลหอกลอง อำเภอพรหมพิราม จังหวัดPhitsanulok</description>
    
    <!-- Schema สำหรับข้อมูลตำบล -->
    <Schema id="tambon.schema">
      <SimpleField name="ADM3_EN" type="string">
        <displayName>Subdistrict Name (English)</displayName>
      </SimpleField>
      <SimpleField name="ADM3_TH" type="string">
        <displayName>ชื่อตำบล</displayName>
      </SimpleField>
      <SimpleField name="ADM2_EN" type="string">
        <displayName>District Name (English)</displayName>
      </SimpleField>
      <SimpleField name="ADM2_TH" type="string">
        <displayName>ชื่ออำเภอ</displayName>
      </SimpleField>
      <SimpleField name="ADM1_EN" type="string">
        <displayName>Province Name (English)</displayName>
      </SimpleField>
      <SimpleField name="ADM1_TH" type="string">
        <displayName>ชื่อจังหวัด</displayName>
      </SimpleField>
      <SimpleField name="ADM0_EN" type="string">
        <displayName>Country Name (English)</displayName>
      </SimpleField>
      <SimpleField name="ADM0_TH" type="string">
        <displayName>ชื่อประเทศ</displayName>
      </SimpleField>
    </Schema>

    <!-- Style สำหรับตำบล -->
    <Style id="tambonStyle">
      <LineStyle>
        <color>ffff0000</color>
        <width>1.5</width>
      </LineStyle>
      <PolyStyle>
        <color>33ff0000</color>
        <fill>1</fill>
        <outline>1</outline>
      </PolyStyle>
    </Style>

    <Placemark id="Phitsanulok.62">
        
        <ExtendedData>
            
          <SchemaData schemaUrl="#tambon.schema">
                
            <SimpleData name="Shape_Leng">
                0.302127668924</SimpleData>
                
            <SimpleData name="Shape_Area">
                0.00451583222943</SimpleData>
                
            <SimpleData name="ADM3_EN">
                Ho Klong</SimpleData>
                
            <SimpleData name="ADM3_TH">
                หอกลอง</SimpleData>
                
            <SimpleData name="ADM3_PCODE">
                TH650605</SimpleData>
                
            <SimpleData name="ADM2_EN">
                Phrom Phiram</SimpleData>
                
            <SimpleData name="ADM2_TH">
                พรหมพิราม</SimpleData>
                
            <SimpleData name="ADM2_PCODE">
                TH6506</SimpleData>
                
            <SimpleData name="ADM1_EN">
                Phitsanulok</SimpleData>
                
            <SimpleData name="ADM1_TH">
                พิษณุโลก</SimpleData>
                
            <SimpleData name="ADM1_PCODE">
                TH65</SimpleData>
                
            <SimpleData name="ADM0_EN">
                Thailand</SimpleData>
                
            <SimpleData name="ADM0_TH">
                ประเทศไทย</SimpleData>
                
            <SimpleData name="ADM0_PCODE">
                TH</SimpleData>
            
          </SchemaData>
        
        </ExtendedData>
        
        <Polygon>
            
          <outerBoundaryIs>
                
            <LinearRing>
                    
              <coordinates>
                    
                100.280085269,17.0196122080001,0
                100.279528522,17.015422904,0
                100.279248439,17.0137407780001,0
                100.279107768,17.0127295120001,0
                100.278821689,17.010689251,0
                100.278440281,17.008196782,0
                100.27823717,17.006821884,0
                100.278235695,17.00660437,0
                100.279110503,17.0032059230001,0
                100.280080533,17.000896487,0
                100.280622473,16.999038194,0
                100.280559813,16.997414339,0
                100.280206656,16.9961408200001,0
                100.279533883,16.9942651120001,0
                100.278834547,16.9923641680001,0
                100.27796666,16.9907869090001,0
                100.277712312,16.990389658,0
                100.275425243,16.9879397450001,0
                100.272289512,16.9849108010001,0
                100.271904223,16.984404759,0
                100.271707312,16.983915697,0
                100.27168455,16.9838591540001,0
                100.271637307,16.983596904,0
                100.27158771,16.9829846060001,0
                100.271710192,16.980916286,0
                100.27199469,16.978956925,0
                100.27246099,16.977667696,0
                100.273596977,16.9752234860001,0
                100.274639348,16.9732100100001,0
                100.275053138,16.971937192,0
                100.275629148,16.96891656,0
                100.276480732,16.9652981350001,0
                100.277147427,16.962102391,0
                100.277833957,16.9566009390001,0
                100.278443998,16.9531293860001,0
                100.278970456,16.9490105410001,0
                100.279495242,16.9442247980001,0
                100.280439732,16.937950324,0
                100.280676384,16.935941654,0
                100.280776697,16.9350901920001,0
                100.280664228,16.93353612,0
                100.277640562,16.934160725,0
                100.276321356,16.9344884270001,0
                100.274364638,16.93485904,0
                100.272572545,16.9350554660001,0
                100.271599307,16.9352943550001,0
                100.271279985,16.9353834930001,0
                100.269403021,16.9358209230001,0
                100.268607146,16.936006395,0
                100.267217428,16.93643345,0
                100.26676785,16.9365205460001,0
                100.265750523,16.9366173110001,0
                100.265269955,16.9367595140001,0
                100.261737128,16.9384216550001,0
                100.25854467,16.9396895150001,0
                100.257358319,16.940210483,0
                100.256504338,16.9407209770001,0
                100.255242143,16.941680272,0
                100.251875682,16.943275602,0
                100.250351451,16.9443282410001,0
                100.250118338,16.9444568160001,0
                100.250032158,16.944488316,0
                100.249899356,16.9445368670001,0
                100.249772633,16.9445518360001,0
                100.249482453,16.944557032,0
                100.249270725,16.9445034280001,0
                100.249208132,16.944473782,0
                100.248902276,16.944328924,0
                100.247232621,16.943460626,0
                100.246749903,16.9432095880001,0
                100.242869913,16.9446292320001,0
                100.241808937,16.9450131830001,0
                100.240167435,16.945790415,0
                100.239113806,16.9465389120001,0
                100.237906316,16.9477411410001,0
                100.236775905,16.948741651,0
                100.232919408,16.952292626,0
                100.232871936,16.9523282330001,0
                100.23266393,16.952432322,0
                100.232320077,16.9524919510001,0
                100.231729789,16.952509762,0
                100.231727813,16.9526744790001,0
                100.231723132,16.952801655,0
                100.231685573,16.952950227,0
                100.231620273,16.953067171,0
                100.231511085,16.9532055760001,0
                100.231396184,16.953312225,0
                100.231226304,16.953429805,0
                100.230825862,16.953644136,0
                100.229696498,16.9543502610001,0
                100.229532332,16.9544995910001,0
                100.22938454,16.9546276300001,0
                100.229165534,16.954809078,0
                100.228995957,16.9549743330001,0
                100.228870111,16.9550916470001,0
                100.228749911,16.955230111,0
                100.228651862,16.9553896400001,0
                100.228543151,16.9556022090001,0
                100.228456457,16.955814649,0
                100.228380699,16.95601642,0
                100.228353831,16.9561172420001,0
                100.228332812,16.956271009,0
                100.228333879,16.956435239,0
                100.228356963,16.9565993350001,0
                100.228385346,16.956731608,0
                100.228430483,16.956900868,0
                100.228492066,16.957059434,0
                100.228609106,16.957281242,0
                100.228814704,16.9575766840001,0
                100.228970106,16.9577717720001,0
                100.229119796,16.957935106,0
                100.229297078,16.958108865,0
                100.229457608,16.958245645,0
                100.229606955,16.958355999,0
                100.229789402,16.958476752,0
                100.230347393,16.958785962,0
                100.22985475,16.9600604240001,0
                100.229480686,16.960947424,0
                100.229372215,16.961197079,0
                100.229247226,16.961446832,0
                100.229143946,16.961648774,0
                100.229002305,16.9618774350001,0
                100.228598714,16.9624573350001,0
                100.228205857,16.9629947870001,0
                100.227851768,16.9635690860001,0
                100.227742982,16.9637710600001,0
                100.227623464,16.9640154840001,0
                100.226913868,16.9657945430001,0
                100.225846369,16.9684128120001,0
                100.225337299,16.9697085560001,0
                100.225223862,16.970043004,0
                100.225164682,16.970255278,0
                100.224955383,16.9710883010001,0
                100.224807431,16.972042807,0
                100.224749038,16.9723769280001,0
                100.224711741,16.9725678730001,0
                100.224668903,16.972753558,0
                100.224598851,16.9729870830001,0
                100.224528623,16.973194124,0
                100.223710583,16.9752387190001,0
                100.222388443,16.978504849,0
                100.221033776,16.9818559300001,0
                100.219955278,16.984500735,0
                100.219364648,16.985966487,0
                100.217782275,16.989880488,0
                100.216270387,16.9936351270001,0
                100.215045641,16.9966728260001,0
                100.212856093,17.002089717,0
                100.211403604,17.005690337,0
                100.210162123,17.0087175200001,0
                100.209229904,17.0110329340001,0
                100.211423385,17.0123675620001,0
                100.21235171,17.012304214,0
                100.213883834,17.0121938360001,0
                100.215575904,17.0120729870001,0
                100.217404747,17.01194143,0
                100.219462823,17.0118582440001,0
                100.221965703,17.0116814790001,0
                100.225556299,17.011413014,0
                100.22579925,17.011475762,0
                100.225902693,17.011480665,0
                100.225932922,17.0114743770001,0
                100.2261191,17.011416996,0
                100.226298233,17.011381972,0
                100.226327446,17.0113794910001,0
                100.226705075,17.0113701380001,0
                100.226787227,17.0113681,0
                100.226884805,17.0113610330001,0
                100.226997369,17.0113640600001,0
                100.22704534,17.011378511,0
                100.227092132,17.0114021640001,0
                100.227149121,17.0114366760001,0
                100.229847941,17.014013015,0
                100.233367163,17.0169839280001,0
                100.236449809,17.0198687170001,0
                100.236729741,17.0201031020001,0
                100.240022598,17.023249784,0
                100.246906415,17.0297532590001,0
                100.246974382,17.0297829630001,0
                100.258594684,17.036665801,0
                100.260658765,17.024552816,0
                100.260830192,17.0241861060001,0
                100.261021255,17.0238571190001,0
                100.261424931,17.023424995,0
                100.261912823,17.0231998720001,0
                100.262617736,17.023071988,0
                100.263013983,17.023016946,0
                100.271871759,17.0215452750001,0
                100.276230546,17.0205398730001,0
                100.277100231,17.0203392550001,0
                100.280085269,17.0196122080001,0
              </coordinates>
                
            </LinearRing>
            
          </outerBoundaryIs>
        
        </Polygon>
        
      <styleUrl>
        #tambonStyle</styleUrl>
    </Placemark>

  </Document>
</kml>