<?xml version="1.0" encoding="UTF-8"?>
<kml xmlns="http://www.opengis.net/kml/2.2">
  <Document id="tambon_doc">
    <name>ปะหลาน, พยัคฆภูมิพิสัย, Maha Sarakham</name>
    <description>ข้อมูลขอบเขตตำบลปะหลาน อำเภอพยัคฆภูมิพิสัย จังหวัดMaha Sarakham</description>
    
    <!-- Schema สำหรับข้อมูลตำบล -->
    <Schema id="tambon.schema">
      <SimpleField name="ADM3_EN" type="string">
        <displayName>Subdistrict Name (English)</displayName>
      </SimpleField>
      <SimpleField name="ADM3_TH" type="string">
        <displayName>ชื่อตำบล</displayName>
      </SimpleField>
      <SimpleField name="ADM2_EN" type="string">
        <displayName>District Name (English)</displayName>
      </SimpleField>
      <SimpleField name="ADM2_TH" type="string">
        <displayName>ชื่ออำเภอ</displayName>
      </SimpleField>
      <SimpleField name="ADM1_EN" type="string">
        <displayName>Province Name (English)</displayName>
      </SimpleField>
      <SimpleField name="ADM1_TH" type="string">
        <displayName>ชื่อจังหวัด</displayName>
      </SimpleField>
      <SimpleField name="ADM0_EN" type="string">
        <displayName>Country Name (English)</displayName>
      </SimpleField>
      <SimpleField name="ADM0_TH" type="string">
        <displayName>ชื่อประเทศ</displayName>
      </SimpleField>
    </Schema>

    <!-- Style สำหรับตำบล -->
    <Style id="tambonStyle">
      <LineStyle>
        <color>ffff0000</color>
        <width>1.5</width>
      </LineStyle>
      <PolyStyle>
        <color>33ff0000</color>
        <fill>1</fill>
        <outline>1</outline>
      </PolyStyle>
    </Style>

    <Placemark id="Maha_Sarakham.80">
        
        <ExtendedData>
            
          <SchemaData schemaUrl="#tambon.schema">
                
            <SimpleData name="Shape_Leng">
                0.382639501065</SimpleData>
                
            <SimpleData name="Shape_Area">
                0.00392479602947</SimpleData>
                
            <SimpleData name="ADM3_EN">
                Palan</SimpleData>
                
            <SimpleData name="ADM3_TH">
                ปะหลาน</SimpleData>
                
            <SimpleData name="ADM3_PCODE">
                TH440801</SimpleData>
                
            <SimpleData name="ADM2_EN">
                Phayakkhaphum Phisai</SimpleData>
                
            <SimpleData name="ADM2_TH">
                พยัคฆภูมิพิสัย</SimpleData>
                
            <SimpleData name="ADM2_PCODE">
                TH4408</SimpleData>
                
            <SimpleData name="ADM1_EN">
                Maha Sarakham</SimpleData>
                
            <SimpleData name="ADM1_TH">
                มหาสารคาม</SimpleData>
                
            <SimpleData name="ADM1_PCODE">
                TH44</SimpleData>
                
            <SimpleData name="ADM0_EN">
                Thailand</SimpleData>
                
            <SimpleData name="ADM0_TH">
                ประเทศไทย</SimpleData>
                
            <SimpleData name="ADM0_PCODE">
                TH</SimpleData>
            
          </SchemaData>
        
        </ExtendedData>
        
        <Polygon>
            
          <outerBoundaryIs>
                
            <LinearRing>
                    
              <coordinates>
                    
                103.182388794,15.536562206,0
                103.182932535,15.535796992,0
                103.183510967,15.534975683,0
                103.183892239,15.534409704,0
                103.184346486,15.5338130660001,0
                103.18471876,15.53330845,0
                103.184856344,15.5331215580001,0
                103.184869039,15.5331043150001,0
                103.184958419,15.5329829,0
                103.185378478,15.532410101,0
                103.185725254,15.5319677310001,0
                103.18575476,15.531930091,0
                103.186067312,15.53148642,0
                103.186679938,15.5306544480001,0
                103.187292335,15.529821568,0
                103.187651771,15.5293332850001,0
                103.188061728,15.528780182,0
                103.188905717,15.5276449880001,0
                103.189205653,15.527227317,0
                103.189334324,15.527015056,0
                103.189422727,15.526828304,0
                103.189518268,15.5265899290001,0
                103.189585344,15.5262311540001,0
                103.189659625,15.525777932,0
                103.189753196,15.525280686,0
                103.189875725,15.5247039770001,0
                103.190261791,15.5244373040001,0
                103.190633916,15.5241978080001,0
                103.19098007,15.523947994,0
                103.191420336,15.523663578,0
                103.191732536,15.5234282650001,0
                103.191750775,15.5234124140001,0
                103.191803162,15.523361004,0
                103.192014108,15.523107554,0
                103.192198664,15.522861467,0
                103.192276267,15.5227359950001,0
                103.1923207,15.522652887,0
                103.192389486,15.522494158,0
                103.192427197,15.522352981,0
                103.192458971,15.52220899,0
                103.192465009,15.522162886,0
                103.192467453,15.5221077190001,0
                103.192456819,15.5219439260001,0
                103.192416846,15.5217465310001,0
                103.192360929,15.521584374,0
                103.19234389,15.521550625,0
                103.192336252,15.521529495,0
                103.192327013,15.521489122,0
                103.192327427,15.5214415460001,0
                103.192336522,15.521366626,0
                103.192644082,15.5215278910001,0
                103.193012919,15.5216811010001,0
                103.193998015,15.5220902940001,0
                103.194198544,15.522184048,0
                103.194252191,15.5222193600001,0
                103.194325497,15.5222860860001,0
                103.194415566,15.5223860130001,0
                103.194488919,15.522447229,0
                103.194514806,15.5224642700001,0
                103.194561866,15.522511062,0
                103.194644147,15.5225160200001,0
                103.194966153,15.5225354200001,0
                103.19502806,15.522526613,0
                103.19684049,15.522268759,0
                103.196897582,15.5222606360001,0
                103.196992118,15.522247195,0
                103.198162521,15.5220807760001,0
                103.199322192,15.5218890260001,0
                103.199505161,15.5218179560001,0
                103.199968757,15.5215526430001,0
                103.200132276,15.5214655080001,0
                103.200296064,15.521347292,0
                103.200792173,15.5210142,0
                103.200928441,15.5209411880001,0
                103.201014934,15.52148944,0
                103.201163412,15.5226231930001,0
                103.202850281,15.522453716,0
                103.203173341,15.5224539550001,0
                103.203464239,15.5224658870001,0
                103.203809224,15.522497387,0
                103.204161586,15.522531336,0
                103.20443253,15.5225694060001,0
                103.204604981,15.5225899380001,0
                103.204779981,15.5226009260001,0
                103.204962482,15.522600018,0
                103.205194301,15.5225995110001,0
                103.205438638,15.5225775870001,0
                103.205737142,15.522565667,0
                103.206038298,15.52253225,0
                103.206312432,15.5224866570001,0
                103.206700228,15.5224156850001,0
                103.207322762,15.522291625,0
                103.20733547,15.5223274850001,0
                103.207343456,15.5223554730001,0
                103.207360933,15.522416718,0
                103.207392352,15.5225268200001,0
                103.207420205,15.522633404,0
                103.207432236,15.5226980140001,0
                103.207433295,15.522783458,0
                103.207431769,15.523198118,0
                103.207435618,15.5232355700001,0
                103.207441047,15.52326176,0
                103.207459958,15.523306506,0
                103.207477594,15.523347345,0
                103.207518324,15.523419571,0
                103.20759797,15.523515198,0
                103.207695428,15.523618979,0
                103.207718321,15.523634234,0
                103.207748172,15.523643543,0
                103.20776644,15.523649242,0
                103.207804178,15.523649548,0
                103.207859006,15.523644403,0
                103.208059894,15.523601694,0
                103.208047501,15.523504266,0
                103.208047725,15.523478213,0
                103.208066063,15.523437213,0
                103.208080568,15.523423382,0
                103.20810588,15.523407895,0
                103.208167133,15.523380027,0
                103.208316224,15.5233176940001,0
                103.208412706,15.523276116,0
                103.208534079,15.523194075,0
                103.208535397,15.523195534,0
                103.208579285,15.5232441090001,0
                103.208580503,15.523246521,0
                103.208653142,15.523342594,0
                103.208665121,15.523359419,0
                103.20869934,15.523407481,0
                103.208731332,15.523451331,0
                103.20877227,15.5235004840001,0
                103.208834563,15.5235569880001,0
                103.208914909,15.523639224,0
                103.208976822,15.5237254900001,0
                103.209042964,15.5237906990001,0
                103.209231335,15.524104574,0
                103.209498406,15.5245473000001,0
                103.209640716,15.5247644990001,0
                103.209431062,15.5249341790001,0
                103.209033338,15.5251923980001,0
                103.20893408,15.525263324,0
                103.208994429,15.52541445,0
                103.209085865,15.5256782060001,0
                103.209263624,15.5262271980001,0
                103.209460635,15.5268313400001,0
                103.209496883,15.5269177110001,0
                103.209564239,15.527114323,0
                103.209605108,15.5272365970001,0
                103.20961321,15.5272646,0
                103.209676702,15.527484046,0
                103.209628918,15.5274993460001,0
                103.209497883,15.5275393910001,0
                103.209533632,15.5275578050001,0
                103.209933202,15.527763613,0
                103.211235633,15.5279352910001,0
                103.211793142,15.528233143,0
                103.212598195,15.5287896630001,0
                103.213240859,15.5288681980001,0
                103.215152531,15.5289892280001,0
                103.216152538,15.529092948,0
                103.216060432,15.5289565480001,0
                103.215870457,15.528715619,0
                103.215802616,15.5286118880001,0
                103.21576649,15.5285708910001,0
                103.215674812,15.528495923,0
                103.215582675,15.528393432,0
                103.215562047,15.528366298,0
                103.215514762,15.528284495,0
                103.215485135,15.5282204170001,0
                103.215452878,15.528143018,0
                103.215430065,15.5280721840001,0
                103.215428711,15.528067827,0
                103.215416465,15.5280138100001,0
                103.215405724,15.5279605760001,0
                103.215392207,15.527860576,0
                103.215386878,15.527780847,0
                103.215386813,15.5277701470001,0
                103.215386927,15.5277568760001,0
                103.215389666,15.527731089,0
                103.215413401,15.527629334,0
                103.215436172,15.52753376,0
                103.21545341,15.5274434630001,0
                103.215471242,15.5272840120001,0
                103.215477827,15.527156389,0
                103.215480778,15.527124412,0
                103.215482157,15.52712504,0
                103.215481442,15.5271172120001,0
                103.215447948,15.5267506180001,0
                103.215450174,15.5265451930001,0
                103.215450558,15.52650985,0
                103.215446394,15.526391646,0
                103.21545708,15.526240118,0
                103.215631837,15.526243919,0
                103.215828748,15.5262478970001,0
                103.216355129,15.526299889,0
                103.216581457,15.5263184250001,0
                103.216596526,15.526320136,0
                103.21674907,15.526330936,0
                103.216756982,15.526331498,0
                103.216762284,15.5263308560001,0
                103.216816594,15.526324281,0
                103.216845934,15.526317098,0
                103.216854554,15.5263134950001,0
                103.216885301,15.5263006390001,0
                103.216891836,15.526297906,0
                103.216938078,15.5262685550001,0
                103.217051017,15.526208362,0
                103.217124539,15.526175928,0
                103.217244134,15.526133955,0
                103.217338095,15.5261016860001,0
                103.217375723,15.526079216,0
                103.217376794,15.526078577,0
                103.217477803,15.5260034450001,0
                103.217627759,15.5258975670001,0
                103.217611602,15.5257913200001,0
                103.217592201,15.52563352,0
                103.21759133,15.5256224130001,0
                103.217587774,15.525565498,0
                103.217585169,15.5255154590001,0
                103.217585186,15.5255134970001,0
                103.217585952,15.525424253,0
                103.217586146,15.5254016960001,0
                103.21759037,15.5253778000001,0
                103.217597395,15.525347857,0
                103.217604197,15.5253286060001,0
                103.21763434,15.525262409,0
                103.217726692,15.525115171,0
                103.217784273,15.525003456,0
                103.217791687,15.52499084,0
                103.217855347,15.524893628,0
                103.217891456,15.5248491780001,0
                103.21794282,15.5248495930001,0
                103.217959645,15.524847692,0
                103.21802943,15.5248359710001,0
                103.218401731,15.524769758,0
                103.218569244,15.52475679,0
                103.219081001,15.524734584,0
                103.219112309,15.5247323770001,0
                103.219127523,15.524727596,0
                103.219132892,15.5247252820001,0
                103.219136992,15.5247235150001,0
                103.219139137,15.524722356,0
                103.219144812,15.5247169470001,0
                103.219152971,15.524709166,0
                103.219157973,15.524707135,0
                103.219744326,15.524695158,0
                103.219785431,15.524689337,0
                103.219820429,15.5246881190001,0
                103.220002774,15.524680753,0
                103.220015515,15.524678506,0
                103.220033062,15.524670513,0
                103.22003544,15.524669187,0
                103.22004036,15.524665279,0
                103.22005622,15.5246549820001,0
                103.220072058,15.524648757,0
                103.220162308,15.524635979,0
                103.220202453,15.524636303,0
                103.220256293,15.5246291070001,0
                103.220303502,15.5246227960001,0
                103.220567121,15.5245986670001,0
                103.220887257,15.524586927,0
                103.220887482,15.5244211730001,0
                103.220888343,15.524407931,0
                103.220901818,15.5242763590001,0
                103.220904163,15.5242497090001,0
                103.220919115,15.5241290590001,0
                103.220922097,15.5241038070001,0
                103.220926751,15.524064389,0
                103.220931549,15.524024583,0
                103.220937412,15.523886292,0
                103.220937023,15.523859137,0
                103.220925958,15.523757817,0
                103.220908029,15.523643758,0
                103.220906392,15.5236315880001,0
                103.220905314,15.5236150210001,0
                103.220910998,15.523589336,0
                103.220928743,15.5235377880001,0
                103.222443514,15.524124086,0
                103.222418176,15.523992746,0
                103.222371988,15.5238925960001,0
                103.222145784,15.523525873,0
                103.221888117,15.523056265,0
                103.221729391,15.5227071890001,0
                103.221805981,15.5226907000001,0
                103.22192993,15.5226375350001,0
                103.222059785,15.5225815640001,0
                103.22215736,15.5224988850001,0
                103.222259265,15.5224017100001,0
                103.22231655,15.522419219,0
                103.222446939,15.522456135,0
                103.222542947,15.5224760360001,0
                103.222634066,15.522491115,0
                103.22275714,15.522518409,0
                103.222838332,15.522540582,0
                103.222924538,15.5225532310001,0
                103.223020795,15.522544442,0
                103.223099705,15.5225450770001,0
                103.223168589,15.5225647610001,0
                103.223232396,15.5226011400001,0
                103.22327177,15.5226110200001,0
                103.223321089,15.5226114170001,0
                103.223392726,15.522597648,0
                103.223476897,15.5225600680001,0
                103.223595816,15.5224964670001,0
                103.223652657,15.5224825780001,0
                103.223689646,15.522482876,0
                103.223812699,15.5225125590001,0
                103.224181962,15.522589652,0
                103.224292829,15.5226024990001,0
                103.22440394,15.522586656,0
                103.224475596,15.522570494,0
                103.224581592,15.5225761300001,0
                103.22468013,15.522588877,0
                103.224768598,15.522625454,0
                103.224834913,15.522657071,0
                103.224883967,15.5226885500001,0
                103.224962387,15.522746566,0
                103.225069951,15.522857419,0
                103.225140727,15.522944067,0
                103.225187212,15.52298748,0
                103.225248577,15.5230214470001,0
                103.225297793,15.523033798,0
                103.225337024,15.523060416,0
                103.22536633,15.523094126,0
                103.225466126,15.523247956,0
                103.225534356,15.523344147,0
                103.225578315,15.5233947130001,0
                103.225602013,15.5234180750001,0
                103.226290674,15.5232017600001,0
                103.226876702,15.5230176810001,0
                103.227015218,15.522977923,0
                103.227253165,15.5229151340001,0
                103.227501887,15.5228615780001,0
                103.227671613,15.522881092,0
                103.227797931,15.522891186,0
                103.227985262,15.5228836100001,0
                103.228200643,15.522880801,0
                103.228514719,15.5228333910001,0
                103.228697757,15.522780391,0
                103.228890467,15.522691154,0
                103.229011636,15.522653072,0
                103.229990413,15.5225182790001,0
                103.230833408,15.5223791650001,0
                103.230836504,15.522378654,0
                103.230895745,15.5223688790001,0
                103.230684574,15.5219140990001,0
                103.230531467,15.521584364,0
                103.230988185,15.5215672740001,0
                103.231019117,15.5210362870001,0
                103.23108506,15.5209852780001,0
                103.231101125,15.5209832080001,0
                103.232637721,15.5208951970001,0
                103.232632134,15.5206233820001,0
                103.232617635,15.520199479,0
                103.232569415,15.519779971,0
                103.232575213,15.519776021,0
                103.232595408,15.5196419000001,0
                103.232530917,15.518703096,0
                103.232517,15.5180148420001,0
                103.232521542,15.5177990450001,0
                103.232521763,15.517788502,0
                103.231991878,15.517737203,0
                103.231190184,15.517592904,0
                103.230774978,15.5175419620001,0
                103.229949537,15.5173709050001,0
                103.22963651,15.5172976490001,0
                103.229432172,15.517249841,0
                103.228768152,15.5170662940001,0
                103.228706906,15.51704707,0
                103.228678094,15.51703761,0
                103.227968064,15.516789768,0
                103.227526304,15.5166260120001,0
                103.227486856,15.5166106790001,0
                103.227225976,15.5165032520001,0
                103.226701248,15.51627904,0
                103.226693719,15.516275824,0
                103.22668874,15.516273416,0
                103.226046194,15.515962792,0
                103.225407631,15.5156303740001,0
                103.225137466,15.515478156,0
                103.22498802,15.5153849480001,0
                103.223382817,15.514383799,0
                103.220957398,15.5128616260001,0
                103.219469186,15.512055079,0
                103.218624571,15.5116774630001,0
                103.218357957,15.511574152,0
                103.218114265,15.511479723,0
                103.21730246,15.511193081,0
                103.216667157,15.510990534,0
                103.215719969,15.510736315,0
                103.215023263,15.5105875680001,0
                103.214703729,15.510536314,0
                103.214806181,15.510394911,0
                103.214835301,15.510354966,0
                103.214851911,15.5103352740001,0
                103.21495912,15.510221218,0
                103.214981641,15.510203242,0
                103.215034981,15.5101579130001,0
                103.215090708,15.510102558,0
                103.215116589,15.510078467,0
                103.215146129,15.510053677,0
                103.215279062,15.50992516,0
                103.215393603,15.5098159360001,0
                103.215540998,15.5096753820001,0
                103.215553908,15.509660793,0
                103.215556464,15.5096583600001,0
                103.215557623,15.5096565960001,0
                103.215572381,15.50963992,0
                103.215595717,15.5096032770001,0
                103.215637877,15.509519912,0
                103.215668998,15.5094591390001,0
                103.215756907,15.509290348,0
                103.215228821,15.508613955,0
                103.215652705,15.508081411,0
                103.215875951,15.5074742410001,0
                103.215831994,15.506561241,0
                103.215854182,15.506268499,0
                103.215848965,15.5061981100001,0
                103.215839582,15.506071504,0
                103.215787773,15.5057954210001,0
                103.215743874,15.505537835,0
                103.215675588,15.505238489,0
                103.215535593,15.5048146930001,0
                103.215398121,15.504401396,0
                103.21522256,15.5039487610001,0
                103.215148193,15.5037670040001,0
                103.215046958,15.503563978,0
                103.214977301,15.5034689080001,0
                103.214923769,15.5033487600001,0
                103.214798751,15.5030694650001,0
                103.214734846,15.5029257630001,0
                103.214668534,15.502894285,0
                103.21158594,15.501711341,0
                103.21013936,15.5013385670001,0
                103.2080865,15.5008297480001,0
                103.204843793,15.499990704,0
                103.204718849,15.4999781400001,0
                103.20470781,15.4999773590001,0
                103.202974481,15.499957072,0
                103.201484553,15.500063749,0
                103.20233404,15.498637193,0
                103.201924968,15.498607565,0
                103.200966571,15.49851369,0
                103.199961141,15.4984409470001,0
                103.199478172,15.4983738930001,0
                103.198980779,15.498266686,0
                103.198609962,15.498145406,0
                103.19895743,15.49674709,0
                103.196268248,15.4964325230001,0
                103.195816433,15.495695542,0
                103.195358821,15.495861571,0
                103.194158737,15.4963419330001,0
                103.193979729,15.4959435600001,0
                103.193887094,15.495820861,0
                103.193789509,15.495700512,0
                103.193471243,15.4954372890001,0
                103.193270289,15.495294577,0
                103.193008422,15.495067679,0
                103.192920492,15.49497132,0
                103.192769599,15.4947429380001,0
                103.192671889,15.494636933,0
                103.192628655,15.494549337,0
                103.192641876,15.4944466310001,0
                103.192769978,15.4938929580001,0
                103.19283096,15.4936854370001,0
                103.192836202,15.493649615,0
                103.192816603,15.493635109,0
                103.192787161,15.4936181300001,0
                103.192383407,15.4935454910001,0
                103.192033648,15.493501983,0
                103.191464637,15.4934351630001,0
                103.190634318,15.493361421,0
                103.190575248,15.493348983,0
                103.190545807,15.4933320050001,0
                103.190477207,15.4932812320001,0
                103.190440391,15.4932618030001,0
                103.190393669,15.4932470750001,0
                103.190122787,15.4932066000001,0
                103.189817368,15.493168235,0
                103.189699082,15.493160093,0
                103.189536249,15.4931707150001,0
                103.18931907,15.493192848,0
                103.189168586,15.49320118,0
                103.189097127,15.4931958110001,0
                103.18904794,15.4931810620001,0
                103.189016075,15.4931592830001,0
                103.188999003,15.4931376230001,0
                103.188982015,15.493106401,0
                103.188977521,15.4930561530001,0
                103.188968971,15.492905448,0
                103.188970491,15.492730915,0
                103.188961899,15.492584992,0
                103.188962774,15.492484577,0
                103.188947077,15.4923051220001,0
                103.188901971,15.4918217640001,0
                103.188889787,15.4917367200001,0
                103.188874351,15.4916773790001,0
                103.188863807,15.4916368510001,0
                103.188854451,15.491615747,0
                103.188815752,15.491529353,0
                103.188757598,15.4914117160001,0
                103.188709058,15.4913228510001,0
                103.18867502,15.4912675780001,0
                103.188645683,15.4912386450001,0
                103.188619038,15.4912246860001,0
                103.188577963,15.4912155210001,0
                103.188544803,15.4912139080001,0
                103.188428901,15.4912153510001,0
                103.188344989,15.491224228,0
                103.188223823,15.4912638810001,0
                103.188169538,15.4912682190001,0
                103.188122651,15.491272618,0
                103.188073424,15.4912626500001,0
                103.187994734,15.491238095,0
                103.187879249,15.4911917200001,0
                103.186719468,15.4907279180001,0
                103.186304105,15.490573877,0
                103.186382699,15.490043714,0
                103.186546113,15.488835196,0
                103.186601808,15.4883861390001,0
                103.186589709,15.488359739,0
                103.186578167,15.488349779,0
                103.186547984,15.488341528,0
                103.186523306,15.488340067,0
                103.186449237,15.488351414,0
                103.186370216,15.4883651120001,0
                103.186273955,15.488376278,0
                103.186157888,15.4883968460001,0
                103.18602448,15.4884268340001,0
                103.185871304,15.4884614440001,0
                103.185752647,15.488496336,0
                103.185658665,15.4885290400001,0
                103.185560039,15.4885821020001,0
                103.185476697,15.4886329490001,0
                103.185363493,15.4886959180001,0
                103.185299772,15.488728204,0
                103.185230644,15.4887683960001,0
                103.185117394,15.4888221470001,0
                103.185012336,15.488860345,0
                103.184903668,15.488883521,0
                103.183027261,15.489283711,0
                103.182317862,15.4894544270001,0
                103.184804212,15.4835070140001,0
                103.187000613,15.4782528120001,0
                103.187518302,15.4773623680001,0
                103.188157481,15.4762945000001,0
                103.188710644,15.475329109,0
                103.18884844,15.4750569180001,0
                103.189026323,15.4749804410001,0
                103.189129021,15.4749567850001,0
                103.189729424,15.4748269340001,0
                103.190022023,15.474775446,0
                103.190420398,15.4746823880001,0
                103.190931497,15.4746865660001,0
                103.191286768,15.474655136,0
                103.19152882,15.4745745320001,0
                103.191891817,15.47446754,0
                103.192284257,15.4742437830001,0
                103.192773593,15.4739843150001,0
                103.193070733,15.4738282970001,0
                103.193715012,15.4734900060001,0
                103.19501287,15.472819886,0
                103.195946436,15.4724148600001,0
                103.196243676,15.472291758,0
                103.196261375,15.4722844290001,0
                103.196297615,15.4722638960001,0
                103.196641939,15.472068813,0
                103.196668079,15.472054003,0
                103.19669438,15.4720363390001,0
                103.197153603,15.471727904,0
                103.197212398,15.471687687,0
                103.197347887,15.4716058990001,0
                103.197504856,15.4715218380001,0
                103.197624983,15.4714731550001,0
                103.197822159,15.471383415,0
                103.198027174,15.4712934680001,0
                103.198130775,15.4712464240001,0
                103.198180589,15.471224466,0
                103.19825596,15.4711912440001,0
                103.198333799,15.4711377570001,0
                103.198360049,15.471113969,0
                103.198391027,15.471085895,0
                103.198422629,15.4710572540001,0
                103.198471223,15.47099654,0
                103.198526952,15.470926913,0
                103.198705498,15.4707254360001,0
                103.198909568,15.4704959760001,0
                103.199066938,15.470317457,0
                103.199153527,15.470220672,0
                103.199210117,15.4701453280001,0
                103.199278144,15.4700357420001,0
                103.199387544,15.4698867390001,0
                103.199453838,15.4698024630001,0
                103.199474481,15.4697762230001,0
                103.199495753,15.469740696,0
                103.199521804,15.4696971880001,0
                103.199555926,15.4696252750001,0
                103.199590009,15.469546022,0
                103.199590493,15.469544474,0
                103.199605599,15.4694878930001,0
                103.199624837,15.4694046550001,0
                103.199633256,15.469301812,0
                103.199619116,15.4692042090001,0
                103.199601351,15.4691082910001,0
                103.199590484,15.4690301140001,0
                103.19958592,15.468964065,0
                103.19959085,15.468917966,0
                103.199591316,15.468914178,0
                103.199599155,15.4689001030001,0
                103.199669519,15.4688401400001,0
                103.199874803,15.4687187490001,0
                103.199944183,15.468679702,0
                103.200015175,15.468639749,0
                103.200164599,15.4685715740001,0
                103.200238151,15.4685431940001,0
                103.200264128,15.4685331700001,0
                103.200288028,15.468532506,0
                103.200316035,15.4685317300001,0
                103.200322077,15.4685315620001,0
                103.20033326,15.4685381940001,0
                103.200360013,15.46855406,0
                103.200366874,15.468558128,0
                103.200374478,15.468570775,0
                103.200407551,15.4686257710001,0
                103.200505016,15.468808622,0
                103.200596293,15.468966794,0
                103.200611985,15.4689939890001,0
                103.200638183,15.469023437,0
                103.200651252,15.4690381290001,0
                103.200700735,15.469073677,0
                103.200739933,15.469092269,0
                103.200757133,15.469100428,0
                103.200790084,15.4691026310001,0
                103.200809429,15.4691039250001,0
                103.200827354,15.4691035450001,0
                103.200852543,15.46910301,0
                103.200882605,15.4690866230001,0
                103.200901727,15.469076199,0
                103.200903496,15.4690752340001,0
                103.200907535,15.4690698000001,0
                103.200930906,15.4690383450001,0
                103.200940734,15.46902512,0
                103.200953829,15.46898185,0
                103.200970791,15.468925798,0
                103.200991703,15.4688599140001,0
                103.201026653,15.4687690820001,0
                103.201043377,15.468739681,0
                103.201074001,15.468696876,0
                103.20113534,15.468627709,0
                103.201241245,15.4685359590001,0
                103.201308654,15.4684889640001,0
                103.201375946,15.468456326,0
                103.201460859,15.4684276040001,0
                103.201561549,15.4683883060001,0
                103.20169427,15.4683322810001,0
                103.201791486,15.4682680180001,0
                103.201846554,15.4682262700001,0
                103.201892514,15.4681957780001,0
                103.201909383,15.4681845860001,0
                103.201914581,15.468178413,0
                103.201931975,15.468157755,0
                103.201950154,15.468116792,0
                103.201952676,15.468101204,0
                103.201956081,15.4680801580001,0
                103.201944987,15.4680565580001,0
                103.201934123,15.468033448,0
                103.201915552,15.468008991,0
                103.201907685,15.467998629,0
                103.201901626,15.4679952560001,0
                103.201847733,15.467965253,0
                103.201764904,15.46792049,0
                103.201689387,15.46788593,0
                103.201620578,15.467850233,0
                103.201592727,15.467829825,0
                103.201570648,15.4678121310001,0
                103.201545748,15.4677840640001,0
                103.201535729,15.467765754,0
                103.201523643,15.467737857,0
                103.20151923,15.467727672,0
                103.201518745,15.4677190410001,0
                103.201516832,15.4676850070001,0
                103.201517327,15.467627744,0
                103.201517542,15.467625981,0
                103.201525637,15.467589171,0
                103.201538376,15.4675581330001,0
                103.201564247,15.467506239,0
                103.20162851,15.467408569,0
                103.201690228,15.467323111,0
                103.201773136,15.467189521,0
                103.201774821,15.46718551,0
                103.201851506,15.4670030390001,0
                103.201899747,15.4668619400001,0
                103.201946911,15.466760391,0
                103.201990937,15.466693557,0
                103.202160526,15.466515481,0
                103.202315297,15.466370458,0
                103.202405352,15.4662933110001,0
                103.202557587,15.4661628980001,0
                103.202737263,15.465998923,0
                103.203111847,15.465677509,0
                103.203538818,15.4653222750001,0
                103.203580498,15.465296401,0
                103.203660796,15.4652465570001,0
                103.203869667,15.4651450690001,0
                103.204192932,15.464991743,0
                103.204389214,15.4648977420001,0
                103.204439681,15.4648816170001,0
                103.20445667,15.4648805790001,0
                103.204486846,15.464900793,0
                103.204533612,15.46497535,0
                103.204874119,15.4656477080001,0
                103.205268778,15.4664204330001,0
                103.2053265,15.466516493,0
                103.20534608,15.4665447520001,0
                103.205369467,15.4665592160001,0
                103.205384758,15.4665593400001,0
                103.205514154,15.466487565,0
                103.205691564,15.466381304,0
                103.20584502,15.466290659,0
                103.205907677,15.4662508690001,0
                103.205962942,15.4662039730001,0
                103.206111573,15.4660222140001,0
                103.206252677,15.465822233,0
                103.206500559,15.4655178570001,0
                103.206536586,15.465465293,0
                103.206544068,15.465426323,0
                103.206502043,15.465345568,0
                103.206331684,15.4650079900001,0
                103.20625134,15.4648352190001,0
                103.20621935,15.4647489440001,0
                103.206203652,15.4646891850001,0
                103.206212987,15.4646670340001,0
                103.206230293,15.46465606,0
                103.206543136,15.4645707720001,0
                103.207184114,15.464381885,0
                103.207286166,15.4643511830001,0
                103.207626298,15.4642488530001,0
                103.207754069,15.464214016,0
                103.207855266,15.464169026,0
                103.208043471,15.4640490250001,0
                103.208440405,15.4637631100001,0
                103.208592962,15.46364255,0
                103.208635218,15.463616147,0
                103.208794307,15.463549127,0
                103.209235184,15.463371266,0
                103.209552572,15.463239478,0
                103.209924211,15.4630803000001,0
                103.210509807,15.4628441520001,0
                103.210876952,15.462680328,0
                103.211189104,15.462558524,0
                103.211346286,15.462498715,0
                103.211379138,15.4624757600001,0
                103.211390409,15.462433747,0
                103.211433821,15.4619506230001,0
                103.211453972,15.4618854610001,0
                103.211493571,15.461837353,0
                103.212045897,15.4611976,0
                103.212129447,15.460971274,0
                103.212166905,15.460869799,0
                103.212169005,15.4608641090001,0
                103.211907112,15.46086976,0
                103.211772772,15.460872658,0
                103.211471764,15.4608508920001,0
                103.21085362,15.4608338850001,0
                103.21050007,15.460819916,0
                103.210086955,15.460798959,0
                103.20964413,15.460766017,0
                103.209417499,15.460753343,0
                103.209255183,15.460749321,0
                103.20909862,15.460737212,0
                103.208785481,15.4606967330001,0
                103.208336507,15.460639336,0
                103.208310167,15.4606359680001,0
                103.20762937,15.4605514030001,0
                103.207296393,15.460512658,0
                103.206941989,15.460464163,0
                103.206643053,15.4604293780001,0
                103.206308584,15.4603904580001,0
                103.205999119,15.4603518110001,0
                103.205313095,15.460258885,0
                103.204861921,15.4602056260001,0
                103.204620486,15.46018252,0
                103.204421053,15.4601634320001,0
                103.20441327,15.460162687,0
                103.204284235,15.4601483610001,0
                103.204167635,15.460135398,0
                103.20407015,15.4601333420001,0
                103.20398905,15.460138016,0
                103.20384323,15.4601633980001,0
                103.203482036,15.46024305,0
                103.203340237,15.4602831920001,0
                103.20327834,15.4602970340001,0
                103.20322561,15.460308825,0
                103.203070071,15.4603474090001,0
                103.20269127,15.4604284540001,0
                103.202355418,15.460509576,0
                103.201936556,15.4606208320001,0
                103.201450059,15.4607609940001,0
                103.201017691,15.4608878610001,0
                103.200536615,15.4610319500001,0
                103.200218077,15.4611233470001,0
                103.199844849,15.4612304340001,0
                103.199510043,15.461334698,0
                103.199189991,15.461434366,0
                103.198784743,15.461552415,0
                103.19849423,15.4616325440001,0
                103.198028197,15.461778195,0
                103.197759655,15.4618585000001,0
                103.197256468,15.4620091780001,0
                103.196676457,15.462167181,0
                103.196424507,15.4622302720001,0
                103.19602623,15.4623326500001,0
                103.195603349,15.4624369050001,0
                103.195343096,15.46249992,0
                103.19497375,15.4625893480001,0
                103.194800697,15.4626362280001,0
                103.194596218,15.462691622,0
                103.194397951,15.4627370540001,0
                103.194169012,15.4627895140001,0
                103.193920088,15.4628578680001,0
                103.193488575,15.4629650300001,0
                103.193086628,15.4630686780001,0
                103.193023606,15.4630849280001,0
                103.19257573,15.4632004470001,0
                103.192191624,15.4632986870001,0
                103.191717881,15.463411282,0
                103.191098907,15.4635693130001,0
                103.190595877,15.463691968,0
                103.190261135,15.4637772350001,0
                103.19002273,15.46383188,0
                103.189794506,15.463884192,0
                103.189453682,15.463961909,0
                103.189091162,15.4640603190001,0
                103.188556803,15.464198163,0
                103.188186087,15.4642937040001,0
                103.187944379,15.464351634,0
                103.187885341,15.4643657840001,0
                103.187125286,15.464556596,0
                103.187118923,15.4645581940001,0
                103.186936499,15.4646014300001,0
                103.186414735,15.4647250900001,0
                103.186014584,15.4648211090001,0
                103.185461637,15.4649626200001,0
                103.185391981,15.4649804470001,0
                103.185102016,15.4650483610001,0
                103.184843332,15.465108948,0
                103.184397377,15.4652177450001,0
                103.184014203,15.4653112240001,0
                103.183936947,15.465329631,0
                103.183182727,15.4655093210001,0
                103.182393813,15.465708034,0
                103.181675954,15.465890975,0
                103.180952137,15.4660696170001,0
                103.180317099,15.466226851,0
                103.179977276,15.466312332,0
                103.179666375,15.4663939230001,0
                103.179660139,15.466395559,0
                103.179468675,15.46644149,0
                103.179373555,15.4664643090001,0
                103.178943982,15.4665766970001,0
                103.177992231,15.4668033290001,0
                103.177468624,15.466942014,0
                103.177436419,15.466950544,0
                103.177386705,15.466962999,0
                103.176732172,15.4671269840001,0
                103.176686084,15.467138531,0
                103.176635007,15.467150756,0
                103.176618703,15.467154658,0
                103.17599711,15.46730344,0
                103.175394392,15.467457387,0
                103.175231571,15.4674989750001,0
                103.175125485,15.467526068,0
                103.174758351,15.467619827,0
                103.174303465,15.4677359950001,0
                103.173814951,15.4678574640001,0
                103.173331246,15.4679824950001,0
                103.172346426,15.468224359,0
                103.172273776,15.4682422000001,0
                103.172096764,15.4682869330001,0
                103.171079318,15.4685440480001,0
                103.170970721,15.4685711820001,0
                103.17078349,15.4686179620001,0
                103.170224175,15.468757709,0
                103.16967467,15.4688942940001,0
                103.169278678,15.4689966400001,0
                103.168816075,15.4691211570001,0
                103.168582736,15.469183964,0
                103.167693273,15.4694026610001,0
                103.167539811,15.4694406360001,0
                103.167258354,15.469510283,0
                103.166614212,15.4696698390001,0
                103.166438182,15.469716394,0
                103.166113685,15.469802214,0
                103.165529514,15.4699484390001,0
                103.164843734,15.470115777,0
                103.164318294,15.470249837,0
                103.164200379,15.470279383,0
                103.163835924,15.470370702,0
                103.16325773,15.4705185070001,0
                103.162851606,15.470624448,0
                103.162802887,15.470637158,0
                103.162054634,15.47083035,0
                103.161678771,15.470923543,0
                103.161054986,15.4710915640001,0
                103.160620919,15.4712063160001,0
                103.159911978,15.471393774,0
                103.159353332,15.471537665,0
                103.158596164,15.4717306800001,0
                103.157929495,15.4719078210001,0
                103.157595055,15.471997453,0
                103.157324275,15.4720700230001,0
                103.156684644,15.4722392530001,0
                103.156595269,15.4722616010001,0
                103.156083522,15.472389558,0
                103.155851042,15.4724538890001,0
                103.155576691,15.472529805,0
                103.155171056,15.472635208,0
                103.154840914,15.4727187400001,0
                103.154404696,15.4728415010001,0
                103.154153387,15.4728992190001,0
                103.153803334,15.472992521,0
                103.153449128,15.4730787010001,0
                103.153159585,15.4731491480001,0
                103.152819571,15.4732427020001,0
                103.152747499,15.473262532,0
                103.152350115,15.473364474,0
                103.152080915,15.4734379400001,0
                103.151735694,15.4735320930001,0
                103.151551462,15.473576479,0
                103.151474734,15.4735949650001,0
                103.151111627,15.473695745,0
                103.150853386,15.473763879,0
                103.150513546,15.4738490410001,0
                103.150132429,15.4739531010001,0
                103.149602824,15.4740959430001,0
                103.148894249,15.474275146,0
                103.148319448,15.4744282680001,0
                103.147974638,15.474519077,0
                103.147529373,15.474630274,0
                103.147224347,15.4747143660001,0
                103.146909267,15.4747971100001,0
                103.146585715,15.474882129,0
                103.146051855,15.475019235,0
                103.145523491,15.475160363,0
                103.145071978,15.475282527,0
                103.144742958,15.4753687630001,0
                103.144269523,15.4754936310001,0
                103.143926958,15.4755822830001,0
                103.143554598,15.47567737,0
                103.143565366,15.475726788,0
                103.143573862,15.475743628,0
                103.143575257,15.4757463940001,0
                103.143594662,15.475769029,0
                103.143689742,15.475837879,0
                103.143762001,15.475900515,0
                103.14379682,15.475932739,0
                103.143800378,15.475935427,0
                103.143852232,15.475974584,0
                103.143854075,15.4761210560001,0
                103.143808174,15.4762121530001,0
                103.143759739,15.476308282,0
                103.143766557,15.476446277,0
                103.143770935,15.47653488,0
                103.143790393,15.476924372,0
                103.143793363,15.4769838330001,0
                103.143806328,15.477021764,0
                103.143871991,15.477213889,0
                103.143958769,15.477420097,0
                103.14401458,15.477552718,0
                103.144022116,15.4775800840001,0
                103.144081662,15.4777962800001,0
                103.144117217,15.477925366,0
                103.14417678,15.4781652,0
                103.144186296,15.478181106,0
                103.144233336,15.4782597280001,0
                103.14424203,15.4785428650001,0
                103.144230993,15.4787011390001,0
                103.144217449,15.478895381,0
                103.144193707,15.4792646440001,0
                103.144192559,15.479282499,0
                103.144181745,15.47929652,0
                103.144033585,15.4794886080001,0
                103.143802011,15.4798393890001,0
                103.143784836,15.4798815570001,0
                103.1436925,15.480108252,0
                103.14341046,15.480500079,0
                103.14305506,15.480709851,0
                103.142946657,15.48078801,0
                103.142837531,15.4808651810001,0
                103.142670963,15.4810087340001,0
                103.142578808,15.481098564,0
                103.142526923,15.4811516500001,0
                103.142288373,15.481515326,0
                103.142268835,15.4815487450001,0
                103.142189585,15.48171051,0
                103.142148782,15.481804547,0
                103.142133934,15.4818425610001,0
                103.1420929,15.4819820010001,0
                103.142071645,15.482124163,0
                103.142056233,15.4823939020001,0
                103.142054411,15.482847529,0
                103.14208663,15.483232054,0
                103.142078199,15.48359112,0
                103.142072137,15.483659082,0
                103.142070429,15.4836782410001,0
                103.142059509,15.4837581250001,0
                103.142045599,15.4838600850001,0
                103.142036312,15.483893505,0
                103.142032383,15.4839147170001,0
                103.142007613,15.4840134140001,0
                103.141979965,15.48412545,0
                103.141947661,15.484244577,0
                103.141924767,15.484338833,0
                103.141908704,15.4843842490001,0
                103.141891288,15.484455183,0
                103.141758172,15.484690598,0
                103.141627355,15.4849439220001,0
                103.141548225,15.4851656060001,0
                103.14152255,15.4853644290001,0
                103.141495082,15.485788572,0
                103.141493349,15.485833024,0
                103.141485948,15.4859416670001,0
                103.141481793,15.485995093,0
                103.141475771,15.486052068,0
                103.141466633,15.4861018120001,0
                103.141458089,15.486131593,0
                103.141453915,15.486141603,0
                103.141422639,15.486216627,0
                103.14139861,15.4862554650001,0
                103.141350157,15.486330794,0
                103.141344716,15.486337411,0
                103.141309283,15.4863804980001,0
                103.141307059,15.486376584,0
                103.141296217,15.486357507,0
                103.141255006,15.4862849990001,0
                103.14123403,15.4862563770001,0
                103.141183677,15.48618767,0
                103.14116265,15.486163027,0
                103.14114211,15.486143918,0
                103.141115561,15.4861234420001,0
                103.14109237,15.486113743,0
                103.141062732,15.486116376,0
                103.140995388,15.4861477320001,0
                103.140660878,15.4863034790001,0
                103.140622158,15.4863215070001,0
                103.140554834,15.486355148,0
                103.140492091,15.486384322,0
                103.140458835,15.486404239,0
                103.140387423,15.4864440320001,0
                103.140239568,15.4865171760001,0
                103.140319623,15.486722039,0
                103.14068229,15.487787645,0
                103.140689649,15.487816867,0
                103.14076546,15.4881034700001,0
                103.140800649,15.488282122,0
                103.14081666,15.4883557250001,0
                103.140834513,15.4883926100001,0
                103.140841773,15.488427937,0
                103.140836046,15.488560132,0
                103.140829661,15.4886178140001,0
                103.140796541,15.4887320760001,0
                103.140787973,15.48875257,0
                103.140779519,15.4887659290001,0
                103.140710495,15.488874991,0
                103.14065972,15.4889612580001,0
                103.140606059,15.489031337,0
                103.140778371,15.4892487820001,0
                103.140862326,15.489349406,0
                103.140907413,15.489390927,0
                103.141000722,15.4894622420001,0
                103.141023081,15.4895035710001,0
                103.141033215,15.489556554,0
                103.141041689,15.4896256870001,0
                103.141049395,15.4896875360001,0
                103.141057844,15.489719891,0
                103.141069413,15.4897449380001,0
                103.141078247,15.4897503450001,0
                103.141101061,15.489764306,0
                103.14114308,15.489775471,0
                103.141152457,15.4897779630001,0
                103.141212932,15.489793165,0
                103.141268705,15.4898259600001,0
                103.141309193,15.4898733200001,0
                103.141324761,15.4899030600001,0
                103.141335763,15.4899374240001,0
                103.14133997,15.4899632840001,0
                103.141344506,15.489991166,0
                103.14133937,15.4900572450001,0
                103.141338612,15.4900604910001,0
                103.141334384,15.490078596,0
                103.141323614,15.490124704,0
                103.141278267,15.4902542140001,0
                103.141276568,15.490259069,0
                103.141273855,15.4902668140001,0
                103.141241421,15.4903356030001,0
                103.141228892,15.4903810480001,0
                103.141219195,15.490490837,0
                103.141200268,15.490796835,0
                103.141158093,15.491377487,0
                103.141140032,15.491469269,0
                103.140902688,15.4926753560001,0
                103.140896953,15.4926765590001,0
                103.140896764,15.492678787,0
                103.141047581,15.4926991180001,0
                103.141109137,15.492724482,0
                103.141167583,15.492771051,0
                103.141225815,15.492841651,0
                103.141279432,15.49292983,0
                103.14138403,15.493134718,0
                103.141488236,15.49338342,0
                103.141632187,15.4937592160001,0
                103.141711813,15.4939725680001,0
                103.141788251,15.494284642,0
                103.141878448,15.4945962900001,0
                103.141906557,15.49499352,0
                103.141893984,15.495635072,0
                103.14190247,15.495691611,0
                103.141915982,15.4957445790001,0
                103.141930961,15.495788073,0
                103.141960061,15.4958167780001,0
                103.142007422,15.4958483450001,0
                103.142071519,15.495873279,0
                103.142152504,15.4958915770001,0
                103.142311793,15.495918664,0
                103.14250602,15.4959487570001,0
                103.142636029,15.4959674670001,0
                103.14286931,15.496012794,0
                103.143224593,15.496104501,0
                103.143422853,15.4961563100001,0
                103.143500815,15.496194911,0
                103.143552216,15.4962387100001,0
                103.143599224,15.4963014460001,0
                103.143637771,15.4963735970001,0
                103.143920931,15.496934782,0
                103.144128152,15.497360169,0
                103.144260944,15.497704158,0
                103.144393073,15.4981311710001,0
                103.144944814,15.4999057040001,0
                103.144970602,15.499954765,0
                103.144948097,15.4999731250001,0
                103.144918849,15.49998778,0
                103.14487297,15.4999988610001,0
                103.14485093,15.4999986760001,0
                103.144781038,15.499987995,0
                103.144753865,15.4999839970001,0
                103.144701031,15.499979453,0
                103.144697323,15.4999791330001,0
                103.144641503,15.499983582,0
                103.14460214,15.499990628,0
                103.144572917,15.4999977570001,0
                103.144542417,15.5000061060001,0
                103.14448769,15.5000302330001,0
                103.144458895,15.500044706,0
                103.144412917,15.5000685900001,0
                103.144338543,15.500113393,0
                103.144309516,15.50013026,0
                103.144272326,15.50015504,0
                103.144258961,15.500170455,0
                103.14424907,15.500204017,0
                103.144248872,15.500207361,0
                103.144246084,15.500254392,0
                103.144231992,15.500412851,0
                103.144226154,15.5004988520001,0
                103.144216841,15.5005479450001,0
                103.144201091,15.5006080470001,0
                103.144188062,15.5006472740001,0
                103.144183841,15.500659602,0
                103.144175047,15.500685273,0
                103.14416727,15.5007036590001,0
                103.144156914,15.500728146,0
                103.144138861,15.5007624140001,0
                103.144133394,15.500768405,0
                103.144123094,15.500779691,0
                103.144087657,15.5008185360001,0
                103.143943266,15.501025816,0
                103.143780865,15.50126355,0
                103.143728383,15.5013420120001,0
                103.143567804,15.501526874,0
                103.143358488,15.5017133320001,0
                103.143344878,15.501725456,0
                103.143453178,15.502271271,0
                103.14345398,15.5022987130001,0
                103.143446648,15.5023625740001,0
                103.143424177,15.5024736570001,0
                103.143404701,15.5025552930001,0
                103.143384374,15.502712386,0
                103.143370191,15.5030897020001,0
                103.143361214,15.5031866050001,0
                103.143334664,15.5034353840001,0
                103.14325672,15.5039903960001,0
                103.143192266,15.504548142,0
                103.14309771,15.5045421070001,0
                103.143059869,15.504541788,0
                103.143002968,15.5045570360001,0
                103.142948745,15.5045749280001,0
                103.142891842,15.5045901770001,0
                103.142845845,15.504595033,0
                103.142783631,15.5045997500001,0
                103.142661952,15.5046039700001,0
                103.142401862,15.505576821,0
                103.142286704,15.5060607520001,0
                103.14213725,15.5067353920001,0
                103.142122502,15.5067914680001,0
                103.142087481,15.506924617,0
                103.1420353,15.507139249,0
                103.142066027,15.507154546,0
                103.14241057,15.5073260770001,0
                103.142769442,15.507537083,0
                103.14289565,15.50759802,0
                103.143154791,15.5076947380001,0
                103.143138559,15.5079062080001,0
                103.143128055,15.507977849,0
                103.143102863,15.508037411,0
                103.142752237,15.5086417700001,0
                103.142601815,15.5089178580001,0
                103.142518842,15.5090964840001,0
                103.142505997,15.509129407,0
                103.14248351,15.5091870430001,0
                103.142440607,15.509357718,0
                103.142435157,15.50941448,0
                103.142435984,15.509538116,0
                103.142444351,15.509705555,0
                103.142310388,15.5097952850001,0
                103.141749009,15.510252021,0
                103.141678352,15.510332072,0
                103.141626978,15.5103707010001,0
                103.141561652,15.5103971990001,0
                103.141542526,15.510404957,0
                103.141506257,15.510414477,0
                103.14131569,15.510451608,0
                103.141339021,15.5106000430001,0
                103.141327253,15.5108127410001,0
                103.141312015,15.511137784,0
                103.141356355,15.5111429400001,0
                103.141399444,15.511440006,0
                103.141460872,15.5118635010001,0
                103.141488193,15.512117173,0
                103.141510176,15.5124162290001,0
                103.141244745,15.512434532,0
                103.141200893,15.512716443,0
                103.141151233,15.513035691,0
                103.140899963,15.514651004,0
                103.142378377,15.5141912,0
                103.142640502,15.516069847,0
                103.142905401,15.51796835,0
                103.143992608,15.525760045,0
                103.144000909,15.5258195330001,0
                103.144730192,15.529128816,0
                103.144787398,15.529410924,0
                103.144890959,15.5299216230001,0
                103.145013445,15.5304314970001,0
                103.145102217,15.530895371,0
                103.145138304,15.531062729,0
                103.145161778,15.531291148,0
                103.145187509,15.5315938520001,0
                103.145185271,15.5318440090001,0
                103.145174631,15.5322602470001,0
                103.145176048,15.5325055550001,0
                103.145168807,15.5327309150001,0
                103.145267886,15.5327214480001,0
                103.14544181,15.532713874,0
                103.145587782,15.532720522,0
                103.145744894,15.5327363000001,0
                103.145911196,15.532755857,0
                103.145985181,15.532765028,0
                103.146068353,15.532775338,0
                103.14611931,15.532777132,0
                103.146125037,15.5327773330001,0
                103.146197536,15.532781415,0
                103.146321567,15.532787688,0
                103.146454529,15.5328010100001,0
                103.146542803,15.532810613,0
                103.146628708,15.532829828,0
                103.146721504,15.532842938,0
                103.146849582,15.532867095,0
                103.146889119,15.532874813,0
                103.146900058,15.5328771920001,0
                103.146931428,15.532883069,0
                103.147138845,15.532921932,0
                103.147502074,15.5330175010001,0
                103.147760877,15.533112041,0
                103.147793189,15.533123846,0
                103.147812735,15.5331271540001,0
                103.148236459,15.5331988520001,0
                103.148702093,15.5332236400001,0
                103.14870592,15.5332244150001,0
                103.148728535,15.5332332150001,0
                103.148796915,15.533281362,0
                103.148824546,15.5333135820001,0
                103.148883184,15.533402143,0
                103.148992042,15.533399263,0
                103.14912758,15.533395612,0
                103.149461048,15.533355403,0
                103.149612137,15.533325092,0
                103.149625745,15.533322362,0
                103.149648764,15.533315494,0
                103.149748278,15.533285805,0
                103.150112317,15.533187395,0
                103.15042358,15.5331291100001,0
                103.150667349,15.533111315,0
                103.150733717,15.5331106580001,0
                103.150803848,15.533111246,0
                103.150808949,15.5331116900001,0
                103.150954285,15.5331302170001,0
                103.151087544,15.533148722,0
                103.151164832,15.533166577,0
                103.151217151,15.5331816570001,0
                103.151480327,15.533266444,0
                103.151791648,15.53339793,0
                103.151912171,15.5334570370001,0
                103.151915592,15.533458793,0
                103.152120203,15.533565981,0
                103.152256434,15.5336260350001,0
                103.152276689,15.533634964,0
                103.152285246,15.533635955,0
                103.152370822,15.533645872,0
                103.152447682,15.533644345,0
                103.152466836,15.5336439640001,0
                103.152481324,15.5336400890001,0
                103.152589337,15.5336112000001,0
                103.152753963,15.533551683,0
                103.152971332,15.533455475,0
                103.153045481,15.533425439,0
                103.153086899,15.5334145690001,0
                103.153157062,15.5334116700001,0
                103.15327939,15.5334074630001,0
                103.153290173,15.5334075530001,0
                103.153666411,15.5334341880001,0
                103.154013885,15.5334553340001,0
                103.154083761,15.53346248,0
                103.1540866,15.533462926,0
                103.154470155,15.533523234,0
                103.154558475,15.5335413020001,0
                103.154599694,15.5335522500001,0
                103.154963141,15.533656668,0
                103.155101907,15.533707997,0
                103.155268714,15.533774309,0
                103.155269911,15.533774785,0
                103.155271394,15.533775469,0
                103.155283021,15.533780828,0
                103.155340836,15.533810407,0
                103.155382809,15.5338250510001,0
                103.155979089,15.5340330760001,0
                103.156016107,15.53404599,0
                103.156204196,15.534105025,0
                103.156371469,15.5341368700001,0
                103.15653571,15.5341569290001,0
                103.15654936,15.5341585960001,0
                103.15687926,15.534199931,0
                103.157384059,15.5343664170001,0
                103.157770313,15.534518357,0
                103.158261143,15.5346914990001,0
                103.158814523,15.534892267,0
                103.159108327,15.5349912130001,0
                103.159453389,15.535065107,0
                103.159840248,15.535149468,0
                103.160178001,15.5352503140001,0
                103.160515651,15.5353714880001,0
                103.160991739,15.535491286,0
                103.161284478,15.5355546210001,0
                103.161542056,15.535648022,0
                103.161994823,15.5357802720001,0
                103.162419904,15.535888619,0
                103.162723216,15.535938489,0
                103.162929145,15.5359537570001,0
                103.163222275,15.535973094,0
                103.163499781,15.536003593,0
                103.163952731,15.536115512,0
                103.164356711,15.5362372330001,0
                103.164659456,15.5363513340001,0
                103.164962578,15.536431647,0
                103.165178584,15.5364807870001,0
                103.165440269,15.536509978,0
                103.165646303,15.5365049160001,0
                103.165401846,15.535831585,0
                103.165168042,15.535127443,0
                103.165079582,15.5348400280001,0
                103.16782563,15.5349859180001,0
                103.170929951,15.5351508000001,0
                103.17096256,15.535153822,0
                103.170990464,15.5351561370001,0
                103.171003239,15.535160181,0
                103.171026673,15.535167598,0
                103.171400062,15.535383924,0
                103.171444768,15.535405725,0
                103.172100376,15.5356486970001,0
                103.172557629,15.535815073,0
                103.172847803,15.535910727,0
                103.173256138,15.5360312670001,0
                103.173238201,15.536107631,0
                103.173654566,15.536156509,0
                103.174162261,15.5361965770001,0
                103.174507279,15.536225733,0
                103.174511513,15.5360249240001,0
                103.175422448,15.5364843610001,0
                103.175754022,15.536640129,0
                103.176505655,15.5369858660001,0
                103.177225171,15.53736467,0
                103.177271583,15.5373891030001,0
                103.177902384,15.5377338390001,0
                103.177990807,15.537775217,0
                103.178290683,15.5378900700001,0
                103.178870854,15.5381028800001,0
                103.179315727,15.538276314,0
                103.179642564,15.538410518,0
                103.179794937,15.538471551,0
                103.179962171,15.538525533,0
                103.180385523,15.5386222760001,0
                103.180825781,15.538759805,0
                103.181554751,15.5377616160001,0
                103.18199527,15.537104679,0
                103.182349172,15.5366168250001,0
                103.182388794,15.536562206,0
              </coordinates>
                
            </LinearRing>
            
          </outerBoundaryIs>
        
        </Polygon>
        
      <styleUrl>
        #tambonStyle</styleUrl>
    </Placemark>

  </Document>
</kml>