<?xml version="1.0" encoding="UTF-8"?>
<kml xmlns="http://www.opengis.net/kml/2.2">
  <Document id="tambon_doc">
    <name>ยาง, กันทรารมย์, Si Sa Ket</name>
    <description>ข้อมูลขอบเขตตำบลยาง อำเภอกันทรารมย์ จังหวัดSi Sa Ket</description>
    
    <!-- Schema สำหรับข้อมูลตำบล -->
    <Schema id="tambon.schema">
      <SimpleField name="ADM3_EN" type="string">
        <displayName>Subdistrict Name (English)</displayName>
      </SimpleField>
      <SimpleField name="ADM3_TH" type="string">
        <displayName>ชื่อตำบล</displayName>
      </SimpleField>
      <SimpleField name="ADM2_EN" type="string">
        <displayName>District Name (English)</displayName>
      </SimpleField>
      <SimpleField name="ADM2_TH" type="string">
        <displayName>ชื่ออำเภอ</displayName>
      </SimpleField>
      <SimpleField name="ADM1_EN" type="string">
        <displayName>Province Name (English)</displayName>
      </SimpleField>
      <SimpleField name="ADM1_TH" type="string">
        <displayName>ชื่อจังหวัด</displayName>
      </SimpleField>
      <SimpleField name="ADM0_EN" type="string">
        <displayName>Country Name (English)</displayName>
      </SimpleField>
      <SimpleField name="ADM0_TH" type="string">
        <displayName>ชื่อประเทศ</displayName>
      </SimpleField>
    </Schema>

    <!-- Style สำหรับตำบล -->
    <Style id="tambonStyle">
      <LineStyle>
        <color>ffff0000</color>
        <width>1.5</width>
      </LineStyle>
      <PolyStyle>
        <color>33ff0000</color>
        <fill>1</fill>
        <outline>1</outline>
      </PolyStyle>
    </Style>

    <Placemark id="Si_Sa_Ket.29">
        
        <ExtendedData>
            
          <SchemaData schemaUrl="#tambon.schema">
                
            <SimpleData name="Shape_Leng">
                0.452636431238</SimpleData>
                
            <SimpleData name="Shape_Area">
                0.00477539906782</SimpleData>
                
            <SimpleData name="ADM3_EN">
                Yang</SimpleData>
                
            <SimpleData name="ADM3_TH">
                ยาง</SimpleData>
                
            <SimpleData name="ADM3_PCODE">
                TH330304</SimpleData>
                
            <SimpleData name="ADM2_EN">
                Kanthararom</SimpleData>
                
            <SimpleData name="ADM2_TH">
                กันทรารมย์</SimpleData>
                
            <SimpleData name="ADM2_PCODE">
                TH3303</SimpleData>
                
            <SimpleData name="ADM1_EN">
                Si Sa Ket</SimpleData>
                
            <SimpleData name="ADM1_TH">
                ศรีสะเกษ</SimpleData>
                
            <SimpleData name="ADM1_PCODE">
                TH33</SimpleData>
                
            <SimpleData name="ADM0_EN">
                Thailand</SimpleData>
                
            <SimpleData name="ADM0_TH">
                ประเทศไทย</SimpleData>
                
            <SimpleData name="ADM0_PCODE">
                TH</SimpleData>
            
          </SchemaData>
        
        </ExtendedData>
        
        <Polygon>
            
          <outerBoundaryIs>
                
            <LinearRing>
                    
              <coordinates>
                    
                104.548134609,15.074346265,0
                104.548783015,15.0741184180001,0
                104.549571149,15.073872002,0
                104.550606814,15.0735589550001,0
                104.551303101,15.0733753430001,0
                104.551906365,15.0732091460001,0
                104.553220295,15.072813565,0
                104.554223233,15.0724407600001,0
                104.554755548,15.071943275,0
                104.554948104,15.0715601050001,0
                104.555221469,15.0706905440001,0
                104.555516705,15.070062647,0
                104.555952054,15.0694313060001,0
                104.556086661,15.069216075,0
                104.55632592,15.068831753,0
                104.556509989,15.068721268,0
                104.557080123,15.068480191,0
                104.55732607,15.068353044,0
                104.557858373,15.067855562,0
                104.558524093,15.0670974600001,0
                104.558971061,15.066314458,0
                104.559150005,15.0660073080001,0
                104.559464338,15.0655151780001,0
                104.559900456,15.0649140940001,0
                104.560189951,15.0646647780001,0
                104.560573647,15.0644434180001,0
                104.561266342,15.0641236380001,0
                104.561711909,15.0638856190001,0
                104.562497614,15.0635484090001,0
                104.563251,15.063166579,0
                104.563804359,15.0628804940001,0
                104.564680704,15.0624350840001,0
                104.565606109,15.0620792930001,0
                104.566376231,15.061742456,0
                104.567133539,15.061511898,0
                104.567518797,15.061351039,0
                104.567826603,15.061207226,0
                104.568117269,15.0610032880001,0
                104.56878963,15.06050234,0
                104.56947677,15.059970757,0
                104.569906753,15.05973311,0
                104.570292789,15.059602505,0
                104.570864058,15.05940679,0
                104.571432958,15.059120309,0
                104.572199108,15.0586321860001,0
                104.573149302,15.058033564,0
                104.573650795,15.057551959,0
                104.57413632,15.0570556060001,0
                104.57459229,15.0566205320001,0
                104.574797098,15.056484928,0
                104.57516657,15.056316886,0
                104.575779747,15.0560860680001,0
                104.576404303,15.055843619,0
                104.576901608,15.0556497170001,0
                104.577200724,15.055472052,0
                104.577418414,15.0553077490001,0
                104.577766726,15.054776931,0
                104.577991052,15.054419465,0
                104.578229719,15.0541638180001,0
                104.578674393,15.0537441550001,0
                104.578879214,15.053534757,0
                104.579151719,15.0532328640001,0
                104.579447358,15.052964106,0
                104.579755594,15.0526882980001,0
                104.580091261,15.052456514,0
                104.580472563,15.052210831,0
                104.580632078,15.052028094,0
                104.580768495,15.051967254,0
                104.580838401,15.051876131,0
                104.580939645,15.0517267540001,0
                104.581062256,15.051640714,0
                104.58115693,15.0514915040001,0
                104.581232405,15.0513619230001,0
                104.581293911,15.051200758,0
                104.581351015,15.051122718,0
                104.581481028,15.0510684280001,0
                104.581670978,15.0510445840001,0
                104.581859594,15.0509696880001,0
                104.582197256,15.0508144840001,0
                104.58259302,15.0506195310001,0
                104.583021788,15.050430148,0
                104.583469259,15.0502019900001,0
                104.583827284,15.0500718220001,0
                104.584066936,15.049938195,0
                104.584584641,15.049631667,0
                104.585320455,15.049121799,0
                104.585947962,15.0487423210001,0
                104.586412789,15.0484243240001,0
                104.586820514,15.048184372,0
                104.587209869,15.047995955,0
                104.58774893,15.04775276,0
                104.58823039,15.0475684570001,0
                104.588651907,15.0473537010001,0
                104.589040758,15.0471461390001,0
                104.589352637,15.0470107250001,0
                104.589808325,15.0468462110001,0
                104.590224776,15.0466890540001,0
                104.590485952,15.0466251330001,0
                104.591067082,15.046483063,0
                104.591445964,15.0463970750001,0
                104.591891517,15.0463477540001,0
                104.592384206,15.0463419720001,0
                104.593035005,15.0463514370001,0
                104.593573659,15.0463445120001,0
                104.593994112,15.046340511,0
                104.594236421,15.04630898,0
                104.594393529,15.046285938,0
                104.594576566,15.0462494870001,0
                104.594909645,15.046171013,0
                104.595489258,15.045971496,0
                104.595969031,15.0457233670001,0
                104.596305164,15.0455107110001,0
                104.596536564,15.045313419,0
                104.596721491,15.0450981170001,0
                104.596921556,15.044959066,0
                104.597135089,15.044832458,0
                104.597526094,15.0447078510001,0
                104.598086497,15.0445279630001,0
                104.598764773,15.044332388,0
                104.599397411,15.044150716,0
                104.599683676,15.044041463,0
                104.599890804,15.043921395,0
                104.600129598,15.0437558460001,0
                104.600413861,15.043570016,0
                104.600724051,15.043370769,0
                104.601150606,15.0430984020001,0
                104.601531356,15.0428335550001,0
                104.601815783,15.0426541040001,0
                104.602408174,15.04244149,0
                104.602935899,15.04226879,0
                104.603619553,15.0420283730001,0
                104.603931577,15.0418993230001,0
                104.604339424,15.04166573,0
                104.604708375,15.041452253,0
                104.605221288,15.041216058,0
                104.605872772,15.041001975,0
                104.606368655,15.040868371,0
                104.606792646,15.0407493180001,0
                104.607146407,15.0407086280001,0
                104.607697002,15.0406566840001,0
                104.608346763,15.040627822,0
                104.608874097,15.040691386,0
                104.609500771,15.040784423,0
                104.609970016,15.040887737,0
                104.6106253,15.041069457,0
                104.610796699,15.041090754,0
                104.611105833,15.0411022530001,0
                104.611591762,15.041090212,0
                104.612168447,15.0410312180001,0
                104.612619367,15.0409370310001,0
                104.613247076,15.0408193010001,0
                104.614112355,15.040740382,0
                104.614669506,15.040688254,0
                104.615101056,15.0406073140001,0
                104.615420472,15.040509994,0
                104.615681096,15.040386793,0
                104.615962775,15.040275643,0
                104.616175405,15.040209309,0
                104.616432265,15.0401382850001,0
                104.616675009,15.0400927530001,0
                104.61691453,15.040065263,0
                104.61721694,15.0400398,0
                104.617703369,15.03998463,0
                104.618145289,15.0399233840001,0
                104.618760903,15.039861414,0
                104.619166729,15.039833388,0
                104.619539033,15.0397954110001,0
                104.620155022,15.0397477980001,0
                104.620479024,15.0397002500001,0
                104.62075529,15.039664655,0
                104.620858711,15.0396620880001,0
                104.621028622,15.039657871,0
                104.621188105,15.039679059,0
                104.621302514,15.0396726270001,0
                104.62138027,15.039677881,0
                104.621525076,15.039703021,0
                104.621628591,15.0397040440001,0
                104.621742811,15.0396904310001,0
                104.62197494,15.0396631190001,0
                104.622140684,15.0396410430001,0
                104.622328112,15.039600471,0
                104.622505126,15.0395853000001,0
                104.622719639,15.039590751,0
                104.62291391,15.0396152600001,0
                104.623144573,15.0396414630001,0
                104.623579635,15.0396945110001,0
                104.623980524,15.0396973270001,0
                104.624301105,15.039644669,0
                104.625033185,15.039498775,0
                104.625741682,15.039455633,0
                104.625715361,15.0392939400001,0
                104.625680301,15.039049886,0
                104.625686482,15.038849342,0
                104.625683576,15.0385209880001,0
                104.625663052,15.038176376,0
                104.62564268,15.037837328,0
                104.625569328,15.0374439280001,0
                104.625477636,15.037006454,0
                104.625391228,15.0365521480001,0
                104.625271789,15.0361487600001,0
                104.625184775,15.0358892940001,0
                104.625025273,15.0354869010001,0
                104.624952053,15.0353161580001,0
                104.624830259,15.035040855,0
                104.624760859,15.0347976530001,0
                104.624667559,15.0342989860001,0
                104.624541525,15.033862363,0
                104.624521573,15.033757092,0
                104.624495607,15.0336408420001,0
                104.6245053,15.033573802,0
                104.624538331,15.033522883,0
                104.624594399,15.0334769610001,0
                104.624626403,15.0333871010001,0
                104.62465534,15.033180424,0
                104.624642887,15.0329246750001,0
                104.624599917,15.032597315,0
                104.624527449,15.032237294,0
                104.624324687,15.0314964140001,0
                104.624218609,15.0311650570001,0
                104.624086124,15.0307007590001,0
                104.623917986,15.0301872470001,0
                104.623792105,15.029756187,0
                104.623628224,15.029186902,0
                104.623476674,15.0286507120001,0
                104.623374129,15.028235769,0
                104.623232545,15.0278607610001,0
                104.623061021,15.027436391,0
                104.62297872,15.027137844,0
                104.622895689,15.026811477,0
                104.622806499,15.0264685660001,0
                104.622760441,15.026241484,0
                104.622741834,15.0259691850001,0
                104.622751698,15.0256906170001,0
                104.622760835,15.025384232,0
                104.62269293,15.0249795610001,0
                104.622647461,15.024774725,0
                104.622595976,15.024619623,0
                104.622460196,15.0243929110001,0
                104.622121905,15.0240153570001,0
                104.62184525,15.0236585380001,0
                104.621451788,15.02321555,0
                104.621026043,15.022706565,0
                104.620774043,15.022415933,0
                104.620590141,15.0221013460001,0
                104.620216501,15.0212496510001,0
                104.619784422,15.0200954490001,0
                104.619542581,15.01904168,0
                104.619393093,15.0183903010001,0
                104.61937826,15.018116052,0
                104.619318224,15.0178651890001,0
                104.619159838,15.0170037520001,0
                104.619138402,15.0168414610001,0
                104.619109825,15.016570799,0
                104.619043073,15.0161549630001,0
                104.61899172,15.015834765,0
                104.618960276,15.015618451,0
                104.618955789,15.0154473900001,0
                104.618943178,15.01513041,0
                104.61894498,15.0148715190001,0
                104.618968331,15.0147790930001,0
                104.618999389,15.014653077,0
                104.619076902,15.014496686,0
                104.619171145,15.0143231800001,0
                104.619270122,15.0141662570001,0
                104.619319774,15.0140940530001,0
                104.619411541,15.0139806780001,0
                104.619553426,15.013858409,0
                104.619794711,15.0137410990001,0
                104.620097437,15.0136371140001,0
                104.620598772,15.0135356260001,0
                104.621161159,15.0134326240001,0
                104.622355781,15.01326942,0
                104.62348113,15.013085662,0
                104.62423313,15.0129334220001,0
                104.6250767,15.0127789090001,0
                104.626065456,15.012628211,0
                104.626414544,15.012545334,0
                104.627096879,15.012357702,0
                104.62798292,15.0120759500001,0
                104.628783255,15.0117295260001,0
                104.62963701,15.0113817750001,0
                104.631114996,15.0105027070001,0
                104.631659698,15.0101149590001,0
                104.632045094,15.0096981460001,0
                104.632341113,15.0093275730001,0
                104.63254753,15.0089700550001,0
                104.632611895,15.0088585730001,0
                104.632975854,15.0080570550001,0
                104.633464048,15.006402549,0
                104.633163719,15.0065873990001,0
                104.632708701,15.0068540510001,0
                104.632493955,15.006928756,0
                104.632256745,15.006964629,0
                104.632002641,15.0069702210001,0
                104.63181466,15.0069634750001,0
                104.631710268,15.0069492160001,0
                104.631445704,15.0068865210001,0
                104.631168969,15.00680075,0
                104.630988066,15.006733583,0
                104.629377944,15.0060430930001,0
                104.629273041,15.006009192,0
                104.628985125,15.005937632,0
                104.628340011,15.005796752,0
                104.627887525,15.005729683,0
                104.627435677,15.005686923,0
                104.626631125,15.005636193,0
                104.626230249,15.0056638230001,0
                104.625846139,15.0057034710001,0
                104.625438945,15.0057877300001,0
                104.624217486,15.0059248310001,0
                104.624096208,15.0059276970001,0
                104.623866535,15.005919083,0
                104.62366733,15.0058794670001,0
                104.623537232,15.00583392,0
                104.623088363,15.0056203610001,0
                104.62300964,15.005519269,0
                104.622925081,15.0054898880001,0
                104.622800296,15.0054634040001,0
                104.622614863,15.005430775,0
                104.622449332,15.0054197050001,0
                104.621775275,15.005429463,0
                104.621610516,15.0054468020001,0
                104.621460975,15.0054890050001,0
                104.621305655,15.005548403,0
                104.621155726,15.0055901150001,0
                104.620884561,15.0057145910001,0
                104.620623098,15.0058063600001,0
                104.62036147,15.0058480390001,0
                104.619753886,15.005986455,0
                104.619634887,15.0059957400001,0
                104.619288825,15.0059707500001,0
                104.619033834,15.005923062,0
                104.618739259,15.005856501,0
                104.618517712,15.0058178200001,0
                104.618244722,15.0057426980001,0
                104.6180054,15.00569964,0
                104.617618427,15.005593139,0
                104.617369212,15.0054796800001,0
                104.616917644,15.005257215,0
                104.616687834,15.0050916000001,0
                104.616327924,15.00485674,0
                104.615868218,15.004622499,0
                104.615444623,15.00441901,0
                104.615254829,15.0043017510001,0
                104.615209764,15.0042801280001,0
                104.615041743,15.004226213,0
                104.614911889,15.004220683,0
                104.614787855,15.0042534670001,0
                104.614438373,15.004376403,0
                104.614260606,15.004394045,0
                104.613723385,15.004414212,0
                104.613276458,15.0043773730001,0
                104.612987325,15.0043370990001,0
                104.612657251,15.00424314,0
                104.612457668,15.004210662,0
                104.612284798,15.0042269570001,0
                104.612167943,15.0042737650001,0
                104.612113933,15.0043543850001,0
                104.61202568,15.0045472470001,0
                104.611981849,15.004730287,0
                104.61196578,15.004889991,0
                104.611953741,15.0049318580001,0
                104.611867571,15.00511815,0
                104.611853315,15.0051756660001,0
                104.611819946,15.0056928930001,0
                104.611766814,15.0059185280001,0
                104.611734148,15.0062476520001,0
                104.611733051,15.0064900790001,0
                104.611716828,15.006652376,0
                104.611636453,15.007049265,0
                104.611534471,15.007359638,0
                104.611412011,15.007559514,0
                104.611259897,15.0078398260001,0
                104.611106387,15.008073548,0
                104.610979878,15.008287565,0
                104.610817791,15.0086419890001,0
                104.610486555,15.0091631930001,0
                104.610287807,15.0096421860001,0
                104.610237334,15.00978596,0
                104.610193752,15.00996387,0
                104.610147534,15.0102222470001,0
                104.610106351,15.0104013500001,0
                104.610091622,15.010608529,0
                104.610121363,15.010749418,0
                104.610188353,15.01095156,0
                104.610262009,15.0111086360001,0
                104.610311117,15.011253283,0
                104.610360567,15.011371738,0
                104.610460727,15.011555377,0
                104.610507103,15.0118134580001,0
                104.61052768,15.0118677040001,0
                104.61064503,15.012000272,0
                104.610690048,15.012110604,0
                104.610716189,15.012225922,0
                104.610707964,15.012398272,0
                104.610668546,15.0125929340001,0
                104.610554518,15.012840415,0
                104.61046694,15.012957794,0
                104.610266992,15.013136241,0
                104.61015656,15.0132207020001,0
                104.610048725,15.0132778400001,0
                104.609965697,15.0133029830001,0
                104.609801648,15.013332925,0
                104.609700291,15.013329534,0
                104.609500039,15.013296983,0
                104.609289089,15.013232854,0
                104.60909832,15.0130563450001,0
                104.60903732,15.01298217,0
                104.608954681,15.012831249,0
                104.608879392,15.012616081,0
                104.608806656,15.012357719,0
                104.608759905,15.0121040170001,0
                104.60870483,15.0118934540001,0
                104.608600387,15.011608037,0
                104.608381313,15.0112201170001,0
                104.608099187,15.010650147,0
                104.608006522,15.0104432630001,0
                104.60794229,15.010336872,0
                104.607805622,15.010151469,0
                104.607773166,15.010075822,0
                104.607740355,15.009935237,0
                104.607670857,15.009691321,0
                104.60760081,15.0095334920001,0
                104.607557267,15.009465827,0
                104.60748994,15.009393383,0
                104.607205938,15.009262571,0
                104.607021093,15.0093534110001,0
                104.606869356,15.0096356490001,0
                104.606637262,15.0100035020001,0
                104.606540352,15.010068427,0
                104.606491566,15.010090543,0
                104.606391094,15.010109926,0
                104.606288384,15.010109646,0
                104.606171662,15.0100926910001,0
                104.605923386,15.010023817,0
                104.605869778,15.010000044,0
                104.605603443,15.009834819,0
                104.605459158,15.0097213340001,0
                104.605281677,15.0096681950001,0
                104.605115943,15.0096406060001,0
                104.60489652,15.0096692340001,0
                104.604229256,15.009789433,0
                104.604123768,15.009829917,0
                104.604014254,15.0099063480001,0
                104.603927175,15.010057332,0
                104.603888852,15.0101901950001,0
                104.603874718,15.0106626910001,0
                104.603921774,15.011006955,0
                104.604012333,15.0114336520001,0
                104.6041813,15.012165195,0
                104.604182248,15.0123626020001,0
                104.604163149,15.012453398,0
                104.604132903,15.012514996,0
                104.603966506,15.0127253420001,0
                104.603703107,15.0128724890001,0
                104.60362953,15.0129306740001,0
                104.603556616,15.013002568,0
                104.603488355,15.0130532790001,0
                104.603335712,15.013105038,0
                104.602882595,15.0133454040001,0
                104.602405536,15.013551912,0
                104.602053876,15.0137377070001,0
                104.601795532,15.0138855610001,0
                104.601646292,15.014062229,0
                104.601623802,15.0141124250001,0
                104.601583039,15.014282209,0
                104.601572923,15.0144785300001,0
                104.601506859,15.0146719700001,0
                104.601460256,15.0147817270001,0
                104.601420313,15.0148500020001,0
                104.601324252,15.014982989,0
                104.601139368,15.0151868720001,0
                104.600847701,15.01549548,0
                104.600622165,15.015680338,0
                104.600541417,15.015734319,0
                104.600485593,15.0157594400001,0
                104.600379543,15.0157835690001,0
                104.600263668,15.0157823110001,0
                104.600076725,15.0157487430001,0
                104.599827148,15.015658382,0
                104.599370067,15.015461418,0
                104.59922374,15.0154271070001,0
                104.598713587,15.0153300860001,0
                104.598468192,15.0152591670001,0
                104.598098056,15.0151171540001,0
                104.597752274,15.0150002460001,0
                104.597537899,15.0149089770001,0
                104.597433689,15.0147889950001,0
                104.59736293,15.0146690300001,0
                104.597312826,15.014519856,0
                104.59733021,15.014274496,0
                104.597370554,15.01402739,0
                104.597449658,15.0138116640001,0
                104.597574669,15.0135545050001,0
                104.597940027,15.0129888110001,0
                104.598058964,15.012827164,0
                104.598427538,15.012469051,0
                104.598705705,15.012101203,0
                104.598882756,15.011820444,0
                104.59903823,15.0115359050001,0
                104.599118558,15.0112845260001,0
                104.599198412,15.0109670860001,0
                104.599241558,15.01058225,0
                104.599260316,15.010146138,0
                104.599179983,15.009577677,0
                104.599062819,15.0092432750001,0
                104.598913949,15.008889792,0
                104.598808,15.0086878760001,0
                104.598757844,15.0086192860001,0
                104.598624758,15.0084772820001,0
                104.598385636,15.0082711380001,0
                104.598300334,15.00820693,0
                104.598105442,15.0080817310001,0
                104.598039247,15.0080459220001,0
                104.597270818,15.007701105,0
                104.596837516,15.0074283170001,0
                104.596529564,15.007213081,0
                104.596409951,15.007088525,0
                104.59635429,15.0070180170001,0
                104.595993829,15.006438292,0
                104.595934228,15.0062764530001,0
                104.595864249,15.0059668270001,0
                104.595805038,15.0057563720001,0
                104.595694794,15.0054457850001,0
                104.595607839,15.0052441400001,0
                104.595501928,15.0051644800001,0
                104.595444316,15.005133658,0
                104.594872205,15.004983779,0
                104.594537095,15.004854509,0
                104.594281182,15.004724348,0
                104.594059272,15.004581289,0
                104.593931439,15.0044144140001,0
                104.593891097,15.004348893,0
                104.593799446,15.0041335600001,0
                104.593670103,15.003735502,0
                104.593586257,15.0035332740001,0
                104.59349129,15.0034072080001,0
                104.593286525,15.003244866,0
                104.593149629,15.003168859,0
                104.593093685,15.003145671,0
                104.592852026,15.003080303,0
                104.592606326,15.003030327,0
                104.592344037,15.0030221270001,0
                104.591969083,15.003031122,0
                104.591112538,15.0030221820001,0
                104.59088644,15.003037422,0
                104.590451324,15.0030897410001,0
                104.590350911,15.003109663,0
                104.590235017,15.003151707,0
                104.589538661,15.0035255720001,0
                104.589313039,15.003617074,0
                104.58916431,15.00366088,0
                104.589086922,15.0036485320001,0
                104.588980299,15.0035954700001,0
                104.588697285,15.0032863660001,0
                104.58853625,15.0030391080001,0
                104.588377077,15.0028632350001,0
                104.5882247,15.002757095,0
                104.588167589,15.002728384,0
                104.588019548,15.0026917810001,0
                104.587871317,15.002688021,0
                104.587746087,15.0027098850001,0
                104.587620799,15.0027636520001,0
                104.587467547,15.0028537850001,0
                104.58731121,15.0029838890001,0
                104.587227184,15.003131292,0
                104.58717248,15.0032657100001,0
                104.587135224,15.0034397740001,0
                104.587115354,15.0035970920001,0
                104.58713113,15.0037384140001,0
                104.587189366,15.004007243,0
                104.587243225,15.004201268,0
                104.587340191,15.0044204910001,0
                104.587490209,15.004712054,0
                104.587632767,15.0050806300001,0
                104.587641483,15.00522047,0
                104.587611309,15.0053158060001,0
                104.587513369,15.0053610260001,0
                104.58740081,15.005396949,0
                104.58658813,15.005501408,0
                104.586097726,15.0055302530001,0
                104.58572684,15.005489272,0
                104.585523053,15.005484811,0
                104.585351669,15.0055071630001,0
                104.58507596,15.005556185,0
                104.584581902,15.005601991,0
                104.584315344,15.0055929960001,0
                104.584216321,15.005547784,0
                104.584141529,15.005417106,0
                104.58411498,15.0053010070001,0
                104.584083947,15.0050955780001,0
                104.584031148,15.0044707330001,0
                104.583958672,15.0042712260001,0
                104.583887687,15.004145303,0
                104.583807408,15.0040292510001,0
                104.583649313,15.003926936,0
                104.583434289,15.0038131950001,0
                104.583217055,15.003646727,0
                104.583115097,15.003589612,0
                104.583075103,15.003576482,0
                104.58287043,15.003540414,0
                104.582551464,15.0034962940001,0
                104.582128911,15.003411989,0
                104.581964344,15.0033296930001,0
                104.581766584,15.003084803,0
                104.581633991,15.00289544,0
                104.581483523,15.0027760840001,0
                104.581335057,15.00269716,0
                104.581195764,15.002666033,0
                104.581077267,15.0026501830001,0
                104.580998052,15.0026512700001,0
                104.580904211,15.002680873,0
                104.580806529,15.002749755,0
                104.580763958,15.0028862240001,0
                104.580734744,15.0030185840001,0
                104.580704344,15.003301085,0
                104.58070305,15.0034829190001,0
                104.580628241,15.0040270390001,0
                104.580489869,15.0043636120001,0
                104.580452542,15.004471456,0
                104.580380643,15.0045958110001,0
                104.580302329,15.004632816,0
                104.580252107,15.0046429240001,0
                104.580030979,15.0046556,0
                104.579348708,15.004571819,0
                104.578923803,15.0045318420001,0
                104.578119744,15.0043873290001,0
                104.577935816,15.004395658,0
                104.577668419,15.0043850640001,0
                104.577263083,15.004382311,0
                104.576843779,15.0044011150001,0
                104.576392883,15.0043895760001,0
                104.576247583,15.004398764,0
                104.576130964,15.004434899,0
                104.575857912,15.004554909,0
                104.575660496,15.004649424,0
                104.575599782,15.004688764,0
                104.575422303,15.004832924,0
                104.575224555,15.005014827,0
                104.575070349,15.00524388,0
                104.575036051,15.005306589,0
                104.574807764,15.0058249320001,0
                104.574769603,15.0058898020001,0
                104.5746092,15.006106447,0
                104.574434766,15.006260522,0
                104.574357863,15.0063148,0
                104.574059039,15.0064634440001,0
                104.573630861,15.0066630170001,0
                104.573386666,15.0068005360001,0
                104.573186094,15.006926881,0
                104.572938989,15.007114254,0
                104.572844349,15.00726043,0
                104.572724893,15.007489391,0
                104.572664981,15.0076556440001,0
                104.572649613,15.007754187,0
                104.572666134,15.007908457,0
                104.572760841,15.008179645,0
                104.572888952,15.0084040420001,0
                104.573043033,15.008631467,0
                104.573198468,15.0088369740001,0
                104.573321773,15.0090758910001,0
                104.573395731,15.009295734,0
                104.573374232,15.0095056490001,0
                104.572966546,15.0106793740001,0
                104.572946736,15.0109074050001,0
                104.57295157,15.011100444,0
                104.572992538,15.0115393090001,0
                104.573031768,15.0117705810001,0
                104.573074755,15.0119092570001,0
                104.573254976,15.0122648,0
                104.573329793,15.0125674810001,0
                104.573317202,15.012738051,0
                104.573299295,15.0127880850001,0
                104.573218297,15.012938627,0
                104.573004203,15.0130673850001,0
                104.572809358,15.0131378830001,0
                104.572577469,15.01316573,0
                104.572348188,15.0131807540001,0
                104.572034749,15.0131350500001,0
                104.571988977,15.0131172480001,0
                104.571785626,15.012989088,0
                104.571425697,15.0127251650001,0
                104.570974802,15.01218242,0
                104.570548423,15.011601967,0
                104.570345638,15.0113384640001,0
                104.570273314,15.0112605320001,0
                104.570026141,15.011031947,0
                104.569786248,15.0108599210001,0
                104.569717746,15.010823021,0
                104.569438539,15.010729359,0
                104.569225107,15.0107102110001,0
                104.568934562,15.0107251040001,0
                104.568411942,15.0106278760001,0
                104.568357394,15.0106076450001,0
                104.568165203,15.010511792,0
                104.568067576,15.0103989630001,0
                104.568027066,15.010336604,0
                104.56796611,15.0101841540001,0
                104.567976231,15.009818814,0
                104.568004283,15.0093593510001,0
                104.568012579,15.0089168100001,0
                104.567976929,15.008646352,0
                104.567922496,15.0085062260001,0
                104.567888111,15.0084467780001,0
                104.567770669,15.0082919720001,0
                104.567632604,15.0081973870001,0
                104.567510783,15.008136483,0
                104.567397819,15.008108092,0
                104.567277976,15.008123498,0
                104.567173683,15.0081821520001,0
                104.567024548,15.0083042420001,0
                104.56683569,15.008472564,0
                104.566572839,15.0087929260001,0
                104.566369763,15.008923736,0
                104.566309454,15.0089534470001,0
                104.565970416,15.009057996,0
                104.565629329,15.009107912,0
                104.565385514,15.009174989,0
                104.565215671,15.009197317,0
                104.565028004,15.0091900480001,0
                104.564467395,15.009066719,0
                104.564410769,15.009042419,0
                104.564305046,15.00897966,0
                104.563944985,15.0087324400001,0
                104.563847279,15.0086176780001,0
                104.56379011,15.00850037,0
                104.563770567,15.008392381,0
                104.563784921,15.0082522770001,0
                104.56384312,15.0080833960001,0
                104.563953376,15.0078124020001,0
                104.564111813,15.0075346300001,0
                104.564203915,15.0073230580001,0
                104.564213578,15.0072857650001,0
                104.564210181,15.007154717,0
                104.564144605,15.006990811,0
                104.563982837,15.006871088,0
                104.563868227,15.006806903,0
                104.563672382,15.0067233820001,0
                104.563554448,15.00666053,0
                104.563535827,15.0067237320001,0
                104.563422599,15.007087907,0
                104.56269714,15.009264258,0
                104.562354413,15.0101494190001,0
                104.561816154,15.0110156750001,0
                104.561276044,15.0118108880001,0
                104.561030636,15.012149558,0
                104.560697812,15.0124957630001,0
                104.56015811,15.0129577770001,0
                104.559580784,15.013356603,0
                104.558836107,15.0137770100001,0
                104.558066853,15.0141747070001,0
                104.557842899,15.014325905,0
                104.557303789,15.014811217,0
                104.557087943,15.0150438110001,0
                104.556877373,15.0152278250001,0
                104.556765432,15.0153256520001,0
                104.556588727,15.015407899,0
                104.555906272,15.015725547,0
                104.555227512,15.0163873380001,0
                104.555145913,15.0164668950001,0
                104.554848424,15.0167889150001,0
                104.554640834,15.0171087370001,0
                104.554477303,15.0175090770001,0
                104.554367108,15.0178847940001,0
                104.554297353,15.018201237,0
                104.554255348,15.0186627150001,0
                104.554194798,15.020325402,0
                104.554222645,15.0213329420001,0
                104.554301658,15.022298528,0
                104.554479792,15.0236172190001,0
                104.554530706,15.024192984,0
                104.554677316,15.0252210240001,0
                104.554703809,15.025779906,0
                104.554710059,15.026251858,0
                104.554687245,15.0267594900001,0
                104.554715251,15.02737662,0
                104.554712539,15.027965355,0
                104.554789552,15.028622082,0
                104.554898291,15.0291148330001,0
                104.555044811,15.029676599,0
                104.555236403,15.0301265210001,0
                104.555374054,15.030577765,0
                104.555458621,15.03083214,0
                104.555464366,15.0310534810001,0
                104.555517153,15.0312386950001,0
                104.555579203,15.031318775,0
                104.555648001,15.031427826,0
                104.555700183,15.031589744,0
                104.555811747,15.031960026,0
                104.555900248,15.0323658450001,0
                104.555919532,15.033739,0
                104.555918997,15.035482863,0
                104.555995792,15.0378794710001,0
                104.555902869,15.0379644940001,0
                104.555420072,15.0383925200001,0
                104.554926077,15.0388291400001,0
                104.554590675,15.039106497,0
                104.554428143,15.039224243,0
                104.553912371,15.039592031,0
                104.553402949,15.039984637,0
                104.552873917,15.040391599,0
                104.552190615,15.0409049990001,0
                104.551782607,15.041245175,0
                104.551187319,15.041739767,0
                104.550136157,15.0426006800001,0
                104.549097527,15.043394692,0
                104.548498651,15.0438616220001,0
                104.547608501,15.0445465610001,0
                104.546718052,15.045220402,0
                104.545888936,15.045837251,0
                104.545211013,15.0463394110001,0
                104.54442704,15.046935729,0
                104.543820084,15.0474222730001,0
                104.543235956,15.0479082580001,0
                104.542740545,15.0482921890001,0
                104.542182018,15.0487747720001,0
                104.541701587,15.0491860770001,0
                104.541346827,15.049488868,0
                104.541069083,15.049678795,0
                104.540674207,15.0498660370001,0
                104.540114552,15.0500850550001,0
                104.539313201,15.050394759,0
                104.53914078,15.0504591640001,0
                104.538171173,15.0508277340001,0
                104.537403333,15.0511211210001,0
                104.535181867,15.051871534,0
                104.534224221,15.052195096,0
                104.533331753,15.0524979030001,0
                104.531781964,15.0530056600001,0
                104.530693631,15.0533917760001,0
                104.530396314,15.053455725,0
                104.529432152,15.053663096,0
                104.528940015,15.053744636,0
                104.528647715,15.0537580980001,0
                104.5280747,15.053724301,0
                104.527475079,15.0536793100001,0
                104.526854882,15.053587024,0
                104.526300324,15.0535184140001,0
                104.525387983,15.053445896,0
                104.524763571,15.053442181,0
                104.524393766,15.053476489,0
                104.524044443,15.0535482110001,0
                104.523707953,15.053613302,0
                104.523422799,15.0537146,0
                104.522622934,15.053905209,0
                104.521910955,15.054036335,0
                104.521367626,15.05415071,0
                104.520764333,15.054209665,0
                104.519927395,15.0542869600001,0
                104.519244638,15.0542909750001,0
                104.518586743,15.0542501420001,0
                104.517903007,15.0542162580001,0
                104.517304742,15.0542182030001,0
                104.517149019,15.0542166010001,0
                104.517103254,15.054212539,0
                104.517078185,15.0542066940001,0
                104.517059136,15.0541980100001,0
                104.517041624,15.0541844480001,0
                104.517014435,15.054160901,0
                104.516982051,15.0541288690001,0
                104.516945412,15.054082415,0
                104.516914286,15.0540330580001,0
                104.516798946,15.0537852100001,0
                104.516781069,15.0537504960001,0
                104.516768785,15.0537321420001,0
                104.516754362,15.053716713,0
                104.516714614,15.0536838960001,0
                104.516548521,15.0535467730001,0
                104.516397475,15.0534201300001,0
                104.516383268,15.053408216,0
                104.516366969,15.053398929,0
                104.516346235,15.053389214,0
                104.516331793,15.053387414,0
                104.516312952,15.053386797,0
                104.516283109,15.053389136,0
                104.516229692,15.053396805,0
                104.516007232,15.053437769,0
                104.515901587,15.0534703390001,0
                104.515805309,15.0535071780001,0
                104.515660489,15.0535766940001,0
                104.515453249,15.053679226,0
                104.515282676,15.053767366,0
                104.515168833,15.053813539,0
                104.515109075,15.0538279800001,0
                104.515067073,15.05383813,0
                104.51501,15.0538459950001,0
                104.514829778,15.053859388,0
                104.514573945,15.0538731180001,0
                104.514310365,15.053885543,0
                104.514109552,15.053878437,0
                104.51392193,15.0538704470001,0
                104.5138603,15.0538726780001,0
                104.513812381,15.053875282,0
                104.513787367,15.05387876,0
                104.513748671,15.053895488,0
                104.513720342,15.0539133950001,0
                104.51367923,15.0539449550001,0
                104.513661089,15.053962848,0
                104.513556946,15.0540538710001,0
                104.513427055,15.0541635120001,0
                104.513211407,15.054299241,0
                104.512829655,15.0545170020001,0
                104.512737277,15.0545852390001,0
                104.512703041,15.0546164730001,0
                104.51269412,15.0546363350001,0
                104.51268916,15.054647378,0
                104.512686625,15.0546637030001,0
                104.512690473,15.0546853550001,0
                104.512756884,15.054945124,0
                104.512758684,15.0549766460001,0
                104.512757259,15.054997725,0
                104.512746956,15.0550180610001,0
                104.5127201,15.0550455000001,0
                104.512688204,15.055068276,0
                104.512650334,15.0550883290001,0
                104.512606437,15.055103748,0
                104.512558452,15.055113525,0
                104.512492716,15.055121822,0
                104.512410301,15.055131596,0
                104.512217777,15.055147182,0
                104.512118664,15.0551552060001,0
                104.512056945,15.055166754,0
                104.512011479,15.0551786230001,0
                104.511989623,15.0551899160001,0
                104.511965609,15.0552034140001,0
                104.511934472,15.0552233120001,0
                104.511929667,15.055227427,0
                104.511899708,15.0552530860001,0
                104.511878055,15.0552722670001,0
                104.511846969,15.0553102860001,0
                104.511760646,15.0554338640001,0
                104.511690244,15.055516563,0
                104.511657407,15.0555418380001,0
                104.5116323,15.055555898,0
                104.511612412,15.0555648110001,0
                104.511578957,15.0555798,0
                104.511488742,15.055602456,0
                104.511289666,15.0556627920001,0
                104.511238565,15.05567731,0
                104.511158913,15.055692401,0
                104.511151647,15.0556937810001,0
                104.511111235,15.0556984570001,0
                104.510946365,15.0556945930001,0
                104.510894098,15.055697901,0
                104.510847118,15.05570837,0
                104.510809119,15.0557193130001,0
                104.510754555,15.0557388140001,0
                104.510553168,15.0558292010001,0
                104.510391185,15.0558916360001,0
                104.510260663,15.0559173090001,0
                104.51014356,15.055924659,0
                104.509977453,15.0559467040001,0
                104.509808451,15.055976312,0
                104.509566263,15.0560407,0
                104.509388403,15.0560980060001,0
                104.509354541,15.0561162870001,0
                104.50934255,15.0561227650001,0
                104.509327428,15.0561348260001,0
                104.5093161,15.056143859,0
                104.50929987,15.056156802,0
                104.509237672,15.0562213320001,0
                104.509045351,15.0564673260001,0
                104.509013235,15.056501224,0
                104.508913801,15.056593481,0
                104.508865326,15.0566311900001,0
                104.508802316,15.056669072,0
                104.508752951,15.0566906020001,0
                104.50872607,15.056702328,0
                104.508009745,15.0569887460001,0
                104.50797789,15.0569984360001,0
                104.507942753,15.057009125,0
                104.507901602,15.0570165830001,0
                104.507844957,15.0570244190001,0
                104.507791961,15.0570307290001,0
                104.507674209,15.057037049,0
                104.507382491,15.057059678,0
                104.507166275,15.0570899250001,0
                104.506804026,15.0571342480001,0
                104.506753322,15.0571433750001,0
                104.50671016,15.0571587750001,0
                104.506681719,15.0571723800001,0
                104.50662356,15.0572101170001,0
                104.506549428,15.0572524200001,0
                104.506475922,15.057305915,0
                104.506449297,15.0573208000001,0
                104.50642006,15.0573322720001,0
                104.506376843,15.0573455210001,0
                104.506329115,15.057358488,0
                104.505972878,15.0574121500001,0
                104.505915644,15.057427703,0
                104.505861565,15.05744738,0
                104.505829544,15.057465377,0
                104.505778218,15.057498192,0
                104.505731093,15.057537785,0
                104.505632115,15.0576496750001,0
                104.505563175,15.057729339,0
                104.505424115,15.057863551,0
                104.505380707,15.057887205,0
                104.505345708,15.0578989520001,0
                104.505318339,15.057900424,0
                104.505295386,15.057896138,0
                104.505279015,15.057889274,0
                104.505265058,15.057879524,0
                104.505256913,15.0578696360001,0
                104.505240553,15.057846667,0
                104.505177043,15.057717736,0
                104.505158078,15.0576878690001,0
                104.505136791,15.057663995,0
                104.505120189,15.057650047,0
                104.50509237,15.057630639,0
                104.505044764,15.0576025,0
                104.504867588,15.057526465,0
                104.504814907,15.0575067020001,0
                104.504756445,15.0574918620001,0
                104.504704108,15.0574854810001,0
                104.504605119,15.0574764670001,0
                104.504445971,15.0574764570001,0
                104.504012736,15.057516123,0
                104.503810085,15.0575346730001,0
                104.503594113,15.057538315,0
                104.503516468,15.057543072,0
                104.503483031,15.057546019,0
                104.50345656,15.057548356,0
                104.503338209,15.0575705100001,0
                104.503026999,15.057651564,0
                104.502812685,15.057719766,0
                104.502305652,15.057871345,0
                104.502120661,15.05793606,0
                104.501896129,15.0580116100001,0
                104.501670001,15.058131899,0
                104.501566241,15.0581792850001,0
                104.501467156,15.0582099060001,0
                104.501364357,15.058240438,0
                104.501323818,15.058256602,0
                104.501043495,15.058391585,0
                104.500952085,15.0584356040001,0
                104.500744128,15.058531057,0
                104.500684147,15.058552601,0
                104.500643712,15.058559324,0
                104.500612021,15.0585615310001,0
                104.500580848,15.058555112,0
                104.500549473,15.0585408100001,0
                104.500510419,15.0585151180001,0
                104.500461446,15.0584713160001,0
                104.500287074,15.058292588,0
                104.499833216,15.0578087100001,0
                104.499654681,15.057588088,0
                104.499637255,15.0575683220001,0
                104.499637227,15.057568287,0
                104.499627003,15.05755831,0
                104.49961188,15.0575516810001,0
                104.499594145,15.0575510360001,0
                104.499574308,15.057554747,0
                104.499550692,15.0575623170001,0
                104.49951943,15.0575738380001,0
                104.499492701,15.0575895530001,0
                104.499474233,15.057603456,0
                104.499456444,15.057618368,0
                104.499447133,15.057626172,0
                104.499335699,15.057728426,0
                104.499301046,15.0577588580001,0
                104.499266078,15.057780501,0
                104.49897611,15.0579075310001,0
                104.498728787,15.058012524,0
                104.498668033,15.058042056,0
                104.498457253,15.05815893,0
                104.49841352,15.0581807990001,0
                104.49835872,15.058202937,0
                104.498275362,15.0582343770001,0
                104.498125885,15.0582910200001,0
                104.498012184,15.0583352940001,0
                104.497876857,15.0583879930001,0
                104.497835185,15.0584040700001,0
                104.49780244,15.0584226240001,0
                104.497781263,15.0584387440001,0
                104.497756858,15.0584587070001,0
                104.497725466,15.058494324,0
                104.497655664,15.058608172,0
                104.497635754,15.0586344870001,0
                104.497606502,15.058662186,0
                104.497376883,15.0589152220001,0
                104.497264557,15.059048429,0
                104.497204018,15.059110274,0
                104.496850227,15.0593209520001,0
                104.49683024,15.059334004,0
                104.496814671,15.059348007,0
                104.496799647,15.059366665,0
                104.496786892,15.0593874210001,0
                104.496774772,15.05941139,0
                104.49675896,15.0594424450001,0
                104.496742894,15.0594829300001,0
                104.496699575,15.059644055,0
                104.496665798,15.0598308420001,0
                104.496643786,15.059929036,0
                104.496625822,15.0599685,0
                104.496608316,15.059997292,0
                104.496604573,15.060003452,0
                104.496597308,15.0600115390001,0
                104.496578227,15.060032786,0
                104.49653307,15.060071029,0
                104.496477835,15.0601027540001,0
                104.496417922,15.0601271680001,0
                104.496354985,15.060148783,0
                104.496287418,15.0601626220001,0
                104.496239661,15.060171675,0
                104.496194707,15.0601749190001,0
                104.49616296,15.0601749750001,0
                104.496103656,15.060165655,0
                104.495927905,15.060124724,0
                104.49588924,15.0601249470001,0
                104.495850226,15.0601294840001,0
                104.495839638,15.0601325050001,0
                104.495825944,15.0601364090001,0
                104.495795259,15.0601451640001,0
                104.495757277,15.060161152,0
                104.495692348,15.060191429,0
                104.495652378,15.060216074,0
                104.495597297,15.060256151,0
                104.495578629,15.060276695,0
                104.495391002,15.060535816,0
                104.495080652,15.0609671670001,0
                104.495059441,15.060981054,0
                104.495030446,15.0609953790001,0
                104.495011206,15.0610001590001,0
                104.494973109,15.061006853,0
                104.494665323,15.061015018,0
                104.494621956,15.061022528,0
                104.494587461,15.0610305430001,0
                104.494540898,15.061048896,0
                104.494537031,15.0610504220001,0
                104.494495437,15.061069365,0
                104.494403948,15.0611330020001,0
                104.494307808,15.0611998810001,0
                104.494269565,15.061214749,0
                104.494227999,15.0612230890001,0
                104.493902258,15.061234729,0
                104.493675895,15.0612327750001,0
                104.493606555,15.061231397,0
                104.493516491,15.061232589,0
                104.493476713,15.0612362480001,0
                104.493451327,15.0612395520001,0
                104.493416887,15.0612500280001,0
                104.493305746,15.0613060420001,0
                104.493268739,15.0613311550001,0
                104.493237391,15.0613609710001,0
                104.493214841,15.0613884260001,0
                104.493199427,15.0614135500001,0
                104.493185842,15.061445087,0
                104.493179782,15.0614678330001,0
                104.493178272,15.0614772160001,0
                104.4931731,15.061509427,0
                104.49317226,15.0615302900001,0
                104.49317776,15.0617441250001,0
                104.493176872,15.061788861,0
                104.49317471,15.0618197650001,0
                104.493172599,15.06183372,0
                104.493167173,15.061869534,0
                104.493155461,15.0619180900001,0
                104.493113985,15.062055145,0
                104.493049019,15.062187098,0
                104.493033876,15.0622178570001,0
                104.493013401,15.062239877,0
                104.492995469,15.0622532250001,0
                104.492973583,15.0622634420001,0
                104.492951545,15.062267746,0
                104.492925039,15.062270541,0
                104.492905072,15.0622694100001,0
                104.492876714,15.0622647180001,0
                104.492839952,15.0622564660001,0
                104.492725836,15.062214667,0
                104.492608207,15.0621755550001,0
                104.492530016,15.06215559,0
                104.492489139,15.0621492930001,0
                104.492440117,15.062147732,0
                104.492388666,15.062149382,0
                104.492355511,15.062152204,0
                104.492332373,15.062156805,0
                104.492311331,15.0621621560001,0
                104.492286646,15.0621712880001,0
                104.492081272,15.0622920390001,0
                104.492042683,15.0623095180001,0
                104.492013071,15.062320733,0
                104.491980056,15.0623287970001,0
                104.491951477,15.062331913,0
                104.491917914,15.062334745,0
                104.491887595,15.062334675,0
                104.491871364,15.0623334530001,0
                104.491839391,15.062328687,0
                104.491755411,15.062301819,0
                104.491530158,15.062217688,0
                104.491492976,15.0622091490001,0
                104.491452426,15.0622022310001,0
                104.491420247,15.0622017650001,0
                104.491396019,15.062206492,0
                104.491379005,15.0622129920001,0
                104.49136079,15.062224691,0
                104.491344905,15.0622434100001,0
                104.491326382,15.062274662,0
                104.491304827,15.062361895,0
                104.491275843,15.0625071210001,0
                104.491249604,15.0626436040001,0
                104.49122471,15.0627164690001,0
                104.491174235,15.062823333,0
                104.491092126,15.0629971610001,0
                104.491074012,15.06304562,0
                104.491069136,15.0630659190001,0
                104.491067951,15.063084512,0
                104.491067516,15.063099858,0
                104.49107122,15.063114698,0
                104.491077009,15.063129894,0
                104.49109019,15.063153288,0
                104.491130022,15.063198571,0
                104.491248334,15.06328819,0
                104.491324282,15.0633499350001,0
                104.4913398,15.063373003,0
                104.491347481,15.0633916510001,0
                104.491350867,15.063415783,0
                104.491350452,15.063442696,0
                104.491344558,15.063471894,0
                104.491339011,15.063490232,0
                104.491314539,15.06353125,0
                104.491314525,15.063531273,0
                104.491300908,15.0635473670001,0
                104.491275775,15.0635770810001,0
                104.49124604,15.0636011980001,0
                104.491229165,15.063611496,0
                104.49106833,15.0636914300001,0
                104.490918506,15.063764438,0
                104.490794989,15.0638194640001,0
                104.490589501,15.0639256150001,0
                104.490419461,15.064022234,0
                104.490235674,15.064162546,0
                104.490078193,15.064284876,0
                104.489902726,15.0644018570001,0
                104.489741381,15.064489597,0
                104.489546354,15.0645766330001,0
                104.489474906,15.0646120860001,0
                104.489445837,15.06463001,0
                104.489416928,15.064654386,0
                104.489399718,15.0646741730001,0
                104.489386815,15.0647002100001,0
                104.489385678,15.064702493,0
                104.489381786,15.0647233940001,0
                104.48937945,15.064758516,0
                104.48937915,15.064862577,0
                104.48937734,15.064957265,0
                104.489374583,15.065003249,0
                104.489367577,15.065043426,0
                104.489341208,15.0651410080001,0
                104.489287579,15.0653400570001,0
                104.489248687,15.0658403420001,0
                104.489224275,15.066424635,0
                104.489224464,15.066513088,0
                104.489229833,15.0665797300001,0
                104.48923531,15.066714183,0
                104.489234364,15.0667339670001,0
                104.489232151,15.066769019,0
                104.489180726,15.067105482,0
                104.489176911,15.0671406050001,0
                104.489176264,15.067205885,0
                104.489193226,15.067295218,0
                104.489207789,15.06733301,0
                104.489360252,15.0676566880001,0
                104.489544092,15.0679192800001,0
                104.489648561,15.0680388170001,0
                104.490043663,15.0683603270001,0
                104.490195092,15.0685282060001,0
                104.490234417,15.0685901150001,0
                104.490264503,15.0686543840001,0
                104.490282036,15.0687001310001,0
                104.490291497,15.0687553820001,0
                104.490302877,15.068994978,0
                104.490300153,15.06907591,0
                104.49028757,15.0691785220001,0
                104.490281288,15.069216221,0
                104.490234849,15.0694261360001,0
                104.490204971,15.0696223800001,0
                104.490199597,15.069689274,0
                104.490188813,15.0700281220001,0
                104.490190682,15.0701663680001,0
                104.490200558,15.0701923550001,0
                104.490231538,15.070238245,0
                104.490772542,15.0704762170001,0
                104.490792723,15.070487411,0
                104.490871447,15.070536062,0
                104.491239679,15.0707903680001,0
                104.491288339,15.070828367,0
                104.491371517,15.070929306,0
                104.491488718,15.0710580140001,0
                104.491522722,15.071106684,0
                104.491541728,15.0711399470001,0
                104.491554098,15.0711704660001,0
                104.491570217,15.0712190080001,0
                104.491687498,15.071808624,0
                104.491689427,15.0718252680001,0
                104.491685791,15.07189212,0
                104.491616807,15.072346827,0
                104.491584934,15.072571732,0
                104.491584878,15.072609888,0
                104.491588314,15.0726267200001,0
                104.491596345,15.0726501460001,0
                104.49167536,15.0727912850001,0
                104.491682728,15.072806982,0
                104.491686529,15.0728183750001,0
                104.491687825,15.0728267640001,0
                104.491689997,15.0728407770001,0
                104.491689941,15.0728557040001,0
                104.491678349,15.0729533530001,0
                104.49161999,15.0733028930001,0
                104.491608894,15.0734232720001,0
                104.491608443,15.0734673170001,0
                104.491611892,15.0735066350001,0
                104.491619491,15.0735336230001,0
                104.491628613,15.0735553380001,0
                104.491645341,15.073573869,0
                104.491803341,15.073707272,0
                104.491827026,15.0737357690001,0
                104.491837995,15.0737536570001,0
                104.491843159,15.073768827,0
                104.491847417,15.073805545,0
                104.491849394,15.073833381,0
                104.491846409,15.073864859,0
                104.491816382,15.074060273,0
                104.49179628,15.074161087,0
                104.491780576,15.074205363,0
                104.491763796,15.0742289500001,0
                104.491763728,15.0742290150001,0
                104.491748832,15.074242929,0
                104.491733775,15.074253507,0
                104.49172098,15.0742601170001,0
                104.491697284,15.0742650330001,0
                104.491670331,15.074270015,0
                104.491578231,15.0742762240001,0
                104.491553223,15.0742802350001,0
                104.491532305,15.0742841470001,0
                104.491516662,15.0742890660001,0
                104.491498194,15.0742974570001,0
                104.491480301,15.0743139570001,0
                104.491368146,15.0745137710001,0
                104.491276108,15.0747089490001,0
                104.491251101,15.0747695260001,0
                104.491156715,15.075053412,0
                104.491145282,15.0751084450001,0
                104.4911297,15.0753069800001,0
                104.491124434,15.0753331820001,0
                104.491002383,15.075693351,0
                104.490924003,15.075880377,0
                104.490844884,15.0760361330001,0
                104.490803403,15.076107538,0
                104.490719737,15.076227789,0
                104.490701982,15.076265848,0
                104.490689646,15.076300948,0
                104.490677373,15.076338311,0
                104.49066829,15.0763786270001,0
                104.490667434,15.0764058830001,0
                104.49066973,15.0764345760001,0
                104.490677223,15.076489694,0
                104.490709789,15.076584348,0
                104.490740686,15.076680068,0
                104.490920984,15.07660163,0
                104.49101654,15.0765668720001,0
                104.491136007,15.076596406,0
                104.491393665,15.0766622350001,0
                104.491648453,15.076760575,0
                104.491827606,15.0768030790001,0
                104.491983593,15.0768100990001,0
                104.492303162,15.076831171,0
                104.492607531,15.076838191,0
                104.492670268,15.07683903,0
                104.492720112,15.076829709,0
                104.492744716,15.0768128930001,0
                104.492762911,15.0767901460001,0
                104.492770574,15.076763602,0
                104.49277568,15.076637776,0
                104.492775839,15.076562751,0
                104.492804508,15.076298482,0
                104.492825622,15.076145905,0
                104.492833232,15.076117336,0
                104.492853511,15.076094542,0
                104.492907314,15.076077012,0
                104.493008762,15.0760461620001,0
                104.493172618,15.076007713,0
                104.49347291,15.0760004140001,0
                104.493808496,15.075986174,0
                104.493981371,15.0759738620001,0
                104.494056287,15.075965958,0
                104.494184897,15.0759364740001,0
                104.494276186,15.0759160060001,0
                104.494341557,15.0758617020001,0
                104.494394629,15.0758158090001,0
                104.494444159,15.0757943310001,0
                104.494516569,15.0757702650001,0
                104.494662177,15.0757525330001,0
                104.494903241,15.0757142360001,0
                104.495264996,15.07566286,0
                104.495754994,15.0755678200001,0
                104.496180713,15.07548853,0
                104.496505559,15.075462386,0
                104.496892248,15.0754250800001,0
                104.497023627,15.0754096060001,0
                104.497621702,15.0753478140001,0
                104.497719427,15.0753664370001,0
                104.498047426,15.075515937,0
                104.498226485,15.0755904640001,0
                104.498309553,15.075625044,0
                104.498657529,15.075711063,0
                104.499044931,15.0757316780001,0
                104.499488827,15.075713025,0
                104.499656581,15.075677592,0
                104.500567208,15.0754769660001,0
                104.501078771,15.0754400220001,0
                104.501608182,15.075443466,0
                104.501979736,15.075516055,0
                104.503150573,15.075913697,0
                104.504102706,15.076403123,0
                104.505307799,15.0771420340001,0
                104.507122027,15.0785457920001,0
                104.507520866,15.07902426,0
                104.507682797,15.0793082160001,0
                104.507833788,15.079667543,0
                104.508157691,15.080736163,0
                104.508484831,15.081929873,0
                104.508769101,15.0824611960001,0
                104.509423983,15.0830470770001,0
                104.5097482,15.083328458,0
                104.510175221,15.0837902280001,0
                104.511659753,15.085313259,0
                104.51256758,15.0863033900001,0
                104.513306606,15.0872263410001,0
                104.513396957,15.087347401,0
                104.513634934,15.0876662540001,0
                104.513903265,15.0880143100001,0
                104.514014638,15.0882355580001,0
                104.514406803,15.0885442910001,0
                104.515015018,15.0889947590001,0
                104.515488487,15.089332552,0
                104.515673618,15.089443998,0
                104.517130903,15.0903174700001,0
                104.517226128,15.0903745470001,0
                104.517440299,15.090502912,0
                104.518007867,15.090764227,0
                104.518937905,15.0912239150001,0
                104.520815548,15.092134002,0
                104.522554024,15.093007969,0
                104.523781079,15.0936021110001,0
                104.524372754,15.0938404520001,0
                104.52509733,15.094186155,0
                104.525812593,15.094527256,0
                104.525854267,15.0945302750001,0
                104.525897654,15.094519109,0
                104.525984113,15.0944846620001,0
                104.52608694,15.0944397110001,0
                104.526121595,15.094412591,0
                104.526256564,15.094243589,0
                104.526473345,15.093966267,0
                104.526714246,15.0936424670001,0
                104.526875331,15.0932449330001,0
                104.527076847,15.092604194,0
                104.527219615,15.092101138,0
                104.527407522,15.091536422,0
                104.527599745,15.091138126,0
                104.52774722,15.0908166130001,0
                104.528075265,15.0902484700001,0
                104.52840684,15.08981648,0
                104.528753596,15.0893689860001,0
                104.529161455,15.0888745770001,0
                104.52953817,15.08838093,0
                104.530096243,15.087670912,0
                104.530445343,15.087314184,0
                104.530873871,15.087016067,0
                104.53187105,15.0864163950001,0
                104.53254831,15.0860970460001,0
                104.533176888,15.085703193,0
                104.533973604,15.085184118,0
                104.534754743,15.0846654270001,0
                104.535368135,15.084287083,0
                104.535980346,15.083863353,0
                104.536423641,15.0835345900001,0
                104.537079416,15.082988686,0
                104.537612593,15.0825214770001,0
                104.538022382,15.0821027060001,0
                104.538462915,15.0816680450001,0
                104.538920198,15.0812783820001,0
                104.539379836,15.080979493,0
                104.539934072,15.080723698,0
                104.540285897,15.080472861,0
                104.540889111,15.0799792230001,0
                104.54104868,15.07984864,0
                104.541673682,15.079318625,0
                104.542307572,15.078531045,0
                104.542758944,15.07791446,0
                104.543077261,15.0775736160001,0
                104.543381975,15.0773088010001,0
                104.5439774,15.0768400580001,0
                104.544389525,15.076512053,0
                104.544986518,15.0761038200001,0
                104.545583115,15.0756804600001,0
                104.545981628,15.075428478,0
                104.546442028,15.075159835,0
                104.546948742,15.074874919,0
                104.547579617,15.074571819,0
                104.548134609,15.074346265,0
              </coordinates>
                
            </LinearRing>
            
          </outerBoundaryIs>
        
        </Polygon>
        
      <styleUrl>
        #tambonStyle</styleUrl>
    </Placemark>

  </Document>
</kml>