<?xml version="1.0" encoding="UTF-8"?>
<kml xmlns="http://www.opengis.net/kml/2.2">
  <Document id="tambon_doc">
    <name>โนนสัง, กันทรารมย์, Si Sa Ket</name>
    <description>ข้อมูลขอบเขตตำบลโนนสัง อำเภอกันทรารมย์ จังหวัดSi Sa Ket</description>
    
    <!-- Schema สำหรับข้อมูลตำบล -->
    <Schema id="tambon.schema">
      <SimpleField name="ADM3_EN" type="string">
        <displayName>Subdistrict Name (English)</displayName>
      </SimpleField>
      <SimpleField name="ADM3_TH" type="string">
        <displayName>ชื่อตำบล</displayName>
      </SimpleField>
      <SimpleField name="ADM2_EN" type="string">
        <displayName>District Name (English)</displayName>
      </SimpleField>
      <SimpleField name="ADM2_TH" type="string">
        <displayName>ชื่ออำเภอ</displayName>
      </SimpleField>
      <SimpleField name="ADM1_EN" type="string">
        <displayName>Province Name (English)</displayName>
      </SimpleField>
      <SimpleField name="ADM1_TH" type="string">
        <displayName>ชื่อจังหวัด</displayName>
      </SimpleField>
      <SimpleField name="ADM0_EN" type="string">
        <displayName>Country Name (English)</displayName>
      </SimpleField>
      <SimpleField name="ADM0_TH" type="string">
        <displayName>ชื่อประเทศ</displayName>
      </SimpleField>
    </Schema>

    <!-- Style สำหรับตำบล -->
    <Style id="tambonStyle">
      <LineStyle>
        <color>ffff0000</color>
        <width>1.5</width>
      </LineStyle>
      <PolyStyle>
        <color>33ff0000</color>
        <fill>1</fill>
        <outline>1</outline>
      </PolyStyle>
    </Style>

    <Placemark id="Si_Sa_Ket.27">
        
        <ExtendedData>
            
          <SchemaData schemaUrl="#tambon.schema">
                
            <SimpleData name="Shape_Leng">
                0.454484699227</SimpleData>
                
            <SimpleData name="Shape_Area">
                0.00504377168991</SimpleData>
                
            <SimpleData name="ADM3_EN">
                Non Sang</SimpleData>
                
            <SimpleData name="ADM3_TH">
                โนนสัง</SimpleData>
                
            <SimpleData name="ADM3_PCODE">
                TH330302</SimpleData>
                
            <SimpleData name="ADM2_EN">
                Kanthararom</SimpleData>
                
            <SimpleData name="ADM2_TH">
                กันทรารมย์</SimpleData>
                
            <SimpleData name="ADM2_PCODE">
                TH3303</SimpleData>
                
            <SimpleData name="ADM1_EN">
                Si Sa Ket</SimpleData>
                
            <SimpleData name="ADM1_TH">
                ศรีสะเกษ</SimpleData>
                
            <SimpleData name="ADM1_PCODE">
                TH33</SimpleData>
                
            <SimpleData name="ADM0_EN">
                Thailand</SimpleData>
                
            <SimpleData name="ADM0_TH">
                ประเทศไทย</SimpleData>
                
            <SimpleData name="ADM0_PCODE">
                TH</SimpleData>
            
          </SchemaData>
        
        </ExtendedData>
        
        <Polygon>
            
          <outerBoundaryIs>
                
            <LinearRing>
                    
              <coordinates>
                    
                104.689428365,15.1281713860001,0
                104.689165808,15.1278488520001,0
                104.688844349,15.1274539610001,0
                104.688491832,15.127048437,0
                104.688366258,15.126903982,0
                104.688313178,15.126837585,0
                104.688255034,15.126764854,0
                104.688049513,15.1264552220001,0
                104.688040458,15.1264415790001,0
                104.687619753,15.1257328670001,0
                104.687511858,15.125540265,0
                104.687405735,15.125331418,0
                104.687147648,15.1248998610001,0
                104.686897477,15.124579194,0
                104.686729737,15.1243918330001,0
                104.686587793,15.1242568330001,0
                104.686314392,15.124054696,0
                104.686202662,15.123984051,0
                104.686048744,15.1238959080001,0
                104.685875149,15.123823116,0
                104.685721916,15.123776546,0
                104.685525658,15.12373925,0
                104.685355264,15.1237282550001,0
                104.685028959,15.123720802,0
                104.684220137,15.123732967,0
                104.683849228,15.123763286,0
                104.683497011,15.1237774960001,0
                104.682700054,15.1237383760001,0
                104.682346901,15.123736142,0
                104.681605713,15.1237103610001,0
                104.68119399,15.123718502,0
                104.680844035,15.123750822,0
                104.680601827,15.123763609,0
                104.68046903,15.123748623,0
                104.680172322,15.1236570350001,0
                104.679947184,15.123574896,0
                104.679783352,15.1234987820001,0
                104.679585961,15.1233916530001,0
                104.67948002,15.123318221,0
                104.679334926,15.1231749340001,0
                104.679259956,15.123090183,0
                104.679219397,15.123038815,0
                104.679168947,15.1229543640001,0
                104.679145153,15.1228977980001,0
                104.67912826,15.122822742,0
                104.679122693,15.122669654,0
                104.679141115,15.1225358400001,0
                104.67916855,15.1224324070001,0
                104.679233631,15.122263818,0
                104.679317394,15.122130617,0
                104.679366211,15.122058523,0
                104.679398551,15.122017154,0
                104.679431269,15.1219753020001,0
                104.679552927,15.12185671,0
                104.680054557,15.121453338,0
                104.680340764,15.1212073090001,0
                104.680437121,15.121110034,0
                104.680578516,15.1209672900001,0
                104.680598963,15.120942862,0
                104.680715632,15.120803476,0
                104.68081553,15.120658925,0
                104.680913712,15.1204502790001,0
                104.680925653,15.120420467,0
                104.680982158,15.1202606570001,0
                104.681136538,15.1196108030001,0
                104.681191514,15.11919707,0
                104.68118252,15.1190369390001,0
                104.681170347,15.1189775770001,0
                104.681144914,15.118853583,0
                104.681086353,15.1187160960001,0
                104.681010719,15.118578504,0
                104.680724994,15.11816134,0
                104.680683991,15.118101476,0
                104.68058986,15.1179841690001,0
                104.680483731,15.1178667770001,0
                104.680476631,15.1178589260001,0
                104.680292763,15.117684873,0
                104.679972347,15.1174291780001,0
                104.67962138,15.117190866,0
                104.679419942,15.1170282520001,0
                104.679080247,15.116785351,0
                104.678871755,15.1166259660001,0
                104.678853966,15.11661237,0
                104.678689423,15.1164606040001,0
                104.67868473,15.1164562750001,0
                104.678466411,15.1162281090001,0
                104.677889717,15.1157179890001,0
                104.676775062,15.114731985,0
                104.676586091,15.114539974,0
                104.676384583,15.1143220810001,0
                104.676261306,15.1141771100001,0
                104.676197335,15.1140860570001,0
                104.676141113,15.1139730190001,0
                104.676120273,15.113904989,0
                104.676099848,15.113790706,0
                104.676090737,15.1136259950001,0
                104.676101214,15.113488279,0
                104.676126682,15.1133822630001,0
                104.676166043,15.1132667270001,0
                104.676171994,15.113256198,0
                104.676229094,15.1131551820001,0
                104.676292755,15.113066524,0
                104.676374905,15.1129636590001,0
                104.676462009,15.112869833,0
                104.676471802,15.1128610440001,0
                104.676557882,15.112783789,0
                104.676695131,15.112679131,0
                104.677295026,15.112284892,0
                104.677508104,15.112154989,0
                104.677665293,15.1120591590001,0
                104.678169669,15.111741748,0
                104.679741229,15.1107818080001,0
                104.67998648,15.1105970020001,0
                104.680082735,15.110524475,0
                104.680290171,15.1103451490001,0
                104.680413731,15.110225287,0
                104.680438973,15.110200804,0
                104.680683608,15.1099198750001,0
                104.680767718,15.1097995980001,0
                104.680778148,15.1097820860001,0
                104.680832245,15.109666423,0
                104.680852642,15.109603958,0
                104.680871802,15.1095081830001,0
                104.680874233,15.109488695,0
                104.680884134,15.1093293210001,0
                104.680877812,15.109065022,0
                104.680863296,15.1088843380001,0
                104.68083643,15.1086992300001,0
                104.680787094,15.1085271740001,0
                104.680695197,15.1083198960001,0
                104.680592763,15.108124209,0
                104.680468492,15.1078988510001,0
                104.680338117,15.1077016890001,0
                104.680281112,15.107625392,0
                104.680206209,15.107552459,0
                104.680182391,15.1075358590001,0
                104.680047627,15.1074419130001,0
                104.680034349,15.107434848,0
                104.679680991,15.1072467980001,0
                104.679516386,15.1071706720001,0
                104.67950738,15.1071668750001,0
                104.679288264,15.1070853430001,0
                104.679008008,15.107009927,0
                104.678746725,15.106938621,0
                104.678499471,15.106874455,0
                104.678485986,15.1068716120001,0
                104.677909816,15.106710892,0
                104.676544716,15.10627278,0
                104.675906408,15.1060574100001,0
                104.675319992,15.105833692,0
                104.675113247,15.1057341490001,0
                104.674564731,15.1053951010001,0
                104.674388725,15.1052725330001,0
                104.673396724,15.104516113,0
                104.672943613,15.1041017470001,0
                104.672637761,15.1037487520001,0
                104.672386855,15.103411872,0
                104.672278477,15.103239622,0
                104.671894067,15.1025799760001,0
                104.67174076,15.102341263,0
                104.671688428,15.1022630050001,0
                104.671442792,15.101953902,0
                104.671357708,15.101821015,0
                104.671282417,15.1016548280001,0
                104.671139423,15.1012726760001,0
                104.670960622,15.100825894,0
                104.670822134,15.1005060310001,0
                104.670766482,15.1003566530001,0
                104.670705573,15.1001438220001,0
                104.670615362,15.099874528,0
                104.670542373,15.099581399,0
                104.670475211,15.099370687,0
                104.670427745,15.0992468370001,0
                104.670202969,15.098741552,0
                104.670174008,15.0986207980001,0
                104.670160726,15.0984748560001,0
                104.670163944,15.0982152870001,0
                104.670180168,15.098114099,0
                104.670218185,15.0979836450001,0
                104.670247991,15.097912153,0
                104.670299023,15.097813736,0
                104.670394436,15.09766275,0
                104.670430138,15.0976098130001,0
                104.670478225,15.0975284900001,0
                104.670541053,15.097386037,0
                104.670597807,15.0972150860001,0
                104.670659519,15.097053176,0
                104.670690413,15.0969692960001,0
                104.670996557,15.096138089,0
                104.671026184,15.09605765,0
                104.671218815,15.0955346420001,0
                104.671316469,15.0953168130001,0
                104.671410196,15.095141035,0
                104.67146998,15.0950422820001,0
                104.671575058,15.0948931190001,0
                104.671605291,15.094859432,0
                104.671700725,15.094763266,0
                104.671784115,15.094691724,0
                104.672246394,15.0943816110001,0
                104.672481568,15.0942354220001,0
                104.672721914,15.0941011300001,0
                104.673247543,15.093851595,0
                104.673807884,15.0936202460001,0
                104.674211555,15.093475653,0
                104.674490631,15.093388186,0
                104.67478282,15.093284926,0
                104.67525527,15.0931025250001,0
                104.675417256,15.093051652,0
                104.675579381,15.09301414,0
                104.675809183,15.0929920360001,0
                104.676475932,15.0930069360001,0
                104.676689293,15.093024406,0
                104.676933541,15.0930545210001,0
                104.677069487,15.0930778040001,0
                104.677248174,15.0931204510001,0
                104.677272689,15.093127802,0
                104.677480978,15.093200589,0
                104.677557588,15.0932382730001,0
                104.677731759,15.093340599,0
                104.677882148,15.0934335000001,0
                104.677955101,15.093489785,0
                104.677973425,15.0935039230001,0
                104.678266161,15.0937297780001,0
                104.678406431,15.093842126,0
                104.678653237,15.0940947450001,0
                104.678754722,15.094210462,0
                104.67884411,15.0943315390001,0
                104.678891121,15.0944094170001,0
                104.678922841,15.0944791810001,0
                104.678950757,15.094556778,0
                104.678995367,15.0947451280001,0
                104.678995742,15.0947482560001,0
                104.679003474,15.0948603410001,0
                104.678962141,15.096211935,0
                104.678920503,15.096748914,0
                104.678892414,15.0972630270001,0
                104.67889261,15.0975392120001,0
                104.678904142,15.0978847010001,0
                104.678935297,15.0981919930001,0
                104.678983263,15.098519181,0
                104.679131472,15.0992816400001,0
                104.679168264,15.099441486,0
                104.679209899,15.099550499,0
                104.679284619,15.0996998110001,0
                104.679392939,15.09987119,0
                104.679456646,15.099961218,0
                104.679602302,15.1001179100001,0
                104.679737677,15.1002427880001,0
                104.679896249,15.1003533360001,0
                104.67999344,15.100414551,0
                104.680187037,15.100527506,0
                104.680238653,15.100552436,0
                104.680326865,15.1005853250001,0
                104.68040914,15.1006113770001,0
                104.680474305,15.100632009,0
                104.680680108,15.100692951,0
                104.680716726,15.1007037950001,0
                104.680892442,15.100749767,0
                104.681110324,15.1007855170001,0
                104.681381596,15.100820841,0
                104.681962198,15.100875161,0
                104.682242808,15.100880864,0
                104.682385904,15.1009053970001,0
                104.68240169,15.1009090260001,0
                104.682674527,15.1009717590001,0
                104.682781626,15.100988412,0
                104.683120571,15.1010116310001,0
                104.683319383,15.1010185330001,0
                104.683525223,15.101014671,0
                104.683707051,15.1009942060001,0
                104.683741236,15.1009878670001,0
                104.683940909,15.1009508550001,0
                104.683998495,15.1009436950001,0
                104.684015912,15.1009415300001,0
                104.684647451,15.1008988940001,0
                104.684881357,15.100873506,0
                104.685719658,15.100743632,0
                104.686092216,15.1007331270001,0
                104.686268366,15.1007281600001,0
                104.686404168,15.100718139,0
                104.686556733,15.100694214,0
                104.686682991,15.1006671970001,0
                104.686800641,15.1006311080001,0
                104.686976149,15.100577269,0
                104.687126813,15.1005486560001,0
                104.687431678,15.1004985970001,0
                104.687662215,15.1004479220001,0
                104.687900018,15.10037801,0
                104.688218864,15.1002713730001,0
                104.688498418,15.100156704,0
                104.688610511,15.100110726,0
                104.688615603,15.1001081310001,0
                104.688725899,15.1000403210001,0
                104.688869421,15.099923371,0
                104.688911844,15.099870057,0
                104.689147722,15.099573623,0
                104.689524442,15.09904956,0
                104.689601817,15.098910038,0
                104.689638265,15.0988443150001,0
                104.689733956,15.0986013360001,0
                104.689840362,15.0983954280001,0
                104.689955541,15.098151327,0
                104.6899916,15.098058381,0
                104.690010579,15.0979861270001,0
                104.690036656,15.0977975120001,0
                104.690092607,15.0975650680001,0
                104.690148957,15.097230806,0
                104.690170788,15.097012636,0
                104.690170258,15.096885077,0
                104.690154687,15.096797349,0
                104.690118436,15.096676173,0
                104.69008704,15.096591613,0
                104.690059378,15.0965443320001,0
                104.690009585,15.0964672530001,0
                104.689908907,15.096343636,0
                104.689636039,15.0960534500001,0
                104.689543591,15.0959789990001,0
                104.689419862,15.0958930890001,0
                104.689110292,15.0957064950001,0
                104.689088539,15.0956944760001,0
                104.688964333,15.0956335770001,0
                104.688877292,15.095600018,0
                104.688623558,15.0955415830001,0
                104.688166748,15.095481797,0
                104.687482254,15.095354478,0
                104.686831169,15.0951844840001,0
                104.68639989,15.0950718730001,0
                104.686331291,15.095051284,0
                104.686097636,15.0949811520001,0
                104.686024927,15.0949593280001,0
                104.685653542,15.094847853,0
                104.685381627,15.0947309950001,0
                104.685233219,15.0946476840001,0
                104.685082115,15.094542459,0
                104.685055432,15.094523877,0
                104.684901823,15.094422368,0
                104.684833273,15.094367334,0
                104.684822361,15.0943585700001,0
                104.684752433,15.094302428,0
                104.684582852,15.0941326,0
                104.684554277,15.0941003300001,0
                104.684316398,15.093831736,0
                104.68390923,15.093306968,0
                104.683771032,15.093110998,0
                104.683434475,15.092662159,0
                104.683288247,15.0924973900001,0
                104.682691782,15.091753172,0
                104.682676021,15.091735622,0
                104.6826507,15.0917077620001,0
                104.682593364,15.0916473300001,0
                104.682580964,15.091634261,0
                104.682438696,15.0914843140001,0
                104.682204374,15.0912373410001,0
                104.682184025,15.0912190560001,0
                104.681848206,15.0909173530001,0
                104.681678102,15.090774799,0
                104.681545555,15.0906700780001,0
                104.681292497,15.0905031030001,0
                104.6812601,15.090486809,0
                104.681147754,15.0904300710001,0
                104.68089907,15.090326057,0
                104.680826015,15.0903007210001,0
                104.680582748,15.0901968810001,0
                104.680504267,15.090164056,0
                104.680373883,15.0901119440001,0
                104.680253011,15.090055294,0
                104.679854509,15.0898414270001,0
                104.679385259,15.089622019,0
                104.679128595,15.0895100290001,0
                104.679057713,15.089467132,0
                104.678894739,15.0893569940001,0
                104.678882645,15.0893456650001,0
                104.678824127,15.089290846,0
                104.678561914,15.0889583960001,0
                104.678507815,15.0888800880001,0
                104.678467842,15.0888222300001,0
                104.677491088,15.087552246,0
                104.677001636,15.0869377660001,0
                104.676941656,15.0868480820001,0
                104.676736435,15.0865412430001,0
                104.67671078,15.086503753,0
                104.676496015,15.086189916,0
                104.67647706,15.0861597160001,0
                104.676355502,15.0859425370001,0
                104.676309638,15.0858298590001,0
                104.67630707,15.085823552,0
                104.676246495,15.085673881,0
                104.676229556,15.0855689260001,0
                104.676231222,15.0854543450001,0
                104.676251003,15.085311814,0
                104.676293862,15.085150378,0
                104.676370435,15.0850155840001,0
                104.676428876,15.0849281220001,0
                104.676619423,15.084642925,0
                104.676696499,15.0845423370001,0
                104.676994785,15.084179287,0
                104.677192668,15.0839634450001,0
                104.677205008,15.083949987,0
                104.677362302,15.083836075,0
                104.677487707,15.0837641970001,0
                104.677641872,15.083709921,0
                104.67785259,15.0836542270001,0
                104.678073216,15.083616609,0
                104.678341699,15.0836052760001,0
                104.678523526,15.08360472,0
                104.678592349,15.083610934,0
                104.678710118,15.083628085,0
                104.678811157,15.083649946,0
                104.678984952,15.083704583,0
                104.67917743,15.083784741,0
                104.679606582,15.083963457,0
                104.679843972,15.084062322,0
                104.679957069,15.084123391,0
                104.680135821,15.084219917,0
                104.680366006,15.0843684270001,0
                104.680613844,15.0845283210001,0
                104.680954946,15.084748383,0
                104.681281742,15.0849592160001,0
                104.682080661,15.085379442,0
                104.6822256,15.0854448530001,0
                104.682346511,15.085492113,0
                104.682626359,15.0855867990001,0
                104.682811691,15.0856402100001,0
                104.683149973,15.0857573230001,0
                104.683327219,15.0858045630001,0
                104.683589537,15.085853205,0
                104.683685697,15.085859859,0
                104.683848669,15.085849771,0
                104.684144556,15.0857887400001,0
                104.684262492,15.0857532860001,0
                104.684517632,15.0856765820001,0
                104.685177068,15.0854418960001,0
                104.68651965,15.084964074,0
                104.686540247,15.0849567450001,0
                104.686759282,15.084859598,0
                104.686852917,15.0848343330001,0
                104.686866847,15.084830665,0
                104.687418343,15.0847477780001,0
                104.687916527,15.084718153,0
                104.687955939,15.0847129740001,0
                104.688211356,15.084671837,0
                104.688375913,15.0846293600001,0
                104.688408051,15.084621065,0
                104.688600277,15.084579569,0
                104.68906046,15.0845113250001,0
                104.689591858,15.084432513,0
                104.69005161,15.0843643270001,0
                104.690221306,15.0843328600001,0
                104.691091807,15.0841714420001,0
                104.691497468,15.084096222,0
                104.691716387,15.0840556270001,0
                104.691891477,15.084010569,0
                104.692114156,15.083929863,0
                104.692175507,15.0839076290001,0
                104.692455311,15.083790618,0
                104.692669016,15.083670694,0
                104.692835723,15.083556533,0
                104.69293248,15.083471628,0
                104.693032604,15.0833362380001,0
                104.693080782,15.083240215,0
                104.693110479,15.0831168080001,0
                104.69311365,15.083103631,0
                104.693115717,15.083093091,0
                104.693138494,15.0828076060001,0
                104.693126818,15.0825710300001,0
                104.693106973,15.082478806,0
                104.693067456,15.082410754,0
                104.692999548,15.082316973,0
                104.692762763,15.082080773,0
                104.692493141,15.0818454000001,0
                104.69228587,15.081601348,0
                104.692191223,15.0815143310001,0
                104.691885642,15.081221473,0
                104.691726555,15.0810387770001,0
                104.6912404,15.0803799660001,0
                104.691123473,15.080221513,0
                104.690976704,15.0800226210001,0
                104.69050321,15.079409819,0
                104.690498028,15.079403112,0
                104.689439424,15.07785885,0
                104.689226467,15.0775807540001,0
                104.688591662,15.0768323290001,0
                104.688496312,15.076733029,0
                104.688367403,15.07659879,0
                104.688290964,15.0765191880001,0
                104.68812792,15.0763459360001,0
                104.688021551,15.0762420950001,0
                104.688017044,15.076237696,0
                104.687786081,15.075988619,0
                104.687652841,15.075827625,0
                104.687431972,15.0755237280001,0
                104.687401694,15.075482068,0
                104.687262864,15.075309304,0
                104.687141573,15.075126578,0
                104.686864655,15.0746506150001,0
                104.686743622,15.074492369,0
                104.6865572,15.074279962,0
                104.686506259,15.0742065110001,0
                104.686424632,15.0740888130001,0
                104.686362784,15.0739760340001,0
                104.68491027,15.074461973,0
                104.684511915,15.0745309110001,0
                104.684185491,15.074568583,0
                104.683822392,15.074595388,0
                104.683592289,15.074607068,0
                104.682342001,15.074561922,0
                104.679939623,15.0745162650001,0
                104.679188088,15.0745292670001,0
                104.678860406,15.074519825,0
                104.678066453,15.0745338840001,0
                104.676743753,15.0745023060001,0
                104.674997355,15.0744990370001,0
                104.673749557,15.0745480470001,0
                104.672811418,15.07461284,0
                104.671474444,15.074728882,0
                104.670661831,15.074725711,0
                104.67007917,15.0747049820001,0
                104.669562695,15.074664915,0
                104.668315781,15.0745194410001,0
                104.666978757,15.0744056770001,0
                104.66550267,15.0743071790001,0
                104.664597902,15.074259157,0
                104.663408022,15.074206497,0
                104.662128341,15.074197317,0
                104.661194055,15.074179483,0
                104.660666085,15.0741632510001,0
                104.659780118,15.074138303,0
                104.658593822,15.074221042,0
                104.657353298,15.0743169080001,0
                104.656452584,15.0744219440001,0
                104.655605781,15.0745020570001,0
                104.655255095,15.0745402910001,0
                104.65438514,15.074662222,0
                104.65321329,15.074832949,0
                104.651618495,15.075061379,0
                104.650845019,15.0751632120001,0
                104.650313317,15.0752354270001,0
                104.649932173,15.075268522,0
                104.649653105,15.0752637190001,0
                104.649404187,15.0752522650001,0
                104.648936954,15.0752403760001,0
                104.647564467,15.0751627340001,0
                104.646465137,15.075095935,0
                104.645542639,15.0750659560001,0
                104.644796183,15.075043361,0
                104.644121823,15.0749953920001,0
                104.643672141,15.074959488,0
                104.642760354,15.0748762010001,0
                104.641980329,15.074730701,0
                104.641456529,15.074643614,0
                104.640894037,15.0744691090001,0
                104.640424154,15.0743571030001,0
                104.639852966,15.074312438,0
                104.639434213,15.074299323,0
                104.639065334,15.074337986,0
                104.638836301,15.0743908360001,0
                104.63806064,15.07463998,0
                104.637436007,15.074867677,0
                104.636759321,15.0751909460001,0
                104.636448712,15.075369564,0
                104.636253246,15.0755453100001,0
                104.6360873,15.075690857,0
                104.635969677,15.0758293100001,0
                104.635840555,15.0759916160001,0
                104.635612308,15.076303694,0
                104.635305428,15.0766236310001,0
                104.634736885,15.0771386370001,0
                104.634237794,15.0775281750001,0
                104.633586735,15.077903825,0
                104.632947634,15.0782732870001,0
                104.632245291,15.078544155,0
                104.631631202,15.0787126560001,0
                104.630974998,15.078893996,0
                104.630160612,15.0790557010001,0
                104.629441938,15.079167882,0
                104.628619934,15.0792708550001,0
                104.628124399,15.079336229,0
                104.627362834,15.0794317950001,0
                104.626970009,15.079482827,0
                104.626391181,15.0796091940001,0
                104.626084132,15.0796934360001,0
                104.625753923,15.0798195030001,0
                104.625153494,15.080046571,0
                104.624709075,15.080210837,0
                104.624151063,15.080436847,0
                104.623964436,15.08048863,0
                104.623657384,15.080572869,0
                104.623350948,15.0806806680001,0
                104.622930764,15.0808443230001,0
                104.622365755,15.081035152,0
                104.621801055,15.081237754,0
                104.621236664,15.0814521360001,0
                104.620515169,15.0816881000001,0
                104.619891878,15.081968756,0
                104.619352966,15.082229634,0
                104.618994308,15.082427109,0
                104.618665488,15.082606163,0
                104.618300773,15.082803788,0
                104.617206922,15.0834084300001,0
                104.616566371,15.083724865,0
                104.616086187,15.0839135690001,0
                104.615563426,15.0840974430001,0
                104.614919302,15.0842784390001,0
                104.614231976,15.08443105,0
                104.613610228,15.0845407790001,0
                104.613059966,15.0846015920001,0
                104.612769527,15.084626488,0
                104.612557717,15.084643537,0
                104.612309549,15.08466149,0
                104.612054386,15.0846442590001,0
                104.611865429,15.0846077100001,0
                104.611639792,15.0845602850001,0
                104.611389455,15.084495797,0
                104.611071672,15.084403523,0
                104.6106072,15.084267756,0
                104.61016153,15.0841550870001,0
                104.609966667,15.0841245710001,0
                104.609645148,15.084120775,0
                104.60925106,15.0841246700001,0
                104.609034432,15.084188973,0
                104.608806455,15.0842830170001,0
                104.608656803,15.0843574420001,0
                104.608321905,15.0845366360001,0
                104.607925782,15.084693778,0
                104.607431292,15.084800332,0
                104.607099201,15.0848557140001,0
                104.606833312,15.084891779,0
                104.60642679,15.0848841920001,0
                104.605924383,15.084920235,0
                104.60561684,15.0849867920001,0
                104.605291273,15.0850596880001,0
                104.605008284,15.0851374160001,0
                104.604172983,15.085429193,0
                104.603582137,15.0855617010001,0
                104.603189745,15.08563036,0
                104.602814453,15.085657349,0
                104.602353381,15.085651109,0
                104.601793638,15.085582502,0
                104.601007641,15.0854429030001,0
                104.600587599,15.0853826100001,0
                104.60022365,15.085379849,0
                104.599648198,15.085405903,0
                104.599158215,15.0854534040001,0
                104.598748718,15.085563725,0
                104.598295714,15.0856338790001,0
                104.597992993,15.0856531690001,0
                104.597750874,15.0856709560001,0
                104.597339675,15.0857165,0
                104.597098947,15.0857872830001,0
                104.596939713,15.085809237,0
                104.596409266,15.0858642810001,0
                104.595966479,15.0859730230001,0
                104.595693893,15.085993747,0
                104.595406933,15.086014821,0
                104.594947217,15.086026211,0
                104.594042152,15.086048631,0
                104.593097281,15.0861977380001,0
                104.591604657,15.0862905720001,0
                104.588994387,15.0862933380001,0
                104.589377807,15.087147305,0
                104.589801302,15.088117202,0
                104.590019209,15.08866046,0
                104.590276478,15.0892926820001,0
                104.591387796,15.0916225180001,0
                104.592628745,15.0935606730001,0
                104.593270131,15.094280993,0
                104.594029487,15.094734208,0
                104.595015491,15.0949855800001,0
                104.595327541,15.0950651310001,0
                104.597993101,15.0955255320001,0
                104.600338004,15.0959447340001,0
                104.600935254,15.0961249320001,0
                104.601589708,15.0963695200001,0
                104.602471399,15.096806337,0
                104.603130111,15.097212707,0
                104.603396479,15.097484912,0
                104.60354045,15.097679208,0
                104.603619431,15.09786612,0
                104.603800144,15.098401279,0
                104.603925114,15.0989288330001,0
                104.604096814,15.099473205,0
                104.604210879,15.099938067,0
                104.604245494,15.1001980360001,0
                104.604283689,15.100551796,0
                104.604355362,15.101833847,0
                104.604368124,15.1023188080001,0
                104.604356744,15.102847366,0
                104.604343749,15.1033145370001,0
                104.604270887,15.1048704560001,0
                104.604174375,15.1072015300001,0
                104.604163783,15.107474758,0
                104.604163038,15.1077166490001,0
                104.604169867,15.1078408720001,0
                104.604211693,15.1079434910001,0
                104.604294979,15.108134917,0
                104.604418723,15.108377166,0
                104.604467566,15.108476158,0
                104.604477497,15.1085830220001,0
                104.604481134,15.1087211450001,0
                104.604492061,15.1088659970001,0
                104.604525677,15.10906211,0
                104.60454453,15.109237864,0
                104.604556367,15.109417245,0
                104.604569759,15.10952057,0
                104.604607659,15.1097442220001,0
                104.604669612,15.1100709340001,0
                104.604698581,15.1102257000001,0
                104.604719809,15.110356476,0
                104.604743772,15.1104560810001,0
                104.604805826,15.110651492,0
                104.604898861,15.11094288,0
                104.605002284,15.111223642,0
                104.605093137,15.111432157,0
                104.605126874,15.1115501420001,0
                104.605170284,15.1117579140001,0
                104.605179015,15.1120894060001,0
                104.605172684,15.112329129,0
                104.60517089,15.112501169,0
                104.605090995,15.112828719,0
                104.60503151,15.113211048,0
                104.60501156,15.11365382,0
                104.605000985,15.11445264,0
                104.60500177,15.114962469,0
                104.60497452,15.1156081290001,0
                104.604944354,15.1161432980001,0
                104.604866872,15.116802497,0
                104.604810628,15.1173076000001,0
                104.60470123,15.117955307,0
                104.604547259,15.118831405,0
                104.604444353,15.1192455250001,0
                104.604259296,15.1196616930001,0
                104.604076517,15.11992423,0
                104.603916897,15.1203459060001,0
                104.603812049,15.1206863630001,0
                104.603712871,15.121002108,0
                104.603625028,15.1215080010001,0
                104.603505587,15.122014676,0
                104.603392637,15.122287762,0
                104.603093347,15.1226883410001,0
                104.60282387,15.1230206060001,0
                104.602685809,15.123300462,0
                104.602494426,15.123716788,0
                104.602390878,15.1238667870001,0
                104.602295108,15.124071879,0
                104.602216357,15.1242028360001,0
                104.602160775,15.1242533600001,0
                104.602061608,15.124329538,0
                104.601983337,15.1244789080001,0
                104.601913652,15.1247140680001,0
                104.601852386,15.125028871,0
                104.601793713,15.1254418930001,0
                104.60174735,15.125842328,0
                104.601731777,15.126211278,0
                104.601707134,15.1264760330001,0
                104.601657703,15.1267598270001,0
                104.601611826,15.127178676,0
                104.601592857,15.127418715,0
                104.601595922,15.12777492,0
                104.601595262,15.127989933,0
                104.601619386,15.1284254670001,0
                104.601638487,15.128910273,0
                104.601668133,15.1290753910001,0
                104.601646414,15.1292110700001,0
                104.601591641,15.12929229,0
                104.601406912,15.1294811650001,0
                104.601246323,15.1296264420001,0
                104.601116201,15.1297279610001,0
                104.601029509,15.129797689,0
                104.600918833,15.12991715,0
                104.600872807,15.1300902950001,0
                104.600844539,15.1301874220001,0
                104.600845967,15.130241642,0
                104.600855125,15.1303065290001,0
                104.600887371,15.1303997740001,0
                104.600926489,15.1304711450001,0
                104.600976297,15.130524167,0
                104.601041562,15.1305985070001,0
                104.601065413,15.1306557890001,0
                104.601116741,15.1307666480001,0
                104.60117962,15.1308916890001,0
                104.601204901,15.1310031960001,0
                104.601237339,15.1311036700001,0
                104.601268626,15.1313018450001,0
                104.601279122,15.131417334,0
                104.601310702,15.1314852780001,0
                104.601375677,15.131548771,0
                104.601440846,15.1316194990001,0
                104.601451052,15.1317241460001,0
                104.601446468,15.1318327760001,0
                104.601456388,15.1319265760001,0
                104.601488635,15.132019826,0
                104.601554949,15.132133927,0
                104.601621262,15.1322480320001,0
                104.601670492,15.1324204370001,0
                104.601726878,15.132581811,0
                104.601758363,15.1326461370001,0
                104.601801682,15.1327354920001,0
                104.601878205,15.1328131670001,0
                104.601984121,15.1328756410001,0
                104.602104251,15.1329124440001,0
                104.602243371,15.1329632440001,0
                104.602375525,15.1330323,0
                104.602437358,15.133117574,0
                104.602478288,15.133257633,0
                104.602507861,15.133390736,0
                104.602542683,15.133581583,0
                104.602600314,15.133789951,0
                104.602612904,15.13398497,0
                104.602655359,15.1341828610001,0
                104.602666233,15.13431281,0
                104.602683788,15.1344136590001,0
                104.602727203,15.134506625,0
                104.60281546,15.1346057150001,0
                104.602910593,15.134682926,0
                104.6029437,15.1348087060001,0
                104.602961635,15.134924015,0
                104.602999997,15.134966466,0
                104.603133583,15.1350897460001,0
                104.603301707,15.135251953,0
                104.60354779,15.1355460620001,0
                104.603861431,15.135860193,0
                104.604168206,15.1361961970001,0
                104.604428414,15.1364610150001,0
                104.604606558,15.1367206370001,0
                104.604850357,15.137069061,0
                104.604978696,15.137275667,0
                104.605004839,15.137419703,0
                104.605055794,15.1375161,0
                104.605145171,15.137618172,0
                104.605276638,15.1378335410001,0
                104.605387238,15.1380108450001,0
                104.605410141,15.138126029,0
                104.605427613,15.138286361,0
                104.605451868,15.1384529530001,0
                104.605542453,15.1386243260001,0
                104.605715823,15.1389222490001,0
                104.605738891,15.139043857,0
                104.605744488,15.139255927,0
                104.605754834,15.13964794,0
                104.605806912,15.1401160790001,0
                104.605817428,15.1405145200001,0
                104.605841685,15.140931906,0
                104.605864417,15.1412914580001,0
                104.605913274,15.1416374950001,0
                104.605958566,15.1420993730001,0
                104.605969933,15.142529946,0
                104.605924977,15.1428333050001,0
                104.605874085,15.143162535,0
                104.605757541,15.1435126910001,0
                104.605702409,15.1436812600001,0
                104.605513764,15.143808141,0
                104.604876755,15.144254862,0
                104.604022086,15.144732721,0
                104.603638184,15.1449866460001,0
                104.602851367,15.145276326,0
                104.602300017,15.1454572490001,0
                104.601029008,15.1457347800001,0
                104.600589335,15.1466846550001,0
                104.599100722,15.14874401,0
                104.59838426,15.150477198,0
                104.598233721,15.151112918,0
                104.598348978,15.1519586970001,0
                104.599098746,15.1528970270001,0
                104.600175298,15.1535383090001,0
                104.601390959,15.1538149990001,0
                104.601958994,15.153811611,0
                104.603412605,15.1536382470001,0
                104.606677018,15.1526540940001,0
                104.609734653,15.151584777,0
                104.613494328,15.149649278,0
                104.61551867,15.14817234,0
                104.616953774,15.146908717,0
                104.618356918,15.145140326,0
                104.619090863,15.1440747620001,0
                104.622533265,15.1385901240001,0
                104.625292059,15.133267006,0
                104.626747865,15.130684794,0
                104.628007925,15.128432473,0
                104.629328521,15.127063365,0
                104.630401963,15.126187927,0
                104.631119198,15.1258991720001,0
                104.631897889,15.1258255390001,0
                104.633278136,15.126007698,0
                104.635159883,15.1261773030001,0
                104.638650415,15.1260358000001,0
                104.640213044,15.126086963,0
                104.642131446,15.1262375330001,0
                104.643587891,15.1264899330001,0
                104.644417607,15.126938582,0
                104.645235939,15.127658335,0
                104.645608499,15.128389257,0
                104.645677275,15.129579171,0
                104.64544036,15.131155904,0
                104.644802351,15.1323274280001,0
                104.644476959,15.132812073,0
                104.644305026,15.1330970560001,0
                104.644179173,15.1334730080001,0
                104.644027361,15.134639855,0
                104.643710626,15.1374102340001,0
                104.643037011,15.1393409670001,0
                104.641493809,15.1421240450001,0
                104.639933806,15.1442756060001,0
                104.639115266,15.145650264,0
                104.638571037,15.146855552,0
                104.638365975,15.148232894,0
                104.638861533,15.149394068,0
                104.639831458,15.1502183540001,0
                104.64112185,15.1505109930001,0
                104.642524052,15.150114724,0
                104.645341109,15.148401032,0
                104.64879386,15.1461297110001,0
                104.650410747,15.1454210840001,0
                104.651552826,15.145031305,0
                104.653054071,15.144867209,0
                104.654878783,15.1449838560001,0
                104.65884031,15.145768956,0
                104.660950863,15.146149183,0
                104.662494049,15.1461645140001,0
                104.663882855,15.1459670690001,0
                104.665298696,15.14538979,0
                104.666626746,15.144309186,0
                104.669566983,15.1416533400001,0
                104.671329687,15.140146526,0
                104.672798071,15.1387554460001,0
                104.675141116,15.136710414,0
                104.676454589,15.1350885250001,0
                104.67798877,15.132684732,0
                104.679053267,15.1314843660001,0
                104.681294864,15.129821013,0
                104.683477085,15.128718818,0
                104.685749496,15.128210116,0
                104.687585312,15.1280554460001,0
                104.689428365,15.1281713860001,0
              </coordinates>
                
            </LinearRing>
            
          </outerBoundaryIs>
        
        </Polygon>
        
      <styleUrl>
        #tambonStyle</styleUrl>
    </Placemark>

  </Document>
</kml>