<?xml version="1.0" encoding="UTF-8"?>
<kml xmlns="http://www.opengis.net/kml/2.2">
  <Document id="tambon_doc">
    <name>เกาะยอ, เมืองสงขลา, Songkhla</name>
    <description>ข้อมูลขอบเขตตำบลเกาะยอ อำเภอเมืองสงขลา จังหวัดSongkhla</description>
    
    <!-- Schema สำหรับข้อมูลตำบล -->
    <Schema id="tambon.schema">
      <SimpleField name="ADM3_EN" type="string">
        <displayName>Subdistrict Name (English)</displayName>
      </SimpleField>
      <SimpleField name="ADM3_TH" type="string">
        <displayName>ชื่อตำบล</displayName>
      </SimpleField>
      <SimpleField name="ADM2_EN" type="string">
        <displayName>District Name (English)</displayName>
      </SimpleField>
      <SimpleField name="ADM2_TH" type="string">
        <displayName>ชื่ออำเภอ</displayName>
      </SimpleField>
      <SimpleField name="ADM1_EN" type="string">
        <displayName>Province Name (English)</displayName>
      </SimpleField>
      <SimpleField name="ADM1_TH" type="string">
        <displayName>ชื่อจังหวัด</displayName>
      </SimpleField>
      <SimpleField name="ADM0_EN" type="string">
        <displayName>Country Name (English)</displayName>
      </SimpleField>
      <SimpleField name="ADM0_TH" type="string">
        <displayName>ชื่อประเทศ</displayName>
      </SimpleField>
    </Schema>

    <!-- Style สำหรับตำบล -->
    <Style id="tambonStyle">
      <LineStyle>
        <color>ffff0000</color>
        <width>1.5</width>
      </LineStyle>
      <PolyStyle>
        <color>33ff0000</color>
        <fill>1</fill>
        <outline>1</outline>
      </PolyStyle>
    </Style>

    <Placemark id="Songkhla.6">
        
        <ExtendedData>
            
          <SchemaData schemaUrl="#tambon.schema">
                
            <SimpleData name="Shape_Leng">
                0.250169034128</SimpleData>
                
            <SimpleData name="Shape_Area">
                0.00297544339257</SimpleData>
                
            <SimpleData name="ADM3_EN">
                Ko Yo</SimpleData>
                
            <SimpleData name="ADM3_TH">
                เกาะยอ</SimpleData>
                
            <SimpleData name="ADM3_PCODE">
                TH900106</SimpleData>
                
            <SimpleData name="ADM2_EN">
                Mueang Songkhla</SimpleData>
                
            <SimpleData name="ADM2_TH">
                เมืองสงขลา</SimpleData>
                
            <SimpleData name="ADM2_PCODE">
                TH9001</SimpleData>
                
            <SimpleData name="ADM1_EN">
                Songkhla</SimpleData>
                
            <SimpleData name="ADM1_TH">
                สงขลา</SimpleData>
                
            <SimpleData name="ADM1_PCODE">
                TH90</SimpleData>
                
            <SimpleData name="ADM0_EN">
                Thailand</SimpleData>
                
            <SimpleData name="ADM0_TH">
                ประเทศไทย</SimpleData>
                
            <SimpleData name="ADM0_PCODE">
                TH</SimpleData>
            
          </SchemaData>
        
        </ExtendedData>
        
        <Polygon>
            
          <outerBoundaryIs>
                
            <LinearRing>
                    
              <coordinates>
                    
                100.557864631,7.18169258000006,0
                100.563340847,7.17706649300004,0
                100.568510909,7.17288021300004,0
                100.572650891,7.16882114200007,0
                100.559601097,7.15424943500005,0
                100.554924517,7.15092719000006,0
                100.54329562,7.14518878400003,0
                100.539900614,7.14419104300003,0
                100.537536652,7.14361419200003,0
                100.535768031,7.14332720400006,0
                100.532672041,7.14317974700003,0
                100.530935309,7.14329938700007,0
                100.526900846,7.14428520800004,0
                100.524289527,7.14516704100004,0
                100.50422478,7.15811715600006,0
                100.462209985,7.18704111600005,0
                100.547108472,7.18891937200004,0
                100.553032396,7.18514811500006,0
                100.557864631,7.18169258000006,0
              </coordinates>
                
            </LinearRing>
            
          </outerBoundaryIs>
        
        </Polygon>
        
      <styleUrl>
        #tambonStyle</styleUrl>
    </Placemark>

  </Document>
</kml>