<?xml version="1.0" encoding="UTF-8"?>
<kml xmlns="http://www.opengis.net/kml/2.2">
  <Document id="tambon_doc">
    <name>สามแยก, เลิงนกทา, Yasothon</name>
    <description>ข้อมูลขอบเขตตำบลสามแยก อำเภอเลิงนกทา จังหวัดYasothon</description>
    
    <!-- Schema สำหรับข้อมูลตำบล -->
    <Schema id="tambon.schema">
      <SimpleField name="ADM3_EN" type="string">
        <displayName>Subdistrict Name (English)</displayName>
      </SimpleField>
      <SimpleField name="ADM3_TH" type="string">
        <displayName>ชื่อตำบล</displayName>
      </SimpleField>
      <SimpleField name="ADM2_EN" type="string">
        <displayName>District Name (English)</displayName>
      </SimpleField>
      <SimpleField name="ADM2_TH" type="string">
        <displayName>ชื่ออำเภอ</displayName>
      </SimpleField>
      <SimpleField name="ADM1_EN" type="string">
        <displayName>Province Name (English)</displayName>
      </SimpleField>
      <SimpleField name="ADM1_TH" type="string">
        <displayName>ชื่อจังหวัด</displayName>
      </SimpleField>
      <SimpleField name="ADM0_EN" type="string">
        <displayName>Country Name (English)</displayName>
      </SimpleField>
      <SimpleField name="ADM0_TH" type="string">
        <displayName>ชื่อประเทศ</displayName>
      </SimpleField>
    </Schema>

    <!-- Style สำหรับตำบล -->
    <Style id="tambonStyle">
      <LineStyle>
        <color>ffff0000</color>
        <width>1.5</width>
      </LineStyle>
      <PolyStyle>
        <color>33ff0000</color>
        <fill>1</fill>
        <outline>1</outline>
      </PolyStyle>
    </Style>

    <Placemark id="Yasothon.70">
        
        <ExtendedData>
            
          <SchemaData schemaUrl="#tambon.schema">
                
            <SimpleData name="Shape_Leng">
                0.373953685234</SimpleData>
                
            <SimpleData name="Shape_Area">
                0.0049119763431</SimpleData>
                
            <SimpleData name="ADM3_EN">
                Sam Yaek</SimpleData>
                
            <SimpleData name="ADM3_TH">
                สามแยก</SimpleData>
                
            <SimpleData name="ADM3_PCODE">
                TH350810</SimpleData>
                
            <SimpleData name="ADM2_EN">
                Loeng Nok Tha</SimpleData>
                
            <SimpleData name="ADM2_TH">
                เลิงนกทา</SimpleData>
                
            <SimpleData name="ADM2_PCODE">
                TH3508</SimpleData>
                
            <SimpleData name="ADM1_EN">
                Yasothon</SimpleData>
                
            <SimpleData name="ADM1_TH">
                ยโสธร</SimpleData>
                
            <SimpleData name="ADM1_PCODE">
                TH35</SimpleData>
                
            <SimpleData name="ADM0_EN">
                Thailand</SimpleData>
                
            <SimpleData name="ADM0_TH">
                ประเทศไทย</SimpleData>
                
            <SimpleData name="ADM0_PCODE">
                TH</SimpleData>
            
          </SchemaData>
        
        </ExtendedData>
        
        <Polygon>
            
          <outerBoundaryIs>
                
            <LinearRing>
                    
              <coordinates>
                    
                104.560642936,16.261241512,0
                104.560661221,16.261237599,0
                104.560677531,16.261237169,0
                104.560693228,16.26123749,0
                104.560696244,16.261238044,0
                104.560709892,16.2612405530001,0
                104.560824089,16.2612824940001,0
                104.560900655,16.2613102180001,0
                104.560937097,16.261317664,0
                104.560956552,16.261318858,0
                104.560974278,16.261317428,0
                104.560997385,16.261310957,0
                104.56101425,16.261304264,0
                104.561017777,16.2613021380001,0
                104.561066893,16.261272535,0
                104.5612164,16.2611692140001,0
                104.561252609,16.261150081,0
                104.561270383,16.261141766,0
                104.561288244,16.2611365230001,0
                104.56130965,16.2611318670001,0
                104.561349342,16.2611246810001,0
                104.561371208,16.2611237630001,0
                104.561400888,16.2611224720001,0
                104.561410263,16.2611228690001,0
                104.561414616,16.261123056,0
                104.561417295,16.261123422,0
                104.561434955,16.2611258380001,0
                104.561475123,16.261140128,0
                104.561498775,16.261152462,0
                104.561536338,16.261176801,0
                104.561710668,16.261311759,0
                104.561750058,16.261335113,0
                104.561770943,16.2613412310001,0
                104.561803998,16.2613459030001,0
                104.561842852,16.2613484710001,0
                104.561861505,16.261347336,0
                104.561867468,16.2613460360001,0
                104.561896182,16.261339778,0
                104.562031493,16.2612667060001,0
                104.562098979,16.261214463,0
                104.562109232,16.2611978780001,0
                104.562112002,16.261193399,0
                104.562116996,16.261170226,0
                104.562122192,16.2611318940001,0
                104.562123553,16.2610881300001,0
                104.562118241,16.2610586330001,0
                104.562107352,16.2610176370001,0
                104.562029312,16.2608325250001,0
                104.562026166,16.260820951,0
                104.562025409,16.260815462,0
                104.562024583,16.2608094720001,0
                104.562025969,16.260791855,0
                104.562028697,16.2607772280001,0
                104.562036177,16.260762202,0
                104.562224347,16.26054786,0
                104.562323014,16.260435452,0
                104.562349391,16.26041954,0
                104.562372919,16.260408007,0
                104.562397788,16.2603995540001,0
                104.562407736,16.2603961730001,0
                104.562431393,16.260391038,0
                104.562586774,16.260382749,0
                104.562609936,16.2603769030001,0
                104.562636003,16.260366515,0
                104.562661293,16.2603506900001,0
                104.562679005,16.2603332460001,0
                104.562695934,16.260310367,0
                104.56269804,16.2603047380001,0
                104.562737229,16.2601999830001,0
                104.562738162,16.260198297,0
                104.562746333,16.2601835310001,0
                104.562747141,16.2601825520001,0
                104.562756045,16.260171755,0
                104.562765773,16.260160581,0
                104.562784719,16.260148386,0
                104.562829558,16.260129696,0
                104.56283456,16.260128421,0
                104.562923885,16.2601056510001,0
                104.563054143,16.260072447,0
                104.56306315,16.260071387,0
                104.563108334,16.260066067,0
                104.563134692,16.260065981,0
                104.563158682,16.2600708050001,0
                104.563178955,16.260077546,0
                104.563207218,16.2600990060001,0
                104.563320816,16.260235347,0
                104.563354664,16.2602760350001,0
                104.563383713,16.2603043710001,0
                104.5634125,16.260323624,0
                104.563417071,16.2603265330001,0
                104.563437359,16.260339446,0
                104.563511413,16.2603810430001,0
                104.563545746,16.260396508,0
                104.563589573,16.260414757,0
                104.563647755,16.2604302010001,0
                104.563667896,16.260432097,0
                104.563692019,16.260431904,0
                104.563713472,16.2604317340001,0
                104.563804375,16.2604194030001,0
                104.563845317,16.2604084320001,0
                104.563897198,16.2603945230001,0
                104.563939455,16.2603794670001,0
                104.563968576,16.260365968,0
                104.563994438,16.2603483090001,0
                104.564007895,16.2603358260001,0
                104.564021925,16.2603215090001,0
                104.564028847,16.260310342,0
                104.564042131,16.260281026,0
                104.564085739,16.260084674,0
                104.56409384,16.260067384,0
                104.564099891,16.260059346,0
                104.564107194,16.2600512710001,0
                104.564118312,16.2600449130001,0
                104.564127634,16.2600416380001,0
                104.564131518,16.260040847,0
                104.564147728,16.260037556,0
                104.564885941,16.260066221,0
                104.565422206,16.260075651,0
                104.565727592,16.260084132,0
                104.565838361,16.260099294,0
                104.565915947,16.2601129980001,0
                104.566643658,16.260292082,0
                104.567160824,16.2604435910001,0
                104.567264332,16.2604611670001,0
                104.567298906,16.260467039,0
                104.567376432,16.2604726610001,0
                104.567432821,16.2604742820001,0
                104.56750599,16.2604609850001,0
                104.567575837,16.2604386580001,0
                104.567586667,16.260433402,0
                104.567638456,16.2604082670001,0
                104.567712379,16.2603564940001,0
                104.567807511,16.260283083,0
                104.567892501,16.26019533,0
                104.56808058,16.260001135,0
                104.568165481,16.259929007,0
                104.568226906,16.2598906870001,0
                104.568299169,16.259850456,0
                104.568397309,16.259813374,0
                104.568415005,16.259809266,0
                104.568499795,16.2597895930001,0
                104.568581015,16.259777362,0
                104.569005552,16.259785836,0
                104.569184558,16.259802193,0
                104.569236478,16.25981424,0
                104.569280683,16.2598341520001,0
                104.569371239,16.259879669,0
                104.569626677,16.2600046920001,0
                104.56975818,16.260069055,0
                104.569766039,16.2600717330001,0
                104.569790712,16.260076683,0
                104.569825149,16.2600844,0
                104.569857937,16.2600864080001,0
                104.569902572,16.260078837,0
                104.570865279,16.259720655,0
                104.571317442,16.2595578240001,0
                104.571871333,16.259362122,0
                104.572154814,16.2592535410001,0
                104.572196335,16.259238899,0
                104.572318313,16.2591960720001,0
                104.572382472,16.259180481,0
                104.572504162,16.259154832,0
                104.572540494,16.2591389450001,0
                104.572577229,16.259119689,0
                104.572670501,16.2590508010001,0
                104.5728224,16.2589037110001,0
                104.57290608,16.2587763070001,0
                104.573008324,16.2585833380001,0
                104.573063303,16.258475537,0
                104.573191276,16.2580824610001,0
                104.57320329,16.258059368,0
                104.573219113,16.2580402670001,0
                104.573239443,16.258022484,0
                104.573275806,16.2580077120001,0
                104.573462163,16.257956802,0
                104.573614227,16.257909354,0
                104.574016851,16.257752499,0
                104.574049412,16.2577280400001,0
                104.574101388,16.2576720550001,0
                104.574111361,16.2576567150001,0
                104.574240595,16.257336663,0
                104.574570266,16.2558391420001,0
                104.574572948,16.254055049,0
                104.574552733,16.2533402490001,0
                104.574561528,16.2530845380001,0
                104.57456237,16.2530600810001,0
                104.574938646,16.249778216,0
                104.575247026,16.2488785210001,0
                104.575911607,16.2473813780001,0
                104.57843937,16.2430276150001,0
                104.580415626,16.2406991450001,0
                104.583433169,16.2380467790001,0
                104.584345755,16.2375105130001,0
                104.584897697,16.2372398480001,0
                104.585263566,16.2371590490001,0
                104.585646166,16.237148941,0
                104.586209775,16.2372905440001,0
                104.586969916,16.2376119030001,0
                104.587777426,16.238045813,0
                104.589292668,16.239030085,0
                104.591994826,16.2403243800001,0
                104.592640755,16.2406949850001,0
                104.59302987,16.2408762790001,0
                104.593174346,16.2409258120001,0
                104.593805158,16.241105169,0
                104.595486354,16.241438658,0
                104.59640326,16.241666884,0
                104.597551472,16.2419526790001,0
                104.599305798,16.240525453,0
                104.599707155,16.2401989250001,0
                104.600117425,16.239744923,0
                104.6003694,16.2393166680001,0
                104.600520675,16.2388850620001,0
                104.600667448,16.237981717,0
                104.600831742,16.236477635,0
                104.600831136,16.235987262,0
                104.600826536,16.2358036750001,0
                104.60080597,16.235036693,0
                104.600809081,16.234823298,0
                104.600811613,16.234649705,0
                104.600804699,16.2345801330001,0
                104.600795352,16.234540737,0
                104.600768831,16.2344805860001,0
                104.600767527,16.2344776260001,0
                104.600757511,16.234454914,0
                104.600743663,16.2343863,0
                104.600733836,16.2343194920001,0
                104.600731336,16.234231418,0
                104.600742464,16.2340644130001,0
                104.600762067,16.2339714340001,0
                104.600858118,16.233586857,0
                104.600865101,16.2335588870001,0
                104.601006688,16.233182862,0
                104.601005983,16.2331704870001,0
                104.601003399,16.233162371,0
                104.600996148,16.233154154,0
                104.600662287,16.2330093690001,0
                104.600636197,16.2329980540001,0
                104.600632476,16.2329953070001,0
                104.600627096,16.2329881750001,0
                104.600623089,16.232979642,0
                104.600621006,16.232966493,0
                104.600671536,16.2323899080001,0
                104.600693201,16.232044952,0
                104.600778055,16.2306938570001,0
                104.600762592,16.230358613,0
                104.600753341,16.230281517,0
                104.600706547,16.2298886070001,0
                104.600710009,16.2298142270001,0
                104.600710167,16.22981271,0
                104.600714692,16.229769553,0
                104.600719865,16.229745128,0
                104.600728368,16.229704982,0
                104.600860764,16.229434826,0
                104.60107055,16.229041142,0
                104.601082174,16.2290193320001,0
                104.60120418,16.228737423,0
                104.601219138,16.228678616,0
                104.601223259,16.2286624270001,0
                104.601236117,16.2285966480001,0
                104.601237318,16.2280623180001,0
                104.601223673,16.227986721,0
                104.601204306,16.227936733,0
                104.601187211,16.2278899610001,0
                104.601160739,16.22783474,0
                104.601127131,16.227784743,0
                104.601097698,16.2277409550001,0
                104.600993364,16.2276287460001,0
                104.600508747,16.2271805770001,0
                104.600244673,16.2269284270001,0
                104.59994609,16.226633335,0
                104.599935325,16.226583874,0
                104.599971081,16.226524139,0
                104.600403251,16.226083079,0
                104.600836189,16.22566913,0
                104.600996949,16.2255608610001,0
                104.601380422,16.22538338,0
                104.601855648,16.2251401620001,0
                104.602085923,16.225007438,0
                104.602391607,16.224728004,0
                104.602685441,16.2245257640001,0
                104.602950123,16.2244509220001,0
                104.603946059,16.224248173,0
                104.605208081,16.2240202830001,0
                104.605362275,16.2239993260001,0
                104.606345077,16.2238193380001,0
                104.608829816,16.223544997,0
                104.608933703,16.223511015,0
                104.60899024,16.2234858100001,0
                104.6089987,16.223482038,0
                104.609096061,16.223434034,0
                104.609185955,16.2233652370001,0
                104.609446699,16.2231539320001,0
                104.609704067,16.222891244,0
                104.609887243,16.222679407,0
                104.610242576,16.222142338,0
                104.610592001,16.221497867,0
                104.611065095,16.220107247,0
                104.611636558,16.218649424,0
                104.611732478,16.218371002,0
                104.61176982,16.2182624880001,0
                104.611862753,16.218079199,0
                104.612079159,16.2177548610001,0
                104.612303514,16.217415159,0
                104.612714714,16.216984376,0
                104.613287219,16.216537961,0
                104.613487479,16.2164222910001,0
                104.61416142,16.2160642960001,0
                104.61498116,16.2156288480001,0
                104.61562419,16.215353685,0
                104.616206954,16.215144187,0
                104.616986881,16.214893595,0
                104.617939434,16.214614188,0
                104.619395356,16.2142660480001,0
                104.620384449,16.2140770080001,0
                104.621832552,16.2137077100001,0
                104.623118422,16.213374801,0
                104.623373444,16.213291634,0
                104.624385283,16.2129616440001,0
                104.624682694,16.212840697,0
                104.624905405,16.2127378870001,0
                104.625167574,16.212553282,0
                104.625803534,16.2119953910001,0
                104.626236285,16.2116402820001,0
                104.626488735,16.211486365,0
                104.627050308,16.2112299950001,0
                104.626539285,16.211272713,0
                104.624233899,16.2114654210001,0
                104.622242442,16.211490419,0
                104.61983795,16.211656352,0
                104.61816502,16.211537401,0
                104.616742606,16.2113096900001,0
                104.615826432,16.2110481230001,0
                104.614523183,16.2105517840001,0
                104.61330963,16.210236831,0
                104.612228577,16.2101225550001,0
                104.611256002,16.2101074930001,0
                104.609082036,16.210205936,0
                104.607201972,16.210235314,0
                104.606749951,16.210210943,0
                104.605079771,16.2099239500001,0
                104.602971165,16.2093467490001,0
                104.601284352,16.2087379430001,0
                104.600214005,16.20825576,0
                104.598171978,16.207043722,0
                104.595817576,16.2052477340001,0
                104.592803542,16.2031715110001,0
                104.592390025,16.20286744,0
                104.592123173,16.202737556,0
                104.592120397,16.2027353980001,0
                104.591513271,16.202433667,0
                104.591033898,16.202207109,0
                104.590896378,16.2021786060001,0
                104.590645201,16.202181664,0
                104.590364461,16.2021890730001,0
                104.590183667,16.2021938450001,0
                104.590157418,16.2021802580001,0
                104.590130663,16.202148831,0
                104.590010937,16.201886802,0
                104.589907816,16.201661127,0
                104.589804021,16.201464957,0
                104.589769588,16.201399871,0
                104.589558388,16.2011999850001,0
                104.589320606,16.2010624340001,0
                104.589196238,16.200974128,0
                104.588831958,16.200575374,0
                104.58860962,16.200231955,0
                104.588448386,16.200044446,0
                104.588129603,16.1997994540001,0
                104.587797418,16.199476933,0
                104.587772509,16.1994527430001,0
                104.58773846,16.199396328,0
                104.587620248,16.1992004680001,0
                104.587288383,16.1984719930001,0
                104.58728458,16.198467834,0
                104.587266939,16.19844285,0
                104.587258695,16.198376958,0
                104.587291268,16.198321095,0
                104.587308227,16.198226941,0
                104.58728665,16.198152266,0
                104.587177276,16.19797535,0
                104.587142939,16.1979614750001,0
                104.58709358,16.1979690260001,0
                104.587054398,16.197955483,0
                104.587032273,16.197935235,0
                104.586946879,16.197787976,0
                104.586931415,16.1977709330001,0
                104.586711703,16.1975288400001,0
                104.586516318,16.197163559,0
                104.58642209,16.196987399,0
                104.586392428,16.1969544670001,0
                104.586305198,16.1968422160001,0
                104.586279743,16.1967804060001,0
                104.586282756,16.1967345050001,0
                104.586290587,16.1966301620001,0
                104.586271065,16.196549449,0
                104.586225929,16.196477741,0
                104.586175515,16.1964478300001,0
                104.586140991,16.1964466580001,0
                104.586098035,16.1964519540001,0
                104.586066666,16.1964861070001,0
                104.586034355,16.196486959,0
                104.585992847,16.1964672240001,0
                104.585941607,16.1964081780001,0
                104.58588768,16.196330452,0
                104.585858069,16.1962740710001,0
                104.585852748,16.1960856110001,0
                104.585777166,16.1957751890001,0
                104.585757937,16.195704881,0
                104.585713391,16.195653986,0
                104.585669609,16.195630147,0
                104.585571805,16.195601482,0
                104.585222572,16.195523211,0
                104.584776046,16.195357947,0
                104.584597138,16.195281434,0
                104.584030152,16.195048528,0
                104.583998292,16.1950284970001,0
                104.583699753,16.1947667490001,0
                104.583587031,16.194595943,0
                104.583498081,16.194461158,0
                104.583372703,16.1941001760001,0
                104.583267102,16.1939315930001,0
                104.58318335,16.1937978920001,0
                104.581808,16.192490999,0
                104.581309852,16.192058622,0
                104.581269304,16.1920357980001,0
                104.581182339,16.1920048110001,0
                104.580578438,16.191789638,0
                104.579905554,16.191683599,0
                104.579717154,16.19168239,0
                104.579252055,16.191762376,0
                104.579033079,16.191755701,0
                104.578888109,16.191635155,0
                104.578632199,16.1912314900001,0
                104.578142923,16.190783766,0
                104.578136055,16.1907793500001,0
                104.577848637,16.1905508150001,0
                104.577776926,16.1905117050001,0
                104.577649549,16.190501414,0
                104.577606769,16.1904866200001,0
                104.577592081,16.1904665390001,0
                104.577549282,16.190367598,0
                104.577464669,16.190287955,0
                104.57736111,16.1902042620001,0
                104.577326586,16.1901483140001,0
                104.577301017,16.190076214,0
                104.577335954,16.1896454710001,0
                104.577378889,16.1894987960001,0
                104.577369143,16.1894035340001,0
                104.577359511,16.189228674,0
                104.577364321,16.1891489540001,0
                104.577394043,16.189034463,0
                104.577373438,16.188971329,0
                104.57723955,16.1888133840001,0
                104.577178068,16.188719484,0
                104.577149684,16.188547393,0
                104.577167567,16.188346794,0
                104.57713717,16.1882702720001,0
                104.577029981,16.1881411900001,0
                104.576970593,16.1880381350001,0
                104.576948561,16.1878408600001,0
                104.576964499,16.1877637810001,0
                104.577037954,16.187672494,0
                104.577111097,16.187595523,0
                104.577124184,16.18755879,0
                104.577124809,16.1874973710001,0
                104.57705499,16.187358207,0
                104.577011634,16.187322963,0
                104.576961738,16.1873060830001,0
                104.576876692,16.187294674,0
                104.576861313,16.1872890600001,0
                104.576825872,16.187258129,0
                104.576808477,16.187212323,0
                104.57680884,16.1871795760001,0
                104.576809728,16.1870994770001,0
                104.576793883,16.187028496,0
                104.576767117,16.186997363,0
                104.57674824,16.186995586,0
                104.576653103,16.1870435720001,0
                104.576565083,16.1870936440001,0
                104.576450103,16.1871057660001,0
                104.576404781,16.187084214,0
                104.576394417,16.1870503760001,0
                104.576373749,16.186942968,0
                104.576353037,16.186913066,0
                104.57632663,16.186899785,0
                104.57615107,16.186849823,0
                104.575931273,16.186816944,0
                104.57587635,16.1867888250001,0
                104.575758109,16.1866850490001,0
                104.575716339,16.186622469,0
                104.575705588,16.1865749950001,0
                104.575708036,16.1864111890001,0
                104.57564491,16.186342344,0
                104.575502381,16.186211917,0
                104.575270345,16.1859951480001,0
                104.575194692,16.1858993480001,0
                104.575145867,16.1858369550001,0
                104.575140141,16.1858007160001,0
                104.575148457,16.185761836,0
                104.575225154,16.185643839,0
                104.575231183,16.1856072910001,0
                104.575229647,16.1855527500001,0
                104.575197028,16.185480834,0
                104.5750985,16.1854083760001,0
                104.574999519,16.185320013,0
                104.574966961,16.185250368,0
                104.574955958,16.1851938020001,0
                104.574976098,16.185156883,0
                104.575076134,16.1851155960001,0
                104.575087632,16.1851061940001,0
                104.575102875,16.185077521,0
                104.575104001,16.1849351990001,0
                104.575176376,16.184830956,0
                104.575191748,16.18479189,0
                104.575199941,16.1847484680001,0
                104.575172665,16.1846991520001,0
                104.575094275,16.1845897760001,0
                104.575012815,16.1843713220001,0
                104.575000335,16.184262491,0
                104.575005153,16.1841827650001,0
                104.575048107,16.184120234,0
                104.57518124,16.1840007500001,0
                104.575214983,16.18394528,0
                104.575221076,16.183911005,0
                104.575186153,16.1837572810001,0
                104.575096182,16.1835708880001,0
                104.574852172,16.183179318,0
                104.574776776,16.183092607,0
                104.574747405,16.183052446,0
                104.574760234,16.1830066210001,0
                104.574888648,16.1828031160001,0
                104.574873436,16.1826807100001,0
                104.574887208,16.1825848300001,0
                104.574914406,16.1825477310001,0
                104.574949551,16.18254226,0
                104.574989531,16.182541209,0
                104.575024676,16.1825357330001,0
                104.575049905,16.1825123310001,0
                104.575085678,16.182445436,0
                104.575138484,16.182398565,0
                104.57529947,16.18234885,0
                104.575336521,16.182327405,0
                104.575356852,16.1822973060001,0
                104.575379395,16.1821784570001,0
                104.575371186,16.1821377360001,0
                104.575337369,16.1821067880001,0
                104.575232488,16.182059511,0
                104.575210749,16.1820396160001,0
                104.575199933,16.1819898700001,0
                104.575213771,16.1818962620001,0
                104.575333354,16.181713458,0
                104.575355783,16.181674206,0
                104.575363656,16.181619417,0
                104.575311698,16.1814456710001,0
                104.575259879,16.181360614,0
                104.575188246,16.1813238350001,0
                104.575025775,16.181237142,0
                104.575006003,16.1812035470001,0
                104.574986292,16.181172227,0
                104.575012784,16.181110129,0
                104.575278603,16.180855251,0
                104.5753328,16.1807742300001,0
                104.575342704,16.180708016,0
                104.575312819,16.1806496730001,0
                104.575275437,16.1805756090001,0
                104.575269519,16.1805325550001,0
                104.575323524,16.180444714,0
                104.575401051,16.180356257,0
                104.575449074,16.1802230930001,0
                104.575447651,16.180088954,0
                104.575454804,16.1799250220001,0
                104.575481423,16.1798674660001,0
                104.575529271,16.1798116310001,0
                104.575543877,16.1797452920001,0
                104.575538152,16.1797090590001,0
                104.57549499,16.1796806290001,0
                104.575346119,16.179575379,0
                104.575330926,16.1795371160001,0
                104.575324683,16.1794827030001,0
                104.575330766,16.1793642810001,0
                104.575291731,16.1793152770001,0
                104.575266934,16.179270446,0
                104.575186602,16.1789246050001,0
                104.574982016,16.1785956730001,0
                104.574901409,16.178490906,0
                104.574890785,16.178447975,0
                104.57489192,16.1784047360001,0
                104.574904688,16.178356643,0
                104.574933978,16.17831039,0
                104.575073222,16.1782407760001,0
                104.575228923,16.178170736,0
                104.575320234,16.178070544,0
                104.575360709,16.1780035250001,0
                104.575368135,16.17793283,0
                104.575250639,16.177688032,0
                104.57519532,16.1775621300001,0
                104.575188065,16.177530011,0
                104.575195624,16.1774893520001,0
                104.575262632,16.1773939600001,0
                104.57533071,16.1772720270001,0
                104.57534214,16.1772446520001,0
                104.575333557,16.177205999,0
                104.57526904,16.177116993,0
                104.57524328,16.1770733220001,0
                104.575244358,16.1770468760001,0
                104.575255475,16.1770238440001,0
                104.575294551,16.176971644,0
                104.575427913,16.176805191,0
                104.575494901,16.176678424,0
                104.57552199,16.176596267,0
                104.575516099,16.1765263410001,0
                104.575502539,16.1764623010001,0
                104.575441903,16.17642163,0
                104.575370249,16.176406897,0
                104.575269609,16.176409542,0
                104.575137928,16.1764438640001,0
                104.575103564,16.1764447670001,0
                104.575042062,16.176441633,0
                104.575011939,16.176418687,0
                104.574994086,16.176395416,0
                104.574989964,16.1763361800001,0
                104.575073459,16.1761606920001,0
                104.575067,16.1760184290001,0
                104.575038221,16.1757552760001,0
                104.574734056,16.1757969130001,0
                104.57437697,16.175867865,0
                104.573835338,16.1759957400001,0
                104.572862827,16.1762261330001,0
                104.57267678,16.176270307,0
                104.57151206,16.176506181,0
                104.571323138,16.1764940300001,0
                104.568225845,16.177166261,0
                104.567521767,16.17724874,0
                104.567353241,16.1772708030001,0
                104.566426324,16.177385251,0
                104.566264487,16.177405326,0
                104.565957707,16.177443382,0
                104.565619741,16.177514112,0
                104.564761014,16.1776710400001,0
                104.564125674,16.177764503,0
                104.563790508,16.177856493,0
                104.563711324,16.1778883320001,0
                104.563676999,16.1779021350001,0
                104.56361756,16.1779079630001,0
                104.563601319,16.177907964,0
                104.563535884,16.177907969,0
                104.563475845,16.177892478,0
                104.563376282,16.177884423,0
                104.563232955,16.177890318,0
                104.563121772,16.177940162,0
                104.563026582,16.178010521,0
                104.562745612,16.178223089,0
                104.56256343,16.178338797,0
                104.562430066,16.1783849600001,0
                104.562171867,16.1784663930001,0
                104.562034873,16.1785403870001,0
                104.561875577,16.178606428,0
                104.561781738,16.1786451520001,0
                104.56171658,16.178683129,0
                104.56166299,16.1787399990001,0
                104.561566059,16.178825739,0
                104.561503893,16.178855911,0
                104.561423574,16.178861474,0
                104.561119809,16.178813974,0
                104.560698412,16.178743954,0
                104.560526343,16.1786930370001,0
                104.558372524,16.179267973,0
                104.557569405,16.1794224010001,0
                104.556425195,16.179472388,0
                104.555377966,16.179375206,0
                104.555304267,16.1793683650001,0
                104.554528894,16.179281969,0
                104.553397162,16.1792849240001,0
                104.552002261,16.179501513,0
                104.550962241,16.1798221780001,0
                104.550122214,16.1801376070001,0
                104.549505205,16.180422854,0
                104.548612513,16.1809374010001,0
                104.548133138,16.1813167500001,0
                104.547147161,16.1818427370001,0
                104.546253619,16.18221958,0
                104.545343854,16.18251014,0
                104.544755423,16.1826922590001,0
                104.543931762,16.182853847,0
                104.543203159,16.182959597,0
                104.542686109,16.1829797780001,0
                104.542043054,16.1829365630001,0
                104.540543335,16.182862372,0
                104.53921547,16.1827636730001,0
                104.538417524,16.1826111140001,0
                104.538025171,16.1824703070001,0
                104.537238026,16.1821417100001,0
                104.53634055,16.181638263,0
                104.53575938,16.1813399760001,0
                104.535041595,16.180845166,0
                104.534335663,16.1802600730001,0
                104.533010678,16.1792926090001,0
                104.532829487,16.1791603020001,0
                104.532657877,16.179019924,0
                104.532490329,16.1792677030001,0
                104.532422482,16.1792868650001,0
                104.532364545,16.1792744630001,0
                104.532238864,16.179156005,0
                104.532189392,16.179059909,0
                104.532195852,16.178893197,0
                104.532210501,16.1786558900001,0
                104.532171427,16.178545609,0
                104.532083458,16.1784887700001,0
                104.531817601,16.17850614,0
                104.531663564,16.1785595690001,0
                104.531532634,16.1786330840001,0
                104.531419841,16.1788002490001,0
                104.531267107,16.1790283080001,0
                104.531214517,16.1790783760001,0
                104.531104187,16.1791229890001,0
                104.530647902,16.17915228,0
                104.530187334,16.1792860240001,0
                104.529709455,16.17957326,0
                104.529291363,16.1797821590001,0
                104.52914876,16.1798591730001,0
                104.529030457,16.1798761700001,0
                104.52889359,16.179872781,0
                104.528805913,16.1798263700001,0
                104.528713766,16.1797487760001,0
                104.528563808,16.179456153,0
                104.528227771,16.1791005870001,0
                104.528021804,16.17894248,0
                104.527919838,16.1788999250001,0
                104.527768292,16.1788864820001,0
                104.527574369,16.1789019710001,0
                104.527399391,16.178951743,0
                104.527190973,16.179092827,0
                104.526844041,16.179171431,0
                104.526778913,16.179159213,0
                104.52666975,16.179116842,0
                104.526604724,16.179108103,0
                104.526558548,16.1791301750001,0
                104.52645384,16.1793763760001,0
                104.526322687,16.179706744,0
                104.526243447,16.1799627140001,0
                104.526225164,16.180081452,0
                104.526191134,16.1801518980001,0
                104.526098883,16.1801995230001,0
                104.526003225,16.1802541870001,0
                104.525897072,16.180319561,0
                104.525812401,16.180380896,0
                104.525782356,16.180465155,0
                104.525711581,16.1806374290001,0
                104.525502953,16.180900249,0
                104.525336035,16.181109812,0
                104.525230655,16.1812029910001,0
                104.525102632,16.181258498,0
                104.524997439,16.181276983,0
                104.524821021,16.1812275780001,0
                104.524745686,16.181236497,0
                104.524692706,16.181272657,0
                104.52464429,16.181343483,0
                104.5246577,16.181437047,0
                104.524687925,16.181488432,0
                104.524856378,16.1815918680001,0
                104.524969719,16.181655,0
                104.525153034,16.181904134,0
                104.525224967,16.1819563440001,0
                104.525275563,16.1819878970001,0
                104.52536047,16.181985684,0
                104.525546046,16.181928677,0
                104.525678057,16.181886976,0
                104.525761071,16.18189525,0
                104.525842621,16.1819800760001,0
                104.525947014,16.182109526,0
                104.526024186,16.1822953400001,0
                104.526101066,16.1824707230001,0
                104.52619692,16.182593528,0
                104.52626897,16.1826893,0
                104.526302344,16.1827469470001,0
                104.526308391,16.1828061860001,0
                104.526274449,16.182865259,0
                104.526204266,16.1829649860001,0
                104.52617017,16.183040206,0
                104.526134604,16.183170843,0
                104.526108695,16.1832152440001,0
                104.526083562,16.1832333900001,0
                104.526053823,16.1832487400001,0
                104.52600405,16.1832485780001,0
                104.525990701,16.183243041,0
                104.525952538,16.183216649,0
                104.525884548,16.1831278070001,0
                104.525807117,16.183055493,0
                104.525718646,16.183019906,0
                104.52559755,16.183004113,0
                104.525480522,16.1830261100001,0
                104.525382028,16.1830636550001,0
                104.525317457,16.183138779,0
                104.525218636,16.1832617530001,0
                104.525084699,16.1833803850001,0
                104.525026814,16.1834139580001,0
                104.524915612,16.183428511,0
                104.524827677,16.183427152,0
                104.524750112,16.1834430270001,0
                104.524621309,16.1835294570001,0
                104.524570794,16.183610932,0
                104.524529607,16.18370237,0
                104.52450748,16.1837743620001,0
                104.524511665,16.1839243680001,0
                104.524539318,16.18405045,0
                104.52457862,16.184107726,0
                104.524645257,16.1841715750001,0
                104.524784356,16.1842379070001,0
                104.524946511,16.1842657490001,0
                104.525193032,16.1842360040001,0
                104.525336574,16.184245381,0
                104.525419583,16.184301518,0
                104.525474038,16.1844152370001,0
                104.525480505,16.1845389540001,0
                104.525449464,16.1846155490001,0
                104.525407099,16.1846647510001,0
                104.525316259,16.1847064670001,0
                104.52520082,16.1847313380001,0
                104.525105587,16.1847236180001,0
                104.524851988,16.184607799,0
                104.524708827,16.1845462900001,0
                104.524537696,16.1845329120001,0
                104.524470201,16.1845463270001,0
                104.524398668,16.1845773430001,0
                104.524362496,16.184632209,0
                104.524342205,16.1847158150001,0
                104.524357962,16.1847941080001,0
                104.524367621,16.184827168,0
                104.524429642,16.1849307000001,0
                104.524546991,16.185028205,0
                104.524627474,16.1851018950001,0
                104.524635617,16.1851235450001,0
                104.52464413,16.185158302,0
                104.524635982,16.18519058,0
                104.524587788,16.185301146,0
                104.524602448,16.185340114,0
                104.524679066,16.185383299,0
                104.52473014,16.185430065,0
                104.52474203,16.1854778490001,0
                104.524747775,16.185521426,0
                104.524748913,16.1855622040001,0
                104.524731719,16.1855947170001,0
                104.524705526,16.1856289200001,0
                104.524373209,16.185827046,0
                104.524383739,16.18594928,0
                104.524485828,16.186244591,0
                104.524495233,16.1863894460001,0
                104.524322276,16.186821475,0
                104.524206468,16.186995498,0
                104.524164827,16.187040633,0
                104.524119568,16.1870521760001,0
                104.523980166,16.187053215,0
                104.523734244,16.1870803520001,0
                104.523613833,16.187103834,0
                104.523610819,16.187104983,0
                104.523533209,16.1871788670001,0
                104.523407699,16.1873894170001,0
                104.523295231,16.1874908090001,0
                104.523211439,16.187562948,0
                104.523168054,16.1876418100001,0
                104.52317848,16.1877270460001,0
                104.523207547,16.1878165640001,0
                104.52324471,16.1878967320001,0
                104.523426785,16.188078859,0
                104.523643178,16.188317355,0
                104.523982062,16.1891527440001,0
                104.523992825,16.189179269,0
                104.524049539,16.189319074,0
                104.524129482,16.18951614,0
                104.524291801,16.1898665960001,0
                104.524413202,16.189946342,0
                104.524580691,16.189969617,0
                104.52483766,16.189953707,0
                104.525053809,16.1900125650001,0
                104.525479799,16.1902455920001,0
                104.525933474,16.190445654,0
                104.52600685,16.190512836,0
                104.526023586,16.1905999200001,0
                104.526027184,16.1907288030001,0
                104.52603014,16.190834669,0
                104.526053237,16.1909687470001,0
                104.526147279,16.1911033850001,0
                104.52622748,16.1912440890001,0
                104.526244981,16.19135879,0
                104.526209315,16.191447241,0
                104.526128725,16.191463159,0
                104.525722032,16.191409272,0
                104.525583507,16.191399065,0
                104.525456306,16.1914530490001,0
                104.525410984,16.191537145,0
                104.525481903,16.1918577340001,0
                104.525590143,16.1924905820001,0
                104.525628115,16.1926554190001,0
                104.525630428,16.192738272,0
                104.52556103,16.1928137840001,0
                104.525403838,16.192817882,0
                104.525052113,16.192854686,0
                104.52493933,16.1929129000001,0
                104.524898642,16.1929922690001,0
                104.524907265,16.193130232,0
                104.524943303,16.193226026,0
                104.525146961,16.1935201270001,0
                104.525480895,16.194041145,0
                104.525733987,16.194398442,0
                104.525860661,16.19466691,0
                104.525848159,16.1949021560001,0
                104.525752489,16.1952316960001,0
                104.525627842,16.1957186060001,0
                104.525570545,16.195885924,0
                104.525487242,16.1959756160001,0
                104.525374334,16.19602923,0
                104.525194603,16.1960799780001,0
                104.525148766,16.196145664,0
                104.525123396,16.19626148,0
                104.525144639,16.196339235,0
                104.52519871,16.196397705,0
                104.525356419,16.19641202,0
                104.525547337,16.1964490890001,0
                104.525562925,16.1964665150001,0
                104.525612485,16.1965343160001,0
                104.525643125,16.196607219,0
                104.525651745,16.196745182,0
                104.525572426,16.1969775640001,0
                104.525288142,16.19738112,0
                104.524969209,16.198080378,0
                104.524883579,16.1984280840001,0
                104.524761259,16.1986569810001,0
                104.524627097,16.198803275,0
                104.524511223,16.1989214540001,0
                104.524448385,16.1990612820001,0
                104.524465632,16.199166776,0
                104.524501832,16.199213371,0
                104.524582404,16.199251249,0
                104.524687975,16.199276137,0
                104.524965295,16.199305753,0
                104.525079881,16.199311976,0
                104.52514513,16.199332052,0
                104.525177082,16.1993785380001,0
                104.525194071,16.199474825,0
                104.525152477,16.199692408,0
                104.525117455,16.199759762,0
                104.525040976,16.199796652,0
                104.524768595,16.1998394770001,0
                104.52467125,16.199877902,0
                104.524616361,16.199955125,0
                104.524611265,16.2000762660001,0
                104.524668709,16.200168999,0
                104.524728267,16.200187978,0
                104.524844553,16.200189316,0
                104.525517632,16.20019705,0
                104.525696925,16.2002401720001,0
                104.525893002,16.2004331320001,0
                104.526030628,16.2005815480001,0
                104.526038092,16.2006780840001,0
                104.525923246,16.2008330900001,0
                104.525871874,16.200871278,0
                104.525743255,16.2008746330001,0
                104.525613091,16.2008227530001,0
                104.525492491,16.2006392820001,0
                104.525433971,16.2006172500001,0
                104.525364011,16.2006220170001,0
                104.525313079,16.2006507200001,0
                104.525112705,16.200820144,0
                104.525018759,16.2009482350001,0
                104.525001781,16.201116198,0
                104.525062342,16.2015386570001,0
                104.525121598,16.2017203400001,0
                104.525278303,16.2018994790001,0
                104.525492656,16.2022027560001,0
                104.525552346,16.2024001290001,0
                104.525511812,16.2025006550001,0
                104.525427527,16.202586614,0
                104.525191944,16.2026869900001,0
                104.524879696,16.202822305,0
                104.524876802,16.202824268,0
                104.524745255,16.2029134040001,0
                104.52462209,16.202996861,0
                104.524536394,16.203107258,0
                104.524380015,16.203312741,0
                104.52425616,16.203439051,0
                104.52419319,16.2035339350001,0
                104.52419548,16.2036159300001,0
                104.524225084,16.2037084040001,0
                104.524265426,16.2037707580001,0
                104.524520099,16.203905843,0
                104.524963465,16.2041628170001,0
                104.525045297,16.2041905240001,0
                104.525172584,16.204187204,0
                104.525333966,16.204160614,0
                104.525450202,16.2041762310001,0
                104.52553652,16.204226195,0
                104.525600732,16.204314031,0
                104.525607299,16.204410834,0
                104.525608445,16.2044518330001,0
                104.525559235,16.204486681,0
                104.525353972,16.204462199,0
                104.52528819,16.204456454,0
                104.525257063,16.204465128,0
                104.525188104,16.2045332230001,0
                104.525204155,16.204764487,0
                104.52531361,16.2049518430001,0
                104.525408164,16.205020243,0
                104.525528569,16.2050469390001,0
                104.525659404,16.205032338,0
                104.525842885,16.2049678770001,0
                104.526090374,16.2048457990001,0
                104.526186818,16.204808101,0
                104.526231829,16.2048119070001,0
                104.526256093,16.2048139560001,0
                104.526294809,16.2048404650001,0
                104.526315242,16.2048809560001,0
                104.526316908,16.204940589,0
                104.526311707,16.2049841040001,0
                104.526302093,16.2050037290001,0
                104.526213698,16.2051148520001,0
                104.526176772,16.2051874260001,0
                104.526162021,16.205316383,0
                104.52618408,16.205436375,0
                104.526245972,16.205693261,0
                104.526305835,16.205787521,0
                104.526352849,16.2058234780001,0
                104.52642875,16.2058303630001,0
                104.526633228,16.2057880200001,0
                104.526992163,16.205713695,0
                104.527394213,16.2056934240001,0
                104.527696109,16.205672921,0
                104.527839973,16.205710191,0
                104.527888031,16.205772342,0
                104.52789804,16.205854135,0
                104.527869682,16.205944388,0
                104.527610407,16.2061973150001,0
                104.527169738,16.206589245,0
                104.52710183,16.2066999840001,0
                104.52707183,16.206784118,0
                104.527074643,16.206884761,0
                104.527223155,16.207568521,0
                104.527303531,16.20774354,0
                104.527558048,16.208233525,0
                104.527576199,16.208368498,0
                104.527586099,16.2084654780001,0
                104.527560082,16.208563402,0
                104.527477906,16.208630794,0
                104.527444142,16.208638109,0
                104.527357372,16.2086569160001,0
                104.52727181,16.208662701,0
                104.5270024,16.2085452490001,0
                104.526868833,16.2085260480001,0
                104.526762713,16.208584155,0
                104.526625348,16.208732632,0
                104.526511375,16.208886621,0
                104.526455476,16.208926854,0
                104.526360319,16.208966296,0
                104.526265572,16.208959399,0
                104.526175148,16.208933647,0
                104.526112681,16.2088673420001,0
                104.526073656,16.2087723130001,0
                104.526061021,16.208667227,0
                104.526081192,16.2084347800001,0
                104.526074256,16.208359999,0
                104.52604237,16.2082601010001,0
                104.526000132,16.2082237220001,0
                104.525911934,16.208190884,0
                104.525793615,16.208208026,0
                104.525753865,16.2082606010001,0
                104.525700362,16.2085149980001,0
                104.525673119,16.208754653,0
                104.525632125,16.2090227800001,0
                104.525607304,16.2091756990001,0
                104.525625963,16.209322796,0
                104.525702764,16.209468373,0
                104.525822327,16.209755735,0
                104.525932462,16.2098793660001,0
                104.526146643,16.2099955900001,0
                104.526257957,16.210074676,0
                104.52626745,16.2101540790001,0
                104.526091303,16.21044447,0
                104.52602785,16.2106030790001,0
                104.526015817,16.210657047,0
                104.526049062,16.210754797,0
                104.526129998,16.2107878250001,0
                104.526559413,16.210884374,0
                104.526629999,16.2109809250001,0
                104.526695673,16.2113352820001,0
                104.526799909,16.2117682850001,0
                104.527006232,16.2123836910001,0
                104.527095154,16.212528954,0
                104.527138308,16.2125981030001,0
                104.527224349,16.2126403660001,0
                104.52739486,16.2126687140001,0
                104.527507091,16.2126938920001,0
                104.527561702,16.21273932,0
                104.527598896,16.21285548,0
                104.527593916,16.213024273,0
                104.527509512,16.213213884,0
                104.527201225,16.213547555,0
                104.526903285,16.21390438,0
                104.526789281,16.213989348,0
                104.526622039,16.2140382850001,0
                104.52653502,16.2140873490001,0
                104.526447404,16.214162258,0
                104.526419413,16.214200421,0
                104.526380141,16.2143292650001,0
                104.526371574,16.2143984950001,0
                104.526359266,16.2145202780001,0
                104.526269157,16.2148111230001,0
                104.526179708,16.2150805150001,0
                104.526123915,16.2151663080001,0
                104.526062756,16.215233498,0
                104.52593269,16.215302722,0
                104.525938858,16.215429038,0
                104.525948077,16.21544705,0
                104.525979759,16.215508921,0
                104.526036067,16.2155634910001,0
                104.526066261,16.2156062880001,0
                104.526067131,16.2156373990001,0
                104.526043113,16.2157002980001,0
                104.52598511,16.2157944090001,0
                104.525992287,16.2158417260001,0
                104.526030405,16.2159372460001,0
                104.526221339,16.216196896,0
                104.52623918,16.2162587010001,0
                104.526221688,16.2163245400001,0
                104.526181131,16.216372295,0
                104.526127609,16.216417284,0
                104.526054601,16.21644624,0
                104.525805173,16.2164101330001,0
                104.525660187,16.2164108010001,0
                104.525569941,16.2164100470001,0
                104.525489959,16.216430815,0
                104.525464981,16.216459489,0
                104.525466025,16.2164968220001,0
                104.525675168,16.216967513,0
                104.525765443,16.2172310920001,0
                104.525768681,16.2172405530001,0
                104.525785153,16.2173933220001,0
                104.525764065,16.217511718,0
                104.525674137,16.217785109,0
                104.525670347,16.217867702,0
                104.525733098,16.2179308790001,0
                104.525987074,16.2180715530001,0
                104.526050324,16.2181523940001,0
                104.526071239,16.218246123,0
                104.526088206,16.2184165570001,0
                104.526128225,16.218757265,0
                104.526174343,16.2188798010001,0
                104.526409877,16.219233081,0
                104.526476252,16.219425792,0
                104.526478393,16.2195023370001,0
                104.526370181,16.219558191,0
                104.526095779,16.2195594620001,0
                104.525923122,16.219587244,0
                104.525861948,16.2196217650001,0
                104.525827956,16.219682204,0
                104.525816621,16.2198268560001,0
                104.525819397,16.219926109,0
                104.52581815,16.2200360150001,0
                104.525815062,16.22030891,0
                104.525384439,16.2213646590001,0
                104.525248205,16.221611614,0
                104.525216352,16.2217009560001,0
                104.525246812,16.221766541,0
                104.525796996,16.2221947140001,0
                104.525880032,16.2222976510001,0
                104.525897761,16.2223856890001,0
                104.525685968,16.222728664,0
                104.52562615,16.2227490510001,0
                104.525601426,16.2227465230001,0
                104.525580705,16.222744403,0
                104.525492326,16.2227254920001,0
                104.524756165,16.222443164,0
                104.524565812,16.222392815,0
                104.524458597,16.2223709360001,0
                104.524411332,16.2223968480001,0
                104.52434484,16.222476031,0
                104.524259371,16.2227000980001,0
                104.524219593,16.2229747100001,0
                104.524183413,16.2232245050001,0
                104.524163832,16.223514967,0
                104.524136498,16.2237072950001,0
                104.52412127,16.223792803,0
                104.524087798,16.2239807770001,0
                104.524065424,16.2240149080001,0
                104.524027506,16.224059418,0
                104.524002206,16.2241100890001,0
                104.523997834,16.224118843,0
                104.523996995,16.224127663,0
                104.523990271,16.2241985050001,0
                104.523998205,16.2242570930001,0
                104.52401368,16.224320651,0
                104.524018293,16.2243528330001,0
                104.524018813,16.224356449,0
                104.52403557,16.2243908900001,0
                104.524051143,16.224414494,0
                104.524060187,16.224457778,0
                104.524053648,16.224478586,0
                104.524040439,16.2244943160001,0
                104.523989305,16.224506884,0
                104.523927488,16.224544489,0
                104.523859214,16.22460879,0
                104.52379699,16.224689719,0
                104.523751471,16.224782298,0
                104.523745763,16.2247939060001,0
                104.523729538,16.224837569,0
                104.523744387,16.2248962740001,0
                104.523792732,16.2249584580001,0
                104.523855608,16.2250100250001,0
                104.523918084,16.225047284,0
                104.524016657,16.2250876890001,0
                104.524281833,16.225176957,0
                104.524344366,16.225216254,0
                104.524390707,16.2252825840001,0
                104.524413823,16.2253515670001,0
                104.524406611,16.2255482350001,0
                104.524399287,16.2256650850001,0
                104.524413076,16.2257793360001,0
                104.524393107,16.225822835,0
                104.524357754,16.225846274,0
                104.524197102,16.225858655,0
                104.524146528,16.2258681600001,0
                104.524130507,16.225901327,0
                104.524136857,16.2259768860001,0
                104.524209689,16.2261571330001,0
                104.524231028,16.226238444,0
                104.524228798,16.2263101360001,0
                104.524208831,16.2263536350001,0
                104.524140405,16.2264065890001,0
                104.524120264,16.226443954,0
                104.524104359,16.2264812070001,0
                104.52411174,16.226517856,0
                104.524203622,16.2265461530001,0
                104.524268161,16.2265813110001,0
                104.52428847,16.226625803,0
                104.524292187,16.226683015,0
                104.524249966,16.2269153870001,0
                104.524224304,16.2270891790001,0
                104.52419125,16.227227649,0
                104.524157913,16.22735593,0
                104.524145091,16.227463292,0
                104.524163399,16.2275520060001,0
                104.524213263,16.2276373450001,0
                104.524272745,16.2276893050001,0
                104.524341629,16.2277002490001,0
                104.524551913,16.227674372,0
                104.524846038,16.2276284650001,0
                104.524912002,16.2276292920001,0
                104.524973409,16.227655719,0
                104.525009953,16.227736309,0
                104.525148361,16.2278753950001,0
                104.525331365,16.228005673,0
                104.52556281,16.228076076,0
                104.525966714,16.228182743,0
                104.526157477,16.2282134390001,0
                104.526258774,16.228251562,0
                104.526326806,16.2283262340001,0
                104.52634953,16.22838425,0
                104.526350243,16.2284097150001,0
                104.526334787,16.228422859,0
                104.5261817,16.228419214,0
                104.526155912,16.228440273,0
                104.52613091,16.228489344,0
                104.526097365,16.228704271,0
                104.526079198,16.228903513,0
                104.526144599,16.229072536,0
                104.526188051,16.2292115540001,0
                104.526226733,16.229274252,0
                104.526288851,16.229326144,0
                104.526380177,16.2293849160001,0
                104.526394283,16.229417675,0
                104.526401264,16.2294786460001,0
                104.526377402,16.229568461,0
                104.526362657,16.22960707,0
                104.526326397,16.229630952,0
                104.526050364,16.2296636460001,0
                104.526016668,16.229684913,0
                104.525999359,16.2297261360001,0
                104.525972932,16.2298185660001,0
                104.525971651,16.229961299,0
                104.525947146,16.2300281940001,0
                104.525891797,16.230123927,0
                104.525877339,16.2301727220001,0
                104.525868291,16.2302264730001,0
                104.525897071,16.230312358,0
                104.525921222,16.2304213030001,0
                104.525933263,16.2305687890001,0
                104.525959195,16.2306471040001,0
                104.525982277,16.230717854,0
                104.525968244,16.2307819260001,0
                104.525924507,16.2308212940001,0
                104.525834249,16.230895005,0
                104.525814019,16.230926111,0
                104.525799563,16.230974906,0
                104.525820647,16.231162924,0
                104.525855983,16.2312002260001,0
                104.525945385,16.2312845330001,0
                104.52600195,16.2314206620001,0
                104.526076536,16.2315410310001,0
                104.526116931,16.231664836,0
                104.5261497,16.2317047540001,0
                104.526273222,16.2317830710001,0
                104.526335556,16.231842601,0
                104.526352583,16.231885477,0
                104.526350732,16.232007837,0
                104.526333424,16.2321433490001,0
                104.526296954,16.2322538780001,0
                104.526215108,16.232345203,0
                104.526133116,16.232431439,0
                104.526115591,16.2324650240001,0
                104.526093225,16.232514026,0
                104.526105121,16.232562133,0
                104.526156273,16.232693307,0
                104.526264055,16.232868867,0
                104.52634427,16.233001829,0
                104.526385091,16.233046632,0
                104.526559981,16.2331694750001,0
                104.52667218,16.233220053,0
                104.526829612,16.233284742,0
                104.526846639,16.233327619,0
                104.526843006,16.233386323,0
                104.52676294,16.2335413120001,0
                104.526723477,16.233639178,0
                104.526712936,16.233733736,0
                104.526726619,16.233939789,0
                104.526734106,16.2342071590001,0
                104.526704627,16.2345672340001,0
                104.526705838,16.234704809,0
                104.526708548,16.234801573,0
                104.526726433,16.234875002,0
                104.526756498,16.234912439,0
                104.526843763,16.2350146380001,0
                104.527145672,16.235151999,0
                104.527322341,16.235244215,0
                104.527534775,16.235294724,0
                104.527675538,16.2353292650001,0
                104.527731959,16.2353660150001,0
                104.527819444,16.235475851,0
                104.527970336,16.2357776970001,0
                104.528022485,16.2358502330001,0
                104.52810576,16.2359041180001,0
                104.528130072,16.235908609,0
                104.528248878,16.2359284070001,0
                104.528302379,16.235955039,0
                104.52831912,16.235987729,0
                104.528296258,16.2361131920001,0
                104.528292769,16.236176985,0
                104.528332005,16.2362354050001,0
                104.52837997,16.2362530140001,0
                104.528510516,16.2362496010001,0
                104.528636927,16.236246296,0
                104.528764684,16.2362698150001,0
                104.528797536,16.236275864,0
                104.529059755,16.2363678900001,0
                104.529191508,16.236436804,0
                104.529230755,16.2365009000001,0
                104.529300072,16.236658268,0
                104.529337771,16.236845407,0
                104.529407762,16.2369376390001,0
                104.529529132,16.237128921,0
                104.529689629,16.2373209580001,0
                104.529766437,16.2374259870001,0
                104.529791279,16.237521671,0
                104.529787098,16.2377679690001,0
                104.529814429,16.2378207720001,0
                104.529944102,16.2379672320001,0
                104.53000615,16.238072647,0
                104.53007388,16.238117258,0
                104.530156268,16.2381579190001,0
                104.530398251,16.2382265150001,0
                104.53056822,16.2383612140001,0
                104.530663681,16.23847289,0
                104.530734804,16.2386387240001,0
                104.530799152,16.2388261400001,0
                104.530791985,16.238946114,0
                104.530757886,16.2390353970001,0
                104.530690188,16.2391226170001,0
                104.530701062,16.2391842070001,0
                104.530754357,16.239235846,0
                104.53084892,16.23923632,0
                104.53098993,16.239153075,0
                104.531074934,16.2391390660001,0
                104.53124363,16.2391729560001,0
                104.531346839,16.239155526,0
                104.531518494,16.239077373,0
                104.531597732,16.2390753,0
                104.531702098,16.2390990870001,0
                104.531814943,16.239099078,0
                104.531870133,16.2391094230001,0
                104.531904732,16.2391468220001,0
                104.53191173,16.2391790450001,0
                104.531913216,16.2392320440001,0
                104.53174124,16.239407439,0
                104.531730781,16.239469587,0
                104.531732432,16.239528469,0
                104.531764314,16.2395777260001,0
                104.531948579,16.239622992,0
                104.532032849,16.2396915030001,0
                104.53209078,16.2401260550001,0
                104.532113765,16.240184384,0
                104.532148116,16.240212948,0
                104.53231739,16.2402674460001,0
                104.532432631,16.2403528240001,0
                104.532547376,16.2404205330001,0
                104.532582718,16.240484431,0
                104.532567733,16.2406026780001,0
                104.532551844,16.240688542,0
                104.532567991,16.240720531,0
                104.532614529,16.240748775,0
                104.532711642,16.240731501,0
                104.532816174,16.240761177,0
                104.532948717,16.240919761,0
                104.533123354,16.241056615,0
                104.533170968,16.2411231400001,0
                104.533203511,16.2411959450001,0
                104.533300713,16.241290635,0
                104.533413901,16.2414114200001,0
                104.533406493,16.2414734870001,0
                104.533261044,16.241724796,0
                104.533245149,16.241810656,0
                104.5332627,16.2418926990001,0
                104.533298456,16.241971313,0
                104.533467165,16.242114218,0
                104.533514028,16.24216189,0
                104.533574959,16.2422720500001,0
                104.533617502,16.24245839,0
                104.533657419,16.242551077,0
                104.533667499,16.242577849,0
                104.533711191,16.242605547,0
                104.533784258,16.24261625,0
                104.533825123,16.242609772,0
                104.533872788,16.2425796860001,0
                104.533914303,16.2424632410001,0
                104.533950228,16.242413635,0
                104.534001828,16.2423906510001,0
                104.534026061,16.2423900160001,0
                104.534076405,16.2423886980001,0
                104.53410582,16.2423963160001,0
                104.534134763,16.24240381,0
                104.534145944,16.2424067050001,0
                104.534179518,16.2424292740001,0
                104.534182866,16.2424373430001,0
                104.534184708,16.242452203,0
                104.53418976,16.24249286,0
                104.534187951,16.2425059330001,0
                104.534149564,16.242570594,0
                104.534129898,16.242645919,0
                104.534150346,16.242701773,0
                104.534179428,16.2427356800001,0
                104.53439672,16.242832735,0
                104.534600558,16.2429157170001,0
                104.53467494,16.2429732530001,0
                104.534710065,16.2430282070001,0
                104.534741919,16.2430994710001,0
                104.534783302,16.243244389,0
                104.534812683,16.2432940900001,0
                104.534865747,16.2433233410001,0
                104.534912765,16.2433365320001,0
                104.535020698,16.243326493,0
                104.535106917,16.2433404600001,0
                104.535206398,16.2434279760001,0
                104.535240263,16.2435045940001,0
                104.535233774,16.2436057040001,0
                104.535247632,16.243634183,0
                104.535491394,16.2438765360001,0
                104.535494878,16.2439341240001,0
                104.53549398,16.2440350860001,0
                104.535527547,16.2441008970001,0
                104.535629905,16.2442910830001,0
                104.535651479,16.2443950590001,0
                104.535709596,16.2445377380001,0
                104.535768661,16.2446479450001,0
                104.535833722,16.244705718,0
                104.535906091,16.2447579010001,0
                104.536022952,16.2447998980001,0
                104.536095216,16.244848473,0
                104.536142133,16.2449247550001,0
                104.536190574,16.2450550620001,0
                104.536208272,16.245153734,0
                104.536196338,16.245260392,0
                104.536154832,16.245443531,0
                104.536159474,16.2455425430001,0
                104.536234171,16.2456775750001,0
                104.536456233,16.245852171,0
                104.536701461,16.245922652,0
                104.537035562,16.246007896,0
                104.53712424,16.246039105,0
                104.537244937,16.2460935020001,0
                104.537359759,16.2462130260001,0
                104.537467502,16.2462700190001,0
                104.537653963,16.2462950410001,0
                104.537704913,16.246354382,0
                104.537715545,16.2464169670001,0
                104.537688873,16.246520532,0
                104.537691118,16.246600487,0
                104.537769437,16.2468613180001,0
                104.538241494,16.247311699,0
                104.539223522,16.248053025,0
                104.539588309,16.248393348,0
                104.539746023,16.248548687,0
                104.540953469,16.2497857980001,0
                104.541102687,16.2500783300001,0
                104.541246089,16.250459145,0
                104.541333938,16.2509015970001,0
                104.541366516,16.251192915,0
                104.541453503,16.2518096640001,0
                104.541680645,16.252456382,0
                104.542181167,16.253412167,0
                104.54252717,16.253826986,0
                104.542789428,16.253988319,0
                104.54316831,16.254086037,0
                104.543756003,16.254178269,0
                104.54447367,16.2541863480001,0
                104.544907288,16.2542489800001,0
                104.545575323,16.2544736720001,0
                104.546302831,16.2548313680001,0
                104.546715229,16.255130052,0
                104.546915242,16.255277612,0
                104.547386402,16.255569888,0
                104.547654771,16.255675006,0
                104.548179394,16.25574936,0
                104.548675997,16.255712278,0
                104.549223833,16.255534531,0
                104.549374608,16.2554856100001,0
                104.549728962,16.255404195,0
                104.550481435,16.255335159,0
                104.550611098,16.2553731630001,0
                104.550792161,16.255409811,0
                104.550897057,16.2554815870001,0
                104.551188207,16.256078474,0
                104.551310937,16.256174624,0
                104.5515346,16.256201871,0
                104.552588058,16.256143754,0
                104.552986824,16.2562150900001,0
                104.553571003,16.25643017,0
                104.5543502,16.2568693260001,0
                104.554449586,16.2569494960001,0
                104.554515649,16.257063655,0
                104.554532638,16.257159788,0
                104.554526194,16.2572578360001,0
                104.554345027,16.257697305,0
                104.5543288,16.2578734310001,0
                104.554323109,16.257935173,0
                104.55432855,16.2581281920001,0
                104.554428754,16.2584401280001,0
                104.554623681,16.2586667940001,0
                104.554759028,16.258806721,0
                104.55488032,16.2588532020001,0
                104.554954071,16.2588347020001,0
                104.555032595,16.25878297,0
                104.555203549,16.2588213110001,0
                104.555257268,16.2588488050001,0
                104.555580013,16.2590609530001,0
                104.555675218,16.2591803600001,0
                104.555680086,16.2591842210001,0
                104.55578278,16.2592422280001,0
                104.55596452,16.259273842,0
                104.556226167,16.259354865,0
                104.556370255,16.259395635,0
                104.556406706,16.2594169220001,0
                104.556411106,16.2594306600001,0
                104.556421113,16.2594618700001,0
                104.556416551,16.25949051,0
                104.556346277,16.259580267,0
                104.55632895,16.259628892,0
                104.556340327,16.259674229,0
                104.556368059,16.259707157,0
                104.556430003,16.259748044,0
                104.556681209,16.259839571,0
                104.55670263,16.25991078,0
                104.556674924,16.2601164820001,0
                104.556681589,16.260253859,0
                104.556696321,16.260380228,0
                104.556747779,16.2605218190001,0
                104.55676128,16.260540453,0
                104.556772167,16.2605480500001,0
                104.556786051,16.260554631,0
                104.55679693,16.260559788,0
                104.556807909,16.26056419,0
                104.556811881,16.260565571,0
                104.556878078,16.2605847680001,0
                104.556930013,16.260594597,0
                104.556964268,16.2606010800001,0
                104.557200369,16.2606373790001,0
                104.557226831,16.260644616,0
                104.557244021,16.2606532570001,0
                104.55725565,16.260662285,0
                104.557266979,16.2606710800001,0
                104.557285683,16.260690531,0
                104.557307705,16.2607162090001,0
                104.557435965,16.26089835,0
                104.557474245,16.260964648,0
                104.557555649,16.2611367980001,0
                104.557571982,16.2611585230001,0
                104.557583006,16.2611709650001,0
                104.557594026,16.2611795,0
                104.557610442,16.2611922090001,0
                104.557669424,16.26122507,0
                104.55769875,16.261238704,0
                104.557732805,16.2612491080001,0
                104.557763684,16.2612565520001,0
                104.557788865,16.2612611660001,0
                104.557828488,16.2612648460001,0
                104.557865585,16.2612665930001,0
                104.55794099,16.261267044,0
                104.557967473,16.2612712000001,0
                104.558007246,16.2612792470001,0
                104.558259825,16.2613435060001,0
                104.558288997,16.2613521440001,0
                104.558392534,16.2613828,0
                104.558605575,16.261469516,0
                104.558644219,16.261488474,0
                104.558647363,16.261490016,0
                104.558926564,16.261648071,0
                104.558970269,16.261668441,0
                104.559231994,16.2617659480001,0
                104.559848575,16.2619624710001,0
                104.559893284,16.261970838,0
                104.559915316,16.261971698,0
                104.559932199,16.2619694310001,0
                104.55995154,16.261965284,0
                104.559964541,16.2619595790001,0
                104.560074777,16.261837552,0
                104.560284719,16.2616398550001,0
                104.560410641,16.261466414,0
                104.560470024,16.261405838,0
                104.560566451,16.2613007190001,0
                104.56060176,16.261265844,0
                104.560617779,16.2612551120001,0
                104.560642936,16.261241512,0
              </coordinates>
                
            </LinearRing>
            
          </outerBoundaryIs>
        
        </Polygon>
        
      <styleUrl>
        #tambonStyle</styleUrl>
    </Placemark>

  </Document>
</kml>