<?xml version="1.0" encoding="UTF-8"?>
<kml xmlns="http://www.opengis.net/kml/2.2">
  <Document id="tambon_doc">
    <name>ท่าโสม, เขาสมิง, Trat</name>
    <description>ข้อมูลขอบเขตตำบลท่าโสม อำเภอเขาสมิง จังหวัดTrat</description>
    
    <!-- Schema สำหรับข้อมูลตำบล -->
    <Schema id="tambon.schema">
      <SimpleField name="ADM3_EN" type="string">
        <displayName>Subdistrict Name (English)</displayName>
      </SimpleField>
      <SimpleField name="ADM3_TH" type="string">
        <displayName>ชื่อตำบล</displayName>
      </SimpleField>
      <SimpleField name="ADM2_EN" type="string">
        <displayName>District Name (English)</displayName>
      </SimpleField>
      <SimpleField name="ADM2_TH" type="string">
        <displayName>ชื่ออำเภอ</displayName>
      </SimpleField>
      <SimpleField name="ADM1_EN" type="string">
        <displayName>Province Name (English)</displayName>
      </SimpleField>
      <SimpleField name="ADM1_TH" type="string">
        <displayName>ชื่อจังหวัด</displayName>
      </SimpleField>
      <SimpleField name="ADM0_EN" type="string">
        <displayName>Country Name (English)</displayName>
      </SimpleField>
      <SimpleField name="ADM0_TH" type="string">
        <displayName>ชื่อประเทศ</displayName>
      </SimpleField>
    </Schema>

    <!-- Style สำหรับตำบล -->
    <Style id="tambonStyle">
      <LineStyle>
        <color>ffff0000</color>
        <width>1.5</width>
      </LineStyle>
      <PolyStyle>
        <color>33ff0000</color>
        <fill>1</fill>
        <outline>1</outline>
      </PolyStyle>
    </Style>

    <Placemark id="Trat.21">
        
        <ExtendedData>
            
          <SchemaData schemaUrl="#tambon.schema">
                
            <SimpleData name="Shape_Leng">
                0.419183441418</SimpleData>
                
            <SimpleData name="Shape_Area">
                0.00612680905985</SimpleData>
                
            <SimpleData name="ADM3_EN">
                Tha Som</SimpleData>
                
            <SimpleData name="ADM3_TH">
                ท่าโสม</SimpleData>
                
            <SimpleData name="ADM3_PCODE">
                TH230304</SimpleData>
                
            <SimpleData name="ADM2_EN">
                Khao Saming</SimpleData>
                
            <SimpleData name="ADM2_TH">
                เขาสมิง</SimpleData>
                
            <SimpleData name="ADM2_PCODE">
                TH2303</SimpleData>
                
            <SimpleData name="ADM1_EN">
                Trat</SimpleData>
                
            <SimpleData name="ADM1_TH">
                ตราด</SimpleData>
                
            <SimpleData name="ADM1_PCODE">
                TH23</SimpleData>
                
            <SimpleData name="ADM0_EN">
                Thailand</SimpleData>
                
            <SimpleData name="ADM0_TH">
                ประเทศไทย</SimpleData>
                
            <SimpleData name="ADM0_PCODE">
                TH</SimpleData>
            
          </SchemaData>
        
        </ExtendedData>
        
        <Polygon>
            
          <outerBoundaryIs>
                
            <LinearRing>
                    
              <coordinates>
                    
                102.363006013,12.3331565820001,0
                102.363059188,12.333137294,0
                102.363090217,12.3331386040001,0
                102.363152389,12.333149696,0
                102.363327353,12.3332220780001,0
                102.363432541,12.33326873,0
                102.363590246,12.3332984630001,0
                102.363662693,12.3333043480001,0
                102.363741787,12.3332915140001,0
                102.363820566,12.3332532690001,0
                102.36387531,12.3332220940001,0
                102.363924472,12.333158806,0
                102.363949404,12.333087334,0
                102.363948669,12.333029749,0
                102.363928664,12.332946979,0
                102.363815901,12.3327686050001,0
                102.363659521,12.332516588,0
                102.363595791,12.332383528,0
                102.363581425,12.3323379620001,0
                102.363577291,12.332283804,0
                102.363595725,12.332242912,0
                102.36365725,12.3322031870001,0
                102.363712203,12.3321889580001,0
                102.363784592,12.332189757,0
                102.363865711,12.332200614,0
                102.364024904,12.332252867,0
                102.364236932,12.332375165,0
                102.364300547,12.3323833040001,0
                102.364372798,12.3323739370001,0
                102.364627455,12.3323069630001,0
                102.364671881,12.3323160360001,0
                102.364701434,12.3323359950001,0
                102.364760942,12.332408118,0
                102.364908929,12.3326621160001,0
                102.364919903,12.33268165,0
                102.364952766,12.332717168,0
                102.36497871,12.3327290140001,0
                102.365039195,12.332743512,0
                102.365170315,12.332755456,0
                102.365278681,12.332740555,0
                102.365441675,12.332686026,0
                102.365527384,12.332651083,0
                102.36558883,12.3326045810001,0
                102.365668873,12.3325307420001,0
                102.365923987,12.3322683820001,0
                102.366084053,12.3321190140001,0
                102.366179432,12.332035907,0
                102.366324786,12.331867597,0
                102.366375229,12.33181697,0
                102.366426145,12.331785994,0
                102.366454155,12.331780472,0
                102.366478465,12.331780436,0
                102.36648217,12.33178114,0
                102.366485064,12.331781703,0
                102.366512483,12.331791867,0
                102.366532826,12.331810289,0
                102.366664953,12.331951111,0
                102.36673015,12.332004566,0
                102.366786706,12.332027867,0
                102.367033784,12.332076079,0
                102.367164201,12.3320710470001,0
                102.367269983,12.332044081,0
                102.367404941,12.3319859650001,0
                102.367633353,12.3318890640001,0
                102.367811159,12.3318029600001,0
                102.367936796,12.3317257300001,0
                102.368089466,12.331626192,0
                102.368212435,12.3315343570001,0
                102.368323022,12.331445108,0
                102.36839649,12.3313660800001,0
                102.368430161,12.3312802240001,0
                102.368453077,12.331131026,0
                102.368446942,12.3308454840001,0
                102.36843365,12.330537388,0
                102.368418414,12.3304384520001,0
                102.368407257,12.33030367,0
                102.368413134,12.330271678,0
                102.368424312,12.3302447620001,0
                102.368443892,12.3302198050001,0
                102.368469839,12.330200942,0
                102.368528052,12.33016624,0
                102.368669923,12.33009266,0
                102.368698527,12.330064233,0
                102.36873544,12.3300019870001,0
                102.368816617,12.32984437,0
                102.368875982,12.3297705850001,0
                102.368945298,12.3297027890001,0
                102.369079184,12.329606384,0
                102.369116272,12.329569925,0
                102.369126787,12.32954926,0
                102.369137788,12.329520185,0
                102.369136893,12.329450159,0
                102.3691413,12.329385229,0
                102.369157504,12.32934177,0
                102.369175772,12.329296233,0
                102.369226424,12.3291946590001,0
                102.369269188,12.329065416,0
                102.369300273,12.328956896,0
                102.369300648,12.328932212,0
                102.369297398,12.3289150410001,0
                102.369291436,12.3289067900001,0
                102.369276118,12.328897571,0
                102.369193144,12.3288649080001,0
                102.369174987,12.3288482990001,0
                102.369168143,12.328839126,0
                102.369155224,12.3288149140001,0
                102.369150892,12.328772003,0
                102.369150752,12.328761114,0
                102.369153897,12.3287418790001,0
                102.369167055,12.328706986,0
                102.369209536,12.328659396,0
                102.36924645,12.328630839,0
                102.36928828,12.328610914,0
                102.369332843,12.328602613,0
                102.369455,12.328606817,0
                102.36953053,12.3286020740001,0
                102.369590384,12.3285841850001,0
                102.369642409,12.3285606690001,0
                102.36968843,12.328521993,0
                102.369713017,12.328474041,0
                102.369722043,12.3284224810001,0
                102.369721385,12.32837104,0
                102.369697086,12.3282894010001,0
                102.369577061,12.3279974110001,0
                102.369550218,12.3278681640001,0
                102.369542995,12.3277577210001,0
                102.369546162,12.3277024240001,0
                102.369564856,12.327648831,0
                102.369595472,12.327617961,0
                102.369643576,12.327590695,0
                102.369989007,12.3274739880001,0
                102.370321223,12.3273841330001,0
                102.370492591,12.327296258,0
                102.370785393,12.327155927,0
                102.37080864,12.327140818,0
                102.370864105,12.3270972880001,0
                102.370996428,12.326953325,0
                102.371071216,12.3268880700001,0
                102.371161933,12.326819936,0
                102.371191482,12.326787847,0
                102.371208766,12.326769073,0
                102.371220442,12.326729067,0
                102.371188574,12.326553989,0
                102.371183051,12.326528883,0
                102.371164845,12.3264461200001,0
                102.371161819,12.326432358,0
                102.371159889,12.3263783240001,0
                102.371176062,12.326311359,0
                102.371442817,12.325839151,0
                102.371598047,12.3256154970001,0
                102.371759718,12.325423072,0
                102.371773418,12.3254067570001,0
                102.371779087,12.325401265,0
                102.371870941,12.3253122030001,0
                102.371970349,12.325263942,0
                102.372083121,12.3252411670001,0
                102.372653106,12.325264052,0
                102.372682487,12.325262303,0
                102.372835609,12.325253241,0
                102.372926522,12.325224501,0
                102.373001191,12.32516951,0
                102.373173668,12.3249279360001,0
                102.373223907,12.3248301300001,0
                102.373322885,12.3245507500001,0
                102.373350148,12.3244737910001,0
                102.373403201,12.324378623,0
                102.373462297,12.324298589,0
                102.373511875,12.324269056,0
                102.373560599,12.3242615930001,0
                102.373643843,12.324265676,0
                102.373851851,12.324268208,0
                102.37398626,12.3242559650001,0
                102.374019351,12.324243441,0
                102.374073785,12.324213995,0
                102.374209426,12.3241088930001,0
                102.374249603,12.3240901890001,0
                102.374295273,12.3240738750001,0
                102.374385295,12.32406673,0
                102.374817289,12.324047867,0
                102.375513211,12.324028143,0
                102.375981854,12.3239911750001,0
                102.376022659,12.323987953,0
                102.376083932,12.3239710760001,0
                102.376174338,12.323914674,0
                102.376184364,12.323908412,0
                102.376204104,12.323890385,0
                102.376242382,12.3238404090001,0
                102.376280012,12.323762732,0
                102.376337122,12.323512533,0
                102.376337259,12.323511932,0
                102.376370645,12.323425851,0
                102.376423014,12.323368445,0
                102.376470759,12.3233384390001,0
                102.376500639,12.323330029,0
                102.376547039,12.3233169690001,0
                102.376556397,12.3233166420001,0
                102.376578631,12.3233113060001,0
                102.376672631,12.323312312,0
                102.376733718,12.323303831,0
                102.376751456,12.3232975710001,0
                102.376787755,12.3232731200001,0
                102.376825234,12.323224984,0
                102.376884089,12.3231334450001,0
                102.376940648,12.323078105,0
                102.376992447,12.323044082,0
                102.377134348,12.3229819540001,0
                102.377259158,12.3229441780001,0
                102.377539251,12.3228771460001,0
                102.377823142,12.3228485010001,0
                102.378209612,12.322891143,0
                102.378238858,12.322894368,0
                102.378398736,12.3228822400001,0
                102.378445603,12.322867085,0
                102.378560663,12.322811018,0
                102.37867969,12.3226508070001,0
                102.378770624,12.322496519,0
                102.378823467,12.3224068800001,0
                102.378926599,12.322207958,0
                102.379003607,12.3221613470001,0
                102.37912295,12.32214644,0
                102.379303083,12.322132771,0
                102.379536294,12.3220919240001,0
                102.379693407,12.322025727,0
                102.379783116,12.321985732,0
                102.379915461,12.3218965900001,0
                102.379938267,12.32188123,0
                102.380279649,12.3215255210001,0
                102.380579975,12.3213632120001,0
                102.380755429,12.321309872,0
                102.380926297,12.321238856,0
                102.38114106,12.3211496000001,0
                102.381242896,12.3210891410001,0
                102.381334024,12.321019246,0
                102.381617923,12.320687251,0
                102.381776695,12.3204695270001,0
                102.38182735,12.3204337180001,0
                102.381987098,12.3203207920001,0
                102.382350538,12.320120305,0
                102.382618975,12.3199582440001,0
                102.382677589,12.3199438660001,0
                102.382718667,12.3199486300001,0
                102.382748655,12.319954377,0
                102.382814276,12.319999024,0
                102.382870561,12.3200512920001,0
                102.383011064,12.3201402330001,0
                102.383026153,12.3201497800001,0
                102.383033774,12.3201518290001,0
                102.383135428,12.3201790210001,0
                102.383283776,12.320165259,0
                102.383287698,12.320164893,0
                102.38329293,12.3201630030001,0
                102.383397088,12.3201254370001,0
                102.383862417,12.3198492610001,0
                102.384351428,12.319469649,0
                102.384378445,12.3194571,0
                102.384462242,12.319432432,0
                102.384466066,12.319432658,0
                102.384633169,12.319459787,0
                102.384787284,12.3195250530001,0
                102.384792688,12.3195283000001,0
                102.385137224,12.319743976,0
                102.385497437,12.319921809,0
                102.385620887,12.319961435,0
                102.385704418,12.3199817710001,0
                102.385902702,12.320009596,0
                102.386061708,12.319992713,0
                102.386170516,12.3199632980001,0
                102.386202294,12.3199547040001,0
                102.386259591,12.319928643,0
                102.386362564,12.319878526,0
                102.386442096,12.3197886890001,0
                102.38652721,12.319630536,0
                102.386620417,12.3193485200001,0
                102.386656085,12.319110059,0
                102.386683123,12.3185765690001,0
                102.386727402,12.3182944800001,0
                102.386743455,12.318247878,0
                102.386802096,12.318077702,0
                102.386864487,12.3179685920001,0
                102.387002029,12.3177789650001,0
                102.387070155,12.317702839,0
                102.387183946,12.317575693,0
                102.38748504,12.3173098930001,0
                102.387673823,12.3171385530001,0
                102.387902271,12.316832769,0
                102.387903564,12.316829436,0
                102.387960514,12.316682144,0
                102.387964914,12.3166707780001,0
                102.387987557,12.316525605,0
                102.387984878,12.316317027,0
                102.387832898,12.3155994800001,0
                102.387783462,12.315401799,0
                102.387757681,12.3153390840001,0
                102.387678532,12.3152205440001,0
                102.38724602,12.3148773890001,0
                102.387117024,12.3147548530001,0
                102.387075476,12.3146896210001,0
                102.387048363,12.3146096420001,0
                102.38704521,12.3145624050001,0
                102.387056603,12.314510338,0
                102.387066009,12.3144802350001,0
                102.387118824,12.314364181,0
                102.387121105,12.3143602120001,0
                102.38723157,12.3141680910001,0
                102.387258831,12.3140816980001,0
                102.387269449,12.3140327630001,0
                102.387276521,12.3139591930001,0
                102.387266841,12.313886978,0
                102.387232203,12.313730702,0
                102.387218496,12.3136688330001,0
                102.387213553,12.3135569350001,0
                102.387222272,12.3134335290001,0
                102.38742584,12.3126370750001,0
                102.387780729,12.311496532,0
                102.388286501,12.3100939660001,0
                102.388415467,12.309813465,0
                102.388475874,12.3096378980001,0
                102.389028907,12.3084792810001,0
                102.38919773,12.308212742,0
                102.389360218,12.3080214500001,0
                102.389565945,12.3078699650001,0
                102.389918628,12.307657019,0
                102.390206806,12.307520937,0
                102.394698833,12.306448905,0
                102.395255904,12.305971641,0
                102.395585358,12.305669563,0
                102.395759696,12.305509713,0
                102.39614373,12.305103955,0
                102.396481086,12.304671436,0
                102.396734562,12.30420351,0
                102.396863161,12.3038054,0
                102.397033569,12.3029512730001,0
                102.397184993,12.3024755000001,0
                102.397537006,12.3017420580001,0
                102.397962669,12.300995738,0
                102.398518892,12.3002626200001,0
                102.399770074,12.29882538,0
                102.400076234,12.29852657,0
                102.400173025,12.29841212,0
                102.400446822,12.298135975,0
                102.401028672,12.297624507,0
                102.401219865,12.297490903,0
                102.401792018,12.2971405600001,0
                102.402679389,12.296708783,0
                102.404191615,12.296107567,0
                102.404056607,12.2958753560001,0
                102.40377833,12.295446054,0
                102.403692002,12.295322141,0
                102.403481766,12.294915255,0
                102.403384475,12.2945957950001,0
                102.403370044,12.2944450950001,0
                102.403360274,12.2943173350001,0
                102.403350497,12.294189578,0
                102.403379197,12.293893499,0
                102.403456655,12.293596812,0
                102.403519918,12.2934601540001,0
                102.40370602,12.2932228400001,0
                102.403995781,12.293001326,0
                102.404592983,12.2926248100001,0
                102.405070352,12.292392954,0
                102.405312866,12.292275155,0
                102.40577901,12.2920638150001,0
                102.406200107,12.291864144,0
                102.406653977,12.291649711,0
                102.407018524,12.29144519,0
                102.407529059,12.2911721850001,0
                102.407927498,12.29096724,0
                102.408146768,12.2908867350001,0
                102.408360751,12.290834073,0
                102.40859768,12.2908089000001,0
                102.408806234,12.2907729720001,0
                102.408895097,12.2907466300001,0
                102.40898775,12.290703814,0
                102.409071558,12.2906319430001,0
                102.409158549,12.290496374,0
                102.409247416,12.290378617,0
                102.409347427,12.2902496040001,0
                102.409476045,12.2901480080001,0
                102.409689593,12.2900620240001,0
                102.410093675,12.2898569990001,0
                102.410244382,12.28971625,0
                102.410338251,12.2895484310001,0
                102.410392222,12.28935333,0
                102.410457494,12.289158091,0
                102.410529624,12.289057198,0
                102.410613487,12.288989497,0
                102.410748174,12.288921153,0
                102.411046595,12.2888452190001,0
                102.411071995,12.288834665,0
                102.411198293,12.2887822160001,0
                102.411315615,12.2886807680001,0
                102.411409841,12.288540717,0
                102.411591064,12.2881384950001,0
                102.411763188,12.287669094,0
                102.411783691,12.2876265790001,0
                102.41193763,12.287298766,0
                102.411995292,12.287098063,0
                102.41201473,12.286853405,0
                102.412011577,12.286609023,0
                102.411986597,12.286424169,0
                102.411931496,12.286239692,0
                102.411846754,12.2860926170001,0
                102.411679164,12.285946575,0
                102.411382898,12.285750287,0
                102.410956505,12.2853926810001,0
                102.410482418,12.2848115520001,0
                102.409948601,12.2839744460001,0
                102.40941435,12.2831213330001,0
                102.409114445,12.2827498020001,0
                102.408645281,12.282181947,0
                102.408407161,12.2819379000001,0
                102.408025153,12.2816745700001,0
                102.407973793,12.281632546,0
                102.407707316,12.281527001,0
                102.40697439,12.2820665140001,0
                102.406528106,12.2824207300001,0
                102.406379819,12.2825041780001,0
                102.405773983,12.2828451080001,0
                102.405406076,12.2830124930001,0
                102.404703132,12.2832526820001,0
                102.404540774,12.283296238,0
                102.403851527,12.283481148,0
                102.403377526,12.283538924,0
                102.403064189,12.2834587880001,0
                102.402874134,12.283340192,0
                102.402764816,12.283131822,0
                102.402742613,12.2830640830001,0
                102.402548715,12.2817866660001,0
                102.402409909,12.2813100070001,0
                102.402291783,12.280958664,0
                102.402244545,12.280818154,0
                102.402116489,12.2805656310001,0
                102.401674637,12.279918561,0
                102.400259624,12.278108081,0
                102.399682638,12.277226177,0
                102.399484541,12.276903679,0
                102.399323807,12.276693746,0
                102.399163981,12.2765544480001,0
                102.398947062,12.276444107,0
                102.3986224,12.2763351140001,0
                102.398168559,12.27623478,0
                102.397787077,12.2761759360001,0
                102.397592655,12.276127898,0
                102.397514404,12.2760999130001,0
                102.397378837,12.276024007,0
                102.39729761,12.2759543280001,0
                102.396986387,12.2755625990001,0
                102.396918955,12.2754270520001,0
                102.396878229,12.2753253600001,0
                102.396847052,12.275135016,0
                102.396873063,12.2749227580001,0
                102.396956987,12.2747451110001,0
                102.397112454,12.2745453790001,0
                102.397580323,12.274059193,0
                102.397870657,12.2738085440001,0
                102.398319212,12.273421295,0
                102.398489408,12.2732496310001,0
                102.398594601,12.273050524,0
                102.398642425,12.2728591910001,0
                102.398646257,12.272597763,0
                102.398585081,12.272308884,0
                102.398441494,12.271967768,0
                102.397466461,12.272264326,0
                102.396915954,12.272354041,0
                102.396189051,12.272430878,0
                102.395875053,12.2724423110001,0
                102.395483965,12.2724170170001,0
                102.395123331,12.272376278,0
                102.394754455,12.2722904390001,0
                102.394408175,12.2721741670001,0
                102.393861649,12.271977491,0
                102.39364443,12.271936601,0
                102.393523703,12.2719138680001,0
                102.393171506,12.271933301,0
                102.392896003,12.271959323,0
                102.392613321,12.272023108,0
                102.392533172,12.272062482,0
                102.39237729,12.272139059,0
                102.392217474,12.2722239290001,0
                102.392103289,12.272363403,0
                102.392074141,12.2723990060001,0
                102.391991896,12.2725582640001,0
                102.391947761,12.2727019760001,0
                102.391979955,12.2728221410001,0
                102.392081187,12.2729489820001,0
                102.392221103,12.2731054870001,0
                102.392438984,12.2733665160001,0
                102.392556704,12.2735835720001,0
                102.39263678,12.273853854,0
                102.392669552,12.274019217,0
                102.392641511,12.2742230100001,0
                102.392574692,12.274389609,0
                102.392499821,12.274526171,0
                102.392389542,12.2748892220001,0
                102.392339008,12.2751309770001,0
                102.39231223,12.2754327050001,0
                102.392307557,12.2756663530001,0
                102.392341965,12.2759598000001,0
                102.392430196,12.276267648,0
                102.392526085,12.2765753940001,0
                102.392637004,12.2768603540001,0
                102.392689867,12.2769716920001,0
                102.393275079,12.277758407,0
                102.393652388,12.2782656200001,0
                102.39419183,12.2789210400001,0
                102.394318438,12.279246291,0
                102.394329477,12.2792819950001,0
                102.394322873,12.2795633850001,0
                102.394255697,12.27972306,0
                102.394163776,12.2798241580001,0
                102.393939998,12.2799800600001,0
                102.393616092,12.280215147,0
                102.392967375,12.2806150230001,0
                102.392551786,12.2808713470001,0
                102.391924268,12.281331235,0
                102.391630743,12.281545857,0
                102.3913173,12.281800909,0
                102.391065284,12.2820652550001,0
                102.390873866,12.282278304,0
                102.390115688,12.282911626,0
                102.389808469,12.283173123,0
                102.389125102,12.283754791,0
                102.388551784,12.2841927310001,0
                102.38820938,12.284335454,0
                102.387725192,12.2844029980001,0
                102.386287299,12.2845285130001,0
                102.385381698,12.284678206,0
                102.384885238,12.2848016250001,0
                102.38452171,12.2849551520001,0
                102.384194118,12.285173991,0
                102.384101654,12.2852906310001,0
                102.384015358,12.285430288,0
                102.383946899,12.285587057,0
                102.383843792,12.2857904470001,0
                102.38374723,12.2860457350001,0
                102.383690734,12.286219675,0
                102.383616919,12.2864169280001,0
                102.383608059,12.2864342680001,0
                102.38353671,12.286573843,0
                102.383292849,12.2867905260001,0
                102.382779482,12.2870567370001,0
                102.382212255,12.287242513,0
                102.381843564,12.287358301,0
                102.380479398,12.2876468700001,0
                102.378997869,12.287915228,0
                102.377698374,12.2881365370001,0
                102.377055567,12.288246008,0
                102.376922497,12.2878520680001,0
                102.376843292,12.2875475390001,0
                102.376586514,12.286606439,0
                102.376226748,12.28456056,0
                102.376104311,12.2834925870001,0
                102.37611971,12.2832239300001,0
                102.376163933,12.283001208,0
                102.376246403,12.282824293,0
                102.37643288,12.2826831300001,0
                102.376436131,12.28268122,0
                102.376610409,12.2825791,0
                102.376759122,12.282429144,0
                102.376860295,12.282242744,0
                102.376895581,12.2820571560001,0
                102.376892745,12.281835012,0
                102.376804842,12.2815861390001,0
                102.376583166,12.281181546,0
                102.37646703,12.2809330200001,0
                102.37638854,12.2806840370001,0
                102.376347346,12.280406816,0
                102.376344275,12.280166159,0
                102.376359912,12.2799160060001,0
                102.376376374,12.2797306590001,0
                102.376447896,12.2794335360001,0
                102.376528941,12.2791455440001,0
                102.376638109,12.278847956,0
                102.376813279,12.278558805,0
                102.376913394,12.278289102,0
                102.377133494,12.277832765,0
                102.377343008,12.277283988,0
                102.377579217,12.2766145210001,0
                102.37766015,12.276317281,0
                102.377722015,12.27600176,0
                102.377764825,12.27566796,0
                102.377788693,12.2753251340001,0
                102.37776585,12.275010658,0
                102.377705597,12.2747151610001,0
                102.37762688,12.2744476660001,0
                102.377472981,12.2741903560001,0
                102.377290491,12.2739056180001,0
                102.377050345,12.273529017,0
                102.376821273,12.2732818910001,0
                102.37652607,12.273017065,0
                102.376202755,12.272761835,0
                102.375851085,12.272497706,0
                102.375501747,12.2723130530001,0
                102.375430598,12.272282881,0
                102.375381705,12.2722587700001,0
                102.375351276,12.2722377210001,0
                102.375329125,12.2722083400001,0
                102.375298535,12.272174111,0
                102.375271303,12.2721414970001,0
                102.375229156,12.272120597,0
                102.375185482,12.2721112520001,0
                102.375131784,12.272105321,0
                102.375081391,12.2720944070001,0
                102.375034357,12.272085105,0
                102.374984005,12.272077489,0
                102.374948716,12.2720696810001,0
                102.374915067,12.272058563,0
                102.374893042,12.2720390650001,0
                102.374865999,12.272021271,0
                102.374835517,12.2719952840001,0
                102.374801596,12.2719627500001,0
                102.374757639,12.271931991,0
                102.374717232,12.27191601,0
                102.374661782,12.2719035120001,0
                102.374601429,12.2719009580001,0
                102.374600999,12.271901025,0
                102.374548627,12.2719105680001,0
                102.374470837,12.2719313310001,0
                102.374415708,12.2719518230001,0
                102.374373226,12.2719771060001,0
                102.37433843,12.272012202,0
                102.374316274,12.2720520890001,0
                102.374301706,12.2720943620001,0
                102.374287176,12.272139113,0
                102.374260084,12.272186488,0
                102.374235574,12.272238787,0
                102.374226195,12.272293383,0
                102.374224243,12.272337969,0
                102.374222236,12.2723776180001,0
                102.374210146,12.272417376,0
                102.374177867,12.2724524430001,0
                102.374123023,12.272495212,0
                102.374077994,12.2725180480001,0
                102.374002853,12.2725486890001,0
                102.37390005,12.272582146,0
                102.373819622,12.2725930410001,0
                102.373761816,12.2726011840001,0
                102.37372255,12.272598708,0
                102.373697076,12.2725970980001,0
                102.373674218,12.272589136,0
                102.373650132,12.2725788340001,0
                102.373622345,12.2725603330001,0
                102.373590806,12.272528919,0
                102.37356172,12.272502189,0
                102.373540121,12.272477496,0
                102.373530114,12.2724660600001,0
                102.373504609,12.272438107,0
                102.373481496,12.2724101220001,0
                102.373469281,12.2723914310001,0
                102.373452277,12.2723727900001,0
                102.373428852,12.272355206,0
                102.373380646,12.272326084,0
                102.373319849,12.2722971200001,0
                102.373271511,12.2722580990001,0
                102.373235733,12.2722164470001,0
                102.373205022,12.2721772100001,0
                102.373169308,12.272140511,0
                102.373136328,12.2721211040001,0
                102.373088503,12.2721216940001,0
                102.37305848,12.272136921,0
                102.37302865,12.2721670020001,0
                102.372996268,12.272194638,0
                102.372951309,12.2722224280001,0
                102.372896171,12.2722429190001,0
                102.372845985,12.2722559100001,0
                102.37279816,12.272256499,0
                102.372760172,12.2722396400001,0
                102.372731978,12.272200372,0
                102.37270353,12.2721412940001,0
                102.372680309,12.2720970080001,0
                102.372644621,12.2720627800001,0
                102.372568629,12.2720265770001,0
                102.37250799,12.272009998,0
                102.372434889,12.2720034660001,0
                102.372361855,12.272001889,0
                102.372261134,12.2720006590001,0
                102.372198132,12.27199648,0
                102.372142562,12.271982307,0
                102.372089351,12.271955726,0
                102.372003161,12.271909739,0
                102.371924616,12.271871091,0
                102.371858818,12.2718446650001,0
                102.371813471,12.2718427470001,0
                102.371752699,12.271848317,0
                102.371650109,12.271875987,0
                102.371556176,12.271881545,0
                102.371457551,12.2718695520001,0
                102.371327325,12.271835939,0
                102.371201564,12.27180228,0
                102.371088895,12.271742036,0
                102.370931197,12.2716603440001,0
                102.370800571,12.271595919,0
                102.370670001,12.2715359050001,0
                102.370530262,12.2714583900001,0
                102.370452776,12.271392765,0
                102.370378047,12.271324355,0
                102.370313517,12.2712657220001,0
                102.370259098,12.2712102690001,0
                102.370184502,12.2711517610001,0
                102.370126897,12.271109553,0
                102.370042058,12.271037963,0
                102.369987724,12.270989114,0
                102.369943246,12.2709236360001,0
                102.369912287,12.27086459,0
                102.369891178,12.270788915,0
                102.369850105,12.2707266950001,0
                102.369788637,12.270644912,0
                102.369713577,12.270550096,0
                102.369631891,12.270461961,0
                102.369600965,12.2704062190001,0
                102.369593662,12.2703600900001,0
                102.369599579,12.27029729,0
                102.369599033,12.270254375,0
                102.369591688,12.270204947,0
                102.369567437,12.2701458180001,0
                102.36953312,12.270086819,0
                102.369499087,12.270050919,0
                102.369451635,12.2700151870001,0
                102.369390509,12.269959815,0
                102.369342846,12.2699075780001,0
                102.369308479,12.2698452760001,0
                102.369264093,12.2697863940001,0
                102.369209928,12.269750748,0
                102.369149214,12.2697283860001,0
                102.369091986,12.269715881,0
                102.369024778,12.2697101050001,0
                102.368987769,12.2697039560001,0
                102.368936964,12.2696682700001,0
                102.368886025,12.269622677,0
                102.368818354,12.269580589,0
                102.368757514,12.269548323,0
                102.368653088,12.269519895,0
                102.36857754,12.269497131,0
                102.368539067,12.269485536,0
                102.368422101,12.269438549,0
                102.368323079,12.2693957500001,0
                102.368241854,12.269343925,0
                102.368169246,12.269265585,0
                102.368164242,12.269260506,0
                102.36809216,12.269187302,0
                102.367979045,12.269091845,0
                102.367906711,12.26903551,0
                102.36787168,12.269009242,0
                102.367802767,12.268957557,0
                102.367703194,12.2688707410001,0
                102.367639478,12.268787891,0
                102.367620348,12.268731546,0
                102.367602276,12.268678301,0
                102.367587505,12.2685728340001,0
                102.367563227,12.268423468,0
                102.367525522,12.268274267,0
                102.367497329,12.268168971,0
                102.367456215,12.2681034460001,0
                102.367415426,12.2680643310001,0
                102.367348132,12.2680519510001,0
                102.367227297,12.268053437,0
                102.367066189,12.2680554180001,0
                102.366873473,12.26803578,0
                102.366693794,12.267985163,0
                102.366518645,12.2679388980001,0
                102.36632565,12.2678972470001,0
                102.366137184,12.267859948,0
                102.365917164,12.267805428,0
                102.365826986,12.2677537120001,0
                102.365781396,12.267688246,0
                102.365757176,12.26754328,0
                102.365729034,12.267442385,0
                102.365673659,12.267311009,0
                102.365632314,12.267227877,0
                102.365586723,12.2671624110001,0
                102.365509805,12.2670973240001,0
                102.365410344,12.267019313,0
                102.365352584,12.2669363750001,0
                102.365328274,12.266901466,0
                102.365281867,12.2668309420001,0
                102.365250686,12.2667835720001,0
                102.365150618,12.266657142,0
                102.365055646,12.266563454,0
                102.365050688,12.266558558,0
                102.364991963,12.266500627,0
                102.364873707,12.266352415,0
                102.364778608,12.266265542,0
                102.364670138,12.26618324,0
                102.364455844,12.266005535,0
                102.364449012,12.2659998680001,0
                102.364355815,12.265894024,0
                102.36430234,12.265769571,0
                102.364287844,12.265686117,0
                102.364272577,12.265541039,0
                102.364261948,12.265409114,0
                102.364251882,12.2653211960001,0
                102.364228501,12.2652422520001,0
                102.36418285,12.2651723770001,0
                102.364087983,12.2651031190001,0
                102.364024598,12.2650466650001,0
                102.363961444,12.2650078250001,0
                102.363880555,12.264982408,0
                102.363755357,12.2649927470001,0
                102.363612538,12.265025317,0
                102.363510003,12.265051865,0
                102.363487626,12.2650576660001,0
                102.363349399,12.2650989800001,0
                102.363215588,12.265135839,0
                102.363090783,12.2651769890001,0
                102.36264609,12.26534029,0
                102.362596499,12.2653556380001,0
                102.362526904,12.2653771710001,0
                102.362260119,12.265429292,0
                102.362088309,12.2654389150001,0
                102.361916759,12.2654097180001,0
                102.361612606,12.2652753630001,0
                102.361454869,12.2651815150001,0
                102.361334835,12.265076166,0
                102.361123058,12.2648518870001,0
                102.36074552,12.264581,0
                102.360728539,12.2645688120001,0
                102.360424413,12.2643884280001,0
                102.359701789,12.2640478330001,0
                102.359026694,12.263739075,0
                102.358983041,12.263710947,0
                102.358885942,12.263618891,0
                102.358793105,12.2634760510001,0
                102.356047454,12.2635252700001,0
                102.354872768,12.2634824960001,0
                102.353872809,12.263331141,0
                102.353621697,12.2632033560001,0
                102.353286569,12.263011138,0
                102.353050834,12.2627849990001,0
                102.352886662,12.2626275100001,0
                102.352850615,12.2625512660001,0
                102.35211756,12.2610010070001,0
                102.352091934,12.2609419610001,0
                102.3508502,12.2580805040001,0
                102.350811166,12.2579905590001,0
                102.349065155,12.254740068,0
                102.348190789,12.2532447250001,0
                102.347980141,12.2530103460001,0
                102.34772991,12.252731931,0
                102.347206063,12.2524111450001,0
                102.34674691,12.252273605,0
                102.34585171,12.2521822840001,0
                102.345295215,12.2522505050001,0
                102.344834044,12.252307026,0
                102.344185644,12.252463387,0
                102.342912868,12.2532610280001,0
                102.340833038,12.25486096,0
                102.339247738,12.2561072250001,0
                102.338449696,12.2566835000001,0
                102.337942026,12.256865222,0
                102.337303605,12.2569284140001,0
                102.336674009,12.2569360790001,0
                102.336624027,12.256924898,0
                102.336285504,12.256849167,0
                102.336039336,12.25673571,0
                102.335638539,12.256550964,0
                102.335522494,12.256446698,0
                102.335278328,12.256227326,0
                102.334688384,12.2554577280001,0
                102.333446606,12.253238077,0
                102.333080707,12.252866349,0
                102.332570531,12.252568969,0
                102.331861403,12.2523935460001,0
                102.331377014,12.25239594,0
                102.330718782,12.2524687710001,0
                102.330392183,12.2525061320001,0
                102.329751414,12.2527719620001,0
                102.329188771,12.253276901,0
                102.328594722,12.254105053,0
                102.328406851,12.254478819,0
                102.328185856,12.254918504,0
                102.327998402,12.2553319470001,0
                102.326645521,12.2584313830001,0
                102.326556313,12.258647793,0
                102.326287789,12.258959186,0
                102.326127353,12.2590552770001,0
                102.325916947,12.2591290870001,0
                102.325600218,12.259222192,0
                102.325336868,12.2591828070001,0
                102.325219151,12.259165205,0
                102.325055676,12.259092706,0
                102.324884591,12.259016843,0
                102.323987853,12.2582033850001,0
                102.323468617,12.2578003030001,0
                102.323155965,12.2576536830001,0
                102.322689404,12.257606697,0
                102.322374107,12.257615818,0
                102.322297144,12.2576180400001,0
                102.322063252,12.257687721,0
                102.321546478,12.257984562,0
                102.321487397,12.2580185030001,0
                102.320159896,12.258868035,0
                102.319758771,12.259015564,0
                102.319514487,12.259064084,0
                102.319275672,12.259053126,0
                102.319163437,12.259016436,0
                102.319050516,12.2589795170001,0
                102.318803681,12.2588183390001,0
                102.318652266,12.258719473,0
                102.317385631,12.257490074,0
                102.316645533,12.256961529,0
                102.316024897,12.256734055,0
                102.314936465,12.256659906,0
                102.314140061,12.256865986,0
                102.313215145,12.257444687,0
                102.311522542,12.258752975,0
                102.307139109,12.2631932890001,0
                102.305300898,12.2652891120001,0
                102.304040668,12.2668303360001,0
                102.303885626,12.2669519620001,0
                102.303622187,12.267134802,0
                102.30325935,12.2673388040001,0
                102.303116488,12.2674241030001,0
                102.30302856,12.267476792,0
                102.302830928,12.2676098380001,0
                102.302658403,12.2677589200001,0
                102.302510784,12.267907693,0
                102.302428981,12.26800668,0
                102.302331992,12.268220183,0
                102.302276722,12.268449515,0
                102.302258103,12.268585639,0
                102.302238668,12.2687276290001,0
                102.302228051,12.26875212,0
                102.30211759,12.269006755,0
                102.30202779,12.2691303410001,0
                102.301895959,12.2692135940001,0
                102.301681008,12.269289691,0
                102.301440933,12.2693497430001,0
                102.301422217,12.26935459,0
                102.301362767,12.2693699700001,0
                102.301109838,12.269435405,0
                102.300853777,12.269544657,0
                102.300672134,12.2696285100001,0
                102.300556913,12.26971157,0
                102.3004099,12.2699093360001,0
                102.300287292,12.2700659820001,0
                102.300202557,12.270243351,0
                102.300157808,12.2703370410001,0
                102.300019809,12.270591864,0
                102.299831695,12.2708227960001,0
                102.299692382,12.2709714690001,0
                102.29953605,12.2710876950001,0
                102.299354203,12.271155218,0
                102.299147238,12.271206712,0
                102.298915368,12.2712584980001,0
                102.298617075,12.2713110920001,0
                102.298177527,12.271357224,0
                102.297903742,12.271376859,0
                102.297580739,12.271446081,0
                102.297332775,12.271538895,0
                102.297085816,12.2717133680001,0
                102.296979431,12.2717824600001,0
                102.296855166,12.2718631490001,0
                102.296674232,12.272004156,0
                102.296427384,12.2721867930001,0
                102.296253836,12.2722542130001,0
                102.296005054,12.2722817150001,0
                102.295731464,12.272317679,0
                102.295391245,12.272338104,0
                102.295009714,12.2723753650001,0
                102.294694916,12.272436311,0
                102.294430133,12.2725130050001,0
                102.29422358,12.2725971520001,0
                102.293893591,12.2727726200001,0
                102.293481391,12.2730144120001,0
                102.293183899,12.2731323240001,0
                102.292911532,12.273266264,0
                102.292721167,12.273317562,0
                102.292513801,12.2733363890001,0
                102.29232253,12.273314183,0
                102.292106039,12.273267795,0
                102.291888942,12.2731724020001,0
                102.291696859,12.2730848740001,0
                102.291498775,12.273025161,0
                102.291488468,12.2730220500001,0
                102.29134711,12.273007417,0
                102.291164142,12.2729851120001,0
                102.290907058,12.273012707,0
                102.290700492,12.273096852,0
                102.290543648,12.2731722350001,0
                102.290419306,12.273263559,0
                102.290354406,12.273313348,0
                102.290181666,12.2734460890001,0
                102.290000321,12.2735544380001,0
                102.289752449,12.273655419,0
                102.28945679,12.2737594060001,0
                102.289190379,12.2738663330001,0
                102.288958907,12.2739507850001,0
                102.288777156,12.2740264670001,0
                102.288570996,12.2741432770001,0
                102.28848047,12.274224917,0
                102.288414969,12.2742839910001,0
                102.288217921,12.2744660230001,0
                102.288029278,12.27465612,0
                102.287856543,12.2747888590001,0
                102.287600408,12.2749767060001,0
                102.287347369,12.2751635020001,0
                102.28716875,12.2753249,0
                102.286897101,12.275518031,0
                102.286736483,12.2756240910001,0
                102.286606923,12.27572365,0
                102.28647114,12.2758232730001,0
                102.286267085,12.2759421010001,0
                102.286244715,12.2759524850001,0
                102.286050346,12.2760426990001,0
                102.285802699,12.27616205,0
                102.285604787,12.2762746770001,0
                102.285431865,12.276393124,0
                102.285178595,12.276561545,0
                102.284999222,12.276661701,0
                102.284857201,12.2767614090001,0
                102.284728029,12.2768915780001,0
                102.284586016,12.2769912860001,0
                102.284400715,12.2771160070001,0
                102.284196495,12.277222581,0
                102.284029576,12.2773225870001,0
                102.283905789,12.277385322,0
                102.283775848,12.2774542600001,0
                102.28361801,12.2775499860001,0
                102.283590393,12.2775667350001,0
                102.283581348,12.2775718620001,0
                102.283435774,12.2776543370001,0
                102.283294131,12.277784663,0
                102.283214626,12.2779019980001,0
                102.283147412,12.278006928,0
                102.283086432,12.2781117800001,0
                102.283044209,12.2782225390001,0
                102.283008436,12.278351596,0
                102.282972903,12.2785316530001,0
                102.282824416,12.27925614,0
                102.282650319,12.2800325530001,0
                102.282581517,12.280833515,0
                102.282723934,12.2817351900001,0
                102.283131031,12.2828143620001,0
                102.283874928,12.287849797,0
                102.284390977,12.290998739,0
                102.285229061,12.2956361010001,0
                102.28594096,12.299069017,0
                102.29017452,12.29977734,0
                102.298247981,12.300747088,0
                102.304639635,12.301585619,0
                102.306646706,12.3021040130001,0
                102.308273989,12.3025930690001,0
                102.309486159,12.302985397,0
                102.31042497,12.303584534,0
                102.311675879,12.304315553,0
                102.313768113,12.306121714,0
                102.316800501,12.3086286920001,0
                102.319066533,12.310534438,0
                102.32072571,12.3124870980001,0
                102.322588627,12.3143336360001,0
                102.324144995,12.3161838890001,0
                102.326004915,12.317789238,0
                102.32885121,12.319804606,0
                102.329168922,12.320032896,0
                102.333554504,12.3231840610001,0
                102.336340346,12.325260364,0
                102.338384351,12.3268633340001,0
                102.339822112,12.328724444,0
                102.341359343,12.331004271,0
                102.343360561,12.333760876,0
                102.345788651,12.337529692,0
                102.346785858,12.3399933270001,0
                102.347289861,12.3416490330001,0
                102.347698157,12.343916399,0
                102.347711926,12.3440794750001,0
                102.347901248,12.346321951,0
                102.34792239,12.3479835800001,0
                102.34781414,12.3506158390001,0
                102.348707921,12.3503674250001,0
                102.356878012,12.345079066,0
                102.362211122,12.34186555,0
                102.362748068,12.3413811460001,0
                102.363081188,12.340730115,0
                102.363125761,12.340473934,0
                102.363146832,12.340352813,0
                102.363147178,12.3401721430001,0
                102.363129024,12.340042039,0
                102.363104065,12.339940816,0
                102.362896344,12.339449329,0
                102.362712302,12.338951626,0
                102.362403604,12.3382867940001,0
                102.362286889,12.338023186,0
                102.362096245,12.337727364,0
                102.36180651,12.3373484260001,0
                102.361656329,12.337169842,0
                102.361560552,12.337091404,0
                102.361144588,12.336801323,0
                102.360941088,12.3366195880001,0
                102.36086387,12.33651042,0
                102.360791554,12.336379159,0
                102.360771835,12.3363300080001,0
                102.360757671,12.336256099,0
                102.360757469,12.336139007,0
                102.360790393,12.3360183140001,0
                102.360833634,12.3358957930001,0
                102.360904784,12.335800041,0
                102.360943801,12.3357521230001,0
                102.360991503,12.335709186,0
                102.361042861,12.335683132,0
                102.361207546,12.3356251880001,0
                102.361420762,12.3355557240001,0
                102.361480209,12.3355218720001,0
                102.361532888,12.33546362,0
                102.361615312,12.335329336,0
                102.361800362,12.334953754,0
                102.361867801,12.334837715,0
                102.361903353,12.334788147,0
                102.361945931,12.334748658,0
                102.362002499,12.3347259340001,0
                102.362156395,12.3346996990001,0
                102.362393951,12.334614372,0
                102.362512202,12.334563781,0
                102.362609592,12.334498195,0
                102.362689588,12.3344209740001,0
                102.362743576,12.3343305120001,0
                102.36277846,12.334228426,0
                102.362845621,12.3338976800001,0
                102.362828559,12.3335636890001,0
                102.362843731,12.333402549,0
                102.362876763,12.3332903300001,0
                102.362907151,12.3332408250001,0
                102.362958119,12.3331842870001,0
                102.363006013,12.3331565820001,0
              </coordinates>
                
            </LinearRing>
            
          </outerBoundaryIs>
        
        </Polygon>
        
      <styleUrl>
        #tambonStyle</styleUrl>
    </Placemark>

  </Document>
</kml>