<?xml version="1.0" encoding="UTF-8"?>
<kml xmlns="http://www.opengis.net/kml/2.2">
  <Document id="tambon_doc">
    <name>กู่สวนแตง, บ้านใหม่ไชยพจน์, Buri Ram</name>
    <description>ข้อมูลขอบเขตตำบลกู่สวนแตง อำเภอบ้านใหม่ไชยพจน์ จังหวัดBuri Ram</description>
    
    <!-- Schema สำหรับข้อมูลตำบล -->
    <Schema id="tambon.schema">
      <SimpleField name="ADM3_EN" type="string">
        <displayName>Subdistrict Name (English)</displayName>
      </SimpleField>
      <SimpleField name="ADM3_TH" type="string">
        <displayName>ชื่อตำบล</displayName>
      </SimpleField>
      <SimpleField name="ADM2_EN" type="string">
        <displayName>District Name (English)</displayName>
      </SimpleField>
      <SimpleField name="ADM2_TH" type="string">
        <displayName>ชื่ออำเภอ</displayName>
      </SimpleField>
      <SimpleField name="ADM1_EN" type="string">
        <displayName>Province Name (English)</displayName>
      </SimpleField>
      <SimpleField name="ADM1_TH" type="string">
        <displayName>ชื่อจังหวัด</displayName>
      </SimpleField>
      <SimpleField name="ADM0_EN" type="string">
        <displayName>Country Name (English)</displayName>
      </SimpleField>
      <SimpleField name="ADM0_TH" type="string">
        <displayName>ชื่อประเทศ</displayName>
      </SimpleField>
    </Schema>

    <!-- Style สำหรับตำบล -->
    <Style id="tambonStyle">
      <LineStyle>
        <color>ffff0000</color>
        <width>1.5</width>
      </LineStyle>
      <PolyStyle>
        <color>33ff0000</color>
        <fill>1</fill>
        <outline>1</outline>
      </PolyStyle>
    </Style>

    <Placemark id="Buri_Ram.172">
        
        <ExtendedData>
            
          <SchemaData schemaUrl="#tambon.schema">
                
            <SimpleData name="Shape_Leng">
                0.287311369524</SimpleData>
                
            <SimpleData name="Shape_Area">
                0.00215014396503</SimpleData>
                
            <SimpleData name="ADM3_EN">
                Ku Suan Taeng</SimpleData>
                
            <SimpleData name="ADM3_TH">
                กู่สวนแตง</SimpleData>
                
            <SimpleData name="ADM3_PCODE">
                TH311904</SimpleData>
                
            <SimpleData name="ADM2_EN">
                Ban Mai Chaiyaphot</SimpleData>
                
            <SimpleData name="ADM2_TH">
                บ้านใหม่ไชยพจน์</SimpleData>
                
            <SimpleData name="ADM2_PCODE">
                TH3119</SimpleData>
                
            <SimpleData name="ADM1_EN">
                Buri Ram</SimpleData>
                
            <SimpleData name="ADM1_TH">
                บุรีรัมย์</SimpleData>
                
            <SimpleData name="ADM1_PCODE">
                TH31</SimpleData>
                
            <SimpleData name="ADM0_EN">
                Thailand</SimpleData>
                
            <SimpleData name="ADM0_TH">
                ประเทศไทย</SimpleData>
                
            <SimpleData name="ADM0_PCODE">
                TH</SimpleData>
            
          </SchemaData>
        
        </ExtendedData>
        
        <Polygon>
            
          <outerBoundaryIs>
                
            <LinearRing>
                    
              <coordinates>
                    
                102.875084235,15.5605399930001,0
                102.875121029,15.560497379,0
                102.875189714,15.560454206,0
                102.875425761,15.560345139,0
                102.875656095,15.5602350660001,0
                102.875659154,15.560233451,0
                102.875943739,15.560083123,0
                102.876030582,15.560036321,0
                102.87606862,15.559999206,0
                102.876080586,15.5599691790001,0
                102.87608506,15.5599039460001,0
                102.876082224,15.5598134410001,0
                102.876088103,15.559641066,0
                102.876092309,15.5595614810001,0
                102.87610786,15.559479487,0
                102.876148509,15.559338527,0
                102.876209827,15.559155645,0
                102.876211083,15.559151899,0
                102.87627792,15.558949736,0
                102.876295457,15.558912983,0
                102.876461411,15.5586776050001,0
                102.87637348,15.558638844,0
                102.876314699,15.558602335,0
                102.876289082,15.5585729700001,0
                102.876274733,15.5585367790001,0
                102.876274984,15.558489292,0
                102.876289023,15.558448184,0
                102.876370999,15.5583241580001,0
                102.876475996,15.5581522470001,0
                102.876538652,15.5580307110001,0
                102.876565413,15.55794582,0
                102.876567989,15.557867248,0
                102.876546128,15.5577812510001,0
                102.876485612,15.55768612,0
                102.87634916,15.557537358,0
                102.876236007,15.5574431540001,0
                102.876179906,15.557367572,0
                102.87615241,15.5573052350001,0
                102.876118254,15.5572116010001,0
                102.876086857,15.557049208,0
                102.87600087,15.556675747,0
                102.875969916,15.556536905,0
                102.875966287,15.556507175,0
                102.875955562,15.556419363,0
                102.875953759,15.556323198,0
                102.875949196,15.556187816,0
                102.875940914,15.556070167,0
                102.875914854,15.555976394,0
                102.875789999,15.5557979760001,0
                102.875682148,15.555662452,0
                102.875554491,15.5555508300001,0
                102.875323926,15.5554230290001,0
                102.875131735,15.555349633,0
                102.874978866,15.5552615770001,0
                102.874901975,15.555193129,0
                102.874885685,15.5550922,0
                102.874898184,15.5549907650001,0
                102.874929011,15.5549064580001,0
                102.874984962,15.5548182200001,0
                102.875080894,15.5547502150001,0
                102.875208113,15.5546223310001,0
                102.875281799,15.5545198190001,0
                102.875373023,15.5543925640001,0
                102.875469025,15.55432805,0
                102.875622804,15.5542729910001,0
                102.875801648,15.5542105060001,0
                102.875951636,15.554145041,0
                102.876047245,15.554059594,0
                102.876120537,15.55393615,0
                102.876157187,15.553778446,0
                102.876243178,15.5533720710001,0
                102.876535881,15.5529637880001,0
                102.876694149,15.552731898,0
                102.87683153,15.5525424150001,0
                102.876928476,15.5523935750001,0
                102.87699748,15.55225784,0
                102.8770562,15.5521517120001,0
                102.877093874,15.552079586,0
                102.877140339,15.552013613,0
                102.877198034,15.5519684560001,0
                102.877331746,15.55193037,0
                102.877549752,15.551878188,0
                102.877747976,15.55181164,0
                102.877885747,15.5517587640001,0
                102.878006141,15.5517040980001,0
                102.878055164,15.551659095,0
                102.87809327,15.551610082,0
                102.878124485,15.5515401690001,0
                102.878152859,15.551434579,0
                102.878180604,15.551295367,0
                102.878190417,15.551124945,0
                102.878174814,15.5509864960001,0
                102.878132294,15.550800182,0
                102.878112153,15.5506513060001,0
                102.878080123,15.5504572190001,0
                102.878077912,15.550443823,0
                102.878052375,15.5503538940001,0
                102.878019038,15.5503103450001,0
                102.877981563,15.550277372,0
                102.87791642,15.550272217,0
                102.877814471,15.550269809,0
                102.877569588,15.5502762260001,0
                102.877472054,15.5502779440001,0
                102.877378659,15.550269078,0
                102.877330427,15.5502405030001,0
                102.877294838,15.550192785,0
                102.87726099,15.550121919,0
                102.877233285,15.550032029,0
                102.877219063,15.549967119,0
                102.877215515,15.5498936180001,0
                102.877227534,15.5498408620001,0
                102.877254925,15.549798341,0
                102.877308676,15.549774272,0
                102.87741642,15.5497387460001,0
                102.877576136,15.549700198,0
                102.87778575,15.5496628770001,0
                102.878127495,15.549619024,0
                102.878471014,15.549554119,0
                102.878670682,15.549498629,0
                102.878785918,15.549466597,0
                102.878991352,15.5494377580001,0
                102.879122898,15.54939971,0
                102.879243442,15.5493534450001,0
                102.879344248,15.549294918,0
                102.879413016,15.5492621770001,0
                102.879499435,15.549245941,0
                102.879566627,15.5492447570001,0
                102.879701283,15.5492570970001,0
                102.879825535,15.5492927440001,0
                102.880035738,15.549402537,0
                102.880253386,15.5495626430001,0
                102.880398205,15.5496546750001,0
                102.880497044,15.549722295,0
                102.880573337,15.5497440680001,0
                102.880638198,15.549734518,0
                102.880698335,15.549704031,0
                102.880743181,15.549667508,0
                102.880781328,15.549620598,0
                102.88082917,15.5495125580001,0
                102.880914801,15.549223097,0
                102.880955903,15.549102566,0
                102.880986915,15.549022151,0
                102.881024983,15.548971034,0
                102.88107188,15.548928173,0
                102.88114285,15.5488974940001,0
                102.881235574,15.5488706360001,0
                102.881384143,15.5488154720001,0
                102.881443964,15.548768174,0
                102.881477537,15.548708735,0
                102.881493022,15.548609674,0
                102.881511111,15.5484180870001,0
                102.881541569,15.548077049,0
                102.881619517,15.547609063,0
                102.881665579,15.547162311,0
                102.881679658,15.546885552,0
                102.8816798,15.54668751,0
                102.881687713,15.546493066,0
                102.881700812,15.5463695280001,0
                102.881734157,15.5462979430001,0
                102.881805756,15.5462107380001,0
                102.881878661,15.5461417270001,0
                102.881935353,15.546081875,0
                102.881959682,15.5459917690001,0
                102.881969347,15.5458907130001,0
                102.88197912,15.545795254,0
                102.881997827,15.5457136540001,0
                102.882031029,15.5456345970001,0
                102.882069753,15.545541434,0
                102.882146043,15.5454476090001,0
                102.882231584,15.5453844470001,0
                102.882314179,15.545318536,0
                102.882434186,15.5452435560001,0
                102.882557027,15.545165723,0
                102.882697214,15.5450875810001,0
                102.882866399,15.545014538,0
                102.883018351,15.544947404,0
                102.883104255,15.5449038510001,0
                102.8831558,15.5448777190001,0
                102.883195626,15.5448433880001,0
                102.883226415,15.544789596,0
                102.883241954,15.5446837960001,0
                102.883259745,15.544592048,0
                102.883276414,15.544527123,0
                102.883303249,15.54448409,0
                102.883328669,15.544452114,0
                102.883377194,15.5444386450001,0
                102.883453538,15.5444341480001,0
                102.883636128,15.5444593010001,0
                102.883740277,15.544463772,0
                102.883839613,15.544471475,0
                102.883896536,15.544472049,0
                102.88394196,15.544466518,0
                102.883966223,15.5444597870001,0
                102.883998442,15.5444434550001,0
                102.884030327,15.5444097880001,0
                102.884042626,15.544371739,0
                102.884052969,15.5443163800001,0
                102.884050307,15.5442612520001,0
                102.884000506,15.5441202580001,0
                102.883912427,15.5439326430001,0
                102.883856807,15.5438280070001,0
                102.883825772,15.5437339750001,0
                102.883821723,15.543691482,0
                102.883837148,15.543647075,0
                102.883862655,15.543619821,0
                102.883922028,15.5435777930001,0
                102.884026685,15.5435223470001,0
                102.884153828,15.54345232,0
                102.884266282,15.5433793980001,0
                102.884338897,15.543349746,0
                102.884419878,15.543332553,0
                102.884517114,15.5433150750001,0
                102.884647122,15.5433112040001,0
                102.884790109,15.543305527,0
                102.884890921,15.5433053260001,0
                102.884954343,15.543305784,0
                102.884998472,15.543317615,0
                102.885047796,15.5433467,0
                102.885075904,15.5433714230001,0
                102.885080041,15.5433792000001,0
                102.885134898,15.543482306,0
                102.885212362,15.543624391,0
                102.885323638,15.5437485350001,0
                102.885373411,15.543801252,0
                102.885411359,15.5438305390001,0
                102.885452145,15.5438376970001,0
                102.885496004,15.543835347,0
                102.885547487,15.543806067,0
                102.885679065,15.543712312,0
                102.885807121,15.5436044350001,0
                102.885938607,15.5435059590001,0
                102.886004306,15.543454351,0
                102.886037496,15.5434033230001,0
                102.886057299,15.543332037,0
                102.886073547,15.5432450500001,0
                102.886083418,15.54316448,0
                102.886082501,15.5431156290001,0
                102.88606072,15.5430813350001,0
                102.886012782,15.5430396190001,0
                102.88583737,15.542877194,0
                102.885809115,15.542844588,0
                102.885788721,15.542797654,0
                102.885781123,15.5427394650001,0
                102.88577805,15.542662278,0
                102.885799679,15.542428592,0
                102.885819924,15.542294241,0
                102.885855472,15.542109177,0
                102.88588526,15.541963627,0
                102.885890909,15.541890993,0
                102.885893118,15.5418625990001,0
                102.885893207,15.5417806240001,0
                102.885884899,15.5416846100001,0
                102.885869618,15.5415634980001,0
                102.885855872,15.541437633,0
                102.885850846,15.54134314,0
                102.885851172,15.5412737720001,0
                102.885861777,15.541232602,0
                102.885888734,15.541195868,0
                102.885991668,15.541135723,0
                102.886178215,15.5410252400001,0
                102.886248965,15.540983006,0
                102.886275774,15.540938392,0
                102.886284785,15.540898826,0
                102.886283838,15.5408484000001,0
                102.886266814,15.540807714,0
                102.886233475,15.540764161,0
                102.886192278,15.5407349380001,0
                102.886151254,15.540715171,0
                102.886095899,15.540711415,0
                102.886032447,15.540709382,0
                102.885900456,15.5406943730001,0
                102.88586452,15.5406855470001,0
                102.885823406,15.5406610530001,0
                102.885799942,15.540623634,0
                102.885774581,15.54057206,0
                102.885757439,15.5405250690001,0
                102.885753241,15.5404746990001,0
                102.885753686,15.540411636,0
                102.88576672,15.5403262840001,0
                102.88579971,15.5402072090001,0
                102.885822015,15.540124844,0
                102.885851333,15.5400696780001,0
                102.885878955,15.540039768,0
                102.885917531,15.5400159650001,0
                102.885971437,15.5400003030001,0
                102.886047217,15.5399947610001,0
                102.886116807,15.540006142,0
                102.886238924,15.540043923,0
                102.886535809,15.5401521850001,0
                102.886682282,15.54021686,0
                102.886758492,15.540234433,0
                102.886792622,15.5402360310001,0
                102.886856137,15.540239012,0
                102.886957923,15.540233014,0
                102.887011828,15.5402173470001,0
                102.88705888,15.5401828890001,0
                102.887077439,15.540132118,0
                102.887084847,15.5400647270001,0
                102.88708961,15.5399721630001,0
                102.887094378,15.5398795990001,0
                102.887092918,15.5398018560001,0
                102.887069864,15.5397287000001,0
                102.887069467,15.5397279170001,0
                102.887022573,15.5396349530001,0
                102.886949437,15.5395500670001,0
                102.886863295,15.5394654140001,0
                102.886766514,15.539391455,0
                102.88672222,15.539341791,0
                102.886690692,15.53927929,0
                102.886680959,15.539222717,0
                102.886679776,15.5391596810001,0
                102.886694119,15.5391152880001,0
                102.886721782,15.539087474,0
                102.88675827,15.539067914,0
                102.886812175,15.539052251,0
                102.88688799,15.539048812,0
                102.886998605,15.539051064,0
                102.88709629,15.539057745,0
                102.887207096,15.539070506,0
                102.887368069,15.539099191,0
                102.887408404,15.53910584,0
                102.887563793,15.5391314660001,0
                102.887696437,15.539152245,0
                102.88778549,15.5391611860001,0
                102.887828719,15.5391541160001,0
                102.887869543,15.539134479,0
                102.888006275,15.5390269710001,0
                102.888070586,15.538988005,0
                102.888156564,15.538948653,0
                102.888249484,15.538932302,0
                102.888398985,15.5389275590001,0
                102.888531032,15.5389168240001,0
                102.888658747,15.5389061600001,0
                102.888749296,15.5388793380001,0
                102.888850094,15.538820808,0
                102.888905303,15.538758885,0
                102.888940879,15.5386909960001,0
                102.888956958,15.538623451,0
                102.888948994,15.538545829,0
                102.888925702,15.5384600630001,0
                102.888883024,15.5383809460001,0
                102.888838968,15.5383438910001,0
                102.888779977,15.5383197140001,0
                102.888657824,15.538279833,0
                102.888601076,15.538259817,0
                102.888559266,15.538226921,0
                102.888538971,15.5381852460001,0
                102.888531446,15.5381307280001,0
                102.88854957,15.538056845,0
                102.888586649,15.537953203,0
                102.888630347,15.537855748,0
                102.888650282,15.5377629110001,0
                102.888667613,15.5376470090001,0
                102.888674312,15.5375417970001,0
                102.888681242,15.537449195,0
                102.888697202,15.53737535,0
                102.888739242,15.5373052460001,0
                102.888830819,15.537217452,0
                102.888905135,15.537134171,0
                102.88896298,15.5370974190001,0
                102.889034143,15.537077246,0
                102.889142588,15.5370795330001,0
                102.889701428,15.5370528510001,0
                102.889878946,15.5370392080001,0
                102.88998069,15.5370311070001,0
                102.890041172,15.5370195310001,0
                102.890096971,15.536989116,0
                102.890158915,15.5369396840001,0
                102.890205762,15.5368947160001,0
                102.890235158,15.5368437550001,0
                102.890253677,15.536790879,0
                102.890258754,15.536715128,0
                102.89024847,15.536629132,0
                102.890233376,15.5365180000001,0
                102.890223007,15.5364278050001,0
                102.890230218,15.5363499100001,0
                102.890248534,15.5362865340001,0
                102.890275447,15.536218798,0
                102.890317647,15.5361571,0
                102.890376791,15.5360740830001,0
                102.890470689,15.5359946610001,0
                102.89055671,15.5359574080001,0
                102.890728985,15.5358955140001,0
                102.891045753,15.535793239,0
                102.891136066,15.5357538110001,0
                102.891225869,15.535687066,0
                102.891366579,15.5355605730001,0
                102.89150677,15.5354067650001,0
                102.891640779,15.53526988,0
                102.891775148,15.5351519070001,0
                102.891890322,15.5350510860001,0
                102.891977873,15.53498018,0
                102.892048013,15.5349053790001,0
                102.892113496,15.5348138410001,0
                102.892159915,15.534745763,0
                102.892237218,15.5345909650001,0
                102.892286782,15.5344597770001,0
                102.892354548,15.5342589050001,0
                102.892390797,15.5341111390001,0
                102.892408644,15.534022545,0
                102.892448795,15.5339671880001,0
                102.892484848,15.533924514,0
                102.892542493,15.5338772580001,0
                102.892608687,15.5338235400001,0
                102.892681704,15.533786521,0
                102.892785175,15.533755268,0
                102.892994569,15.53370743,0
                102.89311542,15.5336779720001,0
                102.893201436,15.5336407180001,0
                102.89328304,15.5335993410001,0
                102.893373039,15.533543105,0
                102.89343261,15.5334832,0
                102.893494276,15.533419059,0
                102.893538485,15.533348915,0
                102.893581943,15.533238854,0
                102.893633475,15.53309712,0
                102.89368091,15.532968071,0
                102.893716335,15.532891781,0
                102.893752032,15.5328301960001,0
                102.893790211,15.532785382,0
                102.893856286,15.5327253630001,0
                102.893926623,15.5326610700001,0
                102.893973349,15.532609796,0
                102.894011296,15.5325523760001,0
                102.894025598,15.532505886,0
                102.894022363,15.5324491910001,0
                102.893998873,15.532352926,0
                102.893972585,15.532223075,0
                102.893973172,15.532138994,0
                102.894002171,15.532067017,0
                102.89404409,15.5319906140001,0
                102.894107842,15.5319222270001,0
                102.894165251,15.531862361,0
                102.894253042,15.531804062,0
                102.894334562,15.531758482,0
                102.894390637,15.5317427790001,0
                102.894470784,15.531739261,0
                102.894523072,15.531753048,0
                102.894637028,15.5318182940001,0
                102.89472435,15.531850379,0
                102.894839725,15.531875665,0
                102.894937248,15.5318739410001,0
                102.895054038,15.5318592620001,0
                102.895159918,15.531840577,0
                102.895272056,15.5318091720001,0
                102.895364578,15.531771801,0
                102.895450394,15.5317240470001,0
                102.895531483,15.5316553530001,0
                102.895591019,15.5315933480001,0
                102.895620453,15.5315444870001,0
                102.895647319,15.5314746550001,0
                102.895648223,15.531407379,0
                102.895627177,15.5313257780001,0
                102.895594388,15.5311960450001,0
                102.895597376,15.531124533,0
                102.89559784,15.5309185470001,0
                102.895583528,15.5307338370001,0
                102.895559129,15.530589245,0
                102.895527757,15.5305351540001,0
                102.895481851,15.530514947,0
                102.895429761,15.530511662,0
                102.895280583,15.530533216,0
                102.895163714,15.530543688,0
                102.89505748,15.530543467,0
                102.894970199,15.530513478,0
                102.894867313,15.5304606510001,0
                102.894751229,15.530397549,0
                102.89463743,15.530340708,0
                102.894580255,15.5302975810001,0
                102.894522838,15.530241846,0
                102.894486781,15.5301689200001,0
                102.894423098,15.5300103060001,0
                102.894344128,15.529845655,0
                102.894294709,15.5297540490001,0
                102.894278514,15.5296996870001,0
                102.894273111,15.529643035,0
                102.894278666,15.529592495,0
                102.894301637,15.5295458470001,0
                102.894372006,15.52948365,0
                102.894538837,15.5293629990001,0
                102.894594353,15.5293178800001,0
                102.894619179,15.5292983750001,0
                102.894636632,15.529273087,0
                102.894648419,15.529244637,0
                102.894665134,15.5291802560001,0
                102.89467511,15.529114914,0
                102.894684556,15.529081074,0
                102.89470068,15.5290449460001,0
                102.894714791,15.5290208000001,0
                102.894731036,15.5289911890001,0
                102.894754229,15.528973401,0
                102.894792041,15.5289586120001,0
                102.894835676,15.5289556660001,0
                102.894868155,15.528955092,0
                102.894910875,15.528963027,0
                102.89498182,15.5289824120001,0
                102.895060724,15.529008172,0
                102.895113546,15.529017013,0
                102.895167424,15.529022576,0
                102.895207765,15.5290229510001,0
                102.895250299,15.5290211120001,0
                102.895279274,15.529012998,0
                102.895305866,15.52899732,0
                102.895329995,15.528969739,0
                102.89536583,15.528909372,0
                102.895401664,15.5288489980001,0
                102.895430921,15.528796347,0
                102.895468203,15.5287533260001,0
                102.895501269,15.5287244990001,0
                102.895538838,15.528696682,0
                102.895586486,15.5286686850001,0
                102.895623096,15.5286495720001,0
                102.895652843,15.52862298,0
                102.895677986,15.528589954,0
                102.895688453,15.5285506650001,0
                102.895692238,15.5285136680001,0
                102.895692624,15.5284745610001,0
                102.895681849,15.5284378220001,0
                102.895656578,15.5284045990001,0
                102.895622406,15.528374792,0
                102.895581599,15.528349442,0
                102.895551058,15.528333692,0
                102.895513836,15.528320229,0
                102.895481336,15.5283197140001,0
                102.8954333,15.528327083,0
                102.895359672,15.5283435920001,0
                102.8953004,15.528348981,0
                102.895236584,15.528351195,0
                102.895189283,15.5283379140001,0
                102.895122532,15.5283032510001,0
                102.89505574,15.528266414,0
                102.895000129,15.5282282970001,0
                102.894965817,15.5281908860001,0
                102.894947245,15.5281564580001,0
                102.894925008,15.528105801,0
                102.894910406,15.5280441470001,0
                102.894884499,15.527917524,0
                102.894868042,15.527816805,0
                102.894858894,15.52774745,0
                102.894856512,15.527680151,0
                102.894849624,15.527611844,0
                102.894846321,15.527555423,0
                102.894826448,15.527511244,0
                102.894803374,15.5274758030001,0
                102.894774931,15.527452414,0
                102.894735323,15.5274313910001,0
                102.894701601,15.5274254670001,0
                102.894656787,15.527425173,0
                102.894608751,15.5274325400001,0
                102.89456658,15.527453924,0
                102.894498045,15.527502924,0
                102.894454941,15.527534098,0
                102.89441163,15.527554417,0
                102.894350503,15.527580476,0
                102.894215912,15.5276317300001,0
                102.894155867,15.527655601,0
                102.894050998,15.527679177,0
                102.894022959,15.5276775,0
                102.893992437,15.527662833,0
                102.893977449,15.527640288,0
                102.893957676,15.5276015370001,0
                102.893952563,15.5275679540001,0
                102.893955211,15.5275298940001,0
                102.893962947,15.527464589,0
                102.894011096,15.527284519,0
                102.894046334,15.5271329230001,0
                102.894074635,15.5270292380001,0
                102.894098452,15.526925632,0
                102.894105066,15.5268603440001,0
                102.894102632,15.526818738,0
                102.894101768,15.526803924,0
                102.894093842,15.5267399800001,0
                102.894067045,15.5266850580001,0
                102.894017111,15.526591443,0
                102.893982681,15.5265475210001,0
                102.893961033,15.526528355,0
                102.893932912,15.526522331,0
                102.893882475,15.5265210530001,0
                102.893846619,15.5265206,0
                102.893810579,15.5265103730001,0
                102.893778871,15.5264924690001,0
                102.893759362,15.5264678340001,0
                102.893745393,15.526439838,0
                102.893733442,15.5263998620001,0
                102.893727962,15.5263467360001,0
                102.893728161,15.526297857,0
                102.893724474,15.526220804,0
                102.893726608,15.5260958590001,0
                102.89372306,15.526026405,0
                102.893715546,15.5259841810001,0
                102.893698138,15.5259519030001,0
                102.893669727,15.525930681,0
                102.893630248,15.5259161720001,0
                102.893548271,15.5259056730001,0
                102.893269716,15.525867143,0
                102.893233252,15.525858155,0
                102.893175174,15.5258438330001,0
                102.893140229,15.525832504,0
                102.893100709,15.525815821,0
                102.893070019,15.5257924700001,0
                102.893054909,15.525763408,0
                102.893054215,15.5257264950001,0
                102.893058917,15.525678617,0
                102.893087485,15.5255890490001,0
                102.893133354,15.5254665900001,0
                102.893155975,15.5254183960001,0
                102.893180002,15.5253853900001,0
                102.893214331,15.525364144,0
                102.893255644,15.5253569010001,0
                102.893319421,15.5253525150001,0
                102.89344819,15.5253491550001,0
                102.893505265,15.525345972,0
                102.893553317,15.525339692,0
                102.893603425,15.5253236020001,0
                102.893654636,15.5253064030001,0
                102.893701244,15.5252827750001,0
                102.893740949,15.5252494870001,0
                102.893762717,15.525215431,0
                102.893771936,15.525169648,0
                102.893770814,15.5251099330001,0
                102.893746219,15.5250527970001,0
                102.893737018,15.525040265,0
                102.893701378,15.52499168,0
                102.893549859,15.5247977610001,0
                102.893372803,15.5246029050001,0
                102.893257287,15.5244968120001,0
                102.893183798,15.5244015650001,0
                102.893136448,15.5243193690001,0
                102.893123633,15.52427325,0
                102.89312848,15.5242133080001,0
                102.893143102,15.524143532,0
                102.893212095,15.5239994240001,0
                102.893281337,15.523868828,0
                102.893337807,15.52380025,0
                102.893406509,15.523746902,0
                102.89349096,15.5236836170001,0
                102.893563714,15.5236340610001,0
                102.893654538,15.5235919040001,0
                102.893715751,15.5235637910001,0
                102.893780042,15.523540688,0
                102.893824783,15.5235370030001,0
                102.893869663,15.523540553,0
                102.893910333,15.523558662,0
                102.893934658,15.523581408,0
                102.893944405,15.523623231,0
                102.893946768,15.5236695310001,0
                102.893955323,15.5237273110001,0
                102.893969468,15.523764713,0
                102.893989314,15.5237875330001,0
                102.894027084,15.523810042,0
                102.89405567,15.5238211220001,0
                102.894092999,15.523820463,0
                102.894134648,15.523811037,0
                102.894173118,15.5237915280001,0
                102.894218397,15.523737145,0
                102.894272207,15.523659439,0
                102.894337439,15.5235540190001,0
                102.894411554,15.523444093,0
                102.894526662,15.5232899980001,0
                102.894563038,15.5232386660001,0
                102.894583044,15.523190523,0
                102.894593955,15.5231352960001,0
                102.894608965,15.523059726,0
                102.894612115,15.522988706,0
                102.89464064,15.5227579360001,0
                102.894662571,15.522653281,0
                102.894679538,15.5226022910001,0
                102.894705488,15.522552595,0
                102.894742191,15.522518635,0
                102.894788076,15.522496102,0
                102.894840253,15.522490835,0
                102.894898622,15.522497044,0
                102.894959085,15.522535083,0
                102.895050095,15.5226087780001,0
                102.895134584,15.522653631,0
                102.895193748,15.522675156,0
                102.895214293,15.522682633,0
                102.895265277,15.5226933180001,0
                102.89531746,15.522688052,0
                102.895377186,15.5226869970001,0
                102.895427604,15.5226672790001,0
                102.895458578,15.522646454,0
                102.895508502,15.522600679,0
                102.895555225,15.5225433750001,0
                102.895627869,15.522434924,0
                102.895699731,15.522364141,0
                102.89576556,15.522290566,0
                102.895833243,15.522235784,0
                102.895899046,15.5221607660001,0
                102.895960456,15.5220901640001,0
                102.895993764,15.522034546,0
                102.896019254,15.5219602350001,0
                102.896019196,15.521877691,0
                102.896010015,15.5217866140001,0
                102.895991927,15.521618942,0
                102.895945992,15.5214538170001,0
                102.895795334,15.521550787,0
                102.895789666,15.521554436,0
                102.89553976,15.521716854,0
                102.895469966,15.5217568040001,0
                102.895410501,15.5217797980001,0
                102.895328219,15.5217928640001,0
                102.895256363,15.5217941330001,0
                102.895176379,15.5217878060001,0
                102.895121554,15.521774576,0
                102.895069323,15.521757431,0
                102.895039687,15.521738596,0
                102.895001774,15.5217044240001,0
                102.894971794,15.521667527,0
                102.894945786,15.521629266,0
                102.894924979,15.521584465,0
                102.8949133,15.521539187,0
                102.894911181,15.5215309550001,0
                102.894907749,15.5215176620001,0
                102.894906716,15.521502824,0
                102.894902279,15.5214390360001,0
                102.894906071,15.521286682,0
                102.894917124,15.521166464,0
                102.894928371,15.5210565720001,0
                102.894949872,15.520925843,0
                102.894997473,15.520696577,0
                102.89501661,15.520581378,0
                102.895019777,15.5205374450001,0
                102.895016243,15.520491049,0
                102.895006054,15.520444766,0
                102.894987979,15.5204037880001,0
                102.894964365,15.5203512950001,0
                102.894934148,15.5203014950001,0
                102.894898703,15.5202569530001,0
                102.894769287,15.5200992110001,0
                102.894654001,15.5199850970001,0
                102.894574165,15.5199155240001,0
                102.894541816,15.5198941560001,0
                102.894495003,15.519882081,0
                102.894453778,15.519884099,0
                102.894412553,15.519886118,0
                102.894364822,15.519895992,0
                102.894322509,15.5199109370001,0
                102.894316156,15.5199140670001,0
                102.894230187,15.519956445,0
                102.89399305,15.5200871100001,0
                102.893907359,15.520131211,0
                102.893828079,15.5201622920001,0
                102.893772337,15.5201710220001,0
                102.893736413,15.5201716560001,0
                102.893700437,15.5201697110001,0
                102.893653503,15.5201511770001,0
                102.893626596,15.5201361690001,0
                102.893603589,15.5201159270001,0
                102.893577702,15.5200841180001,0
                102.893542256,15.520039576,0
                102.893495659,15.519968127,0
                102.893442421,15.519886232,0
                102.893252798,15.5195813780001,0
                102.893169596,15.519474438,0
                102.893090747,15.5193867840001,0
                102.89305279,15.519346338,0
                102.893022836,15.519314421,0
                102.892941738,15.519248745,0
                102.892874336,15.5192034720001,0
                102.892815279,15.5191774140001,0
                102.892784503,15.519168925,0
                102.892748555,15.5191682660001,0
                102.892703407,15.5191742280001,0
                102.892671645,15.51918382,0
                102.892632114,15.5192051670001,0
                102.892588809,15.519238197,0
                102.892545602,15.5192763860001,0
                102.892446391,15.51935919,0
                102.892282811,15.5194558750001,0
                102.892193306,15.519508893,0
                102.892137381,15.5195219840001,0
                102.892043845,15.5195266580001,0
                102.891949746,15.519501087,0
                102.891864665,15.519457204,0
                102.891788659,15.5193980340001,0
                102.891715259,15.5193115820001,0
                102.891682472,15.5192274410001,0
                102.891683549,15.5191184940001,0
                102.891699824,15.518988102,0
                102.891718597,15.518824382,0
                102.89171984,15.5187245120001,0
                102.89170288,15.5186521960001,0
                102.891648202,15.518565414,0
                102.891584388,15.518490897,0
                102.891524435,15.5184556470001,0
                102.891458582,15.5184386550001,0
                102.891390007,15.5184428920001,0
                102.891246733,15.518457525,0
                102.891075319,15.5184696260001,0
                102.890922402,15.5184692980001,0
                102.890755983,15.518414745,0
                102.890585879,15.5183299980001,0
                102.890512877,15.51826472,0
                102.890451844,15.518172,0
                102.890402837,15.5180548640001,0
                102.890382303,15.517958403,0
                102.89038593,15.5178191570001,0
                102.890408109,15.517670507,0
                102.890424613,15.5175522100001,0
                102.890419675,15.5174554770001,0
                102.890361366,15.517341528,0
                102.890275436,15.517252274,0
                102.89016165,15.517175611,0
                102.889988825,15.517112094,0
                102.889772606,15.5170644720001,0
                102.889578282,15.517019487,0
                102.88949927,15.516966418,0
                102.889472857,15.5169003140001,0
                102.889463254,15.516876279,0
                102.889458601,15.516794668,0
                102.88949161,15.516724493,0
                102.889599208,15.5166378750001,0
                102.8896729,15.516582913,0
                102.889682306,15.516575898,0
                102.889746398,15.5164991250001,0
                102.889788651,15.516422736,0
                102.889799657,15.516343873,0
                102.889785871,15.5162745260001,0
                102.88971792,15.51614562,0
                102.889644671,15.515956669,0
                102.889629381,15.5159172250001,0
                102.889591658,15.515736347,0
                102.889595178,15.515591052,0
                102.889618997,15.515530117,0
                102.889669885,15.515470388,0
                102.889673957,15.5154656080001,0
                102.889766753,15.5154216130001,0
                102.889912693,15.515382727,0
                102.890064871,15.515343735,0
                102.890200167,15.5153104230001,0
                102.890295966,15.515260321,0
                102.89036987,15.51520758,0
                102.890439632,15.5151004470001,0
                102.890573943,15.514774329,0
                102.890718174,15.5143118780001,0
                102.890749541,15.5141539840001,0
                102.890744718,15.514063299,0
                102.890724241,15.5139698630001,0
                102.890614829,15.513793277,0
                102.890506835,15.513692308,0
                102.890400028,15.5136548560001,0
                102.890278139,15.513644906,0
                102.890172585,15.5136739980001,0
                102.890051889,15.513727562,0
                102.889885303,15.513830351,0
                102.889712196,15.5139181230001,0
                102.889522585,15.5139577750001,0
                102.889335354,15.5139580490001,0
                102.889197751,15.5139423210001,0
                102.888890731,15.5138781420001,0
                102.888426938,15.5137743670001,0
                102.888116736,15.513707218,0
                102.888007554,15.513709143,0
                102.887948452,15.5137192620001,0
                102.887870803,15.5137387840001,0
                102.887802852,15.5137762900001,0
                102.887760201,15.5138315070001,0
                102.887733539,15.5139076200001,0
                102.887725541,15.5139803770001,0
                102.887733087,15.5140498330001,0
                102.887763319,15.5141210950001,0
                102.887785326,15.514172968,0
                102.887914702,15.5144157720001,0
                102.887954008,15.5145149260001,0
                102.887955483,15.51459357,0
                102.887929278,15.51469388,0
                102.887911332,15.514716188,0
                102.887877434,15.5147583360001,0
                102.887744881,15.5148453890001,0
                102.887565817,15.514948396,0
                102.887451244,15.5149958000001,0
                102.887286752,15.5150440840001,0
                102.886950351,15.5150772440001,0
                102.886539356,15.5151268500001,0
                102.886337093,15.515157645,0
                102.886200851,15.5152145060001,0
                102.886145549,15.5152608660001,0
                102.886100173,15.5153373090001,0
                102.886067556,15.5154286580001,0
                102.886060005,15.5155219600001,0
                102.886059954,15.5155225890001,0
                102.886081052,15.515649296,0
                102.886110546,15.51572442,0
                102.886208562,15.5157922870001,0
                102.886700777,15.515913719,0
                102.887314884,15.516045105,0
                102.887427585,15.516064295,0
                102.887477896,15.516084591,0
                102.887528492,15.516120007,0
                102.887542044,15.516177256,0
                102.887543745,15.5162679970001,0
                102.887496105,15.5163898650001,0
                102.887390489,15.516582348,0
                102.887320551,15.516680406,0
                102.887212955,15.5167670220001,0
                102.88711375,15.5168020510001,0
                102.887019993,15.516815977,0
                102.886951928,15.516826085,0
                102.886762139,15.5168566610001,0
                102.886594249,15.516889877,0
                102.886464186,15.5169436080001,0
                102.886454827,15.51694844,0
                102.886300378,15.517028188,0
                102.886151998,15.517103419,0
                102.886089672,15.517121225,0
                102.886027837,15.517138892,0
                102.885840998,15.5171603380001,0
                102.885684846,15.517154012,0
                102.885350198,15.5171145190001,0
                102.88516336,15.517135965,0
                102.885017303,15.517168795,0
                102.884918323,15.517215924,0
                102.884819689,15.5172812050001,0
                102.884718099,15.517355611,0
                102.884653777,15.517420283,0
                102.88460494,15.5174786330001,0
                102.884550941,15.517594563,0
                102.884503292,15.5177164310001,0
                102.884457004,15.517910891,0
                102.884409356,15.5180327590001,0
                102.884334822,15.518218645,0
                102.884281324,15.5183450220001,0
                102.884278041,15.5183527770001,0
                102.884254616,15.5184348830001,0
                102.88425626,15.5185226020001,0
                102.88426747,15.51858122,0
                102.8842701,15.5185949740001,0
                102.884273424,15.5185976380001,0
                102.884336631,15.518648265,0
                102.884415246,15.5186801620001,0
                102.884565842,15.518722898,0
                102.884762775,15.5187406050001,0
                102.884934528,15.5187466570001,0
                102.885053638,15.5187748170001,0
                102.885122725,15.518797808,0
                102.885211549,15.518874909,0
                102.885278483,15.5189493730001,0
                102.885362596,15.519108255,0
                102.885462934,15.519300136,0
                102.885600764,15.5194943760001,0
                102.885664065,15.5195416720001,0
                102.885761172,15.519561142,0
                102.885897928,15.5195315010001,0
                102.886052493,15.5194531340001,0
                102.886169449,15.5193663530001,0
                102.886374727,15.51916304,0
                102.886576254,15.518926504,0
                102.886687146,15.5188489070001,0
                102.886786296,15.5188108510001,0
                102.886879544,15.518791053,0
                102.886970015,15.5187894590001,0
                102.887066894,15.5187968280001,0
                102.887133086,15.5188319690001,0
                102.887209147,15.518894168,0
                102.887269669,15.518959667,0
                102.887347319,15.519106562,0
                102.887535522,15.5194905330001,0
                102.887672899,15.519826992,0
                102.887703244,15.51994749,0
                102.887698198,15.5200111180001,0
                102.887693831,15.5200241060001,0
                102.887671596,15.520090253,0
                102.88762877,15.5201363940001,0
                102.88755075,15.5202102220001,0
                102.887453222,15.5202631130001,0
                102.887396972,15.5202936150001,0
                102.887248138,15.5203446510001,0
                102.886988379,15.520397643,0
                102.886761594,15.5204339150001,0
                102.886530273,15.520524057,0
                102.886365906,15.5206345340001,0
                102.886169272,15.520799374,0
                102.885940465,15.521023949,0
                102.885766418,15.5212099010001,0
                102.88553812,15.5214613630001,0
                102.885161585,15.52179612,0
                102.884892649,15.521951474,0
                102.884651642,15.5221170940001,0
                102.884270398,15.5223297150001,0
                102.88379511,15.522594784,0
                102.883360792,15.5228068390001,0
                102.882998069,15.5229907360001,0
                102.882771884,15.523059269,0
                102.882545196,15.5231009140001,0
                102.88240725,15.5230515010001,0
                102.88231619,15.523018882,0
                102.882052497,15.5228621540001,0
                102.881743431,15.522652431,0
                102.881367503,15.5224277470001,0
                102.880864423,15.5222268200001,0
                102.880072838,15.522025586,0
                102.879331675,15.52185036,0
                102.878379858,15.5216842180001,0
                102.878007158,15.521631601,0
                102.877729245,15.521604214,0
                102.877440741,15.5216039100001,0
                102.877280204,15.521622871,0
                102.877168679,15.5215925570001,0
                102.877090129,15.5215455260001,0
                102.877038201,15.5214388580001,0
                102.877007752,15.5212941560001,0
                102.877010078,15.5211219830001,0
                102.877022041,15.5210249420001,0
                102.877029349,15.5209656500001,0
                102.877120213,15.520781162,0
                102.877249399,15.520569106,0
                102.877310262,15.5205022100001,0
                102.877483153,15.5203121770001,0
                102.877602454,15.5201648450001,0
                102.877656002,15.520061701,0
                102.87765954,15.519954054,0
                102.877640889,15.5198468,0
                102.877600354,15.5197560670001,0
                102.877520898,15.5196606420001,0
                102.877398179,15.5196251470001,0
                102.877210113,15.519655347,0
                102.877072268,15.5197008050001,0
                102.876985035,15.5197830220001,0
                102.876865237,15.519903469,0
                102.876723548,15.5200404390001,0
                102.876586804,15.520145046,0
                102.876388754,15.5202345930001,0
                102.876096516,15.520331178,0
                102.875693658,15.520445841,0
                102.875185825,15.520583867,0
                102.874964982,15.5206415380001,0
                102.874566566,15.520696953,0
                102.87414445,15.5206720940001,0
                102.873142926,15.5205175570001,0
                102.872480016,15.520373201,0
                102.872084829,15.520304836,0
                102.87183485,15.52028771,0
                102.871687389,15.520254704,0
                102.871678853,15.520252795,0
                102.87166918,15.5202462290001,0
                102.871658545,15.520239012,0
                102.871555234,15.5201688990001,0
                102.87146973,15.520046677,0
                102.871360235,15.5198280550001,0
                102.871329088,15.519645709,0
                102.871348163,15.519478624,0
                102.871433281,15.519283478,0
                102.871533943,15.5190288900001,0
                102.871938498,15.51781686,0
                102.872092405,15.517442999,0
                102.872132182,15.5173270770001,0
                102.872155544,15.517258999,0
                102.87221434,15.5171396260001,0
                102.872350582,15.5170081320001,0
                102.872431163,15.516866861,0
                102.872435842,15.5166811660001,0
                102.872437537,15.516613928,0
                102.872426263,15.5163075150001,0
                102.872423752,15.516173085,0
                102.872493842,15.516064269,0
                102.87262474,15.515943629,0
                102.872756637,15.5158767630001,0
                102.872927763,15.515830728,0
                102.873048671,15.515769436,0
                102.87317422,15.515659645,0
                102.87328203,15.5154909980001,0
                102.873409005,15.5151606430001,0
                102.873548785,15.5149215060001,0
                102.87364984,15.5146884270001,0
                102.873680606,15.5145534110001,0
                102.873649157,15.514354934,0
                102.873561346,15.5141090340001,0
                102.873456599,15.513847298,0
                102.873376169,15.513618504,0
                102.873356991,15.5135639530001,0
                102.873298418,15.513398226,0
                102.873306294,15.513225956,0
                102.873326071,15.5130965120001,0
                102.873352069,15.513066231,0
                102.873429234,15.51297636,0
                102.873516664,15.512904893,0
                102.873581811,15.5128284420001,0
                102.873613379,15.512736444,0
                102.873599072,15.5125645630001,0
                102.873556938,15.5123877890001,0
                102.873492213,15.5121899010001,0
                102.873429101,15.5120780450001,0
                102.873315969,15.5119616910001,0
                102.873186405,15.5118563790001,0
                102.873052401,15.5118103250001,0
                102.872835405,15.51177648,0
                102.872614273,15.5118180160001,0
                102.872493465,15.5118846820001,0
                102.872346132,15.51201637,0
                102.872221387,15.5121691750001,0
                102.872162187,15.512267036,0
                102.872125273,15.512369892,0
                102.872128565,15.512409436,0
                102.87213958,15.5125417730001,0
                102.872165076,15.512718836,0
                102.872223346,15.512868429,0
                102.872309247,15.5130121600001,0
                102.87237831,15.513145423,0
                102.872369225,15.5132531670001,0
                102.872337655,15.513345166,0
                102.872209777,15.513459466,0
                102.872190327,15.513476853,0
                102.871999128,15.513636203,0
                102.871647498,15.513819886,0
                102.871482722,15.513908843,0
                102.87136101,15.513927117,0
                102.87123255,15.5138809580001,0
                102.871093265,15.513775149,0
                102.870970004,15.513636111,0
                102.870880773,15.513536818,0
                102.870851478,15.5135226460001,0
                102.870784202,15.513490099,0
                102.870688381,15.513483713,0
                102.870563747,15.513493967,0
                102.87045204,15.513528203,0
                102.870344983,15.5136014190001,0
                102.870337006,15.513606876,0
                102.870242619,15.5136771160001,0
                102.870098313,15.5137482320001,0
                102.869986534,15.513778431,0
                102.869820001,15.5137732850001,0
                102.86969817,15.513710872,0
                102.869424944,15.51356236,0
                102.869171688,15.513369115,0
                102.868893096,15.5131561490001,0
                102.868644374,15.5129829970001,0
                102.868328424,15.5127747130001,0
                102.868093763,15.5126860390001,0
                102.867839208,15.512646123,0
                102.867652405,15.512669569,0
                102.8674743,15.5127130380001,0
                102.867238559,15.5127897880001,0
                102.867007057,15.5128705020001,0
                102.866849297,15.5128894050001,0
                102.8666867,15.512872084,0
                102.866569405,15.512829761,0
                102.866484334,15.512730391,0
                102.866420139,15.51263469,0
                102.866384758,15.51252235,0
                102.866351805,15.5123171750001,0
                102.866347493,15.512268765,0
                102.866336018,15.512139937,0
                102.866374457,15.5119698180001,0
                102.866470297,15.5117543150001,0
                102.866610395,15.511457351,0
                102.866763886,15.511014872,0
                102.866792032,15.510933735,0
                102.866809295,15.510743817,0
                102.866769454,15.510615414,0
                102.86670518,15.51051568,0
                102.866577916,15.510384775,0
                102.866492015,15.510328686,0
                102.866409431,15.510274764,0
                102.866219025,15.5101046230001,0
                102.866062194,15.5099500320001,0
                102.865848056,15.509622961,0
                102.865620318,15.50923562,0
                102.865405707,15.508949005,0
                102.865372831,15.5089051,0
                102.865122165,15.508627083,0
                102.864821885,15.5083660760001,0
                102.864530604,15.508141215,0
                102.86435463,15.508075712,0
                102.864158763,15.508058971,0
                102.864105175,15.5080582850001,0
                102.863892406,15.5080555640001,0
                102.863647304,15.508075994,0
                102.863303121,15.508138505,0
                102.86295508,15.5082172150001,0
                102.862906377,15.5082259640001,0
                102.862706265,15.5082619130001,0
                102.862565816,15.5083168190001,0
                102.862446698,15.508399593,0
                102.862369619,15.508505836,0
                102.862341364,15.5085421210001,0
                102.862251774,15.508657172,0
                102.86208113,15.508878017,0
                102.861877962,15.5091397740001,0
                102.861801187,15.50926215,0
                102.861725984,15.50946922,0
                102.861646477,15.5096682980001,0
                102.861575958,15.509903529,0
                102.86149645,15.5101026040001,0
                102.861407045,15.510217133,0
                102.861325355,15.510299252,0
                102.861260005,15.5103649430001,0
                102.86122823,15.5104461870001,0
                102.861219503,15.510648061,0
                102.861169605,15.511096751,0
                102.861155305,15.5112151910001,0
                102.861122739,15.5114848750001,0
                102.861116849,15.511621163,0
                102.861114013,15.511686749,0
                102.861109001,15.5118643490001,0
                102.861134001,15.512089841,0
                102.861127707,15.512198878,0
                102.861095487,15.512255926,0
                102.861008582,15.5122816530001,0
                102.860933787,15.5122869950001,0
                102.860795091,15.51223528,0
                102.860778762,15.512229194,0
                102.860518767,15.512120779,0
                102.860139903,15.5118853450001,0
                102.859837495,15.5117332950001,0
                102.859699029,15.511671166,0
                102.859581961,15.511640938,0
                102.859453093,15.511647226,0
                102.859320586,15.51168182,0
                102.859155708,15.5117653930001,0
                102.858987192,15.511877268,0
                102.858802188,15.511997503,0
                102.858626405,15.51216599,0
                102.858533285,15.5123047880001,0
                102.858520494,15.5123276510001,0
                102.858412476,15.512520723,0
                102.858353086,15.51268314,0
                102.858315319,15.5128895550001,0
                102.858313858,15.5130348170001,0
                102.858340993,15.513151341,0
                102.858384688,15.5132635420001,0
                102.858539458,15.513531141,0
                102.858617034,15.513675021,0
                102.858639782,15.5137795210001,0
                102.858629178,15.5138805670001,0
                102.858597552,15.513969877,0
                102.858515865,15.514051995,0
                102.858387891,15.514106681,0
                102.858344037,15.5141102850001,0
                102.858263254,15.514116927,0
                102.858125761,15.5141072280001,0
                102.857962789,15.5140697350001,0
                102.857778194,15.513988241,0
                102.857424513,15.513764462,0
                102.857192512,15.51359504,0
                102.856890472,15.5134631510001,0
                102.856701939,15.5133938290001,0
                102.856501382,15.513348921,0
                102.856330688,15.5133438390001,0
                102.856147664,15.5133470380001,0
                102.855973641,15.5133863890001,0
                102.855742576,15.5134912890001,0
                102.85534723,15.5137120210001,0
                102.855112085,15.513821025,0
                102.85492996,15.5138726210001,0
                102.854709879,15.5138966390001,0
                102.854480577,15.5138724070001,0
                102.854317455,15.513826845,0
                102.854195177,15.513740225,0
                102.854068441,15.5136375390001,0
                102.853923938,15.513474655,0
                102.853817401,15.5133393460001,0
                102.853684257,15.513115741,0
                102.853533128,15.5128198350001,0
                102.853341786,15.5123753570001,0
                102.85321397,15.5119902820001,0
                102.853190171,15.5118293190001,0
                102.853138575,15.511515537,0
                102.853082516,15.5111856890001,0
                102.853012666,15.511009395,0
                102.852948852,15.510933858,0
                102.852847973,15.510879135,0
                102.852710034,15.510845235,0
                102.852601961,15.510851154,0
                102.85248654,15.510909655,0
                102.852408861,15.5109836300001,0
                102.85229048,15.5111067300001,0
                102.852098502,15.5112997000001,0
                102.851869388,15.5115094560001,0
                102.851704802,15.5116091580001,0
                102.851584997,15.5116556290001,0
                102.8514897,15.511677465,0
                102.85139804,15.5116709930001,0
                102.85132257,15.511640035,0
                102.851213374,15.511585461,0
                102.851019937,15.5114758710001,0
                102.850712921,15.511299679,0
                102.850536871,15.511230132,0
                102.8503745,15.5112248990001,0
                102.850225204,15.5112517090001,0
                102.850146997,15.511297455,0
                102.850069161,15.511363365,0
                102.850004179,15.511449224,0
                102.849976707,15.5115384600001,0
                102.849974495,15.5116433920001,0
                102.849995231,15.5117114720001,0
                102.850009943,15.5117597730001,0
                102.850091,15.511867292,0
                102.850247525,15.512005764,0
                102.850525797,15.512202626,0
                102.850761802,15.51236392,0
                102.850976791,15.512513477,0
                102.851170529,15.512639198,0
                102.851301271,15.5127337440001,0
                102.85137794,15.512829229,0
                102.851387906,15.5129178120001,0
                102.851361113,15.513043351,0
                102.851315526,15.513087409,0
                102.851254836,15.513146067,0
                102.851123076,15.5132209870001,0
                102.850820626,15.513290818,0
                102.850579891,15.5133232630001,0
                102.850048588,15.51339305,0
                102.849716417,15.513431123,0
                102.849681142,15.5134338770001,0
                102.849317543,15.5134622890001,0
                102.849080069,15.5134462610001,0
                102.848896,15.513392992,0
                102.848715416,15.513303347,0
                102.848636496,15.513252666,0
                102.848458534,15.513138382,0
                102.848255208,15.512944243,0
                102.847959544,15.512707334,0
                102.847773906,15.5125693640001,0
                102.847597181,15.5124635180001,0
                102.847434434,15.512438113,0
                102.847134345,15.51241107,0
                102.846776168,15.512393112,0
                102.846568039,15.512388668,0
                102.846201169,15.5123506890001,0
                102.846001136,15.512334004,0
                102.845793604,15.5123618270001,0
                102.845553996,15.5124547610001,0
                102.84538577,15.512582765,0
                102.845374542,15.5125940500001,0
                102.845295853,15.512673136,0
                102.845279559,15.5126895120001,0
                102.845108221,15.512874047,0
                102.845096586,15.5128871210001,0
                102.84501931,15.5129739550001,0
                102.844969639,15.513029771,0
                102.844776526,15.513162242,0
                102.844722986,15.5131834850001,0
                102.844351077,15.513331038,0
                102.843883878,15.513492489,0
                102.843362231,15.513634713,0
                102.842944198,15.5137549620001,0
                102.84253389,15.5138428000001,0
                102.842255792,15.5138799210001,0
                102.841915221,15.5139140900001,0
                102.841686518,15.513922107,0
                102.841402761,15.513878639,0
                102.84110987,15.5137909430001,0
                102.840783846,15.513711895,0
                102.840361928,15.513622416,0
                102.8397122,15.5135893450001,0
                102.839220912,15.513573691,0
                102.838800636,15.513572934,0
                102.838567995,15.5135931200001,0
                102.838406292,15.5136241770001,0
                102.838303122,15.51367035,0
                102.838187992,15.5137449760001,0
                102.83813642,15.5138215920001,0
                102.838111051,15.513859278,0
                102.838059211,15.5139812140001,0
                102.838036195,15.5140865110001,0
                102.838025358,15.514175462,0
                102.838036067,15.5143043780001,0
                102.838084808,15.5144649110001,0
                102.838151086,15.5146735500001,0
                102.838179103,15.514838479,0
                102.838182014,15.5149957730001,0
                102.838159447,15.5151252700001,0
                102.838078715,15.51525981,0
                102.837988322,15.515321902,0
                102.837888791,15.5153397720001,0
                102.837861584,15.5153372360001,0
                102.837742901,15.5153261720001,0
                102.837537136,15.515224856,0
                102.83720902,15.5150328720001,0
                102.836944796,15.514920467,0
                102.836773873,15.5149032680001,0
                102.836644998,15.514909543,0
                102.836500604,15.514976608,0
                102.836418411,15.51503353,0
                102.836412096,15.5150379040001,0
                102.836369133,15.515067657,0
                102.836309907,15.5151251250001,0
                102.836250591,15.515182682,0
                102.836219178,15.5152840910001,0
                102.836204856,15.515409408,0
                102.836215263,15.5155221950001,0
                102.836288142,15.51563793,0
                102.836427652,15.5157565380001,0
                102.836698201,15.5159858330001,0
                102.836855022,15.51614045,0
                102.836936592,15.5162762030001,0
                102.836950864,15.516372785,0
                102.836936315,15.516486001,0
                102.836900669,15.516583451,0
                102.836756675,15.5168185810001,0
                102.836693468,15.516924261,0
                102.836650371,15.5169539090001,0
                102.836602496,15.5169868460001,0
                102.836540044,15.5170118940001,0
                102.836482325,15.5170199130001,0
                102.836468322,15.5170218580001,0
                102.836396363,15.517018751,0
                102.836339478,15.5169805250001,0
                102.836264264,15.51692301,0
                102.836240206,15.516902062,0
                102.836217547,15.51688233,0
                102.836198033,15.51686534,0
                102.836133848,15.516796737,0
                102.836074031,15.516721525,0
                102.835990394,15.5166121340001,0
                102.835930376,15.5166804690001,0
                102.835920681,15.516691511,0
                102.835872474,15.5167577080001,0
                102.8358359,15.5168454930001,0
                102.835815489,15.516956963,0
                102.835810077,15.5170289480001,0
                102.835829418,15.517102691,0
                102.835876199,15.5172020950001,0
                102.835912777,15.5172476590001,0
                102.835961753,15.5173086570001,0
                102.835965903,15.5173138280001,0
                102.836073652,15.5174296010001,0
                102.836183652,15.517545334,0
                102.836225454,15.5176186790001,0
                102.836260837,15.517709568,0
                102.836291736,15.5178005340001,0
                102.836308867,15.517876491,0
                102.836307951,15.5179484020001,0
                102.836284174,15.5179989230001,0
                102.836193284,15.5180658670001,0
                102.836070983,15.518135532,0
                102.835925897,15.518188165,0
                102.83592558,15.518188191,0
                102.835824939,15.5181964540001,0
                102.835796905,15.51819642,0
                102.83570809,15.5181963090001,0
                102.835643028,15.518201801,0
                102.835616394,15.518219693,0
                102.835585707,15.518261619,0
                102.83557994,15.5183140070001,0
                102.835591935,15.5183551970001,0
                102.835639914,15.518397937,0
                102.835721829,15.518453155,0
                102.83576295,15.518474445,0
                102.835860226,15.518524821,0
                102.835910123,15.518564101,0
                102.835946874,15.5185930330001,0
                102.835988395,15.5186511320001,0
                102.836003406,15.518733658,0
                102.835993305,15.5187948380001,0
                102.835949868,15.518876204,0
                102.835906069,15.518937969,0
                102.835894046,15.5189551570001,0
                102.835882808,15.518971208,0
                102.835875741,15.5189989030001,0
                102.835869798,15.519036693,0
                102.835867991,15.519092788,0
                102.835862957,15.519179276,0
                102.835865763,15.519279414,0
                102.835865864,15.5193363930001,0
                102.835858156,15.519380647,0
                102.835842914,15.5194277900001,0
                102.83584156,15.519457227,0
                102.835842053,15.5194838670001,0
                102.835849383,15.519521427,0
                102.835868866,15.5195674230001,0
                102.835872184,15.5195752590001,0
                102.835891986,15.51962087,0
                102.835902294,15.5196657270001,0
                102.835904295,15.519722679,0
                102.835886925,15.5198084580001,0
                102.835878084,15.5198940920001,0
                102.835876634,15.519969485,0
                102.835881816,15.520044764,0
                102.83588001,15.520100857,0
                102.835874227,15.520146917,0
                102.835941916,15.520497864,0
                102.836031525,15.521145437,0
                102.836030705,15.5216252430001,0
                102.836017571,15.5219641520001,0
                102.83615603,15.52262969,0
                102.836493537,15.523564584,0
                102.837205574,15.524812823,0
                102.837956606,15.5244987070001,0
                102.83888933,15.5240403070001,0
                102.83944914,15.523880036,0
                102.839461976,15.5240529230001,0
                102.839475777,15.5242650910001,0
                102.839505289,15.524473152,0
                102.839540191,15.524652421,0
                102.839581118,15.5248373260001,0
                102.839615976,15.5250052660001,0
                102.839626623,15.5250565920001,0
                102.839664173,15.525272171,0
                102.83969671,15.52543043,0
                102.839714974,15.5255640610001,0
                102.839731921,15.525787285,0
                102.839741086,15.5259080440001,0
                102.839759682,15.5261660530001,0
                102.839806078,15.5264331440001,0
                102.839804629,15.5266742790001,0
                102.839802228,15.5269709240001,0
                102.839805114,15.5272330280001,0
                102.839810963,15.5275486620001,0
                102.839825084,15.5277780490001,0
                102.839847186,15.5279058690001,0
                102.839867357,15.5280356420001,0
                102.839870572,15.528102556,0
                102.839856488,15.528194655,0
                102.839799117,15.528400407,0
                102.839715129,15.528767358,0
                102.839642052,15.529084374,0
                102.839586936,15.5293053930001,0
                102.839546934,15.5294897910001,0
                102.839511621,15.529714289,0
                102.839488951,15.529875427,0
                102.839466599,15.5300537730001,0
                102.83944982,15.5303200560001,0
                102.839455757,15.530427107,0
                102.839472284,15.530467007,0
                102.839494373,15.530487673,0
                102.839540255,15.5305136640001,0
                102.83967922,15.530557163,0
                102.839933193,15.530629285,0
                102.840016739,15.530664186,0
                102.840068748,15.5307015500001,0
                102.840107053,15.530744896,0
                102.840125841,15.5308000590001,0
                102.840137233,15.5308821450001,0
                102.840134772,15.53096256,0
                102.840114562,15.531043283,0
                102.840068101,15.5311990870001,0
                102.84001683,15.5314142990001,0
                102.839994158,15.5315754380001,0
                102.839985369,15.531740154,0
                102.839981127,15.531937328,0
                102.839975615,15.532065629,0
                102.839955893,15.5321731340001,0
                102.839905347,15.5323213560001,0
                102.839836552,15.53244311,0
                102.839716773,15.5325829770001,0
                102.839629544,15.532668689,0
                102.839474921,15.53284552,0
                102.83937075,15.5329755450001,0
                102.839274968,15.533132208,0
                102.839202151,15.533250208,0
                102.839137048,15.5333585000001,0
                102.839058245,15.533472772,0
                102.838928811,15.533624289,0
                102.838822272,15.5337333050001,0
                102.838743576,15.5338533130001,0
                102.838694261,15.533961332,0
                102.838638434,15.5341440930001,0
                102.838607193,15.5342690210001,0
                102.838617251,15.534385577,0
                102.838628643,15.534467663,0
                102.838631089,15.5345996500001,0
                102.838623966,15.534854277,0
                102.838629321,15.5351431330001,0
                102.838619125,15.535338493,0
                102.838609583,15.5356754470001,0
                102.838616683,15.535845635,0
                102.838636546,15.536065348,0
                102.838654953,15.5362066330001,0
                102.838673269,15.536449329,0
                102.838672622,15.536627304,0
                102.83867404,15.5367038260001,0
                102.838668064,15.536740824,0
                102.838650945,15.5367755670001,0
                102.838625954,15.5368050650001,0
                102.838579109,15.536853238,0
                102.838541082,15.5368980370001,0
                102.838526117,15.536929512,0
                102.838511697,15.5369900360001,0
                102.838500842,15.5370634220001,0
                102.838487099,15.5371605330001,0
                102.838471597,15.537282433,0
                102.83845658,15.5373709620001,0
                102.838434531,15.537439154,0
                102.838397202,15.537521612,0
                102.838336839,15.53761954,0
                102.838196686,15.537844792,0
                102.83812799,15.537971924,0
                102.838087327,15.538054441,0
                102.838056692,15.538138927,0
                102.838032883,15.5382319120001,0
                102.837983374,15.538436211,0
                102.837918789,15.538665528,0
                102.837883958,15.5387630110001,0
                102.837861189,15.53879247,0
                102.83784155,15.5388111130001,0
                102.837815173,15.5388255600001,0
                102.837787683,15.5388400370001,0
                102.837669418,15.5388690030001,0
                102.837606496,15.5388884000001,0
                102.837550328,15.538913058,0
                102.837487618,15.538944293,0
                102.837360627,15.5390412240001,0
                102.837231531,15.5391446510001,0
                102.837117955,15.5392467340001,0
                102.836954976,15.5394390180001,0
                102.836829991,15.539584351,0
                102.836718519,15.5397402180001,0
                102.836606855,15.5399455960001,0
                102.836519764,15.5400988860001,0
                102.83640794,15.5402956560001,0
                102.836299549,15.5404977490001,0
                102.836206398,15.5406834340001,0
                102.836057091,15.5410143290001,0
                102.835977194,15.541196557,0
                102.835836724,15.5415251470001,0
                102.835799533,15.541615135,0
                102.835744661,15.541709735,0
                102.835684097,15.5417969010001,0
                102.835606182,15.541905894,0
                102.835557337,15.542026225,0
                102.835535047,15.5420815100001,0
                102.835486377,15.542211523,0
                102.835461438,15.5423034500001,0
                102.835460255,15.5423594440001,0
                102.835462103,15.5423992340001,0
                102.835474216,15.542453919,0
                102.835506774,15.5425330040001,0
                102.835549572,15.542625903,0
                102.835568292,15.542677246,0
                102.835575948,15.5427309300001,0
                102.835577364,15.542807329,0
                102.835574538,15.5428945690001,0
                102.835565605,15.5431315280001,0
                102.835548283,15.5432749870001,0
                102.835528769,15.5433603600001,0
                102.835504029,15.543523325,0
                102.835483813,15.543690515,0
                102.835485778,15.543736768,0
                102.835494028,15.543762459,0
                102.835504394,15.543782731,0
                102.835518033,15.5437997130001,0
                102.835552716,15.5438141770001,0
                102.835608514,15.5438293550001,0
                102.835718677,15.543842505,0
                102.835847893,15.5438650080001,0
                102.836011489,15.5438858370001,0
                102.83604051,15.543893941,0
                102.836065106,15.5439032040001,0
                102.836079819,15.5439180170001,0
                102.836087882,15.5439340190001,0
                102.836093933,15.543960826,0
                102.836089039,15.543996432,0
                102.836060211,15.5442380430001,0
                102.836029204,15.5443623640001,0
                102.836015319,15.5443916680001,0
                102.835974177,15.544448357,0
                102.83591397,15.5445548930001,0
                102.835889976,15.544638193,0
                102.835869261,15.5447784850001,0
                102.835846288,15.544916659,0
                102.835826203,15.5450311070001,0
                102.83580035,15.54513381,0
                102.835771184,15.5452376530001,0
                102.835733928,15.5453244130001,0
                102.835705164,15.545389501,0
                102.835673729,15.5454309530001,0
                102.83564327,15.545464849,0
                102.83559416,15.545510909,0
                102.835544949,15.5455515950001,0
                102.835460398,15.545602581,0
                102.835433272,15.5456364230001,0
                102.835402892,15.5456746240001,0
                102.835394926,15.5457242750001,0
                102.835395931,15.545838356,0
                102.835394062,15.545977238,0
                102.835388164,15.546018244,0
                102.835371441,15.5460745070001,0
                102.835340098,15.5461805410001,0
                102.835274417,15.546410952,0
                102.835243494,15.5465395800001,0
                102.835199046,15.546657684,0
                102.835144295,15.546789888,0
                102.834840986,15.5466890660001,0
                102.834533791,15.546572649,0
                102.834300724,15.5464862540001,0
                102.834071179,15.5463963240001,0
                102.833890454,15.546326412,0
                102.833559531,15.5461877990001,0
                102.833367557,15.54609199,0
                102.833209986,15.546012978,0
                102.833141279,15.545984601,0
                102.833031607,15.5459725960001,0
                102.832882433,15.5459595350001,0
                102.83277635,15.5459474680001,0
                102.8326864,15.545935118,0
                102.832589086,15.545912457,0
                102.832422425,15.5458266430001,0
                102.832112573,15.5456633100001,0
                102.831918486,15.5455501370001,0
                102.831810059,15.545508537,0
                102.831763223,15.545498918,0
                102.831718445,15.5455031760001,0
                102.831668866,15.5455388290001,0
                102.831617051,15.5456475780001,0
                102.831562452,15.5457998630001,0
                102.831542665,15.5458941430001,0
                102.831550936,15.545953136,0
                102.831568526,15.546031107,0
                102.831600802,15.54622363,0
                102.831619938,15.5463850680001,0
                102.831633279,15.5465239930001,0
                102.831645747,15.546615973,0
                102.831638323,15.5466995950001,0
                102.831630107,15.5468371580001,0
                102.831624636,15.546929445,0
                102.831606388,15.547009776,0
                102.831568212,15.5470800190001,0
                102.831515625,15.5471470370001,0
                102.831452174,15.5472090230001,0
                102.831350902,15.5472629710001,0
                102.831193757,15.547303974,0
                102.830995421,15.5473491710001,0
                102.830666568,15.547419259,0
                102.830500101,15.5474412880001,0
                102.83037502,15.5474695560001,0
                102.830184055,15.547525061,0
                102.830085786,15.5475476450001,0
                102.829951738,15.5475760690001,0
                102.829765733,15.5476088790001,0
                102.829658559,15.5476350910001,0
                102.829601512,15.5476552220001,0
                102.829571501,15.547681836,0
                102.82954886,15.5477187560001,0
                102.829530187,15.5477764890001,0
                102.829526352,15.5478600480001,0
                102.829525944,15.5479348530001,0
                102.829532772,15.548013009,0
                102.829537744,15.5480877200001,0
                102.829534682,15.548213017,0
                102.829536259,15.548298226,0
                102.829515324,15.548427308,0
                102.829475173,15.548681974,0
                102.829453723,15.54878324,0
                102.829430286,15.5488740960001,0
                102.829389777,15.5490122210001,0
                102.829325382,15.549216867,0
                102.829255884,15.549339834,0
                102.829208578,15.549401538,0
                102.829150768,15.5494773450001,0
                102.829089372,15.5495532090001,0
                102.829026981,15.5496725780001,0
                102.828976891,15.5497778230001,0
                102.828942239,15.549844525,0
                102.828929144,15.549912589,0
                102.828926875,15.5499839500001,0
                102.828937238,15.550155981,0
                102.828940295,15.550321178,0
                102.828948283,15.5504619340001,0
                102.828959312,15.5505730730001,0
                102.828983059,15.5506926850001,0
                102.829027663,15.550872817,0
                102.829066242,15.5510182580001,0
                102.829092489,15.5511760970001,0
                102.82913139,15.5513389330001,0
                102.829168382,15.551592257,0
                102.829195208,15.551781389,0
                102.829201979,15.551953482,0
                102.82920155,15.5521239620001,0
                102.829219762,15.552332382,0
                102.829296564,15.5523195380001,0
                102.829414359,15.552289445,0
                102.829532197,15.552261898,0
                102.829631866,15.5522474200001,0
                102.829739566,15.552240447,0
                102.829847314,15.552236024,0
                102.829960414,15.5522366050001,0
                102.830076472,15.5522549780001,0
                102.830190138,15.5522861470001,0
                102.830327938,15.5523423870001,0
                102.830478557,15.552380558,0
                102.830634711,15.552433928,0
                102.830822277,15.5524791070001,0
                102.831062564,15.552531012,0
                102.83122905,15.552574008,0
                102.831395675,15.5526246480001,0
                102.831540749,15.552647614,0
                102.831657184,15.552686382,0
                102.831935369,15.552796266,0
                102.832253083,15.5529105630001,0
                102.832364403,15.5529570630001,0
                102.832538822,15.553002468,0
                102.832726201,15.5530374520001,0
                102.833087809,15.5531076400001,0
                102.833415046,15.553168226,0
                102.833747403,15.5532210760001,0
                102.834016044,15.553241891,0
                102.834192576,15.553259213,0
                102.834250322,15.5532531050001,0
                102.834305203,15.5532343040001,0
                102.834351958,15.5532028960001,0
                102.834403595,15.5531510060001,0
                102.834465847,15.5531040280001,0
                102.834515471,15.553085321,0
                102.834605049,15.5530939560001,0
                102.834837403,15.5531434480001,0
                102.835095954,15.5531873840001,0
                102.835475211,15.5532164680001,0
                102.835793428,15.553216021,0
                102.836106528,15.5532233120001,0
                102.836214464,15.5532290800001,0
                102.836263994,15.553205269,0
                102.836307553,15.5531433240001,0
                102.836377642,15.5530936600001,0
                102.836450355,15.5530439500001,0
                102.836504905,15.5530073080001,0
                102.836586172,15.5529931450001,0
                102.836749888,15.553028533,0
                102.837046285,15.553127896,0
                102.837175917,15.5531689750001,0
                102.837376297,15.5531960750001,0
                102.837619264,15.5532504810001,0
                102.837857113,15.5533126190001,0
                102.838081202,15.5533418540001,0
                102.838241816,15.553351804,0
                102.838518678,15.5533903140001,0
                102.838764032,15.5534319270001,0
                102.838994095,15.553499301,0
                102.839345894,15.553607893,0
                102.83959445,15.5536800410001,0
                102.839747741,15.553720706,0
                102.840038457,15.5537972170001,0
                102.840271002,15.5538569,0
                102.840458615,15.553904614,0
                102.840649097,15.55396503,0
                102.840812812,15.554000413,0
                102.841024276,15.5540579090001,0
                102.8413823,15.5541668610001,0
                102.841475777,15.554221995,0
                102.841547375,15.5542751510001,0
                102.841560844,15.554285152,0
                102.841564422,15.5542878110001,0
                102.841597656,15.5543124820001,0
                102.841750338,15.554402436,0
                102.84185262,15.554433513,0
                102.842059593,15.5544597750001,0
                102.842511073,15.554541522,0
                102.843104827,15.554650657,0
                102.843779023,15.554776314,0
                102.844224451,15.554864138,0
                102.84451236,15.554933799,0
                102.844670379,15.5549788390001,0
                102.844799663,15.554970607,0
                102.844901057,15.5549538940001,0
                102.845014216,15.554907106,0
                102.845117691,15.5548365820001,0
                102.845219999,15.5547033390001,0
                102.84529888,15.554636236,0
                102.84538745,15.5545928600001,0
                102.845535112,15.554578328,0
                102.845594055,15.5545788430001,0
                102.84576321,15.5545803200001,0
                102.845967214,15.554612605,0
                102.84616567,15.554677853,0
                102.846198491,15.554684444,0
                102.846521418,15.5547493120001,0
                102.846684045,15.554786988,0
                102.846764886,15.554805716,0
                102.847975976,15.555086293,0
                102.848343842,15.5552098800001,0
                102.848970305,15.555379939,0
                102.84942235,15.5555046050001,0
                102.849607476,15.555560003,0
                102.849681424,15.555576559,0
                102.849778846,15.5555825010001,0
                102.84988889,15.5555601790001,0
                102.85004578,15.555511547,0
                102.850231784,15.5554725960001,0
                102.850349902,15.5554603350001,0
                102.850442013,15.5554638200001,0
                102.850635269,15.5555318250001,0
                102.851005953,15.555665559,0
                102.851138502,15.555721878,0
                102.851210149,15.5557563140001,0
                102.851281755,15.5557882030001,0
                102.851346716,15.555834013,0
                102.851399541,15.555871262,0
                102.85144484,15.555908899,0
                102.851495119,15.555963462,0
                102.851505773,15.5559750240001,0
                102.851552779,15.555997759,0
                102.851624043,15.5560181050001,0
                102.851747686,15.556023796,0
                102.851909692,15.5560229230001,0
                102.852172559,15.5560006540001,0
                102.852320026,15.5559804000001,0
                102.852410693,15.555955254,0
                102.852499665,15.555947809,0
                102.852590842,15.5559501380001,0
                102.852718689,15.5559636040001,0
                102.852838248,15.555967402,0
                102.852931344,15.55596381,0
                102.853073029,15.5559593670001,0
                102.853184491,15.5559633030001,0
                102.853349104,15.555993798,0
                102.853489348,15.5560207890001,0
                102.853641485,15.55603383,0
                102.853795316,15.556029172,0
                102.853912599,15.5560192680001,0
                102.854112481,15.555986315,0
                102.854310377,15.555955365,0
                102.854469991,15.555934902,0
                102.854562974,15.5559254190001,0
                102.854718834,15.5559207260001,0
                102.85484465,15.555934227,0
                102.854989017,15.5559650750001,0
                102.855098711,15.555982783,0
                102.855187903,15.555987111,0
                102.855277057,15.555989476,0
                102.855327964,15.556004289,0
                102.855414278,15.5560714920001,0
                102.855517117,15.5561560740001,0
                102.855576307,15.5561805570001,0
                102.855665572,15.556188811,0
                102.85586803,15.556185263,0
                102.856064155,15.556168084,0
                102.856151213,15.556166558,0
                102.856266905,15.5561802350001,0
                102.856425411,15.5562088730001,0
                102.856577695,15.556229763,0
                102.856725891,15.556248758,0
                102.857087107,15.5562875840001,0
                102.857257795,15.556317967,0
                102.857515612,15.55635075,0
                102.8578751,15.556405308,0
                102.858230757,15.556471715,0
                102.858496856,15.556514167,0
                102.858610269,15.55651414,0
                102.858907553,15.55649126,0
                102.859370707,15.5564576150001,0
                102.859631544,15.5564353680001,0
                102.859706489,15.5564360170001,0
                102.859803928,15.5564480510001,0
                102.859986911,15.5564860700001,0
                102.860063917,15.5564886440001,0
                102.860213077,15.5564506900001,0
                102.860422388,15.5563802660001,0
                102.860540773,15.556321256,0
                102.860629379,15.5562941800001,0
                102.860688019,15.556289222,0
                102.860758912,15.5562899450001,0
                102.860834152,15.556306292,0
                102.860958678,15.55635908,0
                102.861108414,15.556460503,0
                102.86118218,15.556506326,0
                102.861306445,15.5565453780001,0
                102.861723466,15.556644072,0
                102.86189264,15.556701963,0
                102.86214236,15.5567348820001,0
                102.86242296,15.556794747,0
                102.862640652,15.556847856,0
                102.862764336,15.5568555030001,0
                102.862974891,15.556851807,0
                102.863061986,15.556852239,0
                102.863114807,15.5568611300001,0
                102.86317208,15.5568915380001,0
                102.863274298,15.5569427500001,0
                102.863384507,15.5569879340001,0
                102.863460003,15.5570180170001,0
                102.863531598,15.557056027,0
                102.863572711,15.5570886780001,0
                102.863616545,15.5571585860001,0
                102.863678531,15.557224247,0
                102.863809716,15.557308329,0
                102.864005025,15.557463921,0
                102.864090897,15.557507565,0
                102.864227242,15.5575424730001,0
                102.864457452,15.5576149980001,0
                102.86463303,15.5576904430001,0
                102.864722882,15.5577300960001,0
                102.864924269,15.5577776010001,0
                102.865115496,15.557823323,0
                102.865216981,15.557835283,0
                102.865368898,15.557836539,0
                102.865620097,15.557839981,0
                102.865703505,15.5578601120001,0
                102.865964195,15.557937985,0
                102.866186302,15.5580106510001,0
                102.866527453,15.5581676040001,0
                102.866756187,15.5582696000001,0
                102.866932467,15.5583823320001,0
                102.867083939,15.558468013,0
                102.867279876,15.558548989,0
                102.867599903,15.558659198,0
                102.867696046,15.5587105130001,0
                102.867697258,15.5587113030001,0
                102.867778061,15.558764044,0
                102.867886684,15.558832812,0
                102.867984561,15.5588683930001,0
                102.868077916,15.5588785300001,0
                102.868276615,15.5588907420001,0
                102.868436962,15.55890952,0
                102.868492138,15.5589360330001,0
                102.868559834,15.55898196,0
                102.868632159,15.559059217,0
                102.868687855,15.5591132110001,0
                102.868737065,15.5591457200001,0
                102.868811574,15.559165966,0
                102.868818491,15.5591678440001,0
                102.869144115,15.5592524300001,0
                102.869486303,15.5593563530001,0
                102.8696472,15.559404565,0
                102.869704621,15.559442818,0
                102.869769775,15.559461308,0
                102.86994054,15.5594956030001,0
                102.870121644,15.559541498,0
                102.870300432,15.5595717300001,0
                102.870478742,15.559576442,0
                102.87065304,15.559583194,0
                102.870911487,15.5596493250001,0
                102.871227244,15.5597478170001,0
                102.871318792,15.5597697640001,0
                102.871434081,15.55976185,0
                102.87157157,15.5597496120001,0
                102.871672687,15.5597419420001,0
                102.871763976,15.5597501510001,0
                102.871877794,15.559771706,0
                102.871975564,15.5598014010001,0
                102.872039318,15.5598532830001,0
                102.872090888,15.559903419,0
                102.872133253,15.560002802,0
                102.872170614,15.5600512250001,0
                102.872228298,15.5601032160001,0
                102.872302667,15.5601420620001,0
                102.872391919,15.5601886790001,0
                102.87249215,15.560241886,0
                102.872545601,15.5602841350001,0
                102.872562378,15.5603149450001,0
                102.872575569,15.560350052,0
                102.872584305,15.560390759,0
                102.87259836,15.560472229,0
                102.872610515,15.560512875,0
                102.872628095,15.5605390710001,0
                102.872655982,15.560568393,0
                102.872685864,15.5605822270001,0
                102.872898015,15.5605961580001,0
                102.873145596,15.5606160940001,0
                102.873269874,15.560621638,0
                102.873473847,15.56062467,0
                102.873591026,15.560615984,0
                102.873680682,15.560597839,0
                102.873790716,15.5605727110001,0
                102.873974937,15.560555112,0
                102.874061549,15.5605568990001,0
                102.87421802,15.5605784380001,0
                102.874447549,15.560607523,0
                102.874611726,15.560614571,0
                102.87470413,15.560616214,0
                102.874767845,15.560617343,0
                102.874880611,15.5606164610001,0
                102.874971637,15.560610442,0
                102.875014662,15.560596435,0
                102.875057465,15.56057028,0
                102.875084235,15.5605399930001,0
              </coordinates>
                
            </LinearRing>
            
          </outerBoundaryIs>
        
        </Polygon>
        
      <styleUrl>
        #tambonStyle</styleUrl>
    </Placemark>

  </Document>
</kml>