<?xml version="1.0" encoding="UTF-8"?>
<kml xmlns="http://www.opengis.net/kml/2.2">
  <Document id="tambon_doc">
    <name>กระดังงา, สทิงพระ, Songkhla</name>
    <description>ข้อมูลขอบเขตตำบลกระดังงา อำเภอสทิงพระ จังหวัดSongkhla</description>
    
    <!-- Schema สำหรับข้อมูลตำบล -->
    <Schema id="tambon.schema">
      <SimpleField name="ADM3_EN" type="string">
        <displayName>Subdistrict Name (English)</displayName>
      </SimpleField>
      <SimpleField name="ADM3_TH" type="string">
        <displayName>ชื่อตำบล</displayName>
      </SimpleField>
      <SimpleField name="ADM2_EN" type="string">
        <displayName>District Name (English)</displayName>
      </SimpleField>
      <SimpleField name="ADM2_TH" type="string">
        <displayName>ชื่ออำเภอ</displayName>
      </SimpleField>
      <SimpleField name="ADM1_EN" type="string">
        <displayName>Province Name (English)</displayName>
      </SimpleField>
      <SimpleField name="ADM1_TH" type="string">
        <displayName>ชื่อจังหวัด</displayName>
      </SimpleField>
      <SimpleField name="ADM0_EN" type="string">
        <displayName>Country Name (English)</displayName>
      </SimpleField>
      <SimpleField name="ADM0_TH" type="string">
        <displayName>ชื่อประเทศ</displayName>
      </SimpleField>
    </Schema>

    <!-- Style สำหรับตำบล -->
    <Style id="tambonStyle">
      <LineStyle>
        <color>ffff0000</color>
        <width>1.5</width>
      </LineStyle>
      <PolyStyle>
        <color>33ff0000</color>
        <fill>1</fill>
        <outline>1</outline>
      </PolyStyle>
    </Style>

    <Placemark id="Songkhla.8">
        
        <ExtendedData>
            
          <SchemaData schemaUrl="#tambon.schema">
                
            <SimpleData name="Shape_Leng">
                0.122503940819</SimpleData>
                
            <SimpleData name="Shape_Area">
                0.000749623827961</SimpleData>
                
            <SimpleData name="ADM3_EN">
                Kradang Nga</SimpleData>
                
            <SimpleData name="ADM3_TH">
                กระดังงา</SimpleData>
                
            <SimpleData name="ADM3_PCODE">
                TH900202</SimpleData>
                
            <SimpleData name="ADM2_EN">
                Sathing Phra</SimpleData>
                
            <SimpleData name="ADM2_TH">
                สทิงพระ</SimpleData>
                
            <SimpleData name="ADM2_PCODE">
                TH9002</SimpleData>
                
            <SimpleData name="ADM1_EN">
                Songkhla</SimpleData>
                
            <SimpleData name="ADM1_TH">
                สงขลา</SimpleData>
                
            <SimpleData name="ADM1_PCODE">
                TH90</SimpleData>
                
            <SimpleData name="ADM0_EN">
                Thailand</SimpleData>
                
            <SimpleData name="ADM0_TH">
                ประเทศไทย</SimpleData>
                
            <SimpleData name="ADM0_PCODE">
                TH</SimpleData>
            
          </SchemaData>
        
        </ExtendedData>
        
        <Polygon>
            
          <outerBoundaryIs>
                
            <LinearRing>
                    
              <coordinates>
                    
                100.430137959,7.53112084500003,0
                100.430241857,7.53037770300006,0
                100.430490132,7.52925508400006,0
                100.430600381,7.52895501100005,0
                100.430682231,7.52873223600005,0
                100.43150716,7.52561511400006,0
                100.43177344,7.52460893100005,0
                100.432217591,7.52339627800006,0
                100.432234457,7.52335022800003,0
                100.432425283,7.52244055400007,0
                100.432494884,7.52212098000007,0
                100.432749871,7.52095019800004,0
                100.43301822,7.52004027100003,0
                100.433133616,7.51976911200006,0
                100.433132855,7.51953701800005,0
                100.433132474,7.51942096900007,0
                100.433286947,7.51924639100002,0
                100.433402787,7.51911062200003,0
                100.433517802,7.51872341700005,0
                100.433917686,7.51655586400005,0
                100.434645957,7.51405843000003,0
                100.435699625,7.51032207900005,0
                100.435990772,7.50948521300006,0
                100.435990868,7.50948493700002,0
                100.43608361,7.50921836000003,0
                100.436194218,7.50867487200003,0
                100.436218924,7.50855348000005,0
                100.436363759,7.50784181500006,0
                100.436434627,7.50749360900005,0
                100.436445605,7.50743966700003,0
                100.436445993,7.50743775900003,0
                100.436715154,7.50677926800006,0
                100.437767018,7.50250136300002,0
                100.438094506,7.50190070600007,0
                100.439030792,7.49842201000007,0
                100.439683646,7.49599636000005,0
                100.440296739,7.49384745100002,0
                100.440856048,7.49208559300007,0
                100.44034159,7.49201067600006,0
                100.440205644,7.49199174700004,0
                100.440112454,7.49198817700005,0
                100.439991594,7.49198191600004,0
                100.439366845,7.49193382500005,0
                100.439315686,7.49193173600003,0
                100.439233616,7.49192990200004,0
                100.439136679,7.49192441800005,0
                100.439124404,7.49192372000005,0
                100.438950845,7.49190617100004,0
                100.438936524,7.49190472000004,0
                100.438880183,7.49189481700006,0
                100.438804295,7.49187723000006,0
                100.438774381,7.49186926500005,0
                100.438770433,7.49186821000006,0
                100.438676434,7.49184018100004,0
                100.438606418,7.49181869400007,0
                100.43859883,7.49181603800002,0
                100.438577714,7.49180786800002,0
                100.438543536,7.49179244000004,0
                100.438502526,7.49177159300007,0
                100.438455555,7.49174500700008,0
                100.438421398,7.49172244400006,0
                100.438387682,7.49169509400002,0
                100.438308788,7.49161034700006,0
                100.438292183,7.49159463600006,0
                100.438265333,7.49156922200007,0
                100.438239614,7.49155363000006,0
                100.438239011,7.49155342400007,0
                100.438190513,7.49153684800007,0
                100.43818989,7.49153663400006,0
                100.438188114,7.49153623200004,0
                100.438113399,7.49151944400006,0
                100.437808521,7.49147598400003,0
                100.43751423,7.49145130800002,0
                100.437180087,7.49144515100005,0
                100.436871424,7.49145703300007,0
                100.436755172,7.49144653800005,0
                100.436646145,7.49142514500005,0
                100.436420751,7.49135701300003,0
                100.436166275,7.49128172400003,0
                100.435940965,7.49123896800006,0
                100.435748364,7.49120334700007,0
                100.435123215,7.49105677200004,0
                100.434469008,7.49091029500005,0
                100.434250949,7.49086388300003,0
                100.433912994,7.49080336600002,0
                100.433684028,7.49075336600004,0
                100.433888539,7.48998825700005,0
                100.433980536,7.48963676400007,0
                100.433974972,7.48963703600003,0
                100.433667575,7.48961070300004,0
                100.433546746,7.48959466100007,0
                100.433534768,7.48959284200004,0
                100.433346566,7.48955968300004,0
                100.433236365,7.48953073800004,0
                100.433128334,7.48949941100005,0
                100.433077074,7.48948026200003,0
                100.432877663,7.48939101100007,0
                100.432770766,7.48935465800002,0
                100.432684805,7.48932922800003,0
                100.432587269,7.48930810900004,0
                100.432288123,7.48924708700002,0
                100.432008389,7.48918599800004,0
                100.43179861,7.48914793200004,0
                100.431709203,7.48911335200006,0
                100.431653346,7.48908502600005,0
                100.431632493,7.48907692600005,0
                100.431425472,7.48901740500003,0
                100.431033006,7.48891405700004,0
                100.430728088,7.48884551600003,0
                100.430469668,7.48879576800005,0
                100.430279316,7.48876151400003,0
                100.429941287,7.48868124000006,0
                100.429678227,7.48861930600003,0
                100.42946723,7.48855878700004,0
                100.429179604,7.48845897300004,0
                100.428841544,7.48837095100004,0
                100.428351921,7.48823691900003,0
                100.427958585,7.48815440300007,0
                100.427951759,7.48815296900005,0
                100.42740007,7.48803463800004,0
                100.426992074,7.48793134200002,0
                100.426463731,7.48782843400005,0
                100.426086898,7.48775603000007,0
                100.425620675,7.48765292100006,0
                100.425333211,7.48760347700005,0
                100.424795623,7.48749171200006,0
                100.42447069,7.48741252700006,0
                100.424154054,7.48735982400007,0
                100.423936517,7.48732361600003,0
                100.423856895,7.48729826500005,0
                100.423627569,7.48724438600004,0
                100.423294274,7.48889325200003,0
                100.423103306,7.48975408000007,0
                100.423047358,7.49001432300003,0
                100.422997723,7.49016118900005,0
                100.422455648,7.49195004400002,0
                100.421807674,7.49404932000004,0
                100.421401069,7.49537762200003,0
                100.421222574,7.49596501200006,0
                100.420749641,7.49744356600007,0
                100.420306512,7.49884201000003,0
                100.420058785,7.49971635600002,0
                100.41966598,7.50118131700003,0
                100.419379093,7.50218525600008,0
                100.419069428,7.50333388800004,0
                100.418507363,7.50534242800006,0
                100.417795418,7.50770610100005,0
                100.417101021,7.51000470400004,0
                100.416418398,7.51228257700006,0
                100.416030431,7.51345071700007,0
                100.415787505,7.51420560700006,0
                100.415613149,7.51472808000005,0
                100.415194184,7.51593172100007,0
                100.415187458,7.51595004300003,0
                100.415011405,7.51642962800003,0
                100.414610078,7.51757311700004,0
                100.414382031,7.51821691100002,0
                100.414166357,7.51889128700003,0
                100.413886583,7.51966998300003,0
                100.413759008,7.52007154100005,0
                100.413464079,7.52090846800007,0
                100.413318362,7.52139276300005,0
                100.413115038,7.52209159600005,0
                100.413021155,7.52247467300003,0
                100.412872617,7.52303553100006,0
                100.412702499,7.52356583800002,0
                100.41250826,7.52422789600007,0
                100.412420455,7.52459257900006,0
                100.412174815,7.52549059100005,0
                100.411744069,7.52702919600006,0
                100.411528994,7.52784866900004,0
                100.413656834,7.52820883700002,0
                100.413752576,7.52822451100008,0
                100.414151601,7.52828983000006,0
                100.414619261,7.52834991800006,0
                100.414872141,7.52837397400003,0
                100.415744078,7.52854138400005,0
                100.416193055,7.52863858400002,0
                100.416516476,7.52870963300006,0
                100.416903251,7.52880755300004,0
                100.416916038,7.52881079000002,0
                100.417269966,7.52890830100006,0
                100.417471641,7.52895698000003,0
                100.417673361,7.52898740700005,0
                100.417939548,7.52902755500003,0
                100.41818685,7.52907608500004,0
                100.418604349,7.52918063300007,0
                100.418620659,7.52918472000005,0
                100.418989817,7.52928976900006,0
                100.419594887,7.52944717300005,0
                100.419826119,7.52949159000002,0
                100.420068124,7.52954443400006,0
                100.420215997,7.52957076800004,0
                100.420333592,7.52958379700004,0
                100.420495804,7.52960437300004,0
                100.420565445,7.52961320800006,0
                100.42071658,7.52963159200004,0
                100.420755274,7.52963146600007,0
                100.420781012,7.52961421900005,0
                100.420795989,7.52959272000004,0
                100.420827829,7.52946819500005,0
                100.42084063,7.52943812100006,0
                100.420862055,7.52941660100004,0
                100.42089642,7.52940790600007,0
                100.420945866,7.52940989100006,0
                100.421604348,7.52962442200004,0
                100.421827862,7.52913904200005,0
                100.422097124,7.52921199600007,0
                100.422282177,7.52924159900004,0
                100.422490747,7.52926441500006,0
                100.42260851,7.52928416700007,0
                100.422699404,7.52931407600005,0
                100.422760057,7.52935079200006,0
                100.42283087,7.52941097000007,0
                100.422925237,7.52947442500005,0
                100.42302623,7.52950765700007,0
                100.423133906,7.52952744100003,0
                100.42327855,7.52954039500003,0
                100.423443414,7.52956670900005,0
                100.423705943,7.52963632700005,0
                100.424007789,7.52971054400007,0
                100.424159256,7.52975346800002,0
                100.424255824,7.52978335800003,0
                100.424335333,7.52980197600004,0
                100.424412935,7.52981682500007,0
                100.42452616,7.52983832800004,0
                100.424603384,7.52984546500005,0
                100.424733852,7.52987696200006,0
                100.424921546,7.52993125200004,0
                100.425178383,7.53002317100004,0
                100.425136486,7.53015798100006,0
                100.425043209,7.53039291500005,0
                100.424989895,7.53052381000003,0
                100.425410164,7.53065316800007,0
                100.425803532,7.53077255400007,0
                100.42604894,7.53083879200005,0
                100.426253932,7.53087164000004,0
                100.426405074,7.53087114800007,0
                100.426734053,7.53081644900004,0
                100.426965617,7.53075871300007,0
                100.427109934,7.53072472400004,0
                100.42727777,7.53069401000005,0
                100.42742549,7.53067341700006,0
                100.427556446,7.53066293400008,0
                100.427762464,7.53065312600006,0
                100.4277832,7.53065438400006,0
                100.428092675,7.53070003600004,0
                100.428206248,7.53072712000005,0
                100.428287029,7.53075114600006,0
                100.42833621,7.53076577100006,0
                100.428400288,7.53078595300008,0
                100.428813246,7.53091599200008,0
                100.428995954,7.53097610700007,0
                100.429148188,7.53102114300003,0
                100.4293286,7.53106864000006,0
                100.429670707,7.53112568300003,0
                100.430128162,7.53119040500007,0
                100.430128127,7.53119065500005,0
                100.430128232,7.53119041700006,0
                100.430137941,7.53112097000007,0
                100.430137959,7.53112084500003,0
              </coordinates>
                
            </LinearRing>
            
          </outerBoundaryIs>
        
        </Polygon>
        
      <styleUrl>
        #tambonStyle</styleUrl>
    </Placemark>

  </Document>
</kml>