<?xml version="1.0" encoding="UTF-8"?>
<kml xmlns="http://www.opengis.net/kml/2.2">
  <Document id="tambon_doc">
    <name>บางคูรัด, บางบัวทอง, Nonthaburi</name>
    <description>ข้อมูลขอบเขตตำบลบางคูรัด อำเภอบางบัวทอง จังหวัดNonthaburi</description>
    
    <!-- Schema สำหรับข้อมูลตำบล -->
    <Schema id="tambon.schema">
      <SimpleField name="ADM3_EN" type="string">
        <displayName>Subdistrict Name (English)</displayName>
      </SimpleField>
      <SimpleField name="ADM3_TH" type="string">
        <displayName>ชื่อตำบล</displayName>
      </SimpleField>
      <SimpleField name="ADM2_EN" type="string">
        <displayName>District Name (English)</displayName>
      </SimpleField>
      <SimpleField name="ADM2_TH" type="string">
        <displayName>ชื่ออำเภอ</displayName>
      </SimpleField>
      <SimpleField name="ADM1_EN" type="string">
        <displayName>Province Name (English)</displayName>
      </SimpleField>
      <SimpleField name="ADM1_TH" type="string">
        <displayName>ชื่อจังหวัด</displayName>
      </SimpleField>
      <SimpleField name="ADM0_EN" type="string">
        <displayName>Country Name (English)</displayName>
      </SimpleField>
      <SimpleField name="ADM0_TH" type="string">
        <displayName>ชื่อประเทศ</displayName>
      </SimpleField>
    </Schema>

    <!-- Style สำหรับตำบล -->
    <Style id="tambonStyle">
      <LineStyle>
        <color>ffff0000</color>
        <width>1.5</width>
      </LineStyle>
      <PolyStyle>
        <color>33ff0000</color>
        <fill>1</fill>
        <outline>1</outline>
      </PolyStyle>
    </Style>

    <Placemark id="Nonthaburi.29">
        
        <ExtendedData>
            
          <SchemaData schemaUrl="#tambon.schema">
                
            <SimpleData name="Shape_Leng">
                0.160427150423</SimpleData>
                
            <SimpleData name="Shape_Area">
                0.00142647538629</SimpleData>
                
            <SimpleData name="ADM3_EN">
                Bang Khu Rat</SimpleData>
                
            <SimpleData name="ADM3_TH">
                บางคูรัด</SimpleData>
                
            <SimpleData name="ADM3_PCODE">
                TH120404</SimpleData>
                
            <SimpleData name="ADM2_EN">
                Bang Bua Thong</SimpleData>
                
            <SimpleData name="ADM2_TH">
                บางบัวทอง</SimpleData>
                
            <SimpleData name="ADM2_PCODE">
                TH1204</SimpleData>
                
            <SimpleData name="ADM1_EN">
                Nonthaburi</SimpleData>
                
            <SimpleData name="ADM1_TH">
                นนทบุรี</SimpleData>
                
            <SimpleData name="ADM1_PCODE">
                TH12</SimpleData>
                
            <SimpleData name="ADM0_EN">
                Thailand</SimpleData>
                
            <SimpleData name="ADM0_TH">
                ประเทศไทย</SimpleData>
                
            <SimpleData name="ADM0_PCODE">
                TH</SimpleData>
            
          </SchemaData>
        
        </ExtendedData>
        
        <Polygon>
            
          <outerBoundaryIs>
                
            <LinearRing>
                    
              <coordinates>
                    
                100.349711417,13.9267561410001,0
                100.350132802,13.9264976640001,0
                100.350367049,13.926511535,0
                100.350770556,13.926507897,0
                100.350863676,13.9268165290001,0
                100.351111944,13.9276393750001,0
                100.353104521,13.9271352330001,0
                100.356176089,13.9263060170001,0
                100.357730494,13.926030516,0
                100.361076735,13.9254377090001,0
                100.365733829,13.9246125970001,0
                100.366601543,13.924557169,0
                100.369159241,13.924442002,0
                100.370319151,13.924438552,0
                100.372905986,13.9245688460001,0
                100.372701286,13.92450296,0
                100.372355673,13.9243505800001,0
                100.371868398,13.924126512,0
                100.371750773,13.9240710550001,0
                100.371716996,13.9240268190001,0
                100.371682028,13.9239140780001,0
                100.371613264,13.9233613230001,0
                100.371607245,13.923312949,0
                100.37145775,13.9221219080001,0
                100.371324091,13.9208881380001,0
                100.371254182,13.9203341190001,0
                100.371251241,13.9203077170001,0
                100.371205659,13.9198989380001,0
                100.371143069,13.919416703,0
                100.371142686,13.919351614,0
                100.371197588,13.918529786,0
                100.371238228,13.91801779,0
                100.371403928,13.9172806290001,0
                100.371714292,13.9161363900001,0
                100.371801919,13.9157992070001,0
                100.37187837,13.9151254010001,0
                100.371952514,13.914449362,0
                100.372017185,13.913726238,0
                100.372023219,13.9135803070001,0
                100.372023177,13.9135730530001,0
                100.372022425,13.913445633,0
                100.371943209,13.9124809040001,0
                100.371941041,13.9121131470001,0
                100.371943226,13.91159996,0
                100.37016726,13.9115348240001,0
                100.369228359,13.911484285,0
                100.369161383,13.910314006,0
                100.369071088,13.908736188,0
                100.368817704,13.9082351120001,0
                100.368796318,13.906866661,0
                100.368297686,13.90528404,0
                100.367542661,13.9026182530001,0
                100.366934517,13.900732079,0
                100.363634237,13.889934118,0
                100.363557352,13.889224014,0
                100.363626133,13.8885486240001,0
                100.363802551,13.8876239480001,0
                100.364155596,13.8858101170001,0
                100.364321914,13.88447547,0
                100.3643013,13.883644529,0
                100.364137026,13.8824911990001,0
                100.363893417,13.8814334420001,0
                100.363844227,13.8811831100001,0
                100.363801856,13.881078444,0
                100.362942216,13.880346387,0
                100.36220992,13.8790859810001,0
                100.362071887,13.8788017470001,0
                100.361991661,13.878713197,0
                100.361887021,13.878636418,0
                100.357486315,13.8785699100001,0
                100.357367472,13.878580577,0
                100.357332073,13.878599336,0
                100.357174865,13.878774118,0
                100.356907175,13.879262602,0
                100.356014488,13.8814385700001,0
                100.355831104,13.881797009,0
                100.355672901,13.8820191950001,0
                100.355542466,13.882202383,0
                100.355395604,13.88229525,0
                100.355209459,13.8823562210001,0
                100.351150191,13.8828354130001,0
                100.34176289,13.8833693290001,0
                100.341795701,13.884533747,0
                100.341768095,13.886306989,0
                100.341737297,13.887526157,0
                100.341630666,13.8887088060001,0
                100.341447613,13.8896362730001,0
                100.341410927,13.8899873870001,0
                100.34129881,13.890167634,0
                100.340754171,13.891099227,0
                100.340010794,13.89246626,0
                100.339904143,13.89301047,0
                100.339127003,13.8943690030001,0
                100.338924299,13.8946349180001,0
                100.338840499,13.8948369450001,0
                100.338607044,13.8955222430001,0
                100.336456931,13.901650929,0
                100.334622774,13.9062934360001,0
                100.333149014,13.910551179,0
                100.332688405,13.9118818630001,0
                100.331870862,13.9143982100001,0
                100.331394488,13.917060454,0
                100.331024363,13.918466175,0
                100.330621704,13.920795556,0
                100.330550745,13.9215301040001,0
                100.330639959,13.921601846,0
                100.331614556,13.9223855920001,0
                100.332295036,13.922969316,0
                100.332492013,13.9231379450001,0
                100.332644075,13.923241552,0
                100.332864249,13.9233600760001,0
                100.332988159,13.923426777,0
                100.33311344,13.923521824,0
                100.333256865,13.9236733390001,0
                100.333373587,13.923829353,0
                100.333646674,13.9240628360001,0
                100.334868512,13.9250482730001,0
                100.336095136,13.926090243,0
                100.337066602,13.926916035,0
                100.337876974,13.9276165150001,0
                100.33912114,13.9287499180001,0
                100.347650901,13.928082827,0
                100.349711417,13.9267561410001,0
              </coordinates>
                
            </LinearRing>
            
          </outerBoundaryIs>
        
        </Polygon>
        
      <styleUrl>
        #tambonStyle</styleUrl>
    </Placemark>

  </Document>
</kml>