<?xml version="1.0" encoding="UTF-8"?>
<kml xmlns="http://www.opengis.net/kml/2.2">
  <Document id="tambon_doc">
    <name>ตาลาน, ผักไห่, Phra Nakhon Si Ayutthaya</name>
    <description>ข้อมูลขอบเขตตำบลตาลาน อำเภอผักไห่ จังหวัดPhra Nakhon Si Ayutthaya</description>
    
    <!-- Schema สำหรับข้อมูลตำบล -->
    <Schema id="tambon.schema">
      <SimpleField name="ADM3_EN" type="string">
        <displayName>Subdistrict Name (English)</displayName>
      </SimpleField>
      <SimpleField name="ADM3_TH" type="string">
        <displayName>ชื่อตำบล</displayName>
      </SimpleField>
      <SimpleField name="ADM2_EN" type="string">
        <displayName>District Name (English)</displayName>
      </SimpleField>
      <SimpleField name="ADM2_TH" type="string">
        <displayName>ชื่ออำเภอ</displayName>
      </SimpleField>
      <SimpleField name="ADM1_EN" type="string">
        <displayName>Province Name (English)</displayName>
      </SimpleField>
      <SimpleField name="ADM1_TH" type="string">
        <displayName>ชื่อจังหวัด</displayName>
      </SimpleField>
      <SimpleField name="ADM0_EN" type="string">
        <displayName>Country Name (English)</displayName>
      </SimpleField>
      <SimpleField name="ADM0_TH" type="string">
        <displayName>ชื่อประเทศ</displayName>
      </SimpleField>
    </Schema>

    <!-- Style สำหรับตำบล -->
    <Style id="tambonStyle">
      <LineStyle>
        <color>ffff0000</color>
        <width>1.5</width>
      </LineStyle>
      <PolyStyle>
        <color>33ff0000</color>
        <fill>1</fill>
        <outline>1</outline>
      </PolyStyle>
    </Style>

    <Placemark id="Phra_Nakhon_Si_Ayutthaya.122">
        
        <ExtendedData>
            
          <SchemaData schemaUrl="#tambon.schema">
                
            <SimpleData name="Shape_Leng">
                0.11591452415</SimpleData>
                
            <SimpleData name="Shape_Area">
                0.000505486028902</SimpleData>
                
            <SimpleData name="ADM3_EN">
                Ta Lan</SimpleData>
                
            <SimpleData name="ADM3_TH">
                ตาลาน</SimpleData>
                
            <SimpleData name="ADM3_PCODE">
                TH140805</SimpleData>
                
            <SimpleData name="ADM2_EN">
                Phak Hai</SimpleData>
                
            <SimpleData name="ADM2_TH">
                ผักไห่</SimpleData>
                
            <SimpleData name="ADM2_PCODE">
                TH1408</SimpleData>
                
            <SimpleData name="ADM1_EN">
                Phra Nakhon Si Ayutthaya</SimpleData>
                
            <SimpleData name="ADM1_TH">
                พระนครศรีอยุธยา</SimpleData>
                
            <SimpleData name="ADM1_PCODE">
                TH14</SimpleData>
                
            <SimpleData name="ADM0_EN">
                Thailand</SimpleData>
                
            <SimpleData name="ADM0_TH">
                ประเทศไทย</SimpleData>
                
            <SimpleData name="ADM0_PCODE">
                TH</SimpleData>
            
          </SchemaData>
        
        </ExtendedData>
        
        <Polygon>
            
          <outerBoundaryIs>
                
            <LinearRing>
                    
              <coordinates>
                    
                100.372802581,14.4532242080001,0
                100.372870599,14.4530950280001,0
                100.372921058,14.453024263,0
                100.372968981,14.4529769970001,0
                100.373067631,14.452903334,0
                100.373152927,14.452834974,0
                100.37319819,14.4527903360001,0
                100.373230031,14.452740556,0
                100.37328833,14.452638419,0
                100.373341321,14.452544141,0
                100.373391877,14.452489036,0
                100.373421256,14.452475817,0
                100.373464063,14.452467734,0
                100.373600587,14.4524538810001,0
                100.373721117,14.452453178,0
                100.373793205,14.452474764,0
                100.373906318,14.45251475,0
                100.37404043,14.4525452840001,0
                100.374313896,14.4525854550001,0
                100.374871444,14.4526526720001,0
                100.375426373,14.4527277400001,0
                100.375742879,14.4527389630001,0
                100.376731096,14.4529480090001,0
                100.376856365,14.452968926,0
                100.377290249,14.453041366,0
                100.377918221,14.453103938,0
                100.378365637,14.453119584,0
                100.378421171,14.453121523,0
                100.378517228,14.4531060780001,0
                100.378683164,14.4530638420001,0
                100.378728498,14.4530355680001,0
                100.380539612,14.4520387850001,0
                100.380713457,14.4519953490001,0
                100.381035487,14.451939329,0
                100.381928757,14.4518409620001,0
                100.382246381,14.4517804700001,0
                100.38328526,14.4514819350001,0
                100.38398836,14.4513915520001,0
                100.387327791,14.451223983,0
                100.388553726,14.4511059290001,0
                100.390978786,14.450704703,0
                100.393803487,14.4503436540001,0
                100.39740975,14.4499974990001,0
                100.398030033,14.449937956,0
                100.397962463,14.4479373300001,0
                100.397960547,14.447630673,0
                100.397981415,14.4471935400001,0
                100.39797926,14.44684855,0
                100.398008228,14.442669983,0
                100.397485231,14.439642239,0
                100.395927504,14.439671445,0
                100.392347971,14.4397486610001,0
                100.387002655,14.4402565620001,0
                100.384817419,14.4402834210001,0
                100.382229448,14.4402845990001,0
                100.381094344,14.4404033440001,0
                100.378653246,14.4409080360001,0
                100.376415399,14.4417337790001,0
                100.375698687,14.442088251,0
                100.375512299,14.442173407,0
                100.375237402,14.4421650200001,0
                100.375216762,14.442160664,0
                100.374995745,14.442157647,0
                100.374952939,14.4421570600001,0
                100.374667485,14.4421980330001,0
                100.374153701,14.442276368,0
                100.374113852,14.4422838040001,0
                100.374007299,14.4423036790001,0
                100.373958949,14.442326343,0
                100.373730997,14.4425233150001,0
                100.373649173,14.4425659520001,0
                100.373631681,14.442573823,0
                100.373510121,14.4426053780001,0
                100.373364797,14.442622623,0
                100.373315561,14.4426284640001,0
                100.373156934,14.442618351,0
                100.373097174,14.4426066950001,0
                100.373057639,14.442598984,0
                100.372960771,14.442562438,0
                100.372848199,14.442504609,0
                100.372694654,14.4424222590001,0
                100.371758175,14.4418121530001,0
                100.371748816,14.4418091920001,0
                100.37158238,14.4417868570001,0
                100.371268428,14.4417653130001,0
                100.371175031,14.441763162,0
                100.371136988,14.4417776710001,0
                100.371091611,14.441811692,0
                100.37105505,14.441846417,0
                100.371025365,14.4418952890001,0
                100.370875021,14.4421513410001,0
                100.370830425,14.442194009,0
                100.370503912,14.441935329,0
                100.370339674,14.441806958,0
                100.370188324,14.4417026150001,0
                100.369922689,14.440805074,0
                100.369821246,14.4404997300001,0
                100.369517284,14.4406037860001,0
                100.369488761,14.440607486,0
                100.369452617,14.440597473,0
                100.36944043,14.440587781,0
                100.369426118,14.4405763980001,0
                100.369399912,14.440555556,0
                100.369275703,14.4403807190001,0
                100.369181429,14.4402099070001,0
                100.369093542,14.4400506640001,0
                100.369005992,14.4398645100001,0
                100.368961296,14.4397694670001,0
                100.368864033,14.4397234470001,0
                100.368730472,14.43966026,0
                100.368307103,14.439471833,0
                100.368000536,14.439353614,0
                100.367445889,14.4397808030001,0
                100.366763763,14.440309514,0
                100.366420624,14.440574617,0
                100.366084271,14.440822741,0
                100.365892392,14.440931074,0
                100.3657378,14.4410026350001,0
                100.365575619,14.441059619,0
                100.365390846,14.4411021170001,0
                100.3652909,14.4411148770001,0
                100.365120892,14.4411183020001,0
                100.364980852,14.441116672,0
                100.36482069,14.44109567,0
                100.364683,14.44106723,0
                100.36442992,14.4409809630001,0
                100.364250258,14.4409123900001,0
                100.364141651,14.44086323,0
                100.363833045,14.4406920060001,0
                100.363216094,14.440390983,0
                100.362536417,14.4400537560001,0
                100.362004987,14.4398350810001,0
                100.361658433,14.4397441990001,0
                100.361111691,14.439692677,0
                100.360376423,14.439651354,0
                100.359986149,14.439632128,0
                100.359455538,14.439607401,0
                100.358260018,14.4395670120001,0
                100.358174164,14.4395642980001,0
                100.35813345,14.4395675420001,0
                100.358123589,14.4395673010001,0
                100.358100681,14.4395701490001,0
                100.358083353,14.4395723060001,0
                100.35794741,14.4395892150001,0
                100.357900541,14.439603907,0
                100.357824337,14.4396353700001,0
                100.357740782,14.4396972110001,0
                100.357662988,14.439766982,0
                100.357627125,14.439813959,0
                100.357576334,14.4399039,0
                100.357511286,14.440107585,0
                100.357427237,14.4401080690001,0
                100.357190591,14.4401034380001,0
                100.357150921,14.4401114090001,0
                100.357100141,14.4401350950001,0
                100.357045203,14.4401691100001,0
                100.356749777,14.440429275,0
                100.356740827,14.4404317400001,0
                100.356701696,14.4404369150001,0
                100.356639652,14.440421014,0
                100.356357648,14.4402786800001,0
                100.356147654,14.440173611,0
                100.356095226,14.44016171,0
                100.356040807,14.4401642560001,0
                100.35597249,14.440193132,0
                100.355935369,14.4402261720001,0
                100.355926117,14.440232404,0
                100.355900177,14.4402766700001,0
                100.35588852,14.4403185310001,0
                100.355891167,14.4403626330001,0
                100.355897911,14.4404277950001,0
                100.355914041,14.4406038540001,0
                100.35590783,14.4406856150001,0
                100.35590664,14.440694336,0
                100.355895511,14.44074987,0
                100.355820836,14.440913575,0
                100.355768918,14.4410274000001,0
                100.355699429,14.4411965840001,0
                100.355544325,14.4415742030001,0
                100.355500907,14.4416228860001,0
                100.35546801,14.4416419090001,0
                100.355365464,14.4417011960001,0
                100.355363856,14.441702127,0
                100.355230038,14.4417617390001,0
                100.35490592,14.441836148,0
                100.354453283,14.4418923220001,0
                100.351935263,14.4422047960001,0
                100.351895248,14.442875304,0
                100.35188627,14.44366638,0
                100.351886188,14.4444351980001,0
                100.351879913,14.444569556,0
                100.351666445,14.4466532380001,0
                100.351562511,14.4487130410001,0
                100.351485563,14.4494040000001,0
                100.354028568,14.449867194,0
                100.35769589,14.4506915010001,0
                100.357803809,14.450701419,0
                100.358259095,14.4508038590001,0
                100.358901518,14.450957282,0
                100.358905684,14.4509582750001,0
                100.359526699,14.4511081580001,0
                100.360235266,14.451255374,0
                100.361172762,14.4514868540001,0
                100.36193782,14.4517098320001,0
                100.362425219,14.4518062020001,0
                100.363484073,14.451994142,0
                100.364600856,14.452246432,0
                100.365571313,14.4524521270001,0
                100.365766348,14.4525027460001,0
                100.366123158,14.4526253660001,0
                100.366512244,14.4527357540001,0
                100.366938066,14.4528053760001,0
                100.367082873,14.452822312,0
                100.367235923,14.4528402070001,0
                100.368038692,14.4529166790001,0
                100.368122519,14.452924667,0
                100.368463265,14.4529488200001,0
                100.368528908,14.452953473,0
                100.368585402,14.4529574800001,0
                100.369980102,14.453067855,0
                100.370836617,14.453120832,0
                100.371613547,14.453107694,0
                100.372050116,14.4532408600001,0
                100.372174963,14.4532557210001,0
                100.37243445,14.453254209,0
                100.372802581,14.4532242080001,0
              </coordinates>
                
            </LinearRing>
            
          </outerBoundaryIs>
        
        </Polygon>
        
      <styleUrl>
        #tambonStyle</styleUrl>
    </Placemark>

  </Document>
</kml>