<?xml version="1.0" encoding="UTF-8"?>
<kml xmlns="http://www.opengis.net/kml/2.2">
  <Document id="tambon_doc">
    <name>หน้าโคก, ผักไห่, Phra Nakhon Si Ayutthaya</name>
    <description>ข้อมูลขอบเขตตำบลหน้าโคก อำเภอผักไห่ จังหวัดPhra Nakhon Si Ayutthaya</description>
    
    <!-- Schema สำหรับข้อมูลตำบล -->
    <Schema id="tambon.schema">
      <SimpleField name="ADM3_EN" type="string">
        <displayName>Subdistrict Name (English)</displayName>
      </SimpleField>
      <SimpleField name="ADM3_TH" type="string">
        <displayName>ชื่อตำบล</displayName>
      </SimpleField>
      <SimpleField name="ADM2_EN" type="string">
        <displayName>District Name (English)</displayName>
      </SimpleField>
      <SimpleField name="ADM2_TH" type="string">
        <displayName>ชื่ออำเภอ</displayName>
      </SimpleField>
      <SimpleField name="ADM1_EN" type="string">
        <displayName>Province Name (English)</displayName>
      </SimpleField>
      <SimpleField name="ADM1_TH" type="string">
        <displayName>ชื่อจังหวัด</displayName>
      </SimpleField>
      <SimpleField name="ADM0_EN" type="string">
        <displayName>Country Name (English)</displayName>
      </SimpleField>
      <SimpleField name="ADM0_TH" type="string">
        <displayName>ชื่อประเทศ</displayName>
      </SimpleField>
    </Schema>

    <!-- Style สำหรับตำบล -->
    <Style id="tambonStyle">
      <LineStyle>
        <color>ffff0000</color>
        <width>1.5</width>
      </LineStyle>
      <PolyStyle>
        <color>33ff0000</color>
        <fill>1</fill>
        <outline>1</outline>
      </PolyStyle>
    </Style>

    <Placemark id="Phra_Nakhon_Si_Ayutthaya.132">
        
        <ExtendedData>
            
          <SchemaData schemaUrl="#tambon.schema">
                
            <SimpleData name="Shape_Leng">
                0.13362325162</SimpleData>
                
            <SimpleData name="Shape_Area">
                0.000724435949624</SimpleData>
                
            <SimpleData name="ADM3_EN">
                Na Khok</SimpleData>
                
            <SimpleData name="ADM3_TH">
                หน้าโคก</SimpleData>
                
            <SimpleData name="ADM3_PCODE">
                TH140815</SimpleData>
                
            <SimpleData name="ADM2_EN">
                Phak Hai</SimpleData>
                
            <SimpleData name="ADM2_TH">
                ผักไห่</SimpleData>
                
            <SimpleData name="ADM2_PCODE">
                TH1408</SimpleData>
                
            <SimpleData name="ADM1_EN">
                Phra Nakhon Si Ayutthaya</SimpleData>
                
            <SimpleData name="ADM1_TH">
                พระนครศรีอยุธยา</SimpleData>
                
            <SimpleData name="ADM1_PCODE">
                TH14</SimpleData>
                
            <SimpleData name="ADM0_EN">
                Thailand</SimpleData>
                
            <SimpleData name="ADM0_TH">
                ประเทศไทย</SimpleData>
                
            <SimpleData name="ADM0_PCODE">
                TH</SimpleData>
            
          </SchemaData>
        
        </ExtendedData>
        
        <Polygon>
            
          <outerBoundaryIs>
                
            <LinearRing>
                    
              <coordinates>
                    
                100.37637685,14.4978337800001,0
                100.376381705,14.497268466,0
                100.376382225,14.497207448,0
                100.376359887,14.496691658,0
                100.376353264,14.496621324,0
                100.376340681,14.496589231,0
                100.376319781,14.4965471310001,0
                100.375980154,14.496299966,0
                100.375948573,14.496253745,0
                100.375917037,14.4961793640001,0
                100.375899928,14.4960630210001,0
                100.37590697,14.495895938,0
                100.376006966,14.495098011,0
                100.376019033,14.495068448,0
                100.376046659,14.495036242,0
                100.376077852,14.495018122,0
                100.376082348,14.495015509,0
                100.376089507,14.495011345,0
                100.376206337,14.494988742,0
                100.376227621,14.494981405,0
                100.376263252,14.494957433,0
                100.376286474,14.494925156,0
                100.376298767,14.494896748,0
                100.37629914,14.4948823660001,0
                100.376308995,14.4945048010001,0
                100.376328049,14.494318236,0
                100.376342241,14.4941793580001,0
                100.376346373,14.494145781,0
                100.376358582,14.494112721,0
                100.376380084,14.4940836320001,0
                100.376382016,14.4940810260001,0
                100.376391323,14.4940739620001,0
                100.376402416,14.494065538,0
                100.37642559,14.4940519580001,0
                100.376483079,14.4940182440001,0
                100.37654807,14.493972931,0
                100.37656399,14.4939554210001,0
                100.376572033,14.4939432190001,0
                100.376576789,14.493934461,0
                100.376578732,14.4939277230001,0
                100.376611516,14.493514432,0
                100.376626337,14.493327671,0
                100.376683801,14.4930141360001,0
                100.376713136,14.4928360640001,0
                100.376724,14.4927936990001,0
                100.376729598,14.492781678,0
                100.376743971,14.4927631800001,0
                100.376810352,14.4927022430001,0
                100.37682551,14.4926818070001,0
                100.376835458,14.4926684010001,0
                100.376844101,14.4926403860001,0
                100.376845577,14.492618282,0
                100.376863416,14.492362852,0
                100.376874398,14.492324882,0
                100.37689595,14.492287769,0
                100.377102777,14.4919982960001,0
                100.37715892,14.4919287770001,0
                100.377207143,14.491886811,0
                100.377274444,14.491835597,0
                100.377385819,14.491767564,0
                100.378120251,14.491375034,0
                100.379211167,14.490742422,0
                100.379994786,14.4901371920001,0
                100.380673137,14.4895505330001,0
                100.380784252,14.489477327,0
                100.380825683,14.4894551570001,0
                100.380916534,14.489416303,0
                100.380994951,14.489395954,0
                100.381173655,14.4893726940001,0
                100.381328001,14.489358952,0
                100.382207332,14.4893021670001,0
                100.382330617,14.4892909980001,0
                100.38238041,14.489284782,0
                100.382432081,14.489264528,0
                100.382493387,14.4892404930001,0
                100.382515972,14.4892283190001,0
                100.382584163,14.4891793050001,0
                100.38272364,14.489087774,0
                100.382912146,14.488997215,0
                100.382935898,14.4889850440001,0
                100.383080473,14.4889368520001,0
                100.383438524,14.488817507,0
                100.383514305,14.4887812650001,0
                100.383542507,14.4887677790001,0
                100.383637342,14.488711042,0
                100.383680184,14.488671111,0
                100.38370827,14.4886388310001,0
                100.383708799,14.488637963,0
                100.383721857,14.4886164530001,0
                100.383734531,14.4885884130001,0
                100.383833532,14.488233699,0
                100.383858281,14.488186345,0
                100.383885041,14.4881609400001,0
                100.383936804,14.488120435,0
                100.384000036,14.488094339,0
                100.384084371,14.4880788890001,0
                100.384161568,14.4880765720001,0
                100.384244061,14.4880855320001,0
                100.384483429,14.488137872,0
                100.38471574,14.488203442,0
                100.384763398,14.4882141160001,0
                100.384820644,14.4882145990001,0
                100.384841012,14.4882147700001,0
                100.384920276,14.4882069060001,0
                100.385031436,14.488166307,0
                100.385363951,14.4880100080001,0
                100.385499957,14.487947874,0
                100.386092905,14.4876269870001,0
                100.386131775,14.487603956,0
                100.386189348,14.4875784490001,0
                100.386250103,14.487569281,0
                100.386367446,14.487562869,0
                100.386522285,14.4875923390001,0
                100.386603186,14.487623597,0
                100.387052402,14.487915994,0
                100.387789391,14.488302372,0
                100.388074632,14.4878729980001,0
                100.388168736,14.487745741,0
                100.388211619,14.4876877400001,0
                100.388358912,14.4874885610001,0
                100.388809029,14.4869403760001,0
                100.388813957,14.4869329840001,0
                100.388906521,14.4867663590001,0
                100.388963888,14.486600504,0
                100.388984288,14.4864658990001,0
                100.388980575,14.4862769330001,0
                100.388917907,14.4860369850001,0
                100.388732785,14.4856573870001,0
                100.388542276,14.4853901770001,0
                100.388493772,14.4853354250001,0
                100.388473994,14.485319351,0
                100.388384138,14.4852684370001,0
                100.388294469,14.4852234530001,0
                100.388167429,14.4851911000001,0
                100.388026598,14.4851775500001,0
                100.387757263,14.4851516250001,0
                100.387657344,14.4851275,0
                100.387564629,14.4850816060001,0
                100.387217129,14.484862546,0
                100.386993129,14.4847006040001,0
                100.386394993,14.4842681640001,0
                100.385208011,14.483194144,0
                100.3848992,14.482881627,0
                100.384248896,14.4820651050001,0
                100.383875947,14.4815612940001,0
                100.383605459,14.4813393110001,0
                100.38332097,14.4811058220001,0
                100.383165864,14.4810382260001,0
                100.382945897,14.4809617490001,0
                100.38285582,14.480930431,0
                100.382615231,14.480793378,0
                100.382258208,14.4805594310001,0
                100.381933474,14.4803512450001,0
                100.38146319,14.4801028050001,0
                100.381118116,14.479909075,0
                100.381044541,14.479867762,0
                100.380484715,14.479542209,0
                100.380258184,14.479372541,0
                100.380241207,14.479363762,0
                100.380069306,14.479306632,0
                100.379241903,14.479112146,0
                100.378776676,14.478953871,0
                100.378571442,14.47884774,0
                100.378366056,14.4787186070001,0
                100.378137309,14.4786279470001,0
                100.377963972,14.478590626,0
                100.377790872,14.478591641,0
                100.377610043,14.4786157030001,0
                100.377507942,14.4786469690001,0
                100.377214568,14.478830664,0
                100.377171291,14.478854143,0
                100.377093799,14.478896191,0
                100.376527192,14.479105057,0
                100.376322855,14.479144583,0
                100.376017541,14.47911973,0
                100.375994446,14.4791150510001,0
                100.375719891,14.4790594030001,0
                100.375503652,14.4790037060001,0
                100.375329985,14.478912721,0
                100.37506901,14.4786995800001,0
                100.374721575,14.478502271,0
                100.374328019,14.4782935050001,0
                100.374276383,14.4782661150001,0
                100.374192354,14.4781928250001,0
                100.374111384,14.47810845,0
                100.373817767,14.4776256220001,0
                100.373222241,14.477940828,0
                100.372116565,14.4784395900001,0
                100.371529401,14.4787008930001,0
                100.370175722,14.479303299,0
                100.369542399,14.4795803330001,0
                100.368813316,14.479899253,0
                100.365944133,14.481171923,0
                100.365170201,14.481547096,0
                100.364996761,14.4817043300001,0
                100.363896078,14.4809826260001,0
                100.363893698,14.4809816860001,0
                100.363340531,14.480897934,0
                100.362823857,14.480830204,0
                100.362560648,14.480826,0
                100.361353385,14.4810113880001,0
                100.35015069,14.481239809,0
                100.3425199,14.480226746,0
                100.342361078,14.4807011300001,0
                100.342265869,14.4809003820001,0
                100.342129734,14.481078188,0
                100.341906837,14.4813430950001,0
                100.341809498,14.4815046580001,0
                100.341742978,14.4816731940001,0
                100.341686665,14.481875791,0
                100.341563699,14.482224988,0
                100.3414507,14.4825668280001,0
                100.341433744,14.4826595440001,0
                100.341421857,14.4827619590001,0
                100.341410987,14.483034979,0
                100.341396036,14.483875848,0
                100.34138135,14.4843462910001,0
                100.341350197,14.4845731180001,0
                100.341311323,14.4847634330001,0
                100.341218379,14.485112467,0
                100.340957929,14.485893817,0
                100.340863671,14.4861582730001,0
                100.340710985,14.486216595,0
                100.340617079,14.4863014690001,0
                100.340133643,14.48730305,0
                100.339993891,14.4876669700001,0
                100.33990389,14.487901326,0
                100.339871988,14.488015816,0
                100.339743482,14.488476995,0
                100.339618082,14.488982913,0
                100.339598103,14.4890748170001,0
                100.33956337,14.489126841,0
                100.339525123,14.489154999,0
                100.339474529,14.489169915,0
                100.339214356,14.489206804,0
                100.339153657,14.4892467340001,0
                100.339100363,14.489445905,0
                100.339099885,14.4894477170001,0
                100.339099665,14.4894502870001,0
                100.339046697,14.4900704450001,0
                100.339102773,14.490982192,0
                100.339164273,14.4920172560001,0
                100.339166089,14.492047956,0
                100.339246967,14.4927034830001,0
                100.339126702,14.493203545,0
                100.339101093,14.4933100100001,0
                100.339049208,14.4934964620001,0
                100.339026574,14.493586941,0
                100.339030231,14.493644997,0
                100.339063616,14.4936899780001,0
                100.339243009,14.4937825270001,0
                100.339538337,14.493877647,0
                100.339773701,14.4939150320001,0
                100.340138081,14.493929081,0
                100.34079398,14.493954382,0
                100.34087685,14.493966814,0
                100.340939909,14.493989044,0
                100.340989799,14.4940242550001,0
                100.341026522,14.494072438,0
                100.341074124,14.494278679,0
                100.341114337,14.4943558850001,0
                100.341170862,14.4943942800001,0
                100.341316868,14.4944418480001,0
                100.34213239,14.494575942,0
                100.34268911,14.494630837,0
                100.343421375,14.494687958,0
                100.343624217,14.494718693,0
                100.343852298,14.494753254,0
                100.344336301,14.494831151,0
                100.344787142,14.494902784,0
                100.345105533,14.494978405,0
                100.345765686,14.4951585470001,0
                100.345838792,14.4952000760001,0
                100.345862183,14.495235429,0
                100.345865849,14.495293485,0
                100.345859557,14.4953483840001,0
                100.345706687,14.495810668,0
                100.345622047,14.49605316,0
                100.345602937,14.496179107,0
                100.345590198,14.496263077,0
                100.345567479,14.4963406430001,0
                100.345534753,14.49640536,0
                100.345482178,14.4964734220001,0
                100.345423106,14.4965641100001,0
                100.345350964,14.4966839160001,0
                100.34532843,14.4967905230001,0
                100.345325756,14.496897016,0
                100.345326399,14.497003491,0
                100.345343273,14.497055027,0
                100.345383206,14.497087062,0
                100.345459493,14.497105984,0
                100.345634921,14.497088852,0
                100.346157753,14.4970148640001,0
                100.346796357,14.4969176320001,0
                100.346869211,14.4969172140001,0
                100.346919025,14.496939518,0
                100.346952433,14.4969877190001,0
                100.346974563,14.497361889,0
                100.347018964,14.4975842740001,0
                100.347089192,14.4976968030001,0
                100.347239299,14.4978734110001,0
                100.347519087,14.498136394,0
                100.347608952,14.498210092,0
                100.347755217,14.4982996030001,0
                100.347871457,14.4983537890001,0
                100.348040943,14.4984012360001,0
                100.348365198,14.4984581750001,0
                100.348484298,14.49844425,0
                100.348508848,14.498436129,0
                100.348594561,14.498373111,0
                100.348626293,14.4983341940001,0
                100.348769951,14.4980722500001,0
                100.348769968,14.4980722230001,0
                100.348797016,14.498040942,0
                100.348871821,14.497985596,0
                100.348929595,14.497977222,0
                100.348978218,14.4979837760001,0
                100.349483587,14.498174055,0
                100.350028806,14.498370548,0
                100.350269482,14.4984448770001,0
                100.350382653,14.498464875,0
                100.350463877,14.4984609740001,0
                100.350510318,14.4984380110001,0
                100.350520238,14.4984331160001,0
                100.350583343,14.498353588,0
                100.350723201,14.498115297,0
                100.350792706,14.497925599,0
                100.350847994,14.4977222210001,0
                100.350893087,14.4975842870001,0
                100.350994364,14.4973909720001,0
                100.351057365,14.4972942310001,0
                100.351228982,14.49704888,0
                100.351478037,14.496758336,0
                100.351520263,14.4967305600001,0
                100.351569651,14.496719947,0
                100.351615611,14.496726569,0
                100.351665279,14.496760701,0
                100.351956281,14.4969793000001,0
                100.352311266,14.497262925,0
                100.352542259,14.4974887540001,0
                100.352687808,14.497604934,0
                100.35275156,14.4976321080001,0
                100.352815145,14.4976317410001,0
                100.352867941,14.4976004530001,0
                100.353211525,14.4971682550001,0
                100.353267772,14.497123184,0
                100.353324186,14.4971056540001,0
                100.353405501,14.497115514,0
                100.353550769,14.497186947,0
                100.354000736,14.497404628,0
                100.354199332,14.497530829,0
                100.354610931,14.4978278940001,0
                100.354951346,14.4980393180001,0
                100.355398097,14.498308637,0
                100.355827325,14.498598713,0
                100.35613965,14.49883784,0
                100.356398741,14.4990359600001,0
                100.356466584,14.499081604,0
                100.356496627,14.4990960220001,0
                100.35655693,14.499124964,0
                100.356620594,14.4991375020001,0
                100.356670886,14.4991294700001,0
                100.356726305,14.49909301,0
                100.35683149,14.4989633440001,0
                100.356894683,14.4988984400001,0
                100.356960562,14.4988386860001,0
                100.357055086,14.4987647560001,0
                100.357095344,14.498739727,0
                100.357227699,14.4986618720001,0
                100.357331846,14.4985924330001,0
                100.357430103,14.498484487,0
                100.357512262,14.498369386,0
                100.357570218,14.4982881820001,0
                100.357640384,14.4982079230001,0
                100.35776982,14.498116313,0
                100.358088028,14.4979272420001,0
                100.35822315,14.4978411070001,0
                100.358329904,14.4977358570001,0
                100.358413994,14.497622484,0
                100.358458911,14.497572658,0
                100.358503947,14.49754211,0
                100.358549057,14.4975253330001,0
                100.358605584,14.497525006,0
                100.358797736,14.4975211400001,0
                100.358933336,14.4975120930001,0
                100.359001078,14.497497939,0
                100.359108225,14.497458769,0
                100.359254881,14.4974083540001,0
                100.359333921,14.497394135,0
                100.359401763,14.4973964870001,0
                100.359486674,14.4974180290001,0
                100.359724626,14.4975075130001,0
                100.359973884,14.4975996860001,0
                100.36024568,14.4976807210001,0
                100.360871275,14.4978478030001,0
                100.361332625,14.4979607700001,0
                100.361590044,14.498000581,0
                100.361929458,14.498045425,0
                100.363455562,14.498209387,0
                100.365039937,14.49834243,0
                100.368137108,14.4986684420001,0
                100.368386552,14.4987164410001,0
                100.368573398,14.4987676550001,0
                100.368802635,14.4988213940001,0
                100.369096941,14.4988830070001,0
                100.369453341,14.49893324,0
                100.369823287,14.498983368,0
                100.369979432,14.4990045170001,0
                100.370183145,14.4990418780001,0
                100.370480336,14.499114481,0
                100.37068427,14.4991876350001,0
                100.370888356,14.4992855680001,0
                100.371157838,14.499449192,0
                100.371458772,14.4996704700001,0
                100.371682994,14.499826104,0
                100.371813347,14.499883163,0
                100.371915221,14.4999045920001,0
                100.372084836,14.4999118640001,0
                100.372678382,14.4999221570001,0
                100.373119367,14.4999388580001,0
                100.373532102,14.499958469,0
                100.374235036,14.5000069070001,0
                100.374223728,14.5002903340001,0
                100.374205103,14.500477674,0
                100.374183992,14.500566028,0
                100.374807842,14.499929024,0
                100.374845163,14.499890909,0
                100.375066402,14.499706584,0
                100.375753778,14.499133876,0
                100.376058907,14.498852717,0
                100.37611508,14.4987877880001,0
                100.376138311,14.4987509210001,0
                100.376161443,14.4987053850001,0
                100.376205997,14.498595849,0
                100.376314265,14.498166253,0
                100.37633932,14.498066877,0
                100.376366043,14.4979516450001,0
                100.376366481,14.4979492420001,0
                100.37637685,14.4978337800001,0
              </coordinates>
                
            </LinearRing>
            
          </outerBoundaryIs>
        
        </Polygon>
        
      <styleUrl>
        #tambonStyle</styleUrl>
    </Placemark>

  </Document>
</kml>