<?xml version="1.0" encoding="UTF-8"?>
<kml xmlns="http://www.opengis.net/kml/2.2">
  <Document id="tambon_doc">
    <name>บางน้ำผึ้ง, พระประแดง, Samut Prakan</name>
    <description>ข้อมูลขอบเขตตำบลบางน้ำผึ้ง อำเภอพระประแดง จังหวัดSamut Prakan</description>
    
    <!-- Schema สำหรับข้อมูลตำบล -->
    <Schema id="tambon.schema">
      <SimpleField name="ADM3_EN" type="string">
        <displayName>Subdistrict Name (English)</displayName>
      </SimpleField>
      <SimpleField name="ADM3_TH" type="string">
        <displayName>ชื่อตำบล</displayName>
      </SimpleField>
      <SimpleField name="ADM2_EN" type="string">
        <displayName>District Name (English)</displayName>
      </SimpleField>
      <SimpleField name="ADM2_TH" type="string">
        <displayName>ชื่ออำเภอ</displayName>
      </SimpleField>
      <SimpleField name="ADM1_EN" type="string">
        <displayName>Province Name (English)</displayName>
      </SimpleField>
      <SimpleField name="ADM1_TH" type="string">
        <displayName>ชื่อจังหวัด</displayName>
      </SimpleField>
      <SimpleField name="ADM0_EN" type="string">
        <displayName>Country Name (English)</displayName>
      </SimpleField>
      <SimpleField name="ADM0_TH" type="string">
        <displayName>ชื่อประเทศ</displayName>
      </SimpleField>
    </Schema>

    <!-- Style สำหรับตำบล -->
    <Style id="tambonStyle">
      <LineStyle>
        <color>ffff0000</color>
        <width>1.5</width>
      </LineStyle>
      <PolyStyle>
        <color>33ff0000</color>
        <fill>1</fill>
        <outline>1</outline>
      </PolyStyle>
    </Style>

    <Placemark id="Samut_Prakan.37">
        
        <ExtendedData>
            
          <SchemaData schemaUrl="#tambon.schema">
                
            <SimpleData name="Shape_Leng">
                0.0753081091731</SimpleData>
                
            <SimpleData name="Shape_Area">
                0.000312200762728</SimpleData>
                
            <SimpleData name="ADM3_EN">
                Bang Nam Phueng</SimpleData>
                
            <SimpleData name="ADM3_TH">
                บางน้ำผึ้ง</SimpleData>
                
            <SimpleData name="ADM3_PCODE">
                TH110410</SimpleData>
                
            <SimpleData name="ADM2_EN">
                Phra Pradaeng</SimpleData>
                
            <SimpleData name="ADM2_TH">
                พระประแดง</SimpleData>
                
            <SimpleData name="ADM2_PCODE">
                TH1104</SimpleData>
                
            <SimpleData name="ADM1_EN">
                Samut Prakan</SimpleData>
                
            <SimpleData name="ADM1_TH">
                สมุทรปราการ</SimpleData>
                
            <SimpleData name="ADM1_PCODE">
                TH11</SimpleData>
                
            <SimpleData name="ADM0_EN">
                Thailand</SimpleData>
                
            <SimpleData name="ADM0_TH">
                ประเทศไทย</SimpleData>
                
            <SimpleData name="ADM0_PCODE">
                TH</SimpleData>
            
          </SchemaData>
        
        </ExtendedData>
        
        <Polygon>
            
          <outerBoundaryIs>
                
            <LinearRing>
                    
              <coordinates>
                    
                100.588975775,13.6836871470001,0
                100.588861416,13.6832998680001,0
                100.588769839,13.683015013,0
                100.588737643,13.6829148640001,0
                100.588604778,13.682532446,0
                100.588456287,13.682135993,0
                100.588299572,13.6817424020001,0
                100.587980319,13.680995323,0
                100.587966535,13.680963068,0
                100.587608482,13.6801955810001,0
                100.587417853,13.679817875,0
                100.587216825,13.679445742,0
                100.586990272,13.679058141,0
                100.586752677,13.6786765410001,0
                100.586507163,13.6782993,0
                100.586000855,13.677553414,0
                100.585825364,13.677305749,0
                100.584957218,13.676080526,0
                100.584152797,13.6749913240001,0
                100.583326114,13.6739312350001,0
                100.581916634,13.67218874,0
                100.581054844,13.6711566060001,0
                100.580762183,13.670817077,0
                100.580173286,13.670155535,0
                100.579458378,13.669222685,0
                100.578720446,13.668259785,0
                100.575832929,13.667583951,0
                100.575636978,13.667530916,0
                100.575573824,13.667527336,0
                100.575502935,13.6675233170001,0
                100.575387531,13.667537338,0
                100.575328874,13.6675510700001,0
                100.575124725,13.6676352970001,0
                100.574933637,13.6677395580001,0
                100.574310695,13.668092012,0
                100.574133805,13.668205361,0
                100.57409986,13.6682308960001,0
                100.573933365,13.668363157,0
                100.573870305,13.668411474,0
                100.573806052,13.6684582120001,0
                100.573773368,13.6684808100001,0
                100.573737415,13.6685046440001,0
                100.573664367,13.6685507060001,0
                100.573404681,13.6687062190001,0
                100.573331035,13.668751372,0
                100.573258601,13.668798162,0
                100.573223133,13.668822571,0
                100.573187747,13.668848305,0
                100.573118468,13.668901809,0
                100.572948173,13.6690396390001,0
                100.572913823,13.6690668700001,0
                100.572850303,13.6691155070001,0
                100.572785632,13.669162613,0
                100.572752787,13.669185461,0
                100.572680791,13.6692327810001,0
                100.572607334,13.669277946,0
                100.572570106,13.669299745,0
                100.57253098,13.6693218820001,0
                100.572294465,13.6694519060001,0
                100.572216503,13.6694966430001,0
                100.572139671,13.669543108,0
                100.572102262,13.6695670280001,0
                100.572028403,13.669616331,0
                100.571809466,13.669768262,0
                100.571736026,13.6698181990001,0
                100.571661517,13.6698664890001,0
                100.571584637,13.6699127110001,0
                100.571467309,13.6699789300001,0
                100.571348701,13.670043096,0
                100.571230795,13.6701044920001,0
                100.571039083,13.6702016680001,0
                100.57096317,13.670241768,0
                100.57089421,13.67028077,0
                100.570832254,13.6703186980001,0
                100.57079864,13.67034047,0
                100.5707324,13.6703854850001,0
                100.57066728,13.6704320330001,0
                100.570603302,13.6704800260001,0
                100.570497508,13.6705619950001,0
                100.570401366,13.670633738,0
                100.570296615,13.67070784,0
                100.570085471,13.670853891,0
                100.570016005,13.670903703,0
                100.569953905,13.6709504950001,0
                100.569806793,13.671065072,0
                100.569741561,13.6711136820001,0
                100.569673927,13.6711617020001,0
                100.569389062,13.67135596,0
                100.569274937,13.671432182,0
                100.569200516,13.6714798790001,0
                100.568930784,13.671649851,0
                100.568857344,13.671697243,0
                100.568789861,13.6717436660001,0
                100.568655928,13.6718425760001,0
                100.568584422,13.6718930060001,0
                100.568547128,13.671917562,0
                100.568342796,13.672062339,0
                100.568290002,13.67212005,0
                100.568273144,13.672147039,0
                100.568261193,13.6721703370001,0
                100.568243593,13.6722361490001,0
                100.568236066,13.672281764,0
                100.568242116,13.6723495740001,0
                100.568246478,13.6723752130001,0
                100.568292135,13.672643443,0
                100.568293641,13.6726503030001,0
                100.568313456,13.672730116,0
                100.568324998,13.672772138,0
                100.568337145,13.672813981,0
                100.568362756,13.6728972240001,0
                100.56838976,13.672979947,0
                100.568417918,13.673061804,0
                100.56850561,13.6733059760001,0
                100.568580876,13.673508575,0
                100.568644111,13.673669298,0
                100.568790863,13.6740312530001,0
                100.568887733,13.6743022950001,0
                100.568928135,13.674427426,0
                100.568932285,13.674447598,0
                100.568932999,13.6744689080001,0
                100.568930308,13.6744958530001,0
                100.568925297,13.6745188850001,0
                100.568920808,13.6745340590001,0
                100.56890947,13.674554324,0
                100.568896963,13.6745717950001,0
                100.568885008,13.674585334,0
                100.568866173,13.6746000380001,0
                100.568748936,13.67467549,0
                100.568711465,13.674699337,0
                100.568672751,13.67472228,0
                100.56859302,13.674766263,0
                100.568511539,13.674808237,0
                100.568436426,13.6748446070001,0
                100.568360614,13.6748792920001,0
                100.568281633,13.674912916,0
                100.568199544,13.6749455290001,0
                100.568117105,13.6749769960001,0
                100.567993164,13.675022972,0
                100.567910341,13.6750528420001,0
                100.567787572,13.6750951450001,0
                100.567502358,13.6751893260001,0
                100.567379456,13.675230974,0
                100.567130763,13.6753191920001,0
                100.567006853,13.675364417,0
                100.566924554,13.675395323,0
                100.566801218,13.6754441740001,0
                100.566678308,13.675495164,0
                100.56622896,13.6756854010001,0
                100.56602531,13.6757732250001,0
                100.56591087,13.675824672,0
                100.565797035,13.675877444,0
                100.565705315,13.6759215920001,0
                100.565267486,13.676154678,0
                100.565133292,13.676225308,0
                100.56504415,13.6762733950001,0
                100.56539441,13.676969394,0
                100.565463195,13.677111903,0
                100.565644755,13.677488059,0
                100.565704131,13.6775767870001,0
                100.565752294,13.6776090880001,0
                100.565842736,13.677644894,0
                100.566227808,13.6778212940001,0
                100.567565552,13.6786963960001,0
                100.567913534,13.678884028,0
                100.568517289,13.6792206010001,0
                100.568676448,13.6792896750001,0
                100.568915286,13.6794083020001,0
                100.569092394,13.6794822680001,0
                100.569573094,13.6797895830001,0
                100.569642551,13.6798417040001,0
                100.56977387,13.679958508,0
                100.569884612,13.6800604260001,0
                100.569992812,13.680164862,0
                100.57005243,13.680277115,0
                100.570172013,13.680554181,0
                100.57040023,13.681068657,0
                100.570613767,13.68155004,0
                100.570639596,13.6815849170001,0
                100.570690822,13.6815895980001,0
                100.57076751,13.681574094,0
                100.571219739,13.6814422630001,0
                100.571440708,13.681433143,0
                100.571522707,13.6814540780001,0
                100.571578644,13.6815329140001,0
                100.571613628,13.6816660650001,0
                100.571762918,13.682323651,0
                100.571981819,13.683193358,0
                100.572025854,13.6834056430001,0
                100.572008998,13.6834349260001,0
                100.571938115,13.683471202,0
                100.571949598,13.6834691980001,0
                100.57198354,13.683598497,0
                100.571995266,13.6836684040001,0
                100.571997364,13.683698941,0
                100.572000726,13.6837959860001,0
                100.572003654,13.683827658,0
                100.572035705,13.68401184,0
                100.572046973,13.6840702820001,0
                100.572121593,13.6843853890001,0
                100.572129114,13.6844261210001,0
                100.572149611,13.684599448,0
                100.573077362,13.6846100700001,0
                100.573207771,13.6846092600001,0
                100.573288373,13.6846087590001,0
                100.57341328,13.684613923,0
                100.573578465,13.6846260130001,0
                100.573701389,13.6846346180001,0
                100.573828216,13.6846525830001,0
                100.573914778,13.6846783140001,0
                100.57396873,13.6847080060001,0
                100.574020813,13.684745218,0
                100.574061439,13.68479189,0
                100.574092492,13.6848423760001,0
                100.574100508,13.6848930090001,0
                100.574124405,13.6850223820001,0
                100.574132534,13.6850899090001,0
                100.57415203,13.685134837,0
                100.574186823,13.685170283,0
                100.574280193,13.6852213720001,0
                100.574380746,13.685252275,0
                100.576259485,13.68613264,0
                100.576264279,13.68613306,0
                100.576277257,13.686136499,0
                100.576306039,13.686145794,0
                100.576392537,13.686177544,0
                100.576557071,13.6862430800001,0
                100.576704455,13.686304824,0
                100.57767109,13.686718378,0
                100.577880956,13.686808855,0
                100.57800622,13.686864524,0
                100.578268961,13.6869867070001,0
                100.578509792,13.6870941350001,0
                100.578597311,13.687136964,0
                100.57867204,13.687177121,0
                100.578898461,13.687306904,0
                100.579018026,13.6873734480001,0
                100.579092494,13.6874124660001,0
                100.579391835,13.6875655640001,0
                100.579542085,13.687640936,0
                100.579893393,13.68780839,0
                100.580299835,13.688004037,0
                100.580463038,13.68808096,0
                100.580544399,13.6881176320001,0
                100.580625373,13.688152829,0
                100.581011317,13.6883153630001,0
                100.581087796,13.688349336,0
                100.581201733,13.6884019460001,0
                100.581277061,13.6884382910001,0
                100.581354883,13.688477559,0
                100.581740665,13.688680402,0
                100.581857144,13.6887397090001,0
                100.581934037,13.6887767260001,0
                100.58204763,13.688829652,0
                100.582230848,13.6889171930001,0
                100.582390404,13.6889892030001,0
                100.58243093,13.689008503,0
                100.58246759,13.689027159,0
                100.582543608,13.689067933,0
                100.582860474,13.689242542,0
                100.583019106,13.6893268150001,0
                100.583895202,13.6897782520001,0
                100.584014952,13.689839217,0
                100.58409516,13.689879105,0
                100.584176002,13.689917667,0
                100.584217116,13.689936345,0
                100.584341547,13.689990129,0
                100.584508566,13.6900595560001,0
                100.585052533,13.6902828730001,0
                100.585219461,13.690352596,0
                100.585340718,13.690405992,0
                100.585454869,13.6904598420001,0
                100.585567546,13.690516507,0
                100.585645407,13.690558616,0
                100.585760398,13.6906247090001,0
                100.585835613,13.690670809,0
                100.585872532,13.6906947690001,0
                100.585908776,13.690719614,0
                100.586057159,13.6908298810001,0
                100.586169492,13.6909077510001,0
                100.586258394,13.6909676290001,0
                100.586330247,13.691014683,0
                100.586372206,13.6910397930001,0
                100.587775546,13.691532501,0
                100.58787719,13.6915681840001,0
                100.588080674,13.691194877,0
                100.588272532,13.6908158790001,0
                100.588451153,13.690431099,0
                100.588613627,13.6900399100001,0
                100.588754267,13.6896505550001,0
                100.588878974,13.68925569,0
                100.588990022,13.688856614,0
                100.589088405,13.6884542620001,0
                100.589173879,13.6880492710001,0
                100.589244911,13.6876420240001,0
                100.589295043,13.687271536,0
                100.589331676,13.686899983,0
                100.589354489,13.686527922,0
                100.589362151,13.6861558640001,0
                100.589352256,13.685784315,0
                100.589314913,13.6853436540001,0
                100.589253223,13.684904794,0
                100.589170518,13.684468225,0
                100.589079536,13.684076583,0
                100.588975775,13.6836871470001,0
              </coordinates>
                
            </LinearRing>
            
          </outerBoundaryIs>
        
        </Polygon>
        
      <styleUrl>
        #tambonStyle</styleUrl>
    </Placemark>

  </Document>
</kml>